{"version": 0.6, "generator": "Overpass API 0.7.62.8 e802775f", "osm3s": {"timestamp_osm_base": "2025-08-21T21:01:53Z", "copyright": "The data included in this document is from www.openstreetmap.org. The data is made available under ODbL."}, "elements": [{"type": "node", "id": 29949467, "lat": 52.50238, "lon": 13.2887871}, {"type": "node", "id": 29949468, "lat": 52.5024204, "lon": 13.288675}, {"type": "node", "id": 32531345, "lat": 52.4966447, "lon": 13.3000244}, {"type": "node", "id": 32531346, "lat": 52.4965807, "lon": 13.3013751}, {"type": "node", "id": 32531347, "lat": 52.4950982, "lon": 13.3011833}, {"type": "node", "id": 32531348, "lat": 52.4952541, "lon": 13.2998457}, {"type": "node", "id": 47720573, "lat": 52.501489, "lon": 13.2894611}, {"type": "node", "id": 63253646, "lat": 52.4983826, "lon": 13.2969979, "tags": {"addr:city": "Berlin", "addr:country": "DE", "addr:housenumber": "100", "addr:postcode": "10709", "addr:street": "Kurf\u00fcrstendamm", "addr:suburb": "Halensee", "amenity": "restaurant", "cuisine": "german", "indoor_seating": "yes", "name": "Haus der 100 Biere", "opening_hours": "Mo-Su 11:00-00:00", "outdoor_seating": "yes", "phone": "+49 30 25092901", "toilets:wheelchair": "yes", "website": "https://100biere.de/", "wheelchair": "yes"}}, {"type": "node", "id": 63253652, "lat": 52.4985867, "lon": 13.2982491, "tags": {"addr:city": "Berlin", "addr:country": "DE", "addr:housenumber": "97-98", "addr:postcode": "10709", "addr:street": "Kurf\u00fcrstendamm", "addr:suburb": "Halensee", "amenity": "restaurant", "cuisine": "greek", "indoor_seating": "yes", "internet_access": "wlan", "name": "Ach!NikO!Ach!", "opening_hours": "Mo-Su 12:00-24:00", "outdoor_seating": "yes", "wheelchair": "no"}}, {"type": "node", "id": 63253660, "lat": 52.5009791, "lon": 13.2976442, "tags": {"addr:city": "Berlin", "addr:country": "DE", "addr:housenumber": "31", "addr:postcode": "10711", "addr:street": "Damaschkestra\u00dfe", "addr:suburb": "Halensee", "amenity": "restaurant", "check_date:opening_hours": "2024-07-06", "contact:phone": "+49 30 31809777", "contact:website": "https://www.ristorantesalveberlin.de/", "cuisine": "pizza", "diet:vegan": "no", "diet:vegetarian": "yes", "name": "Ristorante Salve", "opening_hours": "Tu-Su 16:00-22:00; Mo off", "wheelchair": "limited"}}, {"type": "node", "id": 110497660, "lat": 52.4943679, "lon": 13.2891024}, {"type": "node", "id": 110497675, "lat": 52.4944873, "lon": 13.2897251}, {"type": "node", "id": 110497680, "lat": 52.4943302, "lon": 13.2899117}, {"type": "node", "id": 110497684, "lat": 52.4942977, "lon": 13.2899442}, {"type": "node", "id": 267287863, "lat": 52.494364, "lon": 13.2891449}, {"type": "node", "id": 268915391, "lat": 52.496684, "lon": 13.2957982, "tags": {"addr:city": "Berlin", "addr:country": "DE", "addr:housenumber": "48", "addr:postcode": "10711", "addr:street": "Joachim-Friedrich-Stra\u00dfe", "addr:suburb": "Halensee", "amenity": "kindergarten", "name": "EKT - Georg-Wilhelm-Kindergruppe e.V.", "note": "EKT - Georg-Wilhelm-Kindergruppe e.V."}}, {"type": "node", "id": 268916037, "lat": 52.4980486, "lon": 13.2888939, "tags": {"addr:city": "Berlin", "addr:country": "DE", "addr:housenumber": "13", "addr:postcode": "10711", "addr:street": "Ringbahnstra\u00dfe", "addr:suburb": "Halensee", "amenity": "kindergarten", "name": "Wir um vier", "operator": "Wir um vier e.V.", "wheelchair": "no"}}, {"type": "node", "id": 268916076, "lat": 52.4957073, "lon": 13.2988172, "tags": {"addr:city": "Berlin", "addr:country": "DE", "addr:housenumber": "26", "addr:postcode": "10709", "addr:street": "Johann-Georg-Stra\u00dfe", "addr:suburb": "Halensee", "amenity": "kindergarten", "check_date": "2024-09-15", "contact:phone": "+49 30 89569229", "name": "Kita Beerenkinder"}}, {"type": "node", "id": 268916279, "lat": 52.4968433, "lon": 13.2979963, "tags": {"addr:city": "Berlin", "addr:country": "DE", "addr:housenumber": "8", "addr:postcode": "10709", "addr:street": "Johann-Georg-Stra\u00dfe", "addr:suburb": "Halensee", "amenity": "kindergarten", "check_date": "2024-09-15", "contact:phone": "+49 30 89069400", "name": "Kita der Kath. Kirchengem. St. Albertus-Magnus"}}, {"type": "node", "id": 268918089, "lat": 52.4948096, "lon": 13.2976432, "tags": {"addr:city": "Berlin", "addr:country": "DE", "addr:housenumber": "3", "addr:postcode": "10709", "addr:street": "Schweidnitzer Stra\u00dfe", "addr:suburb": "Halensee", "amenity": "kindergarten", "name": "Waldorfkindergarten Tomte e.V.", "note": "Waldorfkindergarten Tomte e.V."}}, {"type": "node", "id": 268977847, "lat": 52.4979888, "lon": 13.2944721, "tags": {"addr:city": "Berlin", "addr:country": "DE", "addr:housenumber": "105", "addr:postcode": "10711", "addr:street": "Kurf\u00fcrstendamm", "addr:suburb": "Halensee", "amenity": "restaurant", "contact:phone": "+49308911305", "contact:website": "http://www.eiffel-berlin.de/", "cuisine": "french;mediterranean", "name": "Eiffel", "opening_hours": "Mo-Su 09:00-23:00", "toilets:wheelchair": "yes", "wheelchair": "yes"}}, {"type": "node", "id": 270226575, "lat": 52.4983988, "lon": 13.2905907}, {"type": "node", "id": 270226576, "lat": 52.4983898, "lon": 13.2907764}, {"type": "node", "id": 270226857, "lat": 52.4987394, "lon": 13.2912103}, {"type": "node", "id": 270226862, "lat": 52.4987316, "lon": 13.291386}, {"type": "node", "id": 274502181, "lat": 52.5001799, "lon": 13.2950892}, {"type": "node", "id": 292454369, "lat": 52.4987676, "lon": 13.2906377}, {"type": "node", "id": 292454373, "lat": 52.4987543, "lon": 13.2909297}, {"type": "node", "id": 312382422, "lat": 52.4953833, "lon": 13.3010188}, {"type": "node", "id": 312382423, "lat": 52.4954306, "lon": 13.3000744}, {"type": "node", "id": 312382424, "lat": 52.495354, "lon": 13.3000344}, {"type": "node", "id": 312382426, "lat": 52.495189, "lon": 13.3001075}, {"type": "node", "id": 312382427, "lat": 52.4951463, "lon": 13.3002596}, {"type": "node", "id": 312382428, "lat": 52.4950934, "lon": 13.300447}, {"type": "node", "id": 312382429, "lat": 52.4950952, "lon": 13.3007531}, {"type": "node", "id": 312382430, "lat": 52.4951923, "lon": 13.3009946}, {"type": "node", "id": 312382431, "lat": 52.4952564, "lon": 13.3010471}, {"type": "node", "id": 316533474, "lat": 52.497907, "lon": 13.2973176, "tags": {"addr:city": "Berlin", "addr:country": "DE", "addr:housenumber": "142", "addr:postcode": "10709", "addr:street": "Kurf\u00fcrstendamm", "addr:suburb": "Halensee", "amenity": "pharmacy", "contact:website": "http://www.waage-apotheke.de", "dispensing": "yes", "healthcare": "pharmacy", "name": "Waage Apotheke", "opening_hours": "Mo-Fr 08:30-20:00; Sa 08:30-19:00", "source": "survey", "wheelchair": "yes"}}, {"type": "node", "id": 387842300, "lat": 52.4987072, "lon": 13.2987243, "tags": {"addr:city": "Berlin", "addr:country": "DE", "addr:housenumber": "96", "addr:postcode": "10709", "addr:street": "Kurf\u00fcrstendamm", "addr:suburb": "Halensee", "amenity": "restaurant", "name": "Tugra"}}, {"type": "node", "id": 393409421, "lat": 52.4977192, "lon": 13.2927797, "tags": {"addr:city": "Berlin", "addr:country": "DE", "addr:housenumber": "110", "addr:postcode": "10711", "addr:street": "Kurf\u00fcrstendamm", "addr:suburb": "Halensee", "amenity": "pharmacy", "brand": "easyApotheke", "brand:wikidata": "Q110987931", "check_date:opening_hours": "2024-07-05", "dispensing": "yes", "healthcare": "pharmacy", "name": "easyApotheke", "opening_hours": "Mo-Fr 08:30-19:00; Sa 09:00-16:00", "wheelchair": "yes"}}, {"type": "node", "id": 393409422, "lat": 52.4976209, "lon": 13.2956562, "tags": {"addr:city": "Berlin", "addr:country": "DE", "addr:housenumber": "139", "addr:postcode": "10711", "addr:street": "Kurf\u00fcrstendamm", "addr:suburb": "Halensee", "amenity": "pharmacy", "dispensing": "yes", "healthcare": "pharmacy", "name": "Sky Apotheke am Kudamm", "opening_hours": "Mo-Fr 08:00-19:00; Sa 08:00-13:00", "wheelchair": "yes"}}, {"type": "node", "id": 406678484, "lat": 52.4992112, "lon": 13.3016415, "tags": {"addr:city": "Berlin", "addr:country": "DE", "addr:housenumber": "90", "addr:postcode": "10709", "addr:street": "Kurf\u00fcrstendamm", "addr:suburb": "Halensee", "amenity": "restaurant", "contact:email": "info@francucci.com", "contact:fax": "+49 30 32764795", "contact:phone": "+49 30 3233318", "contact:website": "http://www.francucci.com/", "cuisine": "italian", "indoor_seating": "yes", "name": "Francucci\u2019s Ristorante", "note": "Gepr\u00fcft am 25./26. Dez 2015", "opening_hours": "Mo-Su 12:00-24:00", "operator": "Francucci\u2019s Ristorante GmbH", "outdoor_seating": "yes", "wheelchair": "limited"}}, {"type": "node", "id": 409760012, "lat": 52.4987137, "lon": 13.2917339}, {"type": "node", "id": 409760015, "lat": 52.4957099, "lon": 13.2976849, "tags": {"addr:city": "Berlin", "addr:country": "DE", "addr:postcode": "10709", "addr:street": "Westf\u00e4lische Stra\u00dfe", "amenity": "pharmacy", "check_date:opening_hours": "2024-06-02", "dispensing": "yes", "healthcare": "pharmacy", "name": "Apotheke am Hochmeisterplatz", "opening_hours": "Mo,Tu,Th,Fr 09:00-18:30; We 09:00-14:00; Sa 09:00-13:30", "wheelchair": "yes"}}, {"type": "node", "id": 410527904, "lat": 52.5024364, "lon": 13.2888313}, {"type": "node", "id": 410527941, "lat": 52.502512, "lon": 13.2896252}, {"type": "node", "id": 410527946, "lat": 52.5024771, "lon": 13.2892452}, {"type": "node", "id": 444606378, "lat": 52.4976167, "lon": 13.296843}, {"type": "node", "id": 444722765, "lat": 52.4988369, "lon": 13.2994295, "tags": {"addr:city": "Berlin", "addr:country": "DE", "addr:housenumber": "94-95", "addr:postcode": "10709", "addr:street": "Kurf\u00fcrstendamm", "addr:suburb": "Halensee", "amenity": "restaurant", "cuisine": "italian", "diet:vegetarian": "yes", "indoor_seating": "yes", "name": "Piazza Br\u00e0", "opening_hours": "Mo-Su,PH 12:00-24:00", "outdoor_seating": "yes", "toilets:wheelchair": "yes", "wheelchair": "yes"}}, {"type": "node", "id": 512422348, "lat": 52.5025281, "lon": 13.2898004}, {"type": "node", "id": 512422350, "lat": 52.502645, "lon": 13.2906606}, {"type": "node", "id": 512422389, "lat": 52.5033023, "lon": 13.2953073}, {"type": "node", "id": 540029251, "lat": 52.4999877, "lon": 13.2885306}, {"type": "node", "id": 540029252, "lat": 52.5001953, "lon": 13.2882524}, {"type": "node", "id": 540029261, "lat": 52.5001679, "lon": 13.2889816}, {"type": "node", "id": 540029266, "lat": 52.500391, "lon": 13.2888892}, {"type": "node", "id": 540029268, "lat": 52.5003465, "lon": 13.2889285}, {"type": "node", "id": 540029269, "lat": 52.5003225, "lon": 13.2888541}, {"type": "node", "id": 540029270, "lat": 52.5009954, "lon": 13.2919865}, {"type": "node", "id": 540029271, "lat": 52.5012333, "lon": 13.2917919}, {"type": "node", "id": 540029274, "lat": 52.5010963, "lon": 13.2923182}, {"type": "node", "id": 540029275, "lat": 52.5011994, "lon": 13.2925069}, {"type": "node", "id": 540029277, "lat": 52.5011316, "lon": 13.2922904}, {"type": "node", "id": 540029279, "lat": 52.501422, "lon": 13.2923992}, {"type": "node", "id": 540029280, "lat": 52.5013496, "lon": 13.2924608}, {"type": "node", "id": 540029281, "lat": 52.5013306, "lon": 13.2924008}, {"type": "node", "id": 540049655, "lat": 52.5012076, "lon": 13.2918121}, {"type": "node", "id": 548031129, "lat": 52.5011436, "lon": 13.2901368}, {"type": "node", "id": 617342493, "lat": 52.5006544, "lon": 13.2968487, "tags": {"addr:city": "Berlin", "addr:country": "DE", "addr:housenumber": "27", "addr:postcode": "10711", "addr:street": "Joachim-Friedrich-Stra\u00dfe", "addr:suburb": "Halensee", "amenity": "cafe", "name": "Was Gesundes", "opening_hours": "Mo-Fr 07:30-17:00; Sa 09:00-16:00", "wheelchair": "no"}}, {"type": "node", "id": 695831701, "lat": 52.4974558, "lon": 13.2959074, "tags": {"addr:city": "Berlin", "addr:country": "DE", "addr:housenumber": "45", "addr:postcode": "10711", "addr:street": "Joachim-Friedrich-Stra\u00dfe", "addr:suburb": "Halensee", "amenity": "cafe", "diet:vegetarian": "yes", "name": "Tre Terre", "opening_hours": "Mo-Fr 09:00-16:00", "shop": "deli", "wheelchair": "limited"}}, {"type": "node", "id": 718143864, "lat": 52.5006731, "lon": 13.2963304, "tags": {"addr:city": "Berlin", "addr:country": "DE", "addr:housenumber": "33", "addr:postcode": "10711", "addr:street": "Joachim-Friedrich-Stra\u00dfe", "addr:suburb": "Halensee", "air_conditioning": "yes", "amenity": "restaurant", "cuisine": "vietnamese;sushi", "diet:vegan": "yes", "diet:vegetarian": "yes", "name": "MiNa Restaurant", "opening_hours": "Sa-Su 12:00-23:00", "phone": "+49 30 99278686", "smoking": "outside", "website": "https://mina-kitchen.de/", "wheelchair": "no"}}, {"type": "node", "id": 898983650, "lat": 52.4972653, "lon": 13.2932442, "tags": {"addr:city": "Berlin", "addr:country": "DE", "addr:housenumber": "133/134", "addr:postcode": "10711", "addr:street": "Kurf\u00fcrstendamm", "addr:suburb": "Halensee", "amenity": "nightclub", "contact:website": "http://night-lounge.net/", "name": "K133 Night Lounge", "wheelchair": "no"}}, {"type": "node", "id": 971029221, "lat": 52.4971532, "lon": 13.2924327, "tags": {"addr:city": "Berlin", "addr:country": "DE", "addr:housenumber": "131", "addr:postcode": "10711", "addr:street": "Kurf\u00fcrstendamm", "addr:suburb": "Halensee", "amenity": "restaurant", "check_date:opening_hours": "2024-09-15", "contact:facebook": "NAM-KIO-370229806799629", "cuisine": "asian", "indoor_seating": "yes", "name": "Nam Kio", "opening_hours": "Mo-Fr 11:30-22:30; Sa,Su 12:00-22:30", "outdoor_seating": "yes", "phone": "+493086207809", "website": "https://namkio.site123.me", "wheelchair": "limited"}}, {"type": "node", "id": 1021936486, "lat": 52.4981647, "lon": 13.2916563}, {"type": "node", "id": 1027109965, "lat": 52.4983751, "lon": 13.2910711}, {"type": "node", "id": 1027109978, "lat": 52.4981882, "lon": 13.2910465}, {"type": "node", "id": 1072761515, "lat": 52.4970458, "lon": 13.2853278, "tags": {"addr:city": "Berlin", "addr:country": "DE", "addr:housenumber": "18", "addr:postcode": "10711", "addr:street": "Kronprinzendamm", "addr:suburb": "Halensee", "amenity": "restaurant", "cuisine": "german", "name": "Nordwind", "opening_hours": "Mo-Fr 12:00-23:00; Sa,Su off", "website": "http://www.nordwind-berlin.de/", "wheelchair": "limited"}}, {"type": "node", "id": 1166466401, "lat": 52.497652, "lon": 13.2966662}, {"type": "node", "id": 1166466404, "lat": 52.4975998, "lon": 13.2968074}, {"type": "node", "id": 1166466407, "lat": 52.4976711, "lon": 13.2965007}, {"type": "node", "id": 1166466412, "lat": 52.4976722, "lon": 13.296403}, {"type": "node", "id": 1166466416, "lat": 52.4977633, "lon": 13.2964134}, {"type": "node", "id": 1166466426, "lat": 52.4977994, "lon": 13.2966147}, {"type": "node", "id": 1270806828, "lat": 52.4950121, "lon": 13.2859409}, {"type": "node", "id": 1270806906, "lat": 52.495248, "lon": 13.2860656}, {"type": "node", "id": 1270806918, "lat": 52.4956427, "lon": 13.2866986}, {"type": "node", "id": 1270806924, "lat": 52.4956781, "lon": 13.286654}, {"type": "node", "id": 1270806930, "lat": 52.4954683, "lon": 13.2863511}, {"type": "node", "id": 1270806937, "lat": 52.4955115, "lon": 13.2863271}, {"type": "node", "id": 1270806939, "lat": 52.4950908, "lon": 13.2857765}, {"type": "node", "id": 1271867424, "lat": 52.4944808, "lon": 13.3013483, "tags": {"amenity": "bar", "check_date": "2023-07-02", "name": "Amigo"}}, {"type": "node", "id": 1366594164, "lat": 52.4997537, "lon": 13.296229}, {"type": "node", "id": 1366594182, "lat": 52.4997997, "lon": 13.295274}, {"type": "node", "id": 1366594187, "lat": 52.4998132, "lon": 13.2950386}, {"type": "node", "id": 1366594207, "lat": 52.5003413, "lon": 13.2951086}, {"type": "node", "id": 1366594227, "lat": 52.5003281, "lon": 13.2963038}, {"type": "node", "id": 1366594233, "lat": 52.5003603, "lon": 13.2956758}, {"type": "node", "id": 1366594238, "lat": 52.5007612, "lon": 13.2957331}, {"type": "node", "id": 1366637246, "lat": 52.5003507, "lon": 13.2958559}, {"type": "node", "id": 1366637267, "lat": 52.5005986, "lon": 13.29515}, {"type": "node", "id": 1366637272, "lat": 52.5006532, "lon": 13.2951557}, {"type": "node", "id": 1366637278, "lat": 52.5007661, "lon": 13.2956293}, {"type": "node", "id": 1366637282, "lat": 52.5007786, "lon": 13.2953135}, {"type": "node", "id": 1366637283, "lat": 52.500783, "lon": 13.2952213}, {"type": "node", "id": 1366693664, "lat": 52.4979205, "lon": 13.2926578, "tags": {"addr:city": "Berlin", "addr:country": "DE", "addr:housenumber": "110", "addr:postcode": "10711", "addr:street": "Kurf\u00fcrstendamm", "amenity": "bar", "email": "info@bar-atelier.de", "name": "Atelier", "opening_hours": "Mo-Th 17:00-03:00, Fr,Sa 17:00-05:00, Su 18:00-03:00", "phone": "+49 30 8925946", "start_date": "2000", "website": "http://www.bar-atelier.de/"}}, {"type": "node", "id": 1493295635, "lat": 52.5026068, "lon": 13.2903698}, {"type": "node", "id": 1763688891, "lat": 52.4945009, "lon": 13.3012585, "tags": {"addr:city": "Berlin", "addr:country": "DE", "addr:housenumber": "72a", "addr:postcode": "10709", "addr:street": "Westf\u00e4lische Stra\u00dfe", "addr:suburb": "Halensee", "amenity": "restaurant", "name": "Aarna Devi"}}, {"type": "node", "id": 1862881461, "lat": 52.4955276, "lon": 13.2985304, "tags": {"addr:city": "Berlin", "addr:country": "DE", "addr:housenumber": "27a", "addr:postcode": "10709", "addr:street": "Westf\u00e4lische Stra\u00dfe", "addr:suburb": "Halensee", "amenity": "cafe", "contact:phone": "+49 30 8915560", "contact:website": "http://www.credo-cafe-bistro.de/", "diet:vegetarian": "yes", "name": "Credo", "opening_hours": "Mo-Fr 09:00-16:00; Sa 10:00-15:00", "outdoor_seating": "yes", "wheelchair": "limited"}}, {"type": "node", "id": 1862881504, "lat": 52.4955191, "lon": 13.29958}, {"type": "node", "id": 1862881506, "lat": 52.495699, "lon": 13.2993439}, {"type": "node", "id": 1862881507, "lat": 52.4957475, "lon": 13.2996181}, {"type": "node", "id": 1888655264, "lat": 52.4941082, "lon": 13.300562, "tags": {"access": "private", "leisure": "playground"}}, {"type": "node", "id": 2172242128, "lat": 52.5003018, "lon": 13.2997066, "tags": {"addr:city": "Berlin", "addr:country": "DE", "addr:postcode": "10711", "addr:street": "Damaschkestra\u00dfe", "amenity": "restaurant", "check_date:opening_hours": "2023-04-10", "cuisine": "vietnamese", "diet:vegetarian": "yes", "name": "Sumi", "opening_hours": "Mo-Sa 12:00-22:30", "wheelchair": "yes"}}, {"type": "node", "id": 2178639629, "lat": 52.5023159, "lon": 13.291357}, {"type": "node", "id": 2178639633, "lat": 52.5024055, "lon": 13.2946122}, {"type": "node", "id": 2178639641, "lat": 52.5024296, "lon": 13.2918915}, {"type": "node", "id": 2178639644, "lat": 52.502557, "lon": 13.2926042}, {"type": "node", "id": 2178639648, "lat": 52.502674, "lon": 13.2944086}, {"type": "node", "id": 2178639652, "lat": 52.5027736, "lon": 13.2940588}, {"type": "node", "id": 2178641056, "lat": 52.5023875, "lon": 13.2896963}, {"type": "node", "id": 2178641057, "lat": 52.5024209, "lon": 13.2900474}, {"type": "node", "id": 2178641058, "lat": 52.5025397, "lon": 13.2909376}, {"type": "node", "id": 2178641059, "lat": 52.5025863, "lon": 13.2910647}, {"type": "node", "id": 2178641060, "lat": 52.5026153, "lon": 13.2914491}, {"type": "node", "id": 2178641061, "lat": 52.5026188, "lon": 13.291293}, {"type": "node", "id": 2178641062, "lat": 52.5029214, "lon": 13.2934837}, {"type": "node", "id": 2178641063, "lat": 52.502976, "lon": 13.2936585}, {"type": "node", "id": 2178641064, "lat": 52.5032513, "lon": 13.2953665}, {"type": "node", "id": 2325904324, "lat": 52.4996078, "lon": 13.3017208, "tags": {"addr:city": "Berlin", "addr:country": "DE", "addr:housenumber": "2", "addr:postcode": "10709", "addr:street": "Lehniner Platz", "addr:suburb": "Halensee", "amenity": "restaurant", "contact:phone": "+49 30 31806968", "cuisine": "italian", "name": "Locanda", "note": "Gepr\u00fcft am 25./26. Dez 2015", "opening_hours": "Mo-Sa 10:00-23:30"}}, {"type": "node", "id": 2344650938, "lat": 52.5014543, "lon": 13.2944531}, {"type": "node", "id": 2344650939, "lat": 52.5015094, "lon": 13.2942747}, {"type": "node", "id": 2344650940, "lat": 52.5015531, "lon": 13.2944651}, {"type": "node", "id": 2344650941, "lat": 52.5015726, "lon": 13.2944291}, {"type": "node", "id": 2391234910, "lat": 52.496275, "lon": 13.2935112, "tags": {"addr:city": "Berlin", "addr:country": "DE", "addr:housenumber": "54", "addr:postcode": "10711", "addr:street": "Westf\u00e4lische Stra\u00dfe", "amenity": "cafe", "contact:email": "info.lou.cafe@gmail.com", "contact:phone": "+49 30 86397266", "contact:website": "http://www.lou-cafe.de", "indoor_seating": "yes", "name": "Lou", "opening_hours": "Mo-Fr 08:00-18:00; Sa,Su 08:00-16:00", "outdoor_seating": "no", "wheelchair": "limited"}}, {"type": "node", "id": 2391234911, "lat": 52.4967601, "lon": 13.2927713, "tags": {"addr:city": "Berlin", "addr:country": "DE", "addr:housenumber": "45", "addr:postcode": "10711", "addr:street": "Westf\u00e4lische Stra\u00dfe", "addr:suburb": "Halensee", "amenity": "restaurant", "contact:phone": "+49 30 66642549", "cuisine": "italian", "diet:vegan": "no", "diet:vegetarian": "yes", "name": "De Santi", "opening_hours": "Mo-Fr 12:00-15:00,17:00-22:00; Sa 17:00-22:00; Su off", "wheelchair": "no"}}, {"type": "node", "id": 2391234914, "lat": 52.497315, "lon": 13.2935687, "tags": {"addr:city": "Berlin", "addr:country": "DE", "addr:housenumber": "134", "addr:postcode": "10711", "addr:street": "Kurf\u00fcrstendamm", "addr:suburb": "Halensee", "amenity": "restaurant", "contact:phone": "+49 30 89541892", "contact:website": "https://moim.berlin/home/", "cuisine": "korean", "name": "[mo:im]", "opening_hours": "Mo-Th 12:00-22:00; Fr,Sa 12:00-22:30; Su 17:00-22:00", "toilets:wheelchair": "no", "wheelchair": "yes"}}, {"type": "node", "id": 2391234924, "lat": 52.496232, "lon": 13.295239, "tags": {"amenity": "restaurant", "cuisine": "italian", "name": "Osteria Mare", "opening_hours": "Tu-Sa 17:00+", "phone": "+49308911668", "shop": "deli", "wheelchair": "limited"}}, {"type": "node", "id": 2391234943, "lat": 52.4964841, "lon": 13.2925338, "tags": {"amenity": "restaurant", "contact:phone": "+49 30 89043786", "contact:website": "http://tavernetta-azara.de/", "cuisine": "italian", "indoor_seating": "yes", "name": "Tavernetta Azara", "opening_hours": "Tu-Su 12:00-23:00", "operator": "Antonio Azara", "outdoor_seating": "no", "wheelchair": "no"}}, {"type": "node", "id": 2466967083, "lat": 52.5017257, "lon": 13.292222}, {"type": "node", "id": 2473762155, "lat": 52.5013185, "lon": 13.2900131}, {"type": "node", "id": 2473762160, "lat": 52.5013763, "lon": 13.2895899}, {"type": "node", "id": 2473762168, "lat": 52.5014535, "lon": 13.2899384}, {"type": "node", "id": 2637754155, "lat": 52.4974665, "lon": 13.2912767, "tags": {"addr:city": "Berlin", "addr:country": "DE", "addr:housenumber": "114", "addr:postcode": "10711", "addr:street": "Kurf\u00fcrstendamm", "addr:suburb": "Halensee", "amenity": "cafe", "name": "Su\u00df & Frei", "opening_hours": "Mo-Fr 07:30-18:00; Sa,Su 09:00-18:00", "website": "https://www.susundfrei.de"}}, {"type": "node", "id": 2977400134, "lat": 52.4966764, "lon": 13.2914114, "tags": {"addr:city": "Berlin", "addr:country": "DE", "addr:housenumber": "129b", "addr:postcode": "10711", "addr:street": "Kurf\u00fcrstendamm", "addr:suburb": "Halensee", "amenity": "restaurant", "cuisine": "moroccan", "level": "0", "name": "Malika's Garden", "website": "https://malikas-garden.de", "wheelchair": "limited"}}, {"type": "node", "id": 2985061530, "lat": 52.4915993, "lon": 13.2982267, "tags": {"addr:city": "Berlin", "addr:country": "DE", "addr:housenumber": "10-13", "addr:postcode": "10709", "addr:street": "Seesener Stra\u00dfe", "addr:suburb": "Halensee", "brand": "Lidl", "brand:wikidata": "Q151954", "brand:wikipedia": "en:Lidl", "check_date:opening_hours": "2025-01-12", "name": "Lidl", "opening_hours": "Mo-Sa 08:00-22:00", "payment:cash": "yes", "payment:credit_cards": "yes", "payment:debit_cards": "yes", "shop": "supermarket", "website": "https://www.lidl.de/", "wheelchair": "yes"}}, {"type": "node", "id": 3013557312, "lat": 52.4981925, "lon": 13.3003248, "tags": {"addr:city": "Berlin", "addr:country": "DE", "addr:housenumber": "55a", "addr:postcode": "10709", "addr:street": "Nestorstra\u00dfe", "addr:suburb": "Halensee", "amenity": "restaurant", "cuisine": "korean", "email": "kimchimama.berlin@gmail.com", "name": "Kimchi Mama", "opening_hours": "Tu-Su 17:00-22:00", "phone": "+49 30 64080154", "website": "https://www.kimchimama.de/", "wheelchair": "yes"}}, {"type": "node", "id": 3021558153, "lat": 52.4894207, "lon": 13.3000721, "tags": {"access": "private", "leisure": "playground"}}, {"type": "node", "id": 3021558157, "lat": 52.4898792, "lon": 13.3004246}, {"type": "node", "id": 3021558158, "lat": 52.4896863, "lon": 13.3006612}, {"type": "node", "id": 3021558159, "lat": 52.4897007, "lon": 13.3006986}, {"type": "node", "id": 3021558160, "lat": 52.4899317, "lon": 13.3007164}, {"type": "node", "id": 3021558161, "lat": 52.4898878, "lon": 13.3005851}, {"type": "node", "id": 3051910417, "lat": 52.4986354, "lon": 13.2965708, "tags": {"addr:city": "Berlin", "addr:housenumber": "17", "addr:postcode": "10711", "addr:street": "Joachim-Friedrich-Stra\u00dfe", "brand": "Denns BioMarkt", "brand:wikidata": "Q48883773", "name": "Denns BioMarkt", "opening_hours": "Mo-Sa 08:00-21:00", "operator": "Dennree GmbH", "operator:wikidata": "Q1189641", "organic": "only", "shop": "supermarket", "wheelchair": "yes"}}, {"type": "node", "id": 3391909179, "lat": 52.4975539, "lon": 13.2952936, "tags": {"addr:city": "Berlin", "addr:country": "DE", "addr:postcode": "10711", "addr:street": "Kurf\u00fcrstendamm", "amenity": "restaurant", "check_date:opening_hours": "2024-09-15", "cuisine": "japanese", "diet:vegan": "yes", "diet:vegetarian": "yes", "name": "sayuri", "opening_hours": "Mo-Sa 12:00-22:00", "wheelchair": "no"}}, {"type": "node", "id": 3481018752, "lat": 52.4947504, "lon": 13.3004872}, {"type": "node", "id": 3481018754, "lat": 52.4947834, "lon": 13.300466}, {"type": "node", "id": 3716552551, "lat": 52.494399, "lon": 13.2997998}, {"type": "node", "id": 3716552552, "lat": 52.4944059, "lon": 13.2997573}, {"type": "node", "id": 3716552563, "lat": 52.4947684, "lon": 13.3004857}, {"type": "node", "id": 3716552567, "lat": 52.4949274, "lon": 13.3007332}, {"type": "node", "id": 3716552568, "lat": 52.4949305, "lon": 13.3008191}, {"type": "node", "id": 3716552569, "lat": 52.4949345, "lon": 13.2998246}, {"type": "node", "id": 3716552570, "lat": 52.4949524, "lon": 13.2998417}, {"type": "node", "id": 3716552571, "lat": 52.4949537, "lon": 13.2998871}, {"type": "node", "id": 3716552572, "lat": 52.4949569, "lon": 13.2998693}, {"type": "node", "id": 3716552573, "lat": 52.495074, "lon": 13.3006292}, {"type": "node", "id": 3716552574, "lat": 52.4951227, "lon": 13.3007533}, {"type": "node", "id": 3716552575, "lat": 52.4951356, "lon": 13.2999541}, {"type": "node", "id": 3716552581, "lat": 52.4951886, "lon": 13.2998569}, {"type": "node", "id": 3716552588, "lat": 52.4952678, "lon": 13.3000197}, {"type": "node", "id": 3716616727, "lat": 52.4956218, "lon": 13.301026}, {"type": "node", "id": 3716616728, "lat": 52.4956679, "lon": 13.3001184}, {"type": "node", "id": 3716616729, "lat": 52.4963504, "lon": 13.3011257}, {"type": "node", "id": 3716616730, "lat": 52.4963965, "lon": 13.3002181}, {"type": "node", "id": 4212315597, "lat": 52.5017015, "lon": 13.2898763}, {"type": "node", "id": 4212315598, "lat": 52.5020574, "lon": 13.2906113}, {"type": "node", "id": 4327011110, "lat": 52.4967837, "lon": 13.2958432}, {"type": "node", "id": 4327011116, "lat": 52.4968186, "lon": 13.2951237}, {"type": "node", "id": 4327011117, "lat": 52.4969402, "lon": 13.2951882}, {"type": "node", "id": 4327011118, "lat": 52.4970156, "lon": 13.2958747}, {"type": "node", "id": 4327011119, "lat": 52.4970453, "lon": 13.2952569}, {"type": "node", "id": 4334731953, "lat": 52.4978641, "lon": 13.2955292}, {"type": "node", "id": 4334731954, "lat": 52.4978897, "lon": 13.2955193}, {"type": "node", "id": 4334731955, "lat": 52.4979275, "lon": 13.295971}, {"type": "node", "id": 4334731956, "lat": 52.4979531, "lon": 13.2959611}, {"type": "node", "id": 4334731957, "lat": 52.4979872, "lon": 13.2964724}, {"type": "node", "id": 4334731958, "lat": 52.4980133, "lon": 13.2964591}, {"type": "node", "id": 4334731959, "lat": 52.4980693, "lon": 13.2969102}, {"type": "node", "id": 4334731960, "lat": 52.4980955, "lon": 13.2968969}, {"type": "node", "id": 4577277007, "lat": 52.4942967, "lon": 13.2899509}, {"type": "node", "id": 4900462126, "lat": 52.4963325, "lon": 13.294772, "tags": {"addr:housenumber": "39", "addr:street": "Westf\u00e4lische Stra\u00dfe", "amenity": "cafe", "cuisine": "soup;salad;pasta", "name": "Sa Jour", "wheelchair": "no"}}, {"type": "node", "id": 4913807585, "lat": 52.4953112, "lon": 13.3000126}, {"type": "node", "id": 4913807586, "lat": 52.4952261, "lon": 13.3000509}, {"type": "node", "id": 4913807587, "lat": 52.495151, "lon": 13.3008741}, {"type": "node", "id": 4921948032, "lat": 52.5025789, "lon": 13.2901617}, {"type": "node", "id": 4936936801, "lat": 52.5007688, "lon": 13.2963409, "tags": {"addr:city": "Berlin", "addr:country": "DE", "addr:housenumber": "32", "addr:postcode": "10711", "addr:street": "Joachim-Friedrich-Stra\u00dfe", "addr:suburb": "Halensee", "amenity": "restaurant", "cuisine": "vietnamese", "diet:vegan": "yes", "diet:vegetarian": "yes", "name": "DuftReis", "opening_hours": "Mo-Fr 11:00-22:00; PH,Sa,Su 12:00-22:00", "phone": "+49 30 3129042", "website": "http://www.duftreis-restaurant.de/"}}, {"type": "node", "id": 4936944896, "lat": 52.498566, "lon": 13.2994116}, {"type": "node", "id": 4936944897, "lat": 52.4986607, "lon": 13.2999282}, {"type": "node", "id": 4936944898, "lat": 52.4986881, "lon": 13.2999102}, {"type": "node", "id": 4936944899, "lat": 52.4985925, "lon": 13.2993978}, {"type": "node", "id": 4937820499, "lat": 52.5011501, "lon": 13.2868439}, {"type": "node", "id": 4937820500, "lat": 52.5012679, "lon": 13.2864748}, {"type": "node", "id": 4937820516, "lat": 52.5007028, "lon": 13.2845772}, {"type": "node", "id": 4937820517, "lat": 52.5010673, "lon": 13.2857904}, {"type": "node", "id": 4937820518, "lat": 52.5011535, "lon": 13.2860756}, {"type": "node", "id": 4937820519, "lat": 52.5009609, "lon": 13.2866755}, {"type": "node", "id": 4937820520, "lat": 52.5013153, "lon": 13.2866378}, {"type": "node", "id": 4937820721, "lat": 52.5011688, "lon": 13.2874008}, {"type": "node", "id": 4937820722, "lat": 52.5011028, "lon": 13.2886988}, {"type": "node", "id": 4937820723, "lat": 52.5010111, "lon": 13.2885831}, {"type": "node", "id": 4937820724, "lat": 52.5008091, "lon": 13.2884421}, {"type": "node", "id": 4937820726, "lat": 52.5008481, "lon": 13.2873894}, {"type": "node", "id": 4937820727, "lat": 52.5007447, "lon": 13.2873804}, {"type": "node", "id": 4937820728, "lat": 52.5007504, "lon": 13.2871307}, {"type": "node", "id": 4937820729, "lat": 52.5007694, "lon": 13.2867046}, {"type": "node", "id": 4937820730, "lat": 52.5007285, "lon": 13.2862592}, {"type": "node", "id": 4937820731, "lat": 52.5005798, "lon": 13.2857768}, {"type": "node", "id": 4937820732, "lat": 52.5003638, "lon": 13.2849433}, {"type": "node", "id": 4937820733, "lat": 52.5003741, "lon": 13.2848322}, {"type": "node", "id": 5012404710, "lat": 52.4980587, "lon": 13.2893891, "tags": {"addr:city": "Berlin", "addr:country": "DE", "addr:housenumber": "4", "addr:postcode": "10711", "addr:street": "Ringbahnstra\u00dfe", "addr:suburb": "Halensee", "amenity": "cafe", "cuisine": "italian", "description": "Salumeria & Bistrot", "name": "Modi", "origin": "italian", "shop": "deli"}}, {"type": "node", "id": 5151283976, "lat": 52.4965964, "lon": 13.2920059, "tags": {"amenity": "cafe", "cuisine": "italian", "indoor_seating": "yes", "name": "Piccolina", "opening_hours": "Mo-Fr 11:00-20:00; Sa 11:00-18:00", "outdoor_seating": "yes", "wheelchair": "no"}}, {"type": "node", "id": 5327410675, "lat": 52.494216, "lon": 13.290035}, {"type": "node", "id": 5327410676, "lat": 52.4941976, "lon": 13.2899779}, {"type": "node", "id": 5327410677, "lat": 52.4941904, "lon": 13.2899221}, {"type": "node", "id": 5327410678, "lat": 52.4941909, "lon": 13.2898209}, {"type": "node", "id": 5327410679, "lat": 52.4942043, "lon": 13.2896829}, {"type": "node", "id": 5327410680, "lat": 52.494223, "lon": 13.2895082}, {"type": "node", "id": 5327410681, "lat": 52.494236, "lon": 13.2893556}, {"type": "node", "id": 5327410682, "lat": 52.4942458, "lon": 13.2890098}, {"type": "node", "id": 5327410683, "lat": 52.4942511, "lon": 13.2889258}, {"type": "node", "id": 5327410684, "lat": 52.4942565, "lon": 13.2888015}, {"type": "node", "id": 5327410685, "lat": 52.4942784, "lon": 13.2883861}, {"type": "node", "id": 5327410686, "lat": 52.4942945, "lon": 13.2879663}, {"type": "node", "id": 5327410687, "lat": 52.4943209, "lon": 13.2876001}, {"type": "node", "id": 5327410688, "lat": 52.4943419, "lon": 13.2873741}, {"type": "node", "id": 5327410689, "lat": 52.4943629, "lon": 13.2872346}, {"type": "node", "id": 5327410690, "lat": 52.4943732, "lon": 13.2871891}, {"type": "node", "id": 5327410691, "lat": 52.4944661, "lon": 13.286817}, {"type": "node", "id": 5327410692, "lat": 52.4944893, "lon": 13.2868347}, {"type": "node", "id": 5400760186, "lat": 52.4961108, "lon": 13.2843095}, {"type": "node", "id": 5400760187, "lat": 52.4960303, "lon": 13.2843488}, {"type": "node", "id": 5400760188, "lat": 52.4960857, "lon": 13.2846586}, {"type": "node", "id": 5400760189, "lat": 52.4961829, "lon": 13.2846835}, {"type": "node", "id": 5591267658, "lat": 52.5002816, "lon": 13.2968016, "tags": {"addr:city": "Berlin", "addr:housenumber": "25", "addr:postcode": "10711", "addr:street": "Joachim-Friedrich-Stra\u00dfe", "amenity": "restaurant", "cuisine": "italian", "diet:vegan": "no", "diet:vegetarian": "yes", "indoor_seating": "yes", "name": "Il Castello", "opening_hours": "Mo-Fr 17:00-23:00", "outdoor_seating": "yes", "website": "https://www.ilcastello-berlin.de/", "website:menu": "https://www.ilcastello-berlin.de/speisekarte", "wheelchair": "limited"}}, {"type": "node", "id": 5758447046, "lat": 52.4998056, "lon": 13.2951718}, {"type": "node", "id": 5758447049, "lat": 52.4998007, "lon": 13.2952568}, {"type": "node", "id": 5861697570, "lat": 52.4954924, "lon": 13.2986938, "tags": {"addr:city": "Berlin", "addr:country": "DE", "addr:housenumber": "27", "addr:postcode": "10709", "addr:street": "Westf\u00e4lische Stra\u00dfe", "addr:suburb": "Halensee", "amenity": "cafe", "contact:website": "http://www.marktpur.de/", "name": "Markt Pur", "opening_hours": "Tu-Fr 09:30-16:00", "wheelchair": "limited"}}, {"type": "node", "id": 6314775723, "lat": 52.5001424, "lon": 13.2881758}, {"type": "node", "id": 6314775749, "lat": 52.5000223, "lon": 13.2885036}, {"type": "node", "id": 6314775765, "lat": 52.500172, "lon": 13.2882721}, {"type": "node", "id": 6314775777, "lat": 52.4999364, "lon": 13.2883543}, {"type": "node", "id": 6362759639, "lat": 52.4987, "lon": 13.3014126, "tags": {"addr:city": "Berlin", "addr:housenumber": "152", "addr:postcode": "10709", "addr:street": "Kurf\u00fcrstendamm", "name": "Sheriffs Beef nah & frisch", "opening_hours": "Mo-Sa 08:00-20:00", "shop": "supermarket", "website": "https://sheriffs-beef.de/", "wheelchair": "yes"}}, {"type": "node", "id": 7027141484, "lat": 52.5021374, "lon": 13.2955465, "tags": {"addr:city": "Berlin", "addr:country": "DE", "addr:housenumber": "12", "addr:postcode": "10711", "addr:street": "Heilbronner Stra\u00dfe", "addr:suburb": "Halensee", "brand": "Bio Company", "brand:wikidata": "Q864179", "brand:wikipedia": "de:Bio Company", "check_date:opening_hours": "2024-03-30", "fax": "+49 30 5210760641", "name": "Bio Company", "opening_hours": "Mo-Sa 08:00-21:00", "operator": "BIO COMPANY GmbH", "organic": "only", "payment:coins": "yes", "payment:ep_geldkarte": "yes", "payment:girocard": "yes", "payment:notes": "yes", "phone": "+49 30 5210760640", "shop": "supermarket", "website": "https://www.biocompany.de/bio-company-markt-finden/l/berlin/heilbronner-strasse-12/1826195", "wheelchair": "yes"}}, {"type": "node", "id": 7255812894, "lat": 52.5005259, "lon": 13.2989784, "tags": {"addr:city": "Berlin", "addr:country": "DE", "addr:housenumber": "8", "addr:postcode": "10711", "addr:street": "Markgraf-Albrecht-Stra\u00dfe", "addr:suburb": "Halensee", "amenity": "cafe", "cuisine": "coffee_shop", "name": "Quartier 1907"}}, {"type": "node", "id": 7255812895, "lat": 52.5003863, "lon": 13.299378, "tags": {"addr:city": "Berlin", "addr:country": "DE", "addr:housenumber": "17", "addr:postcode": "10711", "addr:street": "Damaschkestra\u00dfe", "addr:suburb": "Halensee", "amenity": "restaurant", "cuisine": "barbecue", "name": "The Meat", "website": "https://themeat.de/", "website:menu": "https://qr.menufay.com/main#633", "wheelchair": "limited"}}, {"type": "node", "id": 7330043786, "lat": 52.4959253, "lon": 13.295164, "tags": {"amenity": "bar", "name": "Casablanca"}}, {"type": "node", "id": 7330188835, "lat": 52.4956852, "lon": 13.2993405}, {"type": "node", "id": 7330188837, "lat": 52.4957537, "lon": 13.2996087}, {"type": "node", "id": 7330188838, "lat": 52.4955137, "lon": 13.2995617}, {"type": "node", "id": 7335401294, "lat": 52.4964028, "lon": 13.2957517, "tags": {"amenity": "restaurant", "contact:website": "http://www.big-window.de", "cuisine": "armenian", "diet:vegetarian": "no", "indoor_seating": "yes", "name": "Big Window", "opening_hours": "Su,Mo off", "outdoor_seating": "yes"}}, {"type": "node", "id": 7346753365, "lat": 52.4970077, "lon": 13.2977864, "tags": {"amenity": "kindergarten", "capacity": "20", "check_date": "2024-09-15", "contact:phone": "+49 30 88710509", "contact:website": "http://kidsinberlin.de/index.php/de/kangaroo-garden-internationaler-kindergarten.html", "language:en": "yes", "max_age": "6", "min_age": "1", "name": "Kangaroo Garden", "operator": "Kids in Berlin"}}, {"type": "node", "id": 7346753368, "lat": 52.4971867, "lon": 13.297558, "tags": {"amenity": "kindergarten", "capacity": "10", "check_date": "2024-09-15", "contact:phone": "+49 30 88626610", "contact:website": "http://kidsinberlin.de/index.php/de/wallaby-kinderbetreuung.html", "language:en": "yes", "max_age": "4", "min_age": "8 weeks", "name": "Wallaby", "nursery": "yes", "operator": "Kids in Berlin"}}, {"type": "node", "id": 7346789305, "lat": 52.4976643, "lon": 13.2965885}, {"type": "node", "id": 7346789306, "lat": 52.4976316, "lon": 13.2967401}, {"type": "node", "id": 7399285843, "lat": 52.4962566, "lon": 13.3011129}, {"type": "node", "id": 7399285844, "lat": 52.4963008, "lon": 13.300205}, {"type": "node", "id": 7551371863, "lat": 52.4945697, "lon": 13.2864878}, {"type": "node", "id": 7551371864, "lat": 52.4946592, "lon": 13.2865562}, {"type": "node", "id": 7551371865, "lat": 52.4944532, "lon": 13.2874922}, {"type": "node", "id": 7551371866, "lat": 52.4944187, "lon": 13.2877582}, {"type": "node", "id": 7551371867, "lat": 52.4945144, "lon": 13.2871524}, {"type": "node", "id": 7551371868, "lat": 52.4943905, "lon": 13.2885737}, {"type": "node", "id": 7551371869, "lat": 52.4942665, "lon": 13.2887789}, {"type": "node", "id": 7551371870, "lat": 52.494379, "lon": 13.2889651}, {"type": "node", "id": 7551371871, "lat": 52.4943702, "lon": 13.2890658}, {"type": "node", "id": 7551371874, "lat": 52.494644, "lon": 13.2895405}, {"type": "node", "id": 7573227530, "lat": 52.4995188, "lon": 13.2924451, "tags": {"addr:city": "Berlin", "addr:country": "DE", "addr:housenumber": "20", "addr:postcode": "10711", "addr:street": "Katharinenstra\u00dfe", "addr:suburb": "Halensee", "amenity": "kindergarten", "check_date": "2023-04-19", "name": "Papillon Rouge", "website": "https://kita-papillon.de/papillon-rouge/"}}, {"type": "node", "id": 7613394448, "lat": 52.488605, "lon": 13.3012964, "tags": {"addr:city": "Berlin", "addr:country": "DE", "addr:housenumber": "47a", "addr:postcode": "10713", "addr:street": "Hohenzollerndamm", "addr:suburb": "Halensee", "amenity": "clinic", "check_date": "2024-11-06", "healthcare": "clinic", "name": "\u00c4rztehaus Hohenzollerndamm"}}, {"type": "node", "id": 7616134547, "lat": 52.4980288, "lon": 13.2950912, "tags": {"addr:city": "Berlin", "addr:country": "DE", "addr:housenumber": "104", "addr:postcode": "10711", "addr:street": "Kurf\u00fcrstendamm", "addr:suburb": "Halensee", "amenity": "cafe", "check_date": "2024-07-26", "name": "Cafe Kudamm 1\u26614", "website": "https://1love4.com/"}}, {"type": "node", "id": 7767814951, "lat": 52.4940751, "lon": 13.2940937, "tags": {"addr:city": "Berlin", "addr:country": "DE", "addr:housenumber": "44-46", "addr:postcode": "10711", "addr:street": "Seesener Stra\u00dfe", "addr:suburb": "Halensee", "amenity": "kindergarten", "name": "Multi Lingua INternationaler Kindergarten", "website": "https://www.multilingua-berlin.de/"}}, {"type": "node", "id": 7994883600, "lat": 52.497613, "lon": 13.2958406, "tags": {"amenity": "clinic", "healthcare": "clinic", "name": "\u00c4rztehaus", "opening_hours": "\"verschieden \u00c4rzte\""}}, {"type": "node", "id": 8328526642, "lat": 52.4979207, "lon": 13.2997951, "tags": {"amenity": "kindergarten", "check_date": "2024-09-14", "name": "mi nido"}}, {"type": "node", "id": 8839649620, "lat": 52.5010974, "lon": 13.2969201, "tags": {"addr:city": "Berlin", "addr:country": "DE", "addr:housenumber": "29", "addr:postcode": "10711", "addr:street": "Joachim-Friedrich-Stra\u00dfe", "addr:suburb": "Halensee", "amenity": "kindergarten", "check_date": "2024-07-06", "name": "Oskar der Baum & seine Freunde"}}, {"type": "node", "id": 8839649642, "lat": 52.4988108, "lon": 13.2960555, "tags": {"addr:city": "Berlin", "addr:country": "DE", "addr:housenumber": "42", "addr:postcode": "10711", "addr:street": "Joachim-Friedrich-Stra\u00dfe", "addr:suburb": "Halensee", "amenity": "cafe", "diet:vegan": "yes", "diet:vegetarian": "yes", "name": "One piece Of cake", "opening_hours": "Tu-Sa 09:00-18:00; Su 09:00-17:00"}}, {"type": "node", "id": 9268122917, "lat": 52.4967809, "lon": 13.2903425, "tags": {"addr:city": "Berlin", "addr:housenumber": "31", "addr:postcode": "10711", "addr:street": "Seesener Stra\u00dfe", "brand": "Edeka", "brand:wikidata": "Q701755", "brand:wikipedia": "de:Edeka", "name": "EDEKA Schmitt", "opening_hours": "Mo-Sa 06:00-23:00", "operator": "Schmitt", "phone": "+49 30 88667641", "shop": "supermarket", "website": "https://www.edeka.de/eh/minden-hannover/edeka-schmitt-seesener-str.-31/index.jsp", "wheelchair": "yes"}}, {"type": "node", "id": 9429184185, "lat": 52.4979914, "lon": 13.2946912, "tags": {"addr:city": "Berlin", "addr:housenumber": "105", "addr:postcode": "10711", "addr:street": "Kurf\u00fcrstendamm", "amenity": "cafe", "cuisine": "coffee_shop", "name": "Dong Nam Coffee Lab", "website": "https://dong-nam.de/"}}, {"type": "node", "id": 9506115526, "lat": 52.4961385, "lon": 13.2860068, "tags": {"addr:city": "Berlin", "addr:housenumber": "4", "addr:postcode": "10711", "addr:street": "Bornimer Stra\u00dfe", "amenity": "restaurant", "check_date": "2024-09-04", "contact:phone": "+49 30 54892448", "cuisine": "indian", "level": "0", "name": "Tandoori N\u00e4chte", "opening_hours": "Tu-Su 12:00-23:00", "operator": "Rusheel Basav Gastfreundschaft GmbH", "outdoor_seating": "yes", "takeaway": "yes", "toilets": "yes"}}, {"type": "node", "id": 10061714033, "lat": 52.4947329, "lon": 13.3004754}, {"type": "node", "id": 10108178045, "lat": 52.4958068, "lon": 13.2869103}, {"type": "node", "id": 10108178046, "lat": 52.4958039, "lon": 13.2869065}, {"type": "node", "id": 10108178047, "lat": 52.4957906, "lon": 13.2869048}, {"type": "node", "id": 10108178048, "lat": 52.4957709, "lon": 13.2869322}, {"type": "node", "id": 10108178049, "lat": 52.4957681, "lon": 13.2869438}, {"type": "node", "id": 10108178050, "lat": 52.4957698, "lon": 13.2869565}, {"type": "node", "id": 10108178051, "lat": 52.4957911, "lon": 13.2869992}, {"type": "node", "id": 10108178052, "lat": 52.4958268, "lon": 13.2869515}, {"type": "node", "id": 10108178053, "lat": 52.4961239, "lon": 13.287565}, {"type": "node", "id": 10108178054, "lat": 52.4960905, "lon": 13.2876111}, {"type": "node", "id": 10108178055, "lat": 52.4959985, "lon": 13.2874174}, {"type": "node", "id": 10108178056, "lat": 52.4960317, "lon": 13.2873685}, {"type": "node", "id": 10108178057, "lat": 52.4963331, "lon": 13.2880975}, {"type": "node", "id": 10108178058, "lat": 52.4964581, "lon": 13.288386}, {"type": "node", "id": 10108178059, "lat": 52.496481, "lon": 13.2884214}, {"type": "node", "id": 10108178060, "lat": 52.4964944, "lon": 13.2884459}, {"type": "node", "id": 10108178061, "lat": 52.4965819, "lon": 13.2886693}, {"type": "node", "id": 10108178062, "lat": 52.4965689, "lon": 13.2886876}, {"type": "node", "id": 10108178063, "lat": 52.4964692, "lon": 13.2884375}, {"type": "node", "id": 10108178064, "lat": 52.4964063, "lon": 13.2882949}, {"type": "node", "id": 10108178065, "lat": 52.4963734, "lon": 13.2882253}, {"type": "node", "id": 10108178066, "lat": 52.4963156, "lon": 13.2881081}, {"type": "node", "id": 10108178067, "lat": 52.4962687, "lon": 13.2880098}, {"type": "node", "id": 10108178068, "lat": 52.4962114, "lon": 13.2878866}, {"type": "node", "id": 10108178069, "lat": 52.4962319, "lon": 13.2878631}, {"type": "node", "id": 10108178078, "lat": 52.4953919, "lon": 13.2861472}, {"type": "node", "id": 10108178079, "lat": 52.4953026, "lon": 13.2860342}, {"type": "node", "id": 10775269093, "lat": 52.5025467, "lon": 13.2899188}, {"type": "node", "id": 10920197732, "lat": 52.4957081, "lon": 13.2867146}, {"type": "node", "id": 10920197733, "lat": 52.4956741, "lon": 13.2867602}, {"type": "node", "id": 10920197734, "lat": 52.4956928, "lon": 13.2867974}, {"type": "node", "id": 10920197735, "lat": 52.495728, "lon": 13.2867529}, {"type": "node", "id": 10920197736, "lat": 52.4957299, "lon": 13.2867579}, {"type": "node", "id": 10920197737, "lat": 52.4957307, "lon": 13.286764}, {"type": "node", "id": 10920197738, "lat": 52.495709, "lon": 13.2868013}, {"type": "node", "id": 10920197739, "lat": 52.4957056, "lon": 13.2868034}, {"type": "node", "id": 10920197747, "lat": 52.4958007, "lon": 13.2869039}, {"type": "node", "id": 10920197748, "lat": 52.4957683, "lon": 13.2869506}, {"type": "node", "id": 10963565217, "lat": 52.4965851, "lon": 13.3012814}, {"type": "node", "id": 10963565220, "lat": 52.4953972, "lon": 13.301222}, {"type": "node", "id": 10963565223, "lat": 52.4954533, "lon": 13.2998708}, {"type": "node", "id": 10963565227, "lat": 52.49586, "lon": 13.2999236}, {"type": "node", "id": 10963565228, "lat": 52.4958843, "lon": 13.2999277}, {"type": "node", "id": 10963565232, "lat": 52.4966404, "lon": 13.300116}, {"type": "node", "id": 10963565233, "lat": 52.4953253, "lon": 13.3010317}, {"type": "node", "id": 10963565234, "lat": 52.4953319, "lon": 13.3012135}, {"type": "node", "id": 10963565235, "lat": 52.4954017, "lon": 13.2998647}, {"type": "node", "id": 10963565236, "lat": 52.4954066, "lon": 13.3000619}, {"type": "node", "id": 10979158423, "lat": 52.4983384, "lon": 13.2997798, "tags": {"addr:city": "Berlin", "addr:housenumber": "146-147", "addr:postcode": "10709", "addr:street": "Kurf\u00fcrstendamm", "brand": "Rewe", "brand:wikidata": "Q16968817", "name": "Rewe", "opening_hours": "Mo-Fr 06:00 - 00:00 Uhr; Sa 06:00 - 23:30 Uhr", "phone": "+4930519998970", "shop": "supermarket", "wheelchair": "yes"}}, {"type": "node", "id": 11381260426, "lat": 52.4971413, "lon": 13.2896382}, {"type": "node", "id": 11381260427, "lat": 52.4971544, "lon": 13.2896221}, {"type": "node", "id": 11381260428, "lat": 52.497223, "lon": 13.2897308}, {"type": "node", "id": 11381260429, "lat": 52.4972418, "lon": 13.289773}, {"type": "node", "id": 11381260430, "lat": 52.4972463, "lon": 13.2898045}, {"type": "node", "id": 11381260431, "lat": 52.4972471, "lon": 13.2898401}, {"type": "node", "id": 11381260432, "lat": 52.4972442, "lon": 13.2898649}, {"type": "node", "id": 11381260433, "lat": 52.4971418, "lon": 13.2900037}, {"type": "node", "id": 11381260434, "lat": 52.497054, "lon": 13.2896409}, {"type": "node", "id": 11381260435, "lat": 52.4970817, "lon": 13.2896067}, {"type": "node", "id": 11381260436, "lat": 52.4971111, "lon": 13.2895926}, {"type": "node", "id": 11381260437, "lat": 52.4971336, "lon": 13.2896262}, {"type": "node", "id": 11454400879, "lat": 52.4970404, "lon": 13.2952552}, {"type": "node", "id": 11454400880, "lat": 52.4970463, "lon": 13.2951455}, {"type": "node", "id": 11755214606, "lat": 52.5007844, "lon": 13.2951747}, {"type": "node", "id": 11755214607, "lat": 52.5007666, "lon": 13.2955317}, {"type": "node", "id": 11755214608, "lat": 52.5007707, "lon": 13.2955323}, {"type": "node", "id": 11997812616, "lat": 52.4977265, "lon": 13.2944812}, {"type": "node", "id": 11997812617, "lat": 52.497749, "lon": 13.2946341}, {"type": "node", "id": 11997812618, "lat": 52.4976983, "lon": 13.294656}, {"type": "node", "id": 11997812619, "lat": 52.4976733, "lon": 13.2945017}, {"type": "node", "id": 11997812620, "lat": 52.4976384, "lon": 13.293909}, {"type": "node", "id": 11997812621, "lat": 52.4976575, "lon": 13.2940306}, {"type": "node", "id": 11997812622, "lat": 52.4976068, "lon": 13.2940497}, {"type": "node", "id": 11997812623, "lat": 52.4975861, "lon": 13.2939254}, {"type": "node", "id": 11997840488, "lat": 52.498823, "lon": 13.3008061}, {"type": "node", "id": 11997840489, "lat": 52.4987515, "lon": 13.3004197}, {"type": "node", "id": 11997840490, "lat": 52.4987291, "lon": 13.3004265}, {"type": "node", "id": 11997840491, "lat": 52.4987976, "lon": 13.3008177}, {"type": "node", "id": 12038130707, "lat": 52.4957299, "lon": 13.2867696}, {"type": "node", "id": 12038130708, "lat": 52.4957285, "lon": 13.2867743}, {"type": "node", "id": 12038130709, "lat": 52.4956954, "lon": 13.2868004}, {"type": "node", "id": 12038130710, "lat": 52.4956982, "lon": 13.2868024}, {"type": "node", "id": 12038130711, "lat": 52.4957018, "lon": 13.2868038}, {"type": "node", "id": 12038130720, "lat": 52.4957931, "lon": 13.2869033}, {"type": "node", "id": 12038130721, "lat": 52.4957971, "lon": 13.2869026}, {"type": "node", "id": 12038130722, "lat": 52.4957691, "lon": 13.2869372}, {"type": "node", "id": 12038380610, "lat": 52.4954914, "lon": 13.2863956}, {"type": "node", "id": 12038380611, "lat": 52.4954572, "lon": 13.2863296}, {"type": "node", "id": 12038380612, "lat": 52.4954451, "lon": 13.2863085}, {"type": "node", "id": 12038380613, "lat": 52.4954263, "lon": 13.2862772}, {"type": "node", "id": 12038380614, "lat": 52.4954137, "lon": 13.2862563}, {"type": "node", "id": 12038380615, "lat": 52.4953945, "lon": 13.2862263}, {"type": "node", "id": 12038380616, "lat": 52.4953785, "lon": 13.2862029}, {"type": "node", "id": 12038380617, "lat": 52.4953605, "lon": 13.2861801}, {"type": "node", "id": 12038380618, "lat": 52.4953462, "lon": 13.2861625}, {"type": "node", "id": 12038380619, "lat": 52.4953313, "lon": 13.2861459}, {"type": "node", "id": 12038380620, "lat": 52.4952642, "lon": 13.2860797}, {"type": "node", "id": 12038380621, "lat": 52.4952815, "lon": 13.286095}, {"type": "node", "id": 12038380622, "lat": 52.495304, "lon": 13.2861168}, {"type": "node", "id": 12038380623, "lat": 52.4952317, "lon": 13.2860537}, {"type": "node", "id": 12038380624, "lat": 52.4951779, "lon": 13.2860198}, {"type": "node", "id": 12038380625, "lat": 52.4952056, "lon": 13.2860364}, {"type": "node", "id": 12038380626, "lat": 52.4951499, "lon": 13.2860032}, {"type": "node", "id": 12038380627, "lat": 52.4951237, "lon": 13.2859892}, {"type": "node", "id": 12038380628, "lat": 52.4950856, "lon": 13.2859712}, {"type": "node", "id": 12038380629, "lat": 52.4951594, "lon": 13.2858597}, {"type": "node", "id": 12038380630, "lat": 52.4953494, "lon": 13.2860927}, {"type": "node", "id": 12038380631, "lat": 52.4954258, "lon": 13.2861926}, {"type": "node", "id": 12038380632, "lat": 52.495459, "lon": 13.2862405}, {"type": "node", "id": 12038380633, "lat": 52.495485, "lon": 13.286282}, {"type": "node", "id": 12038380634, "lat": 52.4955329, "lon": 13.2863677}, {"type": "node", "id": 12040446739, "lat": 52.4950962, "lon": 13.285783}, {"type": "node", "id": 12264464958, "lat": 52.5023375, "lon": 13.2957874, "tags": {"addr:city": "Berlin", "addr:country": "DE", "addr:housenumber": "12", "addr:postcode": "10711", "addr:street": "Heilbronner Stra\u00dfe", "addr:suburb": "Halensee", "amenity": "cafe", "name": "Schell Bistro"}}, {"type": "node", "id": 12981819111, "lat": 52.4972018, "lon": 13.2930354, "tags": {"addr:city": "Berlin", "addr:country": "DE", "addr:housenumber": "132a", "addr:postcode": "10711", "addr:street": "Kurf\u00fcrstendamm", "addr:suburb": "Halensee", "amenity": "restaurant", "cuisine": "sushi", "name": "Koneko Sushi", "website": "https://www.konekosushi.com"}}, {"type": "way", "id": 4937326, "nodes": [32531345, 10963565232, 10963565217, 32531346, 10963565220, 10963565234, 32531347, 3716552568, 3716552567, 3716552575, 3716552581, 32531348, 10963565235, 10963565223, 10963565227, 10963565228, 32531345], "tags": {"leisure": "park", "name": "Hochmeisterplatz", "name:etymology:wikidata": "Q9373006", "protection_title": "Gesch\u00fctzte Gr\u00fcnanlage", "source": "Geoportal Berlin / Gr\u00fcnanlagenbestand Berlin (einschlie\u00dflich der \u00f6ffentlichen Spielpl\u00e4tze)", "wheelchair": "yes", "wikidata": "Q94989008"}}, {"type": "way", "id": 12196551, "nodes": [7551371871, 7551371874, 110497675, 110497680, 110497684, 267287863, 110497660, 7551371871], "tags": {"image": "https://commons.wikimedia.org/wiki/File:Halensee_Melli-Beese-Anlage.jpg", "leisure": "park", "name": "Melli-Beese-Anlage", "name:etymology:wikidata": "Q97003", "name:etymology:wikipedia": "de:Melli Beese", "wikidata": "Q110798262", "wikimedia_commons": "Category:Melli-Beese-Anlage (Berlin-Halensee)"}}, {"type": "way", "id": 28431781, "nodes": [312382422, 312382423, 10963565236, 312382424, 4913807585, 3716552588, 4913807586, 312382426, 312382427, 312382428, 3716552573, 312382429, 3716552574, 4913807587, 312382430, 312382431, 10963565233, 312382422], "tags": {"access": "yes", "leisure": "playground", "name": "Spielplatz Hochmeisterplatz - Tausendundeine Nacht", "playground:theme": "Tausenundundeine Nacht", "wheelchair": "yes"}}, {"type": "way", "id": 34923228, "nodes": [292454369, 270226575, 270226576, 1027109965, 1027109978, 1021936486, 409760012, 270226862, 270226857, 292454373, 292454369], "tags": {"access": "yes", "description": "Allgemeiner Spielplatz: Georg-Wilhelm-Str. 5-6", "leisure": "playground", "name": "Indiana Bones", "protection_title": "Gesch\u00fctzte Gr\u00fcnanlage", "source": "Geoportal Berlin / Gr\u00fcnanlagenbestand Berlin (einschlie\u00dflich der \u00f6ffentlichen Spielpl\u00e4tze)", "wheelchair": "yes"}}, {"type": "way", "id": 37885997, "nodes": [1166466416, 1166466412, 1166466407, 7346789305, 1166466401, 7346789306, 1166466404, 444606378, 1166466426, 1166466416], "tags": {"access": "no", "landuse": "grass", "name": "Agathe-Lasch-Platz", "name:etymology:wikidata": "Q102681"}}, {"type": "way", "id": 43104441, "nodes": [540029251, 6314775777, 6314775723, 6314775765, 540029252, 540029266, 540029268, 540029269, 540029261, 6314775749, 540029251], "tags": {"addr:city": "Berlin", "addr:country": "DE", "addr:housenumber": "26a", "addr:postcode": "10711", "addr:street": "Heilbronner Stra\u00dfe", "addr:suburb": "Halensee", "brand": "Aldi Nord", "brand:wikidata": "Q41171373", "brand:wikipedia": "de:Aldi", "building": "retail", "building:levels": "1", "name": "Aldi", "opening_hours": "Mo-Sa 07:00-22:00", "operator": "ALDI Nord", "operator:wikidata": "Q41171373", "roof:shape": "gabled", "shop": "supermarket", "wheelchair": "yes"}}, {"type": "way", "id": 43104445, "nodes": [540029274, 540029270, 540049655, 540029271, 540029279, 540029280, 540029281, 540029275, 540029277, 540029274], "tags": {"addr:city": "Berlin", "addr:country": "DE", "addr:housenumber": "19", "addr:postcode": "10711", "addr:street": "Heilbronner Stra\u00dfe", "addr:suburb": "Halensee", "brand": "Netto Marken-Discount", "brand:wikidata": "Q879858", "brand:wikipedia": "de:Netto Marken-Discount", "building": "warehouse", "building:levels": "1", "check_date:opening_hours": "2024-07-05", "name": "Netto Marken-Discount", "opening_hours": "Mo-Sa 07:00-22:00", "roof:shape": "flat", "shop": "supermarket", "website": "https://www.netto-online.de/filialen/Berlin-Wilmersdorf/Heilbronner-Str-19/7617/", "wheelchair": "yes"}}, {"type": "way", "id": 111569955, "nodes": [1270806828, 12038380628, 12038380627, 12038380626, 12038380624, 12038380625, 12038380623, 1270806906, 12038380620, 12038380621, 12038380622, 12038380619, 12038380618, 12038380617, 12038380616, 12038380615, 12038380614, 12038380613, 12038380612, 12038380611, 1270806930, 12038380610, 1270806918, 1270806924, 12038380634, 1270806937, 12038380633, 12038380632, 12038380631, 10108178078, 12038380630, 10108178079, 12038380629, 12040446739, 1270806939, 1270806828], "tags": {"area:highway": "traffic_island", "landuse": "grass"}}, {"type": "way", "id": 122242601, "nodes": [1366637272, 11755214606, 1366637283, 1366637282, 11755214607, 11755214608, 1366637278, 1366594238, 1366594233, 1366637246, 1366594227, 1366594164, 1366594182, 5758447049, 5758447046, 1366594187, 274502181, 1366594207, 1366637267, 1366637272], "tags": {"addr:city": "Berlin", "addr:housenumber": "35-36", "addr:postcode": "10711", "addr:street": "Joachim-Friedrich-Stra\u00dfe", "amenity": "school", "grades": "1-4", "name": "Halensee-Grundschule", "name:etymology:wikidata": "Q651009", "ref": "04G21", "website": "https://www.halensee-grundschule.de/", "wheelchair": "no"}}, {"type": "way", "id": 175725777, "nodes": [1862881506, 7330188837, 1862881507, 1862881504, 7330188838, 7330188835, 1862881506], "tags": {"landuse": "grass"}}, {"type": "way", "id": 207612573, "nodes": [47720573, 4212315597, 4212315598, 2178639629, 2178639641, 2178639644, 2178639652, 2178639648, 2178639633, 2466967083, 548031129, 2473762155, 2473762168, 2473762160, 47720573], "tags": {"landuse": "forest"}}, {"type": "way", "id": 207612902, "nodes": [2178641064, 2178641063, 2178641062, 2178641060, 2178641061, 2178641059, 2178641058, 2178641057, 2178641056, 29949467, 29949468, 410527904, 410527946, 410527941, 512422348, 10775269093, 4921948032, 1493295635, 512422350, 512422389, 2178641064], "tags": {"landuse": "forest", "leaf_type": "broadleaved"}}, {"type": "way", "id": 225712730, "nodes": [2344650938, 2344650939, 2344650941, 2344650940, 2344650938], "tags": {"leisure": "park"}}, {"type": "way", "id": 298244415, "nodes": [3021558157, 3021558158, 3021558159, 3021558160, 3021558161, 3021558157], "tags": {"leisure": "park"}}, {"type": "way", "id": 367772933, "nodes": [3481018754, 3716552563, 3481018752, 10061714033, 3716552551, 3716552552, 3716552569, 3716552570, 3716552572, 3716552571, 3481018754], "tags": {"denomination": "protestant", "landuse": "religious", "leisure": "park", "religion": "christian"}}, {"type": "way", "id": 367780488, "nodes": [3716616730, 3716616729, 7399285843, 3716616727, 3716616728, 7399285844, 3716616730], "tags": {"landuse": "grass", "name": "Liegewiese"}}, {"type": "way", "id": 434770822, "nodes": [4327011118, 4327011110, 4327011116, 4327011117, 11454400880, 11454400879, 4327011119, 4327011118], "tags": {"access": "yes", "description": "Allgemeiner Spielplatz: Joachim-Friedrich-Str. 47", "leisure": "playground", "protection_title": "Gesch\u00fctzte Gr\u00fcnanlage", "source": "Geoportal Berlin / Gr\u00fcnanlagenbestand Berlin (einschlie\u00dflich der \u00f6ffentlichen Spielpl\u00e4tze)", "wheelchair": "limited"}}, {"type": "way", "id": 435570459, "nodes": [4334731958, 4334731960, 4334731959, 4334731957, 4334731958], "tags": {"landuse": "grass"}}, {"type": "way", "id": 435570460, "nodes": [4334731954, 4334731956, 4334731955, 4334731953, 4334731954], "tags": {"landuse": "grass"}}, {"type": "way", "id": 503371051, "nodes": [4936944899, 4936944898, 4936944897, 4936944896, 4936944899], "tags": {"landuse": "grass"}}, {"type": "way", "id": 503485828, "nodes": [4937820516, 4937820733, 4937820732, 4937820731, 4937820730, 4937820729, 4937820728, 4937820727, 4937820726, 4937820724, 4937820723, 4937820722, 4937820721, 4937820520, 4937820500, 4937820499, 4937820519, 4937820518, 4937820517, 4937820516], "tags": {"landuse": "forest"}}, {"type": "way", "id": 551660582, "nodes": [5327410682, 5327410681, 5327410680, 5327410679, 5327410678, 5327410677, 5327410676, 5327410675, 4577277007, 110497684, 267287863, 5327410682], "tags": {"landuse": "forest", "leaf_cycle": "deciduous", "leaf_type": "broadleaved"}}, {"type": "way", "id": 551660583, "nodes": [7551371863, 5327410692, 5327410691, 5327410690, 5327410689, 5327410688, 5327410687, 5327410686, 5327410685, 5327410684, 5327410683, 7551371871, 7551371870, 7551371869, 7551371868, 7551371866, 7551371865, 7551371867, 7551371864, 7551371863], "tags": {"landuse": "forest", "leaf_cycle": "deciduous", "leaf_type": "broadleaved"}}, {"type": "way", "id": 560025852, "nodes": [5400760189, 5400760188, 5400760187, 5400760186, 5400760189], "tags": {"landuse": "grass"}}, {"type": "way", "id": 1104616294, "nodes": [10108178052, 10108178051, 10108178050, 10920197748, 10108178049, 12038130722, 10108178048, 10108178047, 12038130720, 12038130721, 10920197747, 10108178046, 10108178045, 10108178052], "tags": {"area:highway": "traffic_island", "landuse": "grass"}}, {"type": "way", "id": 1104616295, "nodes": [10108178056, 10108178055, 10108178054, 10108178053, 10108178056], "tags": {"area:highway": "traffic_island", "landuse": "grass"}}, {"type": "way", "id": 1104616296, "nodes": [10108178069, 10108178068, 10108178067, 10108178066, 10108178065, 10108178064, 10108178063, 10108178062, 10108178061, 10108178060, 10108178059, 10108178058, 10108178057, 10108178069], "tags": {"landuse": "grass"}}, {"type": "way", "id": 1175178308, "nodes": [10920197732, 10920197733, 10920197734, 12038130709, 12038130710, 12038130711, 10920197739, 10920197738, 12038130708, 12038130707, 10920197737, 10920197736, 10920197735, 10920197732], "tags": {"area:highway": "traffic_island", "landuse": "grass"}}, {"type": "way", "id": 1227336318, "nodes": [11381260437, 11381260436, 11381260435, 11381260434, 11381260433, 11381260432, 11381260431, 11381260430, 11381260429, 11381260428, 11381260427, 11381260426, 11381260437], "tags": {"landuse": "grass"}}, {"type": "way", "id": 1294595957, "nodes": [11997812616, 11997812617, 11997812618, 11997812619, 11997812616], "tags": {"landuse": "grass"}}, {"type": "way", "id": 1294595958, "nodes": [11997812620, 11997812621, 11997812622, 11997812623, 11997812620], "tags": {"landuse": "grass"}}, {"type": "way", "id": 1294597585, "nodes": [11997840488, 11997840489, 11997840490, 11997840491, 11997840488], "tags": {"landuse": "grass"}}]}