{"version": 0.6, "generator": "Overpass API 0.7.62.7 375dc00a", "osm3s": {"timestamp_osm_base": "2025-08-05T15:00:00Z", "copyright": "The data included in this document is from www.openstreetmap.org. The data is made available under ODbL."}, "elements": [{"type": "node", "id": 86058382, "lat": 52.4661354, "lon": 13.5028396}, {"type": "node", "id": 86058385, "lat": 52.4660228, "lon": 13.5028981}, {"type": "node", "id": 86058415, "lat": 52.4590014, "lon": 13.5183331}, {"type": "node", "id": 86058416, "lat": 52.4590818, "lon": 13.5190865}, {"type": "node", "id": 86058466, "lat": 52.457876, "lon": 13.5181766}, {"type": "node", "id": 86058468, "lat": 52.4576685, "lon": 13.5189311}, {"type": "node", "id": 86058472, "lat": 52.4575907, "lon": 13.5191018}, {"type": "node", "id": 86058491, "lat": 52.4541577, "lon": 13.5224361}, {"type": "node", "id": 86058609, "lat": 52.4538695, "lon": 13.5663785}, {"type": "node", "id": 86058626, "lat": 52.4532168, "lon": 13.5588845}, {"type": "node", "id": 95950762, "lat": 52.4636732, "lon": 13.5467987}, {"type": "node", "id": 95956855, "lat": 52.4623489, "lon": 13.5477433}, {"type": "node", "id": 217862791, "lat": 52.4615778, "lon": 13.5495352}, {"type": "node", "id": 217862792, "lat": 52.461597, "lon": 13.5494736}, {"type": "node", "id": 217862793, "lat": 52.4619258, "lon": 13.5497138}, {"type": "node", "id": 217862796, "lat": 52.4617584, "lon": 13.5503095}, {"type": "node", "id": 217862797, "lat": 52.4614138, "lon": 13.550102}, {"type": "node", "id": 217862798, "lat": 52.4614925, "lon": 13.5498149}, {"type": "node", "id": 254302988, "lat": 52.4637605, "lon": 13.5473877}, {"type": "node", "id": 254302989, "lat": 52.4636538, "lon": 13.5475294}, {"type": "node", "id": 254302990, "lat": 52.4636031, "lon": 13.5476612}, {"type": "node", "id": 254302991, "lat": 52.4635459, "lon": 13.5477593}, {"type": "node", "id": 254302992, "lat": 52.4633441, "lon": 13.5484266}, {"type": "node", "id": 254302993, "lat": 52.4630296, "lon": 13.5481923}, {"type": "node", "id": 254303138, "lat": 52.4634272, "lon": 13.5466321}, {"type": "node", "id": 262347496, "lat": 52.4578284, "lon": 13.5184181}, {"type": "node", "id": 277003140, "lat": 52.4594023, "lon": 13.5298648}, {"type": "node", "id": 281426281, "lat": 52.4622262, "lon": 13.5129345, "tags": {"addr:city": "Berlin", "addr:country": "DE", "addr:housenumber": "89A", "addr:postcode": "12459", "addr:street": "Wilhelminenhofstra\u00dfe", "brand": "Penny", "brand:wikidata": "Q284688", "brand:wikipedia": "en:Penny (supermarket)", "check_date:opening_hours": "2023-03-18", "name": "PENNY", "opening_hours": "Mo-Sa 07:00-21:00", "operator": "PENNY Markt GmbH", "shop": "supermarket", "website": "https://www.penny.de/", "wheelchair": "yes"}}, {"type": "node", "id": 295896032, "lat": 52.4545031, "lon": 13.5213999}, {"type": "node", "id": 297105912, "lat": 52.4531824, "lon": 13.5610418}, {"type": "node", "id": 297106173, "lat": 52.4545501, "lon": 13.564975}, {"type": "node", "id": 297106372, "lat": 52.4550631, "lon": 13.5664357}, {"type": "node", "id": 297106374, "lat": 52.4548295, "lon": 13.5658534}, {"type": "node", "id": 297106375, "lat": 52.4546997, "lon": 13.5654488}, {"type": "node", "id": 297201906, "lat": 52.453204, "lon": 13.5614132}, {"type": "node", "id": 297201907, "lat": 52.4528828, "lon": 13.5614225}, {"type": "node", "id": 297201909, "lat": 52.4528231, "lon": 13.5608696}, {"type": "node", "id": 297201910, "lat": 52.4532007, "lon": 13.5608369}, {"type": "node", "id": 297201965, "lat": 52.4527879, "lon": 13.5599292}, {"type": "node", "id": 297201970, "lat": 52.4531985, "lon": 13.5599236}, {"type": "node", "id": 298087960, "lat": 52.4593264, "lon": 13.5119967}, {"type": "node", "id": 298087980, "lat": 52.456972, "lon": 13.5184493}, {"type": "node", "id": 298088350, "lat": 52.4578974, "lon": 13.5179435}, {"type": "node", "id": 298088688, "lat": 52.4591477, "lon": 13.5123895}, {"type": "node", "id": 355654539, "lat": 52.4682137, "lon": 13.5142493, "tags": {"addr:city": "Berlin", "addr:country": "DE", "addr:housenumber": "34", "addr:postcode": "12459", "addr:street": "Edisonstra\u00dfe", "addr:suburb": "Obersch\u00f6neweide", "amenity": "restaurant", "contact:instagram": "https://www.instagram.com/meli.restaurants/", "contact:phone": "+49 30 91513000", "cuisine": "asian;sushi", "name": "M\u00caLI", "opening_hours": "Mo-Su 12:00-22:30"}}, {"type": "node", "id": 355654866, "lat": 52.4557061, "lon": 13.552511, "tags": {"addr:city": "Berlin", "addr:country": "DE", "addr:housenumber": "228B", "addr:postcode": "12459", "addr:street": "An der Wuhlheide", "addr:suburb": "Obersch\u00f6neweide", "amenity": "restaurant", "contact:website": "http://www.ilkoep.de/", "cuisine": "italian", "diet:vegan": "yes", "diet:vegetarian": "yes", "name": "Stella del K\u00f6p", "opening_hours": "11:30-24:00", "outdoor_seating": "yes", "wheelchair": "limited"}}, {"type": "node", "id": 366908823, "lat": 52.4594294, "lon": 13.5178887}, {"type": "node", "id": 366908824, "lat": 52.459163, "lon": 13.5191297}, {"type": "node", "id": 366908833, "lat": 52.4589873, "lon": 13.5176245}, {"type": "node", "id": 369979346, "lat": 52.4692606, "lon": 13.5126519}, {"type": "node", "id": 369979349, "lat": 52.4693638, "lon": 13.5129924}, {"type": "node", "id": 369979356, "lat": 52.4696003, "lon": 13.5127528}, {"type": "node", "id": 369979363, "lat": 52.4689472, "lon": 13.5123688}, {"type": "node", "id": 369979366, "lat": 52.4690812, "lon": 13.5127261}, {"type": "node", "id": 369979389, "lat": 52.4687417, "lon": 13.5130179}, {"type": "node", "id": 369979397, "lat": 52.4686206, "lon": 13.5126883}, {"type": "node", "id": 369979400, "lat": 52.4683378, "lon": 13.5134289}, {"type": "node", "id": 369979409, "lat": 52.468212, "lon": 13.5130967}, {"type": "node", "id": 387491865, "lat": 52.4590312, "lon": 13.5255932, "tags": {"addr:city": "Berlin", "addr:country": "DE", "addr:housenumber": "51", "addr:postcode": "12459", "addr:street": "Wilhelminenhofstra\u00dfe", "addr:suburb": "Obersch\u00f6neweide", "amenity": "pharmacy", "check_date:opening_hours": "2025-01-05", "contact:website": "https://wilhelminenhof-apotheke.de/", "dispensing": "yes", "healthcare": "pharmacy", "name": "Wilhelminenhof Apotheke", "opening_hours": "Mo-Fr 08:00-18:30; Sa 08:00-12:30", "phone": "+49 30 535 02 46", "wheelchair": "limited"}}, {"type": "node", "id": 389081203, "lat": 52.4611526, "lon": 13.5164664, "tags": {"addr:city": "Berlin", "addr:country": "DE", "addr:housenumber": "83-85", "addr:postcode": "12459", "addr:street": "Wilhelminenhofstra\u00dfe", "addr:suburb": "Obersch\u00f6neweide", "brand": "Lidl", "brand:wikidata": "Q151954", "brand:wikipedia": "en:Lidl", "check_date:opening_hours": "2025-05-06", "contact:phone": "+49 800 4353361", "name": "Lidl", "opening_hours": "Mo-Sa 07:00-21:00", "shop": "supermarket", "website": "https://www.lidl.de", "wheelchair": "yes"}}, {"type": "node", "id": 438210468, "lat": 52.465538, "lon": 13.5482749}, {"type": "node", "id": 441260011, "lat": 52.462643, "lon": 13.5469012}, {"type": "node", "id": 441260985, "lat": 52.4630841, "lon": 13.5467089}, {"type": "node", "id": 482955814, "lat": 52.4588121, "lon": 13.5134011}, {"type": "node", "id": 486517824, "lat": 52.4553114, "lon": 13.5246833, "tags": {"amenity": "cafe", "name": "Coffeebar", "opening_hours": "Mo-Th 11:00-17:15; Fr 11:00-16:00", "operator": "Studentenwerk Berlin", "outdoor_seating": "yes", "toilets:wheelchair": "yes", "wheelchair": "yes"}}, {"type": "node", "id": 503965620, "lat": 52.4607414, "lon": 13.5095319}, {"type": "node", "id": 503979676, "lat": 52.4579798, "lon": 13.5169329}, {"type": "node", "id": 503979678, "lat": 52.4573584, "lon": 13.5163269}, {"type": "node", "id": 503979680, "lat": 52.4571024, "lon": 13.5171737}, {"type": "node", "id": 503979682, "lat": 52.4572778, "lon": 13.51735}, {"type": "node", "id": 534423573, "lat": 52.4544647, "lon": 13.5652402}, {"type": "node", "id": 534423601, "lat": 52.4551761, "lon": 13.5666107}, {"type": "node", "id": 536668241, "lat": 52.4562244, "lon": 13.5263792, "tags": {"addr:city": "Berlin", "addr:country": "DE", "addr:housenumber": "9", "addr:postcode": "12459", "addr:street": "Johannes-Kraaz-Stra\u00dfe", "addr:suburb": "Obersch\u00f6neweide", "amenity": "cafe", "check_date:opening_hours": "2025-03-31", "contact:website": "http://www.stephanus.org/contrast/standorte/betriebsstaette-wilhelminenhof-werkstatt-ulmenhof/startseite/", "name": "WaschBar mit Stephanus-Shop", "opening_hours": "Mo-Th 07:30-14:30; Fr 07:30-13:30", "wheelchair": "yes"}}, {"type": "node", "id": 536668306, "lat": 52.4612416, "lon": 13.5246012}, {"type": "node", "id": 536668311, "lat": 52.4615448, "lon": 13.5249794}, {"type": "node", "id": 536668312, "lat": 52.4617164, "lon": 13.5246052}, {"type": "node", "id": 536668325, "lat": 52.4621201, "lon": 13.5244182}, {"type": "node", "id": 549932966, "lat": 52.4628025, "lon": 13.5114134, "tags": {"amenity": "fast_food", "cuisine": "pasta;pizza", "name": "Pizza & Pasta", "wheelchair": "limited"}}, {"type": "node", "id": 549933671, "lat": 52.4617978, "lon": 13.5120508, "tags": {"addr:city": "Berlin", "addr:country": "DE", "addr:housenumber": "89", "addr:postcode": "12459", "addr:street": "Wilhelminenhofstra\u00dfe", "addr:suburb": "Obersch\u00f6neweide", "amenity": "bar", "email": "info@drink-irish.de", "name": "The Double Inn", "opening_hours": "Su, Mo off; Tu-Th 18:00-24:00; Fr, Sa 18:00+", "phone": "+49 30 530 10 666", "website": "http://www.drink-irish.de", "wheelchair": "limited", "wheelchair:description": "Unterer Raum (Konzertfloor, Toiletten) durch Treppe nicht erreichbar."}}, {"type": "node", "id": 549934701, "lat": 52.4626436, "lon": 13.5125247}, {"type": "node", "id": 549934704, "lat": 52.4626116, "lon": 13.5126758}, {"type": "node", "id": 549934706, "lat": 52.4625874, "lon": 13.5126621}, {"type": "node", "id": 549934709, "lat": 52.4626191, "lon": 13.5125096}, {"type": "node", "id": 550547964, "lat": 52.4660078, "lon": 13.5029135}, {"type": "node", "id": 550551152, "lat": 52.4672072, "lon": 13.5024064}, {"type": "node", "id": 570225669, "lat": 52.4648811, "lon": 13.5141446, "tags": {"addr:city": "Berlin", "addr:country": "DE", "addr:housenumber": "1", "addr:postcode": "12459", "addr:street": "Griechische Allee", "addr:suburb": "Obersch\u00f6neweide", "amenity": "fast_food", "check_date:opening_hours": "2023-09-24", "name": "Mega Bistro", "opening_hours:signed": "no", "takeaway": "yes", "wheelchair": "limited"}}, {"type": "node", "id": 588400207, "lat": 52.4553797, "lon": 13.5635341}, {"type": "node", "id": 588400209, "lat": 52.4553893, "lon": 13.5633602}, {"type": "node", "id": 588400210, "lat": 52.4554436, "lon": 13.5635436}, {"type": "node", "id": 588400218, "lat": 52.455436, "lon": 13.5636801}, {"type": "node", "id": 588400220, "lat": 52.4556138, "lon": 13.5637065}, {"type": "node", "id": 588400222, "lat": 52.4556309, "lon": 13.5633961}, {"type": "node", "id": 596559372, "lat": 52.4615207, "lon": 13.5129466, "tags": {"addr:city": "Berlin", "addr:country": "DE", "addr:housenumber": "63", "addr:postcode": "12459", "addr:street": "Edisonstra\u00dfe", "addr:suburb": "Obersch\u00f6neweide", "amenity": "dentist", "description": "Zahn\u00e4rzte & Kieferorthop\u00e4die, Aufgang G", "healthcare": "dentist", "healthcare:speciality": "orthodontics", "name": "Zahnarztpraxis Schenk", "opening_hours": "Mo-We 07:30-19:00; Th 09:30-19:30", "phone": "+49 30 530 15 624", "website": "http://www.dr-schenk-berlin.de", "wheelchair": "yes"}}, {"type": "node", "id": 638725550, "lat": 52.4593208, "lon": 13.5365295, "tags": {"addr:city": "Berlin", "addr:country": "DE", "addr:housenumber": "154", "addr:postcode": "12459", "addr:street": "An der Wuhlheide", "addr:suburb": "Obersch\u00f6neweide", "entrance": "main"}}, {"type": "node", "id": 684041104, "lat": 52.467153, "lon": 13.5129334, "tags": {"addr:city": "Berlin", "addr:country": "DE", "addr:housenumber": "37", "addr:postcode": "12459", "addr:street": "Edisonstra\u00dfe", "addr:suburb": "Obersch\u00f6neweide", "amenity": "pub", "check_date:opening_hours": "2023-05-28", "indoor_seating": "yes", "name": "Edisoneck", "opening_hours:signed": "no", "outdoor_seating": "no", "smoking": "yes", "wheelchair": "no"}}, {"type": "node", "id": 715816177, "lat": 52.4649933, "lon": 13.5281734, "tags": {"access": "yes", "leisure": "playground"}}, {"type": "node", "id": 840198875, "lat": 52.4525545, "lon": 13.5593082}, {"type": "node", "id": 840198881, "lat": 52.452014, "lon": 13.5592484}, {"type": "node", "id": 840198884, "lat": 52.4532058, "lon": 13.5586107}, {"type": "node", "id": 840198893, "lat": 52.4526746, "lon": 13.5598432}, {"type": "node", "id": 840198896, "lat": 52.4503007, "lon": 13.5591262}, {"type": "node", "id": 840198898, "lat": 52.4529688, "lon": 13.558595}, {"type": "node", "id": 840198899, "lat": 52.4519593, "lon": 13.5589354}, {"type": "node", "id": 847906246, "lat": 52.4675348, "lon": 13.5130053, "tags": {"addr:city": "Berlin", "addr:country": "DE", "addr:housenumber": "36B", "addr:postcode": "12459", "addr:street": "Edisonstra\u00dfe", "addr:suburb": "Obersch\u00f6neweide", "amenity": "fast_food", "check_date:opening_hours": "2023-04-23", "cuisine": "international", "diet:vegetarian": "yes", "name": "Bistro Edison", "opening_hours": "Mo-Su 09:00-01:00", "opening_hours:signed": "no", "phone": "+49 176 66668659", "shop": "kiosk", "wheelchair": "yes"}}, {"type": "node", "id": 873653417, "lat": 52.4548193, "lon": 13.5208996}, {"type": "node", "id": 1033158590, "lat": 52.4598635, "lon": 13.5295453, "tags": {"addr:city": "Berlin", "addr:country": "DE", "addr:housenumber": "26", "addr:postcode": "12459", "addr:street": "Rathenaustra\u00dfe", "addr:suburb": "Obersch\u00f6neweide", "amenity": "restaurant", "check_date:opening_hours": "2023-05-08", "contact:phone": "+49 30 666 36 805", "contact:website": "http://masala-berlin.de/", "cuisine": "indian;singaporean", "diet:vegan": "no", "diet:vegetarian": "yes", "name": "Masala", "opening_hours": "12:00-23:00", "outdoor_seating": "yes", "wheelchair": "no"}}, {"type": "node", "id": 1311827250, "lat": 52.4791897, "lon": 13.4990482, "tags": {"addr:housenumber": "18", "addr:postcode": "12459", "addr:street": "Nalepastra\u00dfe", "amenity": "restaurant", "indoor_seating": "yes", "name": "Milchbar", "opening_hours": "Mo-Fr 10:00-17:00; Sa,Su 11:00-17:00", "outdoor_seating": "yes"}}, {"type": "node", "id": 1311872097, "lat": 52.4649535, "lon": 13.5103304}, {"type": "node", "id": 1311872103, "lat": 52.4652349, "lon": 13.5115563}, {"type": "node", "id": 1311872108, "lat": 52.4651679, "lon": 13.5111617}, {"type": "node", "id": 1311872114, "lat": 52.4664713, "lon": 13.5109243}, {"type": "node", "id": 1311872121, "lat": 52.465138, "lon": 13.5109822}, {"type": "node", "id": 1311872122, "lat": 52.4652053, "lon": 13.5113752}, {"type": "node", "id": 1311872152, "lat": 52.4661706, "lon": 13.5111382}, {"type": "node", "id": 1311872156, "lat": 52.4661015, "lon": 13.5107258}, {"type": "node", "id": 1311872168, "lat": 52.4664413, "lon": 13.5107374}, {"type": "node", "id": 1311872170, "lat": 52.4649981, "lon": 13.510491}, {"type": "node", "id": 1311872178, "lat": 52.4660708, "lon": 13.5105417}, {"type": "node", "id": 1311872180, "lat": 52.4661387, "lon": 13.5109486}, {"type": "node", "id": 1316803536, "lat": 52.4637956, "lon": 13.5121271}, {"type": "node", "id": 1316803538, "lat": 52.4693896, "lon": 13.5119128}, {"type": "node", "id": 1316803542, "lat": 52.4631312, "lon": 13.5113822}, {"type": "node", "id": 1339373058, "lat": 52.4590997, "lon": 13.5363989}, {"type": "node", "id": 1339373060, "lat": 52.4594944, "lon": 13.5360862}, {"type": "node", "id": 1339373062, "lat": 52.4593261, "lon": 13.5358207}, {"type": "node", "id": 1339442590, "lat": 52.459304, "lon": 13.5296992}, {"type": "node", "id": 1339442603, "lat": 52.4593834, "lon": 13.5298332}, {"type": "node", "id": 1362703565, "lat": 52.4612293, "lon": 13.5199829, "tags": {"addr:city": "Berlin", "addr:country": "DE", "addr:housenumber": "38", "addr:postcode": "12459", "addr:street": "Wilhelminenhofstra\u00dfe", "addr:suburb": "Obersch\u00f6neweide", "amenity": "fast_food", "check_date:opening_hours": "2023-01-09", "cuisine": "turkish", "name": "Efes Imbiss", "opening_hours:signed": "no", "takeaway": "yes", "wheelchair": "no"}}, {"type": "node", "id": 1373718465, "lat": 52.4593994, "lon": 13.5119383}, {"type": "node", "id": 1403275523, "lat": 52.4593429, "lon": 13.5364731}, {"type": "node", "id": 1403275531, "lat": 52.4594779, "lon": 13.5361284}, {"type": "node", "id": 1528702505, "lat": 52.4588824, "lon": 13.525882, "tags": {"addr:city": "Berlin", "addr:country": "DE", "addr:housenumber": "51", "addr:postcode": "12459", "addr:street": "Wilhelminenhofstra\u00dfe", "addr:suburb": "Obersch\u00f6neweide", "amenity": "fast_food", "cuisine": "turkish", "name": "Altintop", "opening_hours": "Mo-Fr 09:00-03:00, Sa 10:00-04:00", "takeaway": "yes", "wheelchair": "limited"}}, {"type": "node", "id": 1677234765, "lat": 52.4599861, "lon": 13.5291836, "tags": {"addr:city": "Berlin", "addr:country": "DE", "addr:housenumber": "23", "addr:postcode": "12459", "addr:street": "Rathenaustra\u00dfe", "addr:suburb": "Obersch\u00f6neweide", "amenity": "pub", "brewery": "Berliner Kindl", "brewery:Pils": "Warsteiner", "name": "Bei Steini", "opening_hours": "Mo-We 16:00+; Th,Fr 14:00+; Sa,Su 12:00+", "smoking": "yes", "wheelchair": "limited"}}, {"type": "node", "id": 1739128451, "lat": 52.4660307, "lon": 13.5103085}, {"type": "node", "id": 1739128452, "lat": 52.4631033, "lon": 13.5116455}, {"type": "node", "id": 1745643038, "lat": 52.4652413, "lon": 13.5115957}, {"type": "node", "id": 1745643040, "lat": 52.4649436, "lon": 13.5102909}, {"type": "node", "id": 1745643041, "lat": 52.4655528, "lon": 13.5114551}, {"type": "node", "id": 1745643042, "lat": 52.4652264, "lon": 13.5100587}, {"type": "node", "id": 1759713938, "lat": 52.4644936, "lon": 13.5122495, "tags": {"addr:city": "Berlin", "addr:country": "DE", "addr:postcode": "12459", "addr:suburb": "Obersch\u00f6neweide", "amenity": "restaurant", "cuisine": "asian", "delivery": "yes", "delivery:partner": "https://www.lieferando.de/speisekarte/asia-nguyen-restaurant", "name": "Asia Nguyen", "opening_hours": "Tu-Th 11:00-21:00; Fr-Su 11:00-22:00", "takeaway": "yes"}}, {"type": "node", "id": 1773907576, "lat": 52.459156, "lon": 13.5302603}, {"type": "node", "id": 1791397286, "lat": 52.4579667, "lon": 13.5170477}, {"type": "node", "id": 1806879090, "lat": 52.4587965, "lon": 13.513671}, {"type": "node", "id": 1806879092, "lat": 52.4588616, "lon": 13.513497}, {"type": "node", "id": 1883431621, "lat": 52.4696816, "lon": 13.5099077}, {"type": "node", "id": 1883431624, "lat": 52.4701103, "lon": 13.5094858}, {"type": "node", "id": 2042665339, "lat": 52.4691097, "lon": 13.5128025}, {"type": "node", "id": 2097620350, "lat": 52.459261, "lon": 13.5128062}, {"type": "node", "id": 2097622331, "lat": 52.463055, "lon": 13.511869}, {"type": "node", "id": 2097622335, "lat": 52.4633878, "lon": 13.5120618}, {"type": "node", "id": 2097622336, "lat": 52.4634361, "lon": 13.5118383}, {"type": "node", "id": 2125335131, "lat": 52.4589796, "lon": 13.5183527}, {"type": "node", "id": 2125335142, "lat": 52.4590925, "lon": 13.5189684}, {"type": "node", "id": 2287046201, "lat": 52.4684755, "lon": 13.5074068}, {"type": "node", "id": 2287046255, "lat": 52.4698254, "lon": 13.5075198}, {"type": "node", "id": 2287046256, "lat": 52.4698309, "lon": 13.5076977}, {"type": "node", "id": 2287046257, "lat": 52.4698589, "lon": 13.5076821}, {"type": "node", "id": 2287046259, "lat": 52.4698839, "lon": 13.5079546}, {"type": "node", "id": 2287046260, "lat": 52.4699368, "lon": 13.5075584}, {"type": "node", "id": 2287046262, "lat": 52.4699403, "lon": 13.5074558}, {"type": "node", "id": 2287046263, "lat": 52.469959, "lon": 13.5075461}, {"type": "node", "id": 2287046264, "lat": 52.4699796, "lon": 13.5077658}, {"type": "node", "id": 2287046265, "lat": 52.4699997, "lon": 13.5077547}, {"type": "node", "id": 2287046266, "lat": 52.4700248, "lon": 13.5078762}, {"type": "node", "id": 2317468873, "lat": 52.4592924, "lon": 13.5366022}, {"type": "node", "id": 2317468876, "lat": 52.4593668, "lon": 13.5359517}, {"type": "node", "id": 2317468879, "lat": 52.4593912, "lon": 13.5358894}, {"type": "node", "id": 2338524282, "lat": 52.4614006, "lon": 13.5484096, "tags": {"amenity": "fast_food", "name": "Caf\u00e9 Zauberbaum", "opening_hours": "Mo-Fr 10:00-16:00; Sa,Su 10:00-18:00", "wheelchair": "yes"}}, {"type": "node", "id": 2446830282, "lat": 52.4536897, "lon": 13.5235977}, {"type": "node", "id": 2450175919, "lat": 52.451126, "lon": 13.5590378}, {"type": "node", "id": 2450175923, "lat": 52.4513186, "lon": 13.5590225}, {"type": "node", "id": 2450175936, "lat": 52.4519894, "lon": 13.5587537}, {"type": "node", "id": 2450176000, "lat": 52.452656, "lon": 13.5586941}, {"type": "node", "id": 2450176001, "lat": 52.4526633, "lon": 13.5588768}, {"type": "node", "id": 2450176002, "lat": 52.4529552, "lon": 13.5588583}, {"type": "node", "id": 2450695563, "lat": 52.4619977, "lon": 13.5474947}, {"type": "node", "id": 2450695566, "lat": 52.4621182, "lon": 13.5470893}, {"type": "node", "id": 2450695567, "lat": 52.4623394, "lon": 13.5470695}, {"type": "node", "id": 2704581093, "lat": 52.4545842, "lon": 13.521711}, {"type": "node", "id": 2704581106, "lat": 52.4651124, "lon": 13.5109021}, {"type": "node", "id": 2704581110, "lat": 52.4651246, "lon": 13.5108952}, {"type": "node", "id": 2758433171, "lat": 52.4604341, "lon": 13.5185519}, {"type": "node", "id": 2758433176, "lat": 52.4604583, "lon": 13.5184435}, {"type": "node", "id": 2758433178, "lat": 52.4604793, "lon": 13.518579}, {"type": "node", "id": 2758433180, "lat": 52.4605034, "lon": 13.5184706}, {"type": "node", "id": 2769012861, "lat": 52.4663439, "lon": 13.5101448}, {"type": "node", "id": 2769012868, "lat": 52.4664832, "lon": 13.5110007}, {"type": "node", "id": 2804261172, "lat": 52.4599116, "lon": 13.5336498}, {"type": "node", "id": 2804261175, "lat": 52.4599458, "lon": 13.5333632}, {"type": "node", "id": 2804261182, "lat": 52.4606917, "lon": 13.5332649}, {"type": "node", "id": 2808971839, "lat": 52.4580987, "lon": 13.5273043, "tags": {"addr:city": "Berlin", "addr:country": "DE", "addr:housenumber": "65", "addr:postcode": "12459", "addr:street": "Wilhelminenhofstra\u00dfe", "addr:suburb": "Obersch\u00f6neweide", "amenity": "restaurant", "check_date:opening_hours": "2025-01-05", "cuisine": "burger", "name": "Thronburger", "opening_hours": "Mo-Su 11:00-23:00", "source": "Geoportal Berlin / Adressen Berlin", "website": "http://www.Thronburger.de", "wheelchair": "no"}}, {"type": "node", "id": 2813587459, "lat": 52.4636528, "lon": 13.5116945}, {"type": "node", "id": 2813587461, "lat": 52.4636934, "lon": 13.5116778}, {"type": "node", "id": 2870917194, "lat": 52.4631636, "lon": 13.5215362, "tags": {"access": "private", "leisure": "playground"}}, {"type": "node", "id": 2870917200, "lat": 52.4634187, "lon": 13.5189562, "tags": {"access": "private", "leisure": "playground"}}, {"type": "node", "id": 2872836241, "lat": 52.4619771, "lon": 13.5247334}, {"type": "node", "id": 2872836243, "lat": 52.46224, "lon": 13.5250523}, {"type": "node", "id": 2872836244, "lat": 52.4623832, "lon": 13.5247319}, {"type": "node", "id": 2916141750, "lat": 52.4543062, "lon": 13.5675909}, {"type": "node", "id": 2967343002, "lat": 52.4707133, "lon": 13.5198936}, {"type": "node", "id": 2967343003, "lat": 52.4705263, "lon": 13.5201134}, {"type": "node", "id": 2970026045, "lat": 52.4535348, "lon": 13.5239956}, {"type": "node", "id": 2970026049, "lat": 52.4537293, "lon": 13.5233666}, {"type": "node", "id": 2970026052, "lat": 52.4539814, "lon": 13.5226279}, {"type": "node", "id": 2970026054, "lat": 52.454345, "lon": 13.521715}, {"type": "node", "id": 3012143573, "lat": 52.464407, "lon": 13.5138972, "tags": {"addr:city": "Berlin", "addr:country": "DE", "addr:housenumber": "18", "addr:postcode": "12459", "addr:street": "Edisonstra\u00dfe", "addr:suburb": "Obersch\u00f6neweide", "amenity": "pharmacy", "check_date:opening_hours": "2024-05-31", "contact:email": "info@falken-apo-berlin.de", "dispensing": "yes", "healthcare": "pharmacy", "name": "Falken-Apotheke", "opening_hours": "Mo-Fr 08:00-18:30; Sa 08:30-13:00", "operator": "Ute Nitzer", "phone": "+49 30 5351125", "website": "https://www.falken-apo-berlin.de/", "wheelchair": "no"}}, {"type": "node", "id": 3042113640, "lat": 52.4588396, "lon": 13.5137468}, {"type": "node", "id": 3042113644, "lat": 52.4594104, "lon": 13.5124542}, {"type": "node", "id": 3166193497, "lat": 52.4531981, "lon": 13.5598544}, {"type": "node", "id": 3363880795, "lat": 52.4586651, "lon": 13.5296967}, {"type": "node", "id": 3363880800, "lat": 52.4587547, "lon": 13.5295576}, {"type": "node", "id": 3363880806, "lat": 52.4589945, "lon": 13.5299761}, {"type": "node", "id": 3507463054, "lat": 52.4626045, "lon": 13.5479253}, {"type": "node", "id": 3514152459, "lat": 52.4626198, "lon": 13.5150369, "tags": {"addr:city": "Berlin", "addr:country": "DE", "addr:housenumber": "17", "addr:postcode": "12459", "addr:street": "Wilhelminenhofstra\u00dfe", "addr:suburb": "Obersch\u00f6neweide", "amenity": "restaurant", "contact:facebook": "https://www.facebook.com/reel/825657499533061", "contact:mobile": "+49 176 41825325", "cuisine": "pizza; pasta", "delivery": "yes", "name": "BIG BOSS", "opening_hours": "Mo-Su 12:00-22:00", "takeaway": "yes", "wheelchair": "yes"}}, {"type": "node", "id": 3535898787, "lat": 52.4574255, "lon": 13.533528, "tags": {"addr:city": "Berlin", "addr:country": "DE", "addr:housenumber": "25", "addr:postcode": "12459", "addr:street": "Ostendstra\u00dfe", "addr:suburb": "Obersch\u00f6neweide", "amenity": "restaurant", "cuisine": "german", "name": "Kantinen & Partyservice Siering", "opening_hours": "Mo-Fr 07:30-15:15", "smoking": "outside", "website": "http://www.partyservice-siering.de", "wheelchair": "yes"}}, {"type": "node", "id": 3540728139, "lat": 52.4546702, "lon": 13.5210991}, {"type": "node", "id": 3540728159, "lat": 52.4551287, "lon": 13.520527}, {"type": "node", "id": 3540728164, "lat": 52.4551519, "lon": 13.5206774}, {"type": "node", "id": 3540728189, "lat": 52.4561784, "lon": 13.5200992}, {"type": "node", "id": 3540728765, "lat": 52.4552326, "lon": 13.5202816}, {"type": "node", "id": 3540729112, "lat": 52.4570707, "lon": 13.5188685}, {"type": "node", "id": 3600009142, "lat": 52.464588, "lon": 13.5178432, "tags": {"barrier": "kerb", "kerb": "raised", "tactile_paving": "no"}}, {"type": "node", "id": 3609505013, "lat": 52.463853, "lon": 13.5422613}, {"type": "node", "id": 3609505014, "lat": 52.4638758, "lon": 13.5421226}, {"type": "node", "id": 3609505015, "lat": 52.4639088, "lon": 13.542348}, {"type": "node", "id": 3609505017, "lat": 52.463979, "lon": 13.5423786}, {"type": "node", "id": 3609505019, "lat": 52.4640015, "lon": 13.5422552}, {"type": "node", "id": 3609505020, "lat": 52.4640197, "lon": 13.5421756}, {"type": "node", "id": 3609505022, "lat": 52.4639582, "lon": 13.5421203}, {"type": "node", "id": 3609505023, "lat": 52.4641975, "lon": 13.5424312, "tags": {"amenity": "cafe", "contact:email": "info@hnu-berlin.de", "contact:phone": "+49 30 5351986", "contact:website": "https://wuhlheide-erleben.de/angebot/waldcafe-im-haus-natur-und-umwelt/", "name": "Waldcafe", "opening_hours": "Apr-Sep Tu-Su 10:00-18:00; Oct-Mar Tu-Su 10:00-16:00"}}, {"type": "node", "id": 3754485563, "lat": 52.461747, "lon": 13.5503493}, {"type": "node", "id": 3754485572, "lat": 52.4621802, "lon": 13.54794}, {"type": "node", "id": 3754485577, "lat": 52.4622315, "lon": 13.5477596}, {"type": "node", "id": 3754485585, "lat": 52.4623354, "lon": 13.5480599}, {"type": "node", "id": 3754485593, "lat": 52.4623839, "lon": 13.5478742}, {"type": "node", "id": 3789128028, "lat": 52.4624171, "lon": 13.514682, "tags": {"addr:city": "Berlin", "addr:country": "DE", "addr:housenumber": "17", "addr:postcode": "12459", "addr:street": "Wilhelminenhofstra\u00dfe", "addr:suburb": "Obersch\u00f6neweide", "amenity": "restaurant", "cuisine": "asian", "level": "0", "name": "Annami", "opening_hours": "Tu-Su 11:00-22:00; PH 11:00-22:00; Mo off", "wheelchair": "limited"}}, {"type": "node", "id": 3789215205, "lat": 52.4625961, "lon": 13.513846, "tags": {"addr:city": "Berlin", "addr:country": "DE", "addr:postcode": "12459", "amenity": "fast_food", "check_date": "2023-12-09", "cuisine": "turkish", "name": "D\u00f6ner Bistro", "opening_hours:signed": "no", "takeaway": "yes", "wheelchair": "no"}}, {"type": "node", "id": 3792654757, "lat": 52.4624533, "lon": 13.5145636, "tags": {"addr:city": "Berlin", "addr:country": "DE", "addr:housenumber": "16a", "addr:postcode": "12459", "addr:street": "Wilhelminenhofstra\u00dfe", "addr:suburb": "Obersch\u00f6neweide", "amenity": "fast_food", "cuisine": "kebab", "name": "Bistro Weide", "wheelchair": "limited"}}, {"type": "node", "id": 3792671146, "lat": 52.4616163, "lon": 13.5182523, "tags": {"addr:city": "Berlin", "addr:country": "DE", "addr:housenumber": "32", "addr:postcode": "12459", "addr:street": "Wilhelminenhofstra\u00dfe", "addr:suburb": "Obersch\u00f6neweide", "amenity": "restaurant", "capacity": "60", "cuisine": "asian", "delivery": "yes", "description": "Vietnamesische K\u00fcche, Sushi-Bar, Lieferservice", "name": "Sen Viet", "opening_hours": "Mo-Fr 11:00-22:00; Sa,Su 12:00-22:00", "phone": "+49 30 526 60 902", "smoking": "no", "takeaway": "yes", "wheelchair": "yes"}}, {"type": "node", "id": 3792671339, "lat": 52.4615877, "lon": 13.5183798, "tags": {"addr:city": "Berlin", "addr:country": "DE", "addr:housenumber": "32", "addr:postcode": "12459", "addr:street": "Wilhelminenhofstra\u00dfe", "addr:suburb": "Obersch\u00f6neweide", "amenity": "restaurant", "check_date:opening_hours": "2023-01-15", "cuisine": "sushi", "name": "YOKO Sushi", "opening_hours:signed": "no", "wheelchair": "no"}}, {"type": "node", "id": 3859556861, "lat": 52.4593855, "lon": 13.5125079}, {"type": "node", "id": 3859556863, "lat": 52.4606135, "lon": 13.5093455}, {"type": "node", "id": 3859588574, "lat": 52.4593705, "lon": 13.5118961}, {"type": "node", "id": 3859590646, "lat": 52.4626147, "lon": 13.5478807}, {"type": "node", "id": 3859592460, "lat": 52.4637717, "lon": 13.5470925}, {"type": "node", "id": 3859592461, "lat": 52.4637825, "lon": 13.5473318}, {"type": "node", "id": 3859592462, "lat": 52.4637874, "lon": 13.5471806}, {"type": "node", "id": 3883140251, "lat": 52.4610262, "lon": 13.5196457, "tags": {"addr:city": "Berlin", "addr:country": "DE", "addr:housenumber": "82A", "addr:postcode": "12459", "addr:street": "Wilhelminenhofstra\u00dfe", "addr:suburb": "Obersch\u00f6neweide", "air_conditioning": "no", "amenity": "cafe", "check_date:opening_hours": "2023-02-12", "description": "Tabakwaren, Getr\u00e4nke, S\u00fcsswaren, Zeitungen", "diet:halal": "no", "diet:kosher": "no", "diet:vegetarian": "no", "name": "Echo 36 Sp\u00e4tkauf", "opening_hours": "PH,Mo-Su 06:00-05:00", "smoking": "separated", "wheelchair": "yes"}}, {"type": "node", "id": 3883143867, "lat": 52.4618568, "lon": 13.5171942, "tags": {"addr:city": "Berlin", "addr:country": "DE", "addr:housenumber": "27", "addr:postcode": "12459", "addr:street": "Wilhelminenhofstra\u00dfe", "addr:suburb": "Obersch\u00f6neweide", "amenity": "pharmacy", "check_date:opening_hours": "2024-08-05", "contact:email": "info@sonnen-apotheke-osw.de", "healthcare": "pharmacy", "name": "Sonnen-Apotheke", "opening_hours": "Mo-Fr 08:00-19:00; Sa 08:30-13:00", "operator": "Annette Arendt", "phone": "+49 30 5376785", "website": "https://www.sonnen-apotheke-osw.de/", "wheelchair": "no"}}, {"type": "node", "id": 3883161121, "lat": 52.4624926, "lon": 13.5170152, "tags": {"addr:city": "Berlin", "addr:country": "DE", "addr:housenumber": "34", "addr:postcode": "12459", "addr:street": "Goethestra\u00dfe", "addr:suburb": "Obersch\u00f6neweide", "amenity": "restaurant", "cuisine": "german", "email": "kiezkueche@hotmail.com", "name": "Kiez - K\u00fcche", "opening_hours": "Mo-Fr 08:00-14:00", "phone": "+49 30 531 93 61", "website": "http://www.kiez-kueche.de", "wheelchair": "yes"}}, {"type": "node", "id": 3883215153, "lat": 52.4638103, "lon": 13.5184661, "tags": {"addr:city": "Berlin", "addr:country": "DE", "addr:housenumber": "24", "addr:postcode": "12459", "addr:street": "Griechische Allee", "addr:suburb": "Obersch\u00f6neweide", "amenity": "pharmacy", "check_date:opening_hours": "2024-05-31", "contact:email": "info@kantapo.de", "contact:phone": "+49 30 5350736", "contact:website": "https://www.kantapo.de/", "healthcare": "pharmacy", "name": "Kant - Apotheke", "opening_hours": "Mo-Fr 08:00-18:30; Sa 08:00-13:00", "operator": "Christine Kempfert", "wheelchair": "no"}}, {"type": "node", "id": 3883215891, "lat": 52.463474, "lon": 13.5177037, "tags": {"addr:city": "Berlin", "addr:country": "DE", "addr:housenumber": "2", "addr:postcode": "12459", "addr:street": "Schillerpromenade", "addr:suburb": "Obersch\u00f6neweide", "amenity": "doctors", "check_date:opening_hours": "2024-05-31", "healthcare": "doctor", "healthcare:speciality": "dermatology;allergology", "name": "Dr. Sven Dreher", "opening_hours": "Mo 08:00-12:00,14:30-16:00; Tu 08:00-12:00,14:30-16:00; We 08:00-12:00; Th 08:00-12:00,14:30-16:00", "phone": "+49 30 5354454", "wheelchair": "no"}}, {"type": "node", "id": 3883245680, "lat": 52.4614029, "lon": 13.5192063, "tags": {"addr:city": "Berlin", "addr:country": "DE", "addr:housenumber": "35", "addr:postcode": "12459", "addr:street": "Wilhelminenhofstra\u00dfe", "addr:suburb": "Obersch\u00f6neweide", "amenity": "fast_food", "contact:phone": "+49 30 530 13 419", "contact:website": "http://www.tung-5in1.de", "cuisine": "asian;vietnamese;sushi", "delivery": "yes", "name": "Mr. Tung & Friends", "old_name": "Tung 5 in 1", "opening_hours": "Mo-Fr 11:00-22:00; Sa 11:00-21:00; Su 11:00-22:00", "takeaway": "yes", "wheelchair": "yes"}}, {"type": "node", "id": 3883260157, "lat": 52.4613116, "lon": 13.5196151, "tags": {"addr:city": "Berlin", "addr:country": "DE", "addr:housenumber": "37", "addr:postcode": "12459", "addr:street": "Wilhelminenhofstra\u00dfe", "addr:suburb": "Obersch\u00f6neweide", "amenity": "restaurant", "check_date:opening_hours": "2023-02-12", "name": "Manhattan Burger", "opening_hours:signed": "no", "wheelchair": "no"}}, {"type": "node", "id": 3883260176, "lat": 52.4612763, "lon": 13.5197728, "tags": {"addr:city": "Berlin", "addr:country": "DE", "addr:housenumber": "37", "addr:postcode": "12459", "addr:street": "Wilhelminenhofstra\u00dfe", "addr:suburb": "Obersch\u00f6neweide", "amenity": "fast_food", "name": "Kilimanjaro", "wheelchair": "yes"}}, {"type": "node", "id": 3883262657, "lat": 52.4612569, "lon": 13.5198598, "tags": {"addr:city": "Berlin", "addr:country": "DE", "addr:housenumber": "38", "addr:postcode": "12459", "addr:street": "Wilhelminenhofstra\u00dfe", "addr:suburb": "Obersch\u00f6neweide", "amenity": "bar", "description": "Cocktailbar, Sportsbar", "name": "Caf\u00e9 Zero", "opening_hours": "Mo-Su 06:00-05:00", "smoking": "yes", "wheelchair": "no"}}, {"type": "node", "id": 3883262951, "lat": 52.4611388, "lon": 13.520388, "tags": {"addr:city": "Berlin", "addr:country": "DE", "addr:housenumber": "40", "addr:postcode": "12459", "addr:street": "Wilhelminenhofstra\u00dfe", "addr:suburb": "Obersch\u00f6neweide", "amenity": "restaurant", "cuisine": "italian", "description": "Pasta, Antipasta, Zuppa, Spaghetti, Insalata", "name": "Pizzeria Don Camillo", "opening_hours": "Mo-Su 11:00-22:00", "smoking": "no", "takeaway": "yes", "wheelchair": "no"}}, {"type": "node", "id": 3883263612, "lat": 52.4611103, "lon": 13.5205151, "tags": {"addr:city": "Berlin", "addr:country": "DE", "addr:housenumber": "40", "addr:postcode": "12459", "addr:street": "Wilhelminenhofstra\u00dfe", "addr:suburb": "Obersch\u00f6neweide", "amenity": "cafe", "check_date:opening_hours": "2023-02-28", "name": "Eiscaf\u00e9", "opening_hours:signed": "no", "wheelchair": "limited"}}, {"type": "node", "id": 3883265124, "lat": 52.4611564, "lon": 13.518837, "tags": {"addr:city": "Berlin", "addr:country": "DE", "addr:housenumber": "2", "addr:postcode": "12459", "addr:street": "Reinbeckstra\u00dfe", "addr:suburb": "Obersch\u00f6neweide", "amenity": "restaurant", "name": "SMASH IT!", "opening_hours": "Mo-Su 11:30-22:00"}}, {"type": "node", "id": 3883283589, "lat": 52.4622725, "lon": 13.5153513, "tags": {"addr:city": "Berlin", "addr:country": "DE", "addr:housenumber": "19", "addr:postcode": "12459", "addr:street": "Wilhelminenhofstra\u00dfe", "addr:suburb": "Obersch\u00f6neweide", "amenity": "doctors", "check_date:opening_hours": "2023-01-30", "contact:website": "http://augenarztpraxis-edel.de", "healthcare": "doctor", "healthcare:speciality": "ophthalmology", "name": "Dr. Martina Edel", "opening_hours": "Mo,Th 11:00-14:00,15:00-18:00, Tu,We 08:00-12:30, Fr 08:00-12:00; PH off", "phone": "+49 30 5354065", "wheelchair": "no"}}, {"type": "node", "id": 3905700621, "lat": 52.464088, "lon": 13.5139043, "tags": {"addr:city": "Berlin", "addr:country": "DE", "addr:housenumber": "17", "addr:postcode": "12459", "addr:street": "Edisonstra\u00dfe", "addr:suburb": "Obersch\u00f6neweide", "amenity": "bar", "name": "Lucky Bar"}}, {"type": "node", "id": 3905701252, "lat": 52.4633952, "lon": 13.5136493, "tags": {"addr:city": "Berlin", "addr:country": "DE", "addr:housenumber": "58", "addr:postcode": "12459", "addr:street": "Edisonstra\u00dfe", "addr:suburb": "Obersch\u00f6neweide", "amenity": "fast_food", "name": "Schnitzery", "wheelchair": "no"}}, {"type": "node", "id": 3906180402, "lat": 52.4639271, "lon": 13.5135858, "tags": {"addr:city": "Berlin", "addr:country": "DE", "addr:housenumber": "55", "addr:postcode": "12459", "addr:street": "Edisonstra\u00dfe", "addr:suburb": "Obersch\u00f6neweide", "contact:phone": "+49 30 5375043", "healthcare": "podiatrist", "name": "Fusspflege Salon", "wheelchair": "limited"}}, {"type": "node", "id": 3906190918, "lat": 52.4633715, "lon": 13.514082, "tags": {"addr:city": "Berlin", "addr:country": "DE", "addr:housenumber": "13", "addr:postcode": "12459", "addr:street": "Edisonstra\u00dfe", "addr:suburb": "Obersch\u00f6neweide", "amenity": "fast_food", "cuisine": "pizza", "name": "Jimmy's Pizza & Burger", "opening_hours": "Mo-Su 12:00-21:45", "phone": "030 53013818", "website": "https://www.jimmys-pizza.de/"}}, {"type": "node", "id": 3906194252, "lat": 52.4632228, "lon": 13.5137334, "tags": {"addr:city": "Berlin", "addr:country": "DE", "addr:housenumber": "59", "addr:postcode": "12459", "addr:street": "Edisonstra\u00dfe", "addr:suburb": "Obersch\u00f6neweide", "amenity": "fast_food", "check_date": "2025-06-14", "check_date:opening_hours": "2023-09-22", "cuisine": "burger", "email": "staatsburgerberlin@gmail.com", "indoor_seating": "yes", "level": "0", "name": "StaatsBurger", "opening_hours": "Mo-Su 11:30-22:00", "outdoor_seating": "no", "phone": "030 818 646 29", "takeaway": "yes", "toilets": "yes", "toilets:wheelchair": "no", "website": "https://staatsburger.simplywebshop.de/", "wheelchair": "no"}}, {"type": "node", "id": 3906198851, "lat": 52.4627894, "lon": 13.5138044, "tags": {"addr:city": "Berlin", "addr:country": "DE", "addr:housenumber": "62", "addr:postcode": "12459", "addr:street": "Edisonstra\u00dfe", "addr:suburb": "Obersch\u00f6neweide", "amenity": "restaurant", "cuisine": "vietnamese;japanese", "indoor_seating": "yes", "name": "Thang Long", "opening_hours": "Mo-Su 11:00-21:30", "opening_hours:signed": "no", "outdoor_seating": "yes", "phone": "+49 30 53007492", "website": "http://thanglong-vietnam.de/", "wheelchair": "no"}}, {"type": "node", "id": 3906206811, "lat": 52.4626672, "lon": 13.514251, "tags": {"addr:city": "Berlin", "addr:country": "DE", "addr:housenumber": "16", "addr:postcode": "12459", "addr:street": "Wilhelminenhofstra\u00dfe", "addr:suburb": "Obersch\u00f6neweide", "amenity": "pub", "description": "Raucherkneipe, Karaoke, Caf\u00e9", "name": "Rock or Bust", "opening_hours": "Mo-Su 15:00-24:00+", "smoking": "yes", "wheelchair": "no"}}, {"type": "node", "id": 3906219507, "lat": 52.4643412, "lon": 13.5161357, "tags": {"addr:city": "Berlin", "addr:country": "DE", "addr:housenumber": "14", "addr:postcode": "12459", "addr:street": "Griechische Allee", "addr:suburb": "Obersch\u00f6neweide", "amenity": "doctors", "check_date:opening_hours": "2024-05-31", "description": "Akutsprechstunde ohne Termin t\u00e4glich 8-10h sowie Di und Do 13-14h", "healthcare": "doctor", "healthcare:speciality": "general;internal", "name": "Dr. A. Kluge, W. Becker, Dr. L. Noesselt", "opening_hours": "Mo,We 08:00-15:00; Tu,Th 08:00-19:00; Fr 08:00-13:00", "opening_hours:signed": "yes", "phone": "+49 30 5351807", "toilets:wheelchair": "no", "website": "https://www.praxis-dr-kluge.de/", "wheelchair": "no"}}, {"type": "node", "id": 3906225449, "lat": 52.4643758, "lon": 13.5160176, "tags": {"addr:city": "Berlin", "addr:country": "DE", "addr:housenumber": "14", "addr:postcode": "12459", "addr:street": "Griechische Allee", "addr:suburb": "Obersch\u00f6neweide", "check_date:opening_hours": "2024-05-31", "healthcare": "physiotherapist", "name": "Physiotherapie Heinz Hein", "office": "therapist", "opening_hours": "\"Termine nach Vereinbarung\"", "phone": "+49 30 715 70 906", "wheelchair": "no"}}, {"type": "node", "id": 3908265303, "lat": 52.4598747, "lon": 13.5203682, "tags": {"addr:city": "Berlin", "addr:country": "DE", "addr:housenumber": "5", "addr:postcode": "12459", "addr:street": "Lauffener Stra\u00dfe", "addr:suburb": "Obersch\u00f6neweide", "amenity": "dentist", "healthcare": "dentist", "name": "Dr. -medic stom Marion Grein", "opening_hours": "We,Th 10:00-13:00"}}, {"type": "node", "id": 3972068377, "lat": 52.4569818, "lon": 13.5190625}, {"type": "node", "id": 3972068380, "lat": 52.4563072, "lon": 13.5200834}, {"type": "node", "id": 3972068384, "lat": 52.4565659, "lon": 13.5197545}, {"type": "node", "id": 4084373095, "lat": 52.4637322, "lon": 13.5119124}, {"type": "node", "id": 4084373096, "lat": 52.4637937, "lon": 13.5119499}, {"type": "node", "id": 4093356917, "lat": 52.4590905, "lon": 13.5188513}, {"type": "node", "id": 4094948213, "lat": 52.4581, "lon": 13.5286909}, {"type": "node", "id": 4094948220, "lat": 52.4583454, "lon": 13.5292407}, {"type": "node", "id": 4094948221, "lat": 52.4583831, "lon": 13.5291838}, {"type": "node", "id": 4094948223, "lat": 52.4586359, "lon": 13.529742}, {"type": "node", "id": 4094948225, "lat": 52.4587099, "lon": 13.5293182}, {"type": "node", "id": 4094948230, "lat": 52.4588585, "lon": 13.5290287}, {"type": "node", "id": 4094948231, "lat": 52.4589129, "lon": 13.5296718}, {"type": "node", "id": 4094948238, "lat": 52.4590845, "lon": 13.5294257}, {"type": "node", "id": 4113764194, "lat": 52.4617267, "lon": 13.5178617, "tags": {"addr:city": "Berlin", "addr:country": "DE", "addr:housenumber": "30", "addr:postcode": "12459", "addr:street": "Wilhelminenhofstra\u00dfe", "addr:suburb": "Obersch\u00f6neweide", "amenity": "dentist", "description": "Dipl.-Stomatologin", "healthcare": "dentist", "name": "Kathrin Schimmack", "opening_hours": "Mo-Tu 12:00-19:00; We-Th 08:30-13:00; Fr 12:00-18:00", "phone": "+49 30 535 15 34", "website": "https://www.zahnarztpraxis-schimmack.de", "wheelchair": "no"}}, {"type": "node", "id": 4219866805, "lat": 52.4623517, "lon": 13.529915}, {"type": "node", "id": 4267884666, "lat": 52.4644982, "lon": 13.5175854}, {"type": "node", "id": 4267884667, "lat": 52.4642611, "lon": 13.5175065}, {"type": "node", "id": 4267884668, "lat": 52.4642193, "lon": 13.517743}, {"type": "node", "id": 4267884669, "lat": 52.4644699, "lon": 13.5178132}, {"type": "node", "id": 4267884670, "lat": 52.4646849, "lon": 13.5159425}, {"type": "node", "id": 4267884671, "lat": 52.464665, "lon": 13.5165435}, {"type": "node", "id": 4267884672, "lat": 52.4644365, "lon": 13.5165266}, {"type": "node", "id": 4267884673, "lat": 52.4646114, "lon": 13.5159184}, {"type": "node", "id": 4267887461, "lat": 52.4644952, "lon": 13.5176092}, {"type": "node", "id": 4267887462, "lat": 52.4641081, "lon": 13.5201657}, {"type": "node", "id": 4267887463, "lat": 52.4640149, "lon": 13.5206123}, {"type": "node", "id": 4267887464, "lat": 52.4638221, "lon": 13.5205036}, {"type": "node", "id": 4267887465, "lat": 52.4638728, "lon": 13.5200302}, {"type": "node", "id": 4283567424, "lat": 52.4650434, "lon": 13.5106511}, {"type": "node", "id": 4283567425, "lat": 52.465088, "lon": 13.5108116}, {"type": "node", "id": 4283567427, "lat": 52.4654266, "lon": 13.5107027}, {"type": "node", "id": 4608500579, "lat": 52.4585083, "lon": 13.5282987}, {"type": "node", "id": 4608500580, "lat": 52.458374, "lon": 13.5284952}, {"type": "node", "id": 4608500581, "lat": 52.4583052, "lon": 13.5283745}, {"type": "node", "id": 4637973137, "lat": 52.4620468, "lon": 13.528765}, {"type": "node", "id": 4637973138, "lat": 52.4620206, "lon": 13.5287839}, {"type": "node", "id": 4637973139, "lat": 52.461983, "lon": 13.5287671}, {"type": "node", "id": 4637973140, "lat": 52.4619689, "lon": 13.5287009}, {"type": "node", "id": 4637973141, "lat": 52.4619823, "lon": 13.528623}, {"type": "node", "id": 4637973142, "lat": 52.4620084, "lon": 13.5286041}, {"type": "node", "id": 4637973143, "lat": 52.462049, "lon": 13.5285938}, {"type": "node", "id": 4637973144, "lat": 52.4620603, "lon": 13.5287069}, {"type": "node", "id": 4637973145, "lat": 52.4624547, "lon": 13.527674}, {"type": "node", "id": 4637973146, "lat": 52.462412, "lon": 13.5276934}, {"type": "node", "id": 4637973147, "lat": 52.4623622, "lon": 13.5276753}, {"type": "node", "id": 4637973148, "lat": 52.4623322, "lon": 13.5275592}, {"type": "node", "id": 4637973149, "lat": 52.4623601, "lon": 13.5275042}, {"type": "node", "id": 4637973150, "lat": 52.4624118, "lon": 13.5274989}, {"type": "node", "id": 4637973151, "lat": 52.4624719, "lon": 13.5275545}, {"type": "node", "id": 4637973152, "lat": 52.4624796, "lon": 13.5276425}, {"type": "node", "id": 4637973153, "lat": 52.4627593, "lon": 13.5264189}, {"type": "node", "id": 4637973154, "lat": 52.4627376, "lon": 13.5264466}, {"type": "node", "id": 4637973155, "lat": 52.4627133, "lon": 13.5264402}, {"type": "node", "id": 4637973156, "lat": 52.4626756, "lon": 13.5264163}, {"type": "node", "id": 4637973157, "lat": 52.4626442, "lon": 13.5263669}, {"type": "node", "id": 4637973158, "lat": 52.4626387, "lon": 13.5262842}, {"type": "node", "id": 4637973159, "lat": 52.4626469, "lon": 13.5262316}, {"type": "node", "id": 4637973160, "lat": 52.4626699, "lon": 13.5262273}, {"type": "node", "id": 4637973161, "lat": 52.4627103, "lon": 13.5262854}, {"type": "node", "id": 4637973162, "lat": 52.4627525, "lon": 13.5263182}, {"type": "node", "id": 4637973163, "lat": 52.4627762, "lon": 13.5263678}, {"type": "node", "id": 4637973164, "lat": 52.4618206, "lon": 13.5266298}, {"type": "node", "id": 4637973165, "lat": 52.4618225, "lon": 13.5266889}, {"type": "node", "id": 4637973166, "lat": 52.461805, "lon": 13.5267831}, {"type": "node", "id": 4637973167, "lat": 52.4617586, "lon": 13.526855}, {"type": "node", "id": 4637973168, "lat": 52.4617069, "lon": 13.5268567}, {"type": "node", "id": 4637973169, "lat": 52.4616514, "lon": 13.5268189}, {"type": "node", "id": 4637973170, "lat": 52.4616342, "lon": 13.5266753}, {"type": "node", "id": 4637973171, "lat": 52.4616329, "lon": 13.5265745}, {"type": "node", "id": 4637973172, "lat": 52.4616828, "lon": 13.5265152}, {"type": "node", "id": 4637973173, "lat": 52.4617639, "lon": 13.5264872}, {"type": "node", "id": 4637973174, "lat": 52.4618052, "lon": 13.5265309}, {"type": "node", "id": 4698852757, "lat": 52.4609726, "lon": 13.5252442, "tags": {"addr:city": "Berlin", "addr:housenumber": "21", "addr:postcode": "12459", "addr:street": "Pl\u00f6nzeile", "amenity": "restaurant", "check_date:opening_hours": "2024-04-04", "cuisine": "regional", "name": "Gastst\u00e4tte Schulz", "opening_hours": "Mo-Su,PH 16:00-18:00+", "wheelchair": "limited"}}, {"type": "node", "id": 4698884695, "lat": 52.4584424, "lon": 13.5270166, "tags": {"addr:city": "Berlin", "addr:housenumber": "2", "addr:postcode": "12459", "addr:street": "Rathenaustra\u00dfe", "amenity": "cafe", "name": "Caf\u00e9 Central"}}, {"type": "node", "id": 4698884699, "lat": 52.4588215, "lon": 13.526641, "tags": {"addr:city": "Berlin", "addr:housenumber": "1", "addr:postcode": "12459", "addr:street": "Rathenaustra\u00dfe", "amenity": "fast_food", "check_date:opening_hours": "2023-04-04", "cuisine": "kebab", "name": "Gem\u00fcse Kebap", "opening_hours:signed": "no", "wheelchair": "limited"}}, {"type": "node", "id": 4698914147, "lat": 52.4586185, "lon": 13.5273231, "tags": {"addr:city": "Berlin", "addr:country": "DE", "addr:housenumber": "4", "addr:postcode": "12459", "addr:street": "Rathenaustra\u00dfe", "description": "Physiotherapie, Heilpraktikerin, Ohrakupunktur, Lebensberatung", "email": "mail@physiologisch-berlin.de", "healthcare": "physiotherapist", "name": "Physiotherapie", "operator": "Sabrya R\u00fchle-Dahnz", "phone": "+49 30 49083639", "website": "http://www.physiologisch-berlin.de", "wheelchair": "limited"}}, {"type": "node", "id": 4730593839, "lat": 52.4619955, "lon": 13.5165041, "tags": {"addr:city": "Berlin", "addr:housenumber": "24", "addr:postcode": "12459", "addr:street": "Wilhelminenhofstra\u00dfe", "amenity": "fast_food", "name": "ISHTAR"}}, {"type": "node", "id": 5088892591, "lat": 52.4670212, "lon": 13.5277852}, {"type": "node", "id": 5088892592, "lat": 52.4670218, "lon": 13.5278037}, {"type": "node", "id": 5088892593, "lat": 52.4670218, "lon": 13.5278239}, {"type": "node", "id": 5088892594, "lat": 52.4670141, "lon": 13.5278332}, {"type": "node", "id": 5088892595, "lat": 52.4670038, "lon": 13.5278366}, {"type": "node", "id": 5088892596, "lat": 52.4669925, "lon": 13.5278357}, {"type": "node", "id": 5088892597, "lat": 52.4669813, "lon": 13.527818}, {"type": "node", "id": 5088892598, "lat": 52.466972, "lon": 13.5278054}, {"type": "node", "id": 5088892599, "lat": 52.4669628, "lon": 13.5277995}, {"type": "node", "id": 5088892600, "lat": 52.4669541, "lon": 13.527797}, {"type": "node", "id": 5088892601, "lat": 52.4669454, "lon": 13.5277776}, {"type": "node", "id": 5088892602, "lat": 52.4669438, "lon": 13.5277549}, {"type": "node", "id": 5088892603, "lat": 52.4669469, "lon": 13.5277473}, {"type": "node", "id": 5088892604, "lat": 52.4669587, "lon": 13.5277406}, {"type": "node", "id": 5088892605, "lat": 52.4669715, "lon": 13.5277423}, {"type": "node", "id": 5088892606, "lat": 52.4669838, "lon": 13.527749}, {"type": "node", "id": 5088892607, "lat": 52.466991, "lon": 13.5277549}, {"type": "node", "id": 5088892608, "lat": 52.4669997, "lon": 13.5277549}, {"type": "node", "id": 5088892609, "lat": 52.4670146, "lon": 13.5277633}, {"type": "node", "id": 5233782490, "lat": 52.4707469, "lon": 13.5201335}, {"type": "node", "id": 5233782491, "lat": 52.4706576, "lon": 13.5202426}, {"type": "node", "id": 5277878818, "lat": 52.4694548, "lon": 13.5120901}, {"type": "node", "id": 5277878819, "lat": 52.469378, "lon": 13.5121665}, {"type": "node", "id": 5318663837, "lat": 52.4633431, "lon": 13.5261389}, {"type": "node", "id": 5318663838, "lat": 52.4629853, "lon": 13.5258542}, {"type": "node", "id": 5318663839, "lat": 52.4631676, "lon": 13.5252412}, {"type": "node", "id": 5318663840, "lat": 52.4634816, "lon": 13.5255564}, {"type": "node", "id": 5470825723, "lat": 52.4607691, "lon": 13.540561, "tags": {"access": "yes", "leisure": "playground"}}, {"type": "node", "id": 5584679712, "lat": 52.4664874, "lon": 13.5195182}, {"type": "node", "id": 5584679713, "lat": 52.4664911, "lon": 13.5194692}, {"type": "node", "id": 5584679714, "lat": 52.4664866, "lon": 13.5194201}, {"type": "node", "id": 5584679715, "lat": 52.4664732, "lon": 13.5193858}, {"type": "node", "id": 5584679716, "lat": 52.4664545, "lon": 13.5193821}, {"type": "node", "id": 5584679717, "lat": 52.4664329, "lon": 13.5193821}, {"type": "node", "id": 5584679718, "lat": 52.466409, "lon": 13.5193944}, {"type": "node", "id": 5584679719, "lat": 52.4663806, "lon": 13.519403}, {"type": "node", "id": 5584679720, "lat": 52.4663642, "lon": 13.5194017}, {"type": "node", "id": 5584681021, "lat": 52.4663463, "lon": 13.5194067}, {"type": "node", "id": 5584681022, "lat": 52.4663388, "lon": 13.5194226}, {"type": "node", "id": 5584681023, "lat": 52.4663291, "lon": 13.519452}, {"type": "node", "id": 5584681024, "lat": 52.4663268, "lon": 13.5194888}, {"type": "node", "id": 5584681025, "lat": 52.4663328, "lon": 13.519528}, {"type": "node", "id": 5584681026, "lat": 52.4663463, "lon": 13.5195562}, {"type": "node", "id": 5584681027, "lat": 52.4663612, "lon": 13.5195746}, {"type": "node", "id": 5584681028, "lat": 52.4663813, "lon": 13.5195856}, {"type": "node", "id": 5584681029, "lat": 52.4664142, "lon": 13.5195905}, {"type": "node", "id": 5584681030, "lat": 52.4664411, "lon": 13.5195868}, {"type": "node", "id": 5584681031, "lat": 52.4664597, "lon": 13.5195733}, {"type": "node", "id": 5584681032, "lat": 52.4664762, "lon": 13.5195464}, {"type": "node", "id": 5632519227, "lat": 52.4536266, "lon": 13.5237878}, {"type": "node", "id": 5646073988, "lat": 52.4663943, "lon": 13.5042109}, {"type": "node", "id": 5646073992, "lat": 52.4673753, "lon": 13.5028596}, {"type": "node", "id": 5646074008, "lat": 52.4658233, "lon": 13.5026579}, {"type": "node", "id": 5646074009, "lat": 52.4659959, "lon": 13.5029504}, {"type": "node", "id": 5646074013, "lat": 52.46658, "lon": 13.5026671}, {"type": "node", "id": 5646074014, "lat": 52.467034, "lon": 13.5024906}, {"type": "node", "id": 5646074016, "lat": 52.4675374, "lon": 13.5032964}, {"type": "node", "id": 5646074017, "lat": 52.467603, "lon": 13.5032399}, {"type": "node", "id": 5646074018, "lat": 52.4672766, "lon": 13.5023704}, {"type": "node", "id": 5646074020, "lat": 52.4663336, "lon": 13.5042664}, {"type": "node", "id": 5646074321, "lat": 52.4663811, "lon": 13.5041653}, {"type": "node", "id": 5664468250, "lat": 52.4608137, "lon": 13.5129099, "tags": {"addr:city": "Berlin", "addr:country": "DE", "addr:housenumber": "63", "addr:postcode": "12459", "addr:street": "Edisonstra\u00dfe", "addr:suburb": "Obersch\u00f6neweide", "amenity": "restaurant", "contact:email": "info@sonnendeck.berlin", "contact:website": "https://www.sonnendeck.berlin/", "indoor_seating": "yes", "name": "Sonnendeck", "opening_hours": "Mo-Fr 11:00+; Sa-Su 10:00+", "outdoor_seating": "yes", "payment:cash": "yes", "payment:credit_cards": "yes", "payment:girocard": "yes", "phone": "+493039722919", "smoking": "outside", "website": "https://www.sonnendeck.berlin/", "wheelchair": "yes"}}, {"type": "node", "id": 5829797154, "lat": 52.4589834, "lon": 13.5128075}, {"type": "node", "id": 5829797155, "lat": 52.4591034, "lon": 13.5127641}, {"type": "node", "id": 5829797156, "lat": 52.4591158, "lon": 13.5127628}, {"type": "node", "id": 5829797157, "lat": 52.4591616, "lon": 13.5127656}, {"type": "node", "id": 5829797158, "lat": 52.4591938, "lon": 13.5127767}, {"type": "node", "id": 5829797159, "lat": 52.459231, "lon": 13.5127917}, {"type": "node", "id": 5829797161, "lat": 52.4587882, "lon": 13.5136926}, {"type": "node", "id": 5829797162, "lat": 52.4588764, "lon": 13.5134598}, {"type": "node", "id": 5829800522, "lat": 52.4572716, "lon": 13.5165452}, {"type": "node", "id": 5829897561, "lat": 52.4605948, "lon": 13.509385, "tags": {"barrier": "bollard", "bollard": "foldable"}}, {"type": "node", "id": 5829897569, "lat": 52.4592751, "lon": 13.512453}, {"type": "node", "id": 5829897571, "lat": 52.4593483, "lon": 13.5124894}, {"type": "node", "id": 5829897572, "lat": 52.4591824, "lon": 13.512405}, {"type": "node", "id": 5829897573, "lat": 52.459473, "lon": 13.5117795, "tags": {"barrier": "gate"}}, {"type": "node", "id": 5829897575, "lat": 52.4607075, "lon": 13.5096478}, {"type": "node", "id": 5829897577, "lat": 52.4605248, "lon": 13.5094949}, {"type": "node", "id": 5829897578, "lat": 52.460461, "lon": 13.5102836}, {"type": "node", "id": 5829897579, "lat": 52.4602274, "lon": 13.5107406}, {"type": "node", "id": 5834498707, "lat": 52.4577742, "lon": 13.5186427}, {"type": "node", "id": 5834680794, "lat": 52.4631289, "lon": 13.5253311, "tags": {"entrance": "yes"}}, {"type": "node", "id": 5834680804, "lat": 52.4633508, "lon": 13.5254523}, {"type": "node", "id": 5834680805, "lat": 52.4633664, "lon": 13.5253994}, {"type": "node", "id": 5834680806, "lat": 52.4633802, "lon": 13.5260133}, {"type": "node", "id": 5834680807, "lat": 52.463353, "lon": 13.5259917}, {"type": "node", "id": 5868768803, "lat": 52.454261, "lon": 13.521908}, {"type": "node", "id": 5980922083, "lat": 52.4793599, "lon": 13.499063, "tags": {"addr:city": "Berlin", "addr:housenumber": "18", "addr:postcode": "12459", "addr:street": "Nalepastra\u00dfe", "amenity": "restaurant", "contact:instagram": "zola_funkhaus", "cuisine": "pizza", "diet:vegetarian": "yes", "indoor_seating": "yes", "name": "Zola", "opening_hours": "Mo-Su 12:00-21:00", "outdoor_seating": "yes", "self_service": "only", "wheelchair": "no"}}, {"type": "node", "id": 6185890180, "lat": 52.4604059, "lon": 13.5474024}, {"type": "node", "id": 6185890181, "lat": 52.4601728, "lon": 13.5473404}, {"type": "node", "id": 6185890182, "lat": 52.460075, "lon": 13.5468437}, {"type": "node", "id": 6185890183, "lat": 52.4601293, "lon": 13.5469315}, {"type": "node", "id": 6185890184, "lat": 52.4602726, "lon": 13.5475817}, {"type": "node", "id": 6185893185, "lat": 52.4600154, "lon": 13.5469163}, {"type": "node", "id": 6185893186, "lat": 52.4604059, "lon": 13.5475108}, {"type": "node", "id": 6185893187, "lat": 52.4601437, "lon": 13.5471863}, {"type": "node", "id": 6185893188, "lat": 52.4601915, "lon": 13.5469592}, {"type": "node", "id": 6185893189, "lat": 52.4602363, "lon": 13.547451}, {"type": "node", "id": 6185893190, "lat": 52.4603625, "lon": 13.547582}, {"type": "node", "id": 6185893191, "lat": 52.4600563, "lon": 13.5471172}, {"type": "node", "id": 6284391529, "lat": 52.4612315, "lon": 13.5475553}, {"type": "node", "id": 6284391530, "lat": 52.461367, "lon": 13.5474082}, {"type": "node", "id": 6284391532, "lat": 52.461286, "lon": 13.5473547}, {"type": "node", "id": 6284391534, "lat": 52.4613132, "lon": 13.5476099}, {"type": "node", "id": 6284412379, "lat": 52.4630187, "lon": 13.5478496}, {"type": "node", "id": 6284412380, "lat": 52.4629041, "lon": 13.5480568}, {"type": "node", "id": 6284412381, "lat": 52.4630389, "lon": 13.5480005}, {"type": "node", "id": 6284412382, "lat": 52.4628887, "lon": 13.547941}, {"type": "node", "id": 6284412383, "lat": 52.4629694, "lon": 13.5478189}, {"type": "node", "id": 6284412384, "lat": 52.4629723, "lon": 13.548104}, {"type": "node", "id": 6284416185, "lat": 52.463037, "lon": 13.5478947}, {"type": "node", "id": 6284416186, "lat": 52.4628866, "lon": 13.5480023}, {"type": "node", "id": 6284416187, "lat": 52.4629075, "lon": 13.5478702}, {"type": "node", "id": 6284416188, "lat": 52.4630272, "lon": 13.5480452}, {"type": "node", "id": 6284416189, "lat": 52.4629946, "lon": 13.5478217}, {"type": "node", "id": 6284416190, "lat": 52.4629306, "lon": 13.5480836}, {"type": "node", "id": 6284416191, "lat": 52.4630425, "lon": 13.547948}, {"type": "node", "id": 6284416192, "lat": 52.4629357, "lon": 13.5478217}, {"type": "node", "id": 6284416193, "lat": 52.4629987, "lon": 13.5480832}, {"type": "node", "id": 6340152124, "lat": 52.4631016, "lon": 13.5255456}, {"type": "node", "id": 6340152125, "lat": 52.4631169, "lon": 13.5253716}, {"type": "node", "id": 6340152126, "lat": 52.4631461, "lon": 13.5253949}, {"type": "node", "id": 6340152127, "lat": 52.4630812, "lon": 13.5255294}, {"type": "node", "id": 6340152128, "lat": 52.4631375, "lon": 13.525302}, {"type": "node", "id": 6340152129, "lat": 52.4631473, "lon": 13.5253098}, {"type": "node", "id": 6365160409, "lat": 52.4565461, "lon": 13.5463794}, {"type": "node", "id": 6365160410, "lat": 52.4564919, "lon": 13.5462998}, {"type": "node", "id": 6365160411, "lat": 52.4565196, "lon": 13.5460961}, {"type": "node", "id": 6365160412, "lat": 52.4565889, "lon": 13.5460733}, {"type": "node", "id": 6468426370, "lat": 52.4599331, "lon": 13.5290884, "tags": {"addr:city": "Berlin", "addr:housenumber": "23", "addr:postcode": "12459", "addr:street": "Rathenaustra\u00dfe", "amenity": "restaurant", "cuisine": "pizza;italian", "diet:vegetarian": "yes", "name": "Manifattura del Gusto", "opening_hours": "Tu-Su 12:00-22:00; Mo off", "operator": "Giuseppe Fiore", "phone": "+493054893752", "website": "https://manifatturadelgusto.de/", "website:booking": "https://manifattura-del-gusto.eatbu.com", "wheelchair": "limited"}}, {"type": "node", "id": 6632255180, "lat": 52.4599201, "lon": 13.536034, "tags": {"addr:city": "Berlin", "addr:country": "DE", "addr:housenumber": "150", "addr:postcode": "12459", "addr:street": "An der Wuhlheide", "addr:suburb": "Obersch\u00f6neweide", "amenity": "restaurant", "check_date": "2025-05-11", "cuisine": "asian", "delivery": "yes", "indoor_seating": "yes", "name": "Anna Kim", "opening_hours": "11:00-22:00", "outdoor_seating": "yes", "phone": "+49 30 53211783", "takeaway": "yes", "website": "https://www.ha-c-vietnamesiche-kueche-sushi-berlin.de/"}}, {"type": "node", "id": 6993011272, "lat": 52.4693257, "lon": 13.5128904, "tags": {"entrance": "yes"}}, {"type": "node", "id": 6993011273, "lat": 52.4691959, "lon": 13.5127163, "tags": {"entrance": "yes"}}, {"type": "node", "id": 7149309330, "lat": 52.4553568, "lon": 13.5207538, "tags": {"barrier": "gate"}}, {"type": "node", "id": 7149309333, "lat": 52.4552188, "lon": 13.5208458, "tags": {"barrier": "gate"}}, {"type": "node", "id": 7149309334, "lat": 52.455222, "lon": 13.5203648, "tags": {"barrier": "gate"}}, {"type": "node", "id": 7149309337, "lat": 52.4552453, "lon": 13.5208574}, {"type": "node", "id": 7149309338, "lat": 52.4553458, "lon": 13.5207796}, {"type": "node", "id": 7149309339, "lat": 52.4553703, "lon": 13.5207219}, {"type": "node", "id": 7149309340, "lat": 52.4553605, "lon": 13.5203585}, {"type": "node", "id": 7149309341, "lat": 52.4551925, "lon": 13.5203763}, {"type": "node", "id": 7149309342, "lat": 52.455175, "lon": 13.5208265}, {"type": "node", "id": 7688108908, "lat": 52.4588362, "lon": 13.5261728, "tags": {"addr:city": "Berlin", "addr:housenumber": "53", "addr:postcode": "12459", "addr:street": "Wilhelminenhofstra\u00dfe", "amenity": "cafe", "name": "Idylle", "opening_hours": "Mo-Fr 09:00-18:00; Sa,Su 10:00-18:00", "outdoor_seating": "yes", "phone": "+49 173 1934 284", "website": "https://gastro-norm.business.site/", "wheelchair": "limited"}}, {"type": "node", "id": 7861067851, "lat": 52.4623057, "lon": 13.5477114}, {"type": "node", "id": 7969596386, "lat": 52.4622968, "lon": 13.5299255}, {"type": "node", "id": 7969596387, "lat": 52.4623304, "lon": 13.5299058}, {"type": "node", "id": 7969596388, "lat": 52.4623328, "lon": 13.5300912}, {"type": "node", "id": 7969596389, "lat": 52.4622589, "lon": 13.5299682}, {"type": "node", "id": 7969596390, "lat": 52.4622594, "lon": 13.5299127}, {"type": "node", "id": 7969596391, "lat": 52.4622795, "lon": 13.5299219}, {"type": "node", "id": 8082877763, "lat": 52.4616727, "lon": 13.5180059, "tags": {"addr:city": "Berlin", "addr:country": "DE", "addr:housenumber": "31", "addr:postcode": "12459", "addr:street": "Wilhelminenhofstra\u00dfe", "addr:suburb": "Obersch\u00f6neweide", "amenity": "cafe", "contact:instagram": "cafe.date.12459", "cuisine": "breakfast;cake;coffee_shop", "internet_access": "wlan", "level": "0", "name": "Caf\u00e9 Date", "opening_hours": "Mo-Fr 08:00-18:00; Sa-Su 10:00-18:00", "website": "https://instagram.com/cafe.date.12459/"}}, {"type": "node", "id": 8132568942, "lat": 52.4624941, "lon": 13.5227383, "tags": {"addr:city": "Berlin", "addr:country": "DE", "addr:housenumber": "24", "addr:postcode": "12459", "addr:street": "Firlstra\u00dfe", "addr:suburb": "Obersch\u00f6neweide", "amenity": "doctors", "check_date": "2025-03-08", "check_date:opening_hours": "2023-02-17", "contact:phone": "+49 30 5354253", "description": "Facharzt f\u00fcr Allgemeinmedizin", "healthcare": "doctor", "healthcare:speciality": "general", "name": "Dr. med. Andreas Kopf", "opening_hours": "Mo 08:00-12:00,15:00-19:00; Tu 14:00-19:00; We 08:00-14:00; Th 14:00-19:00", "wheelchair": "no"}}, {"type": "node", "id": 8146859267, "lat": 52.4612462, "lon": 13.5246799, "tags": {"addr:city": "Berlin", "addr:housenumber": "17", "addr:postcode": "12459", "addr:street": "Pl\u00f6nzeile", "amenity": "doctors", "contact:phone": "+49 30 5350792", "description": "Allgemeinmedizin, Haus\u00e4rztin", "healthcare": "doctor", "healthcare:speciality": "general", "name": "Franziska Alkurde", "opening_hours": "Mo 08:30-13:30; Tu 14:00-18:00; We 08:30-11:30; Th 08:30-13:00; Fr 08:30-13:30", "wheelchair": "no"}}, {"type": "node", "id": 8146859268, "lat": 52.461858, "lon": 13.5226784, "tags": {"addr:city": "Berlin", "addr:country": "DE", "addr:housenumber": "2", "addr:postcode": "12459", "addr:street": "Pl\u00f6nzeile", "addr:suburb": "Obersch\u00f6neweide", "amenity": "dentist", "check_date": "2025-06-01", "contact:phone": "+49 30 5350502", "contact:website": "https://zahnarztpraxis-gesunderzahn.de/", "healthcare": "dentist", "healthcare:speciality": "endodontics;implantology;paediatric_dentistry", "name": "Yuriy Sorokin", "opening_hours": "Mo 13:00-19:00; Tu 08:00-14:00; We 08:00-15:00; Th 13:00-19:00; Fr 08:00-13:00 || Tu 14:00-19:00 open \"Kindersprechstunde\"", "wheelchair": "yes"}}, {"type": "node", "id": 8149727506, "lat": 52.4600157, "lon": 13.5267431, "tags": {"addr:city": "Berlin", "addr:housenumber": "5a", "addr:postcode": "12459", "addr:street": "Mathildenstra\u00dfe", "healthcare": "physiotherapist", "healthcare:speciality": "physiotherapy", "name": "Physiotherapie St. Ludwig", "office": "therapist", "opening_hours": "Mo-Th 07:00-20:00; Fr 07:00-18:00; Sa 09:00-12:00", "website": "https://www.physiotherapie-ludwig.de/", "wheelchair": "no"}}, {"type": "node", "id": 8149767941, "lat": 52.4596264, "lon": 13.5242346, "tags": {"addr:city": "Berlin", "addr:housenumber": "48", "addr:postcode": "12459", "addr:street": "Wilhelminenhofstra\u00dfe", "amenity": "fast_food", "brand": "burgerme", "brand:wikidata": "Q108866856", "contact:phone": "+49 30 467247467", "contact:website": "https://www.burgerme.de/standorte/berlin-2/oberschoeneweide/", "cuisine": "burger", "delivery": "yes", "description": "inkl. Lieferdienst f\u00fcr Burger", "name": "burgerme", "opening_hours": "Mo-Fr 11:00-22:00; Sa,Su 12:00-22:00", "takeaway": "yes", "wheelchair": "no"}}, {"type": "node", "id": 8149923544, "lat": 52.4612353, "lon": 13.524062, "tags": {"addr:city": "Berlin", "addr:country": "DE", "addr:housenumber": "14", "addr:postcode": "12459", "addr:street": "Pl\u00f6nzeile", "addr:suburb": "Obersch\u00f6neweide", "check_date": "2023-04-17", "contact:phone": "+49 30 53005110", "contact:website": "https://www.heilmitteltherapie.de/praxis-berlin/", "description": "Ambulante Heilmitteltherapie f\u00fcr Kinder und Erwachsene", "healthcare": "physiotherapist;ergotherapist;speech_therapist", "name": "Zentrum f\u00fcr Heilmitteltherapie", "opening_hours": "Mo-Fr 09:00-19:00 \"Termine nach Vereinbarung\"", "operator": "Zentrum f\u00fcr Heilmitteltherapie M\u00e4der GmbH"}}, {"type": "node", "id": 8151800374, "lat": 52.4635478, "lon": 13.5162256, "tags": {"addr:city": "Berlin", "addr:housenumber": "3", "addr:postcode": "12459", "addr:street": "Kilianistra\u00dfe", "check_date": "2023-04-17", "healthcare": "physiotherapist", "healthcare:speciality": "neurology;paediatrics;geriatrics", "name": "Praxis f\u00fcr Ergotherapie", "office": "therapist", "opening_hours": "\"nach Vereinbarung\"", "operator": "Yvonne Jungsbluth", "phone": "+49 30 50591959", "website": "http://www.ergotherapie-jungsbluth.de/index.html", "wheelchair": "limited"}}, {"type": "node", "id": 8165809559, "lat": 52.4632057, "lon": 13.5205334, "tags": {"addr:city": "Berlin", "addr:country": "DE", "addr:housenumber": "8", "addr:postcode": "12459", "addr:street": "Gro\u00dfstra\u00dfe", "addr:suburb": "Obersch\u00f6neweide", "amenity": "doctors", "check_date:opening_hours": "2022-12-05", "contact:phone": "+49 30 5353282", "contact:website": "https://www.praxis-gronau-schwarz.de/", "healthcare": "doctor", "healthcare:speciality": "general;diabetology", "name": "Praxisteam Obersch\u00f6neweide", "opening_hours": "Mo-Th 08:00-13:00,14:00-19:00; Fr 08:00-13:00; Sa-Su off", "operator": "Dr. med. Wibke Gronau und Robert Schwarz", "wheelchair": "no"}}, {"type": "node", "id": 8167432945, "lat": 52.4599819, "lon": 13.5234267, "tags": {"addr:city": "Berlin", "addr:housenumber": "46", "addr:postcode": "12459", "addr:street": "Wilhelminenhofstra\u00dfe", "amenity": "doctors", "check_date:opening_hours": "2023-02-28", "contact:phone": "+49 30 5354619", "contact:website": "https://www.kinderaerzte-im-netz.de/aerzte/berlin/gruehn-reichelt/startseite.html", "healthcare": "doctor", "healthcare:speciality": "paediatrics", "name": "Kinder- und Jugendarzt", "opening_hours": "Mo 09:00-12:30; Tu 14:00-17:30; We 09:00-12:30; Th 09:00-12:30; Fr 09:00-12:00", "operator": "Rafael Gr\u00fchn-Reichelt", "wheelchair": "no"}}, {"type": "node", "id": 8168568172, "lat": 52.4649219, "lon": 13.5143664, "tags": {"addr:city": "Berlin", "addr:housenumber": "3", "addr:postcode": "12459", "addr:street": "Griechische Allee", "check_date:opening_hours": "2023-08-03", "healthcare": "physiotherapist", "name": "Physiotherapie am Markt", "office": "therapist", "opening_hours:signed": "no", "website": "https://www.physio-ciwi.de/", "wheelchair": "no"}}, {"type": "node", "id": 8181133844, "lat": 52.4636392, "lon": 13.5260519, "tags": {"access": "yes", "leisure": "playground"}}, {"type": "node", "id": 8191334961, "lat": 52.4591536, "lon": 13.5257389, "tags": {"addr:city": "Berlin", "addr:housenumber": "1", "addr:postcode": "12459", "addr:street": "Mathildenstra\u00dfe", "amenity": "doctors", "healthcare": "doctor", "healthcare:speciality": "internal;general", "name": "Hausarztpraxis Sch\u00f6neweide", "opening_hours": "Mo,Tu,Th 08:00-09:00,Mo,Tu,Th 09:00-13:00 open \"nur mit Termin\", Mo 15:00-16:00,Mo 16:00-18:00 open \"nur mit Termin\"; We 14:00-15:00,We 15:00-18:00 open \"nur mit Termin\"; Fr 09:00-10:00,Fr 10:00-12:00 open \"nur mit Termin\"; PH off", "operator": "Judith Rataj", "phone": "+49 30 5351431", "website": "https://www.praxis-schoeneweide.de/", "wheelchair": "no"}}, {"type": "node", "id": 8238872502, "lat": 52.4599774, "lon": 13.5234752, "tags": {"addr:city": "Berlin", "addr:housenumber": "46", "addr:postcode": "12459", "addr:street": "Wilhelminenhofstra\u00dfe", "description": "Logop\u00e4die Sprech-Stunde\nf\u00fcr Kinder und Erwachsene", "healthcare": "speech_therapist", "name": "Praxisgemeinschaft Logop\u00e4die Sprech-Stunde", "opening_hours": "\"Nach Vereinbarung\"", "operator": "Anne K\u00f6ppen;Elke Kossert", "phone": "+49 30 68834949", "source": "local knowledge", "website": "http://www.logopaedie-sprech-stunde.de/", "wheelchair": "no"}}, {"type": "node", "id": 8300918163, "lat": 52.4646627, "lon": 13.5170694}, {"type": "node", "id": 8300918168, "lat": 52.4645349, "lon": 13.5165674}, {"type": "node", "id": 8300918169, "lat": 52.463788, "lon": 13.5211568}, {"type": "node", "id": 8300918170, "lat": 52.4645754, "lon": 13.5178918}, {"type": "node", "id": 8300918171, "lat": 52.4643835, "lon": 13.5190217}, {"type": "node", "id": 8300918172, "lat": 52.4641091, "lon": 13.5179151}, {"type": "node", "id": 8300918173, "lat": 52.4647044, "lon": 13.5160122}, {"type": "node", "id": 8300918174, "lat": 52.4647039, "lon": 13.5158861}, {"type": "node", "id": 8300918177, "lat": 52.4642093, "lon": 13.5200471}, {"type": "node", "id": 8300918178, "lat": 52.464649, "lon": 13.5172247}, {"type": "node", "id": 8300918179, "lat": 52.4637909, "lon": 13.5211802}, {"type": "node", "id": 8300918180, "lat": 52.4640281, "lon": 13.5186656}, {"type": "node", "id": 8300918181, "lat": 52.4645627, "lon": 13.5179077}, {"type": "node", "id": 8300918182, "lat": 52.4644096, "lon": 13.519011}, {"type": "node", "id": 8300918184, "lat": 52.4647007, "lon": 13.5161657}, {"type": "node", "id": 8300918185, "lat": 52.4640186, "lon": 13.5183957}, {"type": "node", "id": 8300918186, "lat": 52.4640789, "lon": 13.518121}, {"type": "node", "id": 8300918189, "lat": 52.464283, "lon": 13.5197278}, {"type": "node", "id": 8300918190, "lat": 52.4638602, "lon": 13.521232}, {"type": "node", "id": 8300918191, "lat": 52.464531, "lon": 13.5183503}, {"type": "node", "id": 8300918192, "lat": 52.4637955, "lon": 13.5206791}, {"type": "node", "id": 8300918193, "lat": 52.4645696, "lon": 13.517901}, {"type": "node", "id": 8300918194, "lat": 52.4643718, "lon": 13.5191921}, {"type": "node", "id": 8300918195, "lat": 52.4641034, "lon": 13.5178972}, {"type": "node", "id": 8300918196, "lat": 52.4642369, "lon": 13.5172375}, {"type": "node", "id": 8300918200, "lat": 52.4640652, "lon": 13.5181404}, {"type": "node", "id": 8300918201, "lat": 52.4641769, "lon": 13.520172}, {"type": "node", "id": 8300918202, "lat": 52.4646359, "lon": 13.5173655}, {"type": "node", "id": 8300918203, "lat": 52.4638405, "lon": 13.5212394}, {"type": "node", "id": 8300918204, "lat": 52.4643661, "lon": 13.5191778}, {"type": "node", "id": 8300918205, "lat": 52.4645564, "lon": 13.5179122}, {"type": "node", "id": 8300918206, "lat": 52.4640568, "lon": 13.5181683}, {"type": "node", "id": 8300918208, "lat": 52.4640242, "lon": 13.5184681}, {"type": "node", "id": 8300918209, "lat": 52.4640742, "lon": 13.5181263}, {"type": "node", "id": 8300918211, "lat": 52.4638509, "lon": 13.521237}, {"type": "node", "id": 8300918212, "lat": 52.4638063, "lon": 13.5203812}, {"type": "node", "id": 8300918213, "lat": 52.4641012, "lon": 13.5178752}, {"type": "node", "id": 8300918214, "lat": 52.4645215, "lon": 13.5180669}, {"type": "node", "id": 8300933418, "lat": 52.4640678, "lon": 13.5205829}, {"type": "node", "id": 8300933419, "lat": 52.4646179, "lon": 13.517547}, {"type": "node", "id": 8300933420, "lat": 52.4638311, "lon": 13.5212375}, {"type": "node", "id": 8300933421, "lat": 52.4638665, "lon": 13.5195846}, {"type": "node", "id": 8300933422, "lat": 52.4645489, "lon": 13.5179148}, {"type": "node", "id": 8300933423, "lat": 52.4640893, "lon": 13.5181144}, {"type": "node", "id": 8300933424, "lat": 52.4641026, "lon": 13.5178603}, {"type": "node", "id": 8300933425, "lat": 52.4644251, "lon": 13.5190041}, {"type": "node", "id": 8300933428, "lat": 52.4640063, "lon": 13.5208042}, {"type": "node", "id": 8300933429, "lat": 52.4638232, "lon": 13.520092}, {"type": "node", "id": 8300933430, "lat": 52.464155, "lon": 13.5179542}, {"type": "node", "id": 8300933431, "lat": 52.4645572, "lon": 13.5181279}, {"type": "node", "id": 8300933433, "lat": 52.464084, "lon": 13.5181165}, {"type": "node", "id": 8300933436, "lat": 52.4640235, "lon": 13.5207485}, {"type": "node", "id": 8300933437, "lat": 52.4640586, "lon": 13.5181587}, {"type": "node", "id": 8300933438, "lat": 52.463822, "lon": 13.5212332}, {"type": "node", "id": 8300933439, "lat": 52.4645165, "lon": 13.5184625}, {"type": "node", "id": 8300933440, "lat": 52.463876, "lon": 13.5194979}, {"type": "node", "id": 8300933441, "lat": 52.4645307, "lon": 13.5179168}, {"type": "node", "id": 8300933442, "lat": 52.4638955, "lon": 13.5193131}, {"type": "node", "id": 8300933443, "lat": 52.4641278, "lon": 13.5177251}, {"type": "node", "id": 8300933444, "lat": 52.4645009, "lon": 13.5185655}, {"type": "node", "id": 8300933447, "lat": 52.4640616, "lon": 13.5181494}, {"type": "node", "id": 8300933449, "lat": 52.4639757, "lon": 13.5209035}, {"type": "node", "id": 8300933450, "lat": 52.4638079, "lon": 13.5212205}, {"type": "node", "id": 8300933451, "lat": 52.4641418, "lon": 13.5179528}, {"type": "node", "id": 8300933452, "lat": 52.4642713, "lon": 13.5170966}, {"type": "node", "id": 8300933453, "lat": 52.4640196, "lon": 13.5184449}, {"type": "node", "id": 8300933457, "lat": 52.4643771, "lon": 13.5192266}, {"type": "node", "id": 8300933459, "lat": 52.4638138, "lon": 13.5212268}, {"type": "node", "id": 8300933460, "lat": 52.4639158, "lon": 13.5191382}, {"type": "node", "id": 8300933461, "lat": 52.4645861, "lon": 13.5178622}, {"type": "node", "id": 8300933462, "lat": 52.4645585, "lon": 13.5181328}, {"type": "node", "id": 8300933463, "lat": 52.4642039, "lon": 13.5173797}, {"type": "node", "id": 8300933464, "lat": 52.4641653, "lon": 13.517552}, {"type": "node", "id": 8300933465, "lat": 52.4640182, "lon": 13.5184236}, {"type": "node", "id": 8300933469, "lat": 52.4639329, "lon": 13.5210419}, {"type": "node", "id": 8300933470, "lat": 52.4638009, "lon": 13.5212096}, {"type": "node", "id": 8300933471, "lat": 52.4639758, "lon": 13.5186866}, {"type": "node", "id": 8300933472, "lat": 52.4641324, "lon": 13.5179478}, {"type": "node", "id": 8300933473, "lat": 52.4646195, "lon": 13.5158543}, {"type": "node", "id": 8300933476, "lat": 52.4643808, "lon": 13.5192551}, {"type": "node", "id": 8300933477, "lat": 52.4646893, "lon": 13.5164776}, {"type": "node", "id": 8300933478, "lat": 52.4638782, "lon": 13.5212118}, {"type": "node", "id": 8300933479, "lat": 52.4639747, "lon": 13.5186916}, {"type": "node", "id": 8300933480, "lat": 52.4645818, "lon": 13.517877}, {"type": "node", "id": 8300933481, "lat": 52.4644333, "lon": 13.5189931}, {"type": "node", "id": 8300933482, "lat": 52.4641147, "lon": 13.5179281}, {"type": "node", "id": 8300933483, "lat": 52.4643497, "lon": 13.5167874}, {"type": "node", "id": 8300933484, "lat": 52.4640694, "lon": 13.5181334}, {"type": "node", "id": 8300933487, "lat": 52.4638838, "lon": 13.5211998}, {"type": "node", "id": 8300933488, "lat": 52.4637952, "lon": 13.5211958}, {"type": "node", "id": 8300933489, "lat": 52.4640237, "lon": 13.5186637}, {"type": "node", "id": 8300933490, "lat": 52.4641231, "lon": 13.5179389}, {"type": "node", "id": 8300933491, "lat": 52.4640311, "lon": 13.518486}, {"type": "node", "id": 8300933492, "lat": 52.46443, "lon": 13.5189992}, {"type": "node", "id": 8300933494, "lat": 52.4644127, "lon": 13.516553}, {"type": "node", "id": 8300933495, "lat": 52.4644813, "lon": 13.5163171}, {"type": "node", "id": 8300933498, "lat": 52.464378, "lon": 13.5192735}, {"type": "node", "id": 8300933499, "lat": 52.4646743, "lon": 13.5168923}, {"type": "node", "id": 8300933500, "lat": 52.4638703, "lon": 13.5212228}, {"type": "node", "id": 8303965879, "lat": 52.4591478, "lon": 13.5294252}, {"type": "node", "id": 8303965880, "lat": 52.459036, "lon": 13.5292294}, {"type": "node", "id": 8303965884, "lat": 52.4586724, "lon": 13.5285867}, {"type": "node", "id": 8303965885, "lat": 52.4587083, "lon": 13.5286515}, {"type": "node", "id": 8303965899, "lat": 52.4585981, "lon": 13.5284541}, {"type": "node", "id": 8303965902, "lat": 52.4586278, "lon": 13.528506}, {"type": "node", "id": 8862844663, "lat": 52.4708401, "lon": 13.5193832}, {"type": "node", "id": 8862844664, "lat": 52.4707603, "lon": 13.519475}, {"type": "node", "id": 8862844665, "lat": 52.4707196, "lon": 13.5193798}, {"type": "node", "id": 8862844666, "lat": 52.4707995, "lon": 13.519288}, {"type": "node", "id": 8862844703, "lat": 52.470773, "lon": 13.5197094}, {"type": "node", "id": 8862844704, "lat": 52.4707696, "lon": 13.5197637}, {"type": "node", "id": 8862844705, "lat": 52.4706954, "lon": 13.5198512}, {"type": "node", "id": 8862844706, "lat": 52.4706915, "lon": 13.5198415}, {"type": "node", "id": 8862844707, "lat": 52.4706985, "lon": 13.5197701}, {"type": "node", "id": 8862844708, "lat": 52.4707681, "lon": 13.5196896}, {"type": "node", "id": 8939742162, "lat": 52.4623544, "lon": 13.5300647}, {"type": "node", "id": 8939742163, "lat": 52.4622954, "lon": 13.5300743}, {"type": "node", "id": 8939742164, "lat": 52.4622713, "lon": 13.5300246}, {"type": "node", "id": 8939742165, "lat": 52.4623659, "lon": 13.5300193}, {"type": "node", "id": 8939742166, "lat": 52.4623678, "lon": 13.5299544}, {"type": "node", "id": 9043421262, "lat": 52.464609, "lon": 13.5052554}, {"type": "node", "id": 9043421263, "lat": 52.4645472, "lon": 13.5050573}, {"type": "node", "id": 9043421264, "lat": 52.4643865, "lon": 13.5051923}, {"type": "node", "id": 9043421265, "lat": 52.4644483, "lon": 13.5053904}, {"type": "node", "id": 9049276260, "lat": 52.4570615, "lon": 13.5179562}, {"type": "node", "id": 9049276279, "lat": 52.4569642, "lon": 13.5182289}, {"type": "node", "id": 9049276280, "lat": 52.4569992, "lon": 13.5182637, "tags": {"barrier": "gate"}}, {"type": "node", "id": 9049276281, "lat": 52.45703, "lon": 13.5182937}, {"type": "node", "id": 9049276303, "lat": 52.4569815, "lon": 13.5184239}, {"type": "node", "id": 9086210702, "lat": 52.4660436, "lon": 13.5103837}, {"type": "node", "id": 9086210709, "lat": 52.4661878, "lon": 13.5102134}, {"type": "node", "id": 9086674750, "lat": 52.4650926, "lon": 13.5101716}, {"type": "node", "id": 9086674751, "lat": 52.4654215, "lon": 13.5107024}, {"type": "node", "id": 9086674753, "lat": 52.4652977, "lon": 13.5103144}, {"type": "node", "id": 9086674754, "lat": 52.4652315, "lon": 13.5100764}, {"type": "node", "id": 9681002005, "lat": 52.4605177, "lon": 13.5336702}, {"type": "node", "id": 9681029838, "lat": 52.4605079, "lon": 13.5336931}, {"type": "node", "id": 9681029839, "lat": 52.460188, "lon": 13.53326}, {"type": "node", "id": 9681029841, "lat": 52.4604318, "lon": 13.5338704}, {"type": "node", "id": 9681029842, "lat": 52.4603393, "lon": 13.5337608}, {"type": "node", "id": 9681029843, "lat": 52.4603062, "lon": 13.5338415}, {"type": "node", "id": 9681029844, "lat": 52.4606224, "lon": 13.5330749}, {"type": "node", "id": 9681029845, "lat": 52.4608802, "lon": 13.5322963}, {"type": "node", "id": 9681029846, "lat": 52.4608406, "lon": 13.5324673}, {"type": "node", "id": 9681029847, "lat": 52.4608291, "lon": 13.5324566}, {"type": "node", "id": 9681029848, "lat": 52.460814, "lon": 13.5324271}, {"type": "node", "id": 9681029849, "lat": 52.4607895, "lon": 13.532358}, {"type": "node", "id": 9681029850, "lat": 52.4607752, "lon": 13.532299}, {"type": "node", "id": 9681029851, "lat": 52.4607801, "lon": 13.5322487}, {"type": "node", "id": 9681029852, "lat": 52.4607846, "lon": 13.5322367}, {"type": "node", "id": 9681029853, "lat": 52.4607948, "lon": 13.5322239}, {"type": "node", "id": 9681029854, "lat": 52.460852, "lon": 13.5321924}, {"type": "node", "id": 9681029855, "lat": 52.4608614, "lon": 13.5321924}, {"type": "node", "id": 9681029856, "lat": 52.4608945, "lon": 13.5322078}, {"type": "node", "id": 9681029870, "lat": 52.4602668, "lon": 13.5337954}, {"type": "node", "id": 9681029873, "lat": 52.4601896, "lon": 13.5339679}, {"type": "node", "id": 9681029874, "lat": 52.4599438, "lon": 13.5334484}, {"type": "node", "id": 9681029875, "lat": 52.4599282, "lon": 13.5335798}, {"type": "node", "id": 9837728913, "lat": 52.4499382, "lon": 13.5591226}, {"type": "node", "id": 9837728914, "lat": 52.4499995, "lon": 13.5589472}, {"type": "node", "id": 9887627032, "lat": 52.4680755, "lon": 13.5064301, "tags": {"access": "yes", "leisure": "playground"}}, {"type": "node", "id": 9888361701, "lat": 52.4700636, "lon": 13.5198819, "tags": {"amenity": "fast_food", "name:signed": "no"}}, {"type": "node", "id": 9956884040, "lat": 52.4595518, "lon": 13.5121535}, {"type": "node", "id": 9956884041, "lat": 52.4599534, "lon": 13.5112958}, {"type": "node", "id": 9956884042, "lat": 52.4599392, "lon": 13.5112975}, {"type": "node", "id": 9956884071, "lat": 52.4607516, "lon": 13.5095434}, {"type": "node", "id": 9956884072, "lat": 52.4605136, "lon": 13.5095361}, {"type": "node", "id": 9956884073, "lat": 52.4604981, "lon": 13.5095819}, {"type": "node", "id": 9977048305, "lat": 52.4528747, "lon": 13.5610184}, {"type": "node", "id": 9977048306, "lat": 52.4528707, "lon": 13.5609883}, {"type": "node", "id": 9977048307, "lat": 52.4528666, "lon": 13.5609715}, {"type": "node", "id": 9977048309, "lat": 52.452824, "lon": 13.5609092}, {"type": "node", "id": 10049003797, "lat": 52.4700357, "lon": 13.5092842}, {"type": "node", "id": 10049003798, "lat": 52.4699247, "lon": 13.5090396}, {"type": "node", "id": 10049003799, "lat": 52.4698601, "lon": 13.5090197}, {"type": "node", "id": 10049003800, "lat": 52.469688, "lon": 13.5091956}, {"type": "node", "id": 10049003801, "lat": 52.4696546, "lon": 13.5092975}, {"type": "node", "id": 10218356668, "lat": 52.4664815, "lon": 13.5109897}, {"type": "node", "id": 10219051311, "lat": 52.4697257, "lon": 13.509703}, {"type": "node", "id": 10542439621, "lat": 52.4670894, "lon": 13.5090986, "tags": {"amenity": "fast_food", "fast_food": "cafeteria", "name": "Cafeteria", "opening_hours": "Mo-Fr 06:00-14:00"}}, {"type": "node", "id": 10542596351, "lat": 52.4635027, "lon": 13.5119338}, {"type": "node", "id": 10542596352, "lat": 52.46361, "lon": 13.5119986}, {"type": "node", "id": 10542596353, "lat": 52.4637708, "lon": 13.5121145}, {"type": "node", "id": 10542596354, "lat": 52.4637646, "lon": 13.5121338}, {"type": "node", "id": 10542596355, "lat": 52.4636304, "lon": 13.5120622}, {"type": "node", "id": 10542596356, "lat": 52.4630238, "lon": 13.5118648}, {"type": "node", "id": 10542596357, "lat": 52.4634007, "lon": 13.5120949}, {"type": "node", "id": 10542596358, "lat": 52.4634441, "lon": 13.5119003}, {"type": "node", "id": 10542596359, "lat": 52.4638247, "lon": 13.5121154}, {"type": "node", "id": 10542596360, "lat": 52.4638167, "lon": 13.5120635}, {"type": "node", "id": 10542961533, "lat": 52.4614181, "lon": 13.5242257}, {"type": "node", "id": 10542961535, "lat": 52.4614057, "lon": 13.524252, "tags": {"barrier": "gate", "maxwidth:physical": "3.1"}}, {"type": "node", "id": 10542974133, "lat": 52.461457, "lon": 13.5263064}, {"type": "node", "id": 10542974134, "lat": 52.4615077, "lon": 13.5262643}, {"type": "node", "id": 10542974135, "lat": 52.4618083, "lon": 13.5264373}, {"type": "node", "id": 10542974136, "lat": 52.461791, "lon": 13.5265365}, {"type": "node", "id": 10542974137, "lat": 52.4617733, "lon": 13.5265603}, {"type": "node", "id": 10542974138, "lat": 52.4617989, "lon": 13.5266076}, {"type": "node", "id": 10542974139, "lat": 52.4618095, "lon": 13.5266356}, {"type": "node", "id": 10542974140, "lat": 52.4618155, "lon": 13.5266749}, {"type": "node", "id": 10542974141, "lat": 52.4618182, "lon": 13.5267245}, {"type": "node", "id": 10542974142, "lat": 52.4618067, "lon": 13.5267623}, {"type": "node", "id": 10542974143, "lat": 52.4617941, "lon": 13.5267907}, {"type": "node", "id": 10542974144, "lat": 52.4617755, "lon": 13.5268193}, {"type": "node", "id": 10542974145, "lat": 52.4617571, "lon": 13.5268345}, {"type": "node", "id": 10542974146, "lat": 52.4617384, "lon": 13.5268415}, {"type": "node", "id": 10542974147, "lat": 52.4617196, "lon": 13.5268454}, {"type": "node", "id": 10542974148, "lat": 52.4617054, "lon": 13.5268441}, {"type": "node", "id": 10542974149, "lat": 52.4616482, "lon": 13.5267753}, {"type": "node", "id": 10542974150, "lat": 52.4616159, "lon": 13.5267931}, {"type": "node", "id": 10542974151, "lat": 52.4615855, "lon": 13.5267555}, {"type": "node", "id": 10542974152, "lat": 52.4615354, "lon": 13.5265507}, {"type": "node", "id": 10568344346, "lat": 52.468384, "lon": 13.5133814}, {"type": "node", "id": 10568344351, "lat": 52.4685617, "lon": 13.5131988}, {"type": "node", "id": 10568344352, "lat": 52.4685805, "lon": 13.5132497}, {"type": "node", "id": 10568344353, "lat": 52.4686376, "lon": 13.5131928}, {"type": "node", "id": 10568344354, "lat": 52.4686178, "lon": 13.5131415}, {"type": "node", "id": 10568344355, "lat": 52.468632, "lon": 13.51318}, {"type": "node", "id": 10568344357, "lat": 52.4687205, "lon": 13.5130391, "tags": {"entrance": "yes"}}, {"type": "node", "id": 10568344361, "lat": 52.4695453, "lon": 13.5126112}, {"type": "node", "id": 10847048532, "lat": 52.4684542, "lon": 13.5075374}, {"type": "node", "id": 10847048533, "lat": 52.4683133, "lon": 13.5074486}, {"type": "node", "id": 10847048534, "lat": 52.4684372, "lon": 13.5073029}, {"type": "node", "id": 11166868570, "lat": 52.4691182, "lon": 13.5108797, "tags": {"access": "private", "leisure": "playground"}}, {"type": "node", "id": 11198096313, "lat": 52.4651927, "lon": 13.5480268}, {"type": "node", "id": 11198096314, "lat": 52.4650758, "lon": 13.5485082}, {"type": "node", "id": 11198096315, "lat": 52.4652266, "lon": 13.5487395}, {"type": "node", "id": 11198096316, "lat": 52.4654343, "lon": 13.5486546}, {"type": "node", "id": 11221088834, "lat": 52.4644156, "lon": 13.5165429, "tags": {"barrier": "kerb", "kerb": "lowered", "tactile_paving": "no"}}, {"type": "node", "id": 11274758723, "lat": 52.4635275, "lon": 13.5108153, "tags": {"amenity": "doctors", "contact:email": "info@regina-tamkus.de", "contact:mobile": "Mobil: +49 160 90 62 72 56", "contact:phone": "+49 30 64 09 45 26", "contact:website": "https://regina-tamkus.de/", "health_specialty:psychotherapy": "yes", "healthcare": "psychotherapist", "name": "Regina Tamkus", "opening_hours": "Mo-Fr 12:00-13:00"}}, {"type": "node", "id": 11780298136, "lat": 52.4633844, "lon": 13.5072029, "tags": {"addr:city": "Berlin", "addr:housenumber": "38", "addr:postcode": "12459", "addr:street": "Tabbertstra\u00dfe", "amenity": "doctors", "email": "treptow@hautarztpraxen-berlin-brandenburg.de", "healthcare": "doctor", "healthcare:speciality": "dermatology", "name": "\u00dcBAG Hautarztpraxis", "opening_hours": "Mo 09:00-18:00; Tu,Th 08:00-14:00, 15:00-18:00; We 08:00-14:00; Fr 08:00-13:00", "phone": "+49 030 53 28 14 4", "website": "http://www.kosmoderma-berlin.de/"}}, {"type": "node", "id": 11956120973, "lat": 52.4531834, "lon": 13.5608475}, {"type": "node", "id": 11992259013, "lat": 52.4643942, "lon": 13.5050759}, {"type": "node", "id": 11992259014, "lat": 52.464377, "lon": 13.50508}, {"type": "node", "id": 11992259015, "lat": 52.4643586, "lon": 13.5050686}, {"type": "node", "id": 11992259016, "lat": 52.4643472, "lon": 13.5050558}, {"type": "node", "id": 11992259017, "lat": 52.4643407, "lon": 13.5050324}, {"type": "node", "id": 11992259018, "lat": 52.4643349, "lon": 13.5049586}, {"type": "node", "id": 11992259019, "lat": 52.4643264, "lon": 13.504917}, {"type": "node", "id": 11992259020, "lat": 52.4643153, "lon": 13.5048801}, {"type": "node", "id": 11992259021, "lat": 52.4643149, "lon": 13.5048527}, {"type": "node", "id": 11992259022, "lat": 52.4643243, "lon": 13.5048292}, {"type": "node", "id": 11992259023, "lat": 52.4643738, "lon": 13.504803}, {"type": "node", "id": 11992259024, "lat": 52.4643922, "lon": 13.5048086}, {"type": "node", "id": 11992259025, "lat": 52.4644024, "lon": 13.5048319}, {"type": "node", "id": 11992259026, "lat": 52.464433, "lon": 13.5049827}, {"type": "node", "id": 11992259027, "lat": 52.464431, "lon": 13.5050143}, {"type": "node", "id": 11992259028, "lat": 52.4644244, "lon": 13.505035}, {"type": "node", "id": 11992259029, "lat": 52.4644113, "lon": 13.5050531}, {"type": "node", "id": 12052369366, "lat": 52.4570227, "lon": 13.5189969}, {"type": "node", "id": 12054214841, "lat": 52.4672091, "lon": 13.5021842}, {"type": "node", "id": 12054214842, "lat": 52.4669839, "lon": 13.50229}, {"type": "node", "id": 12054214843, "lat": 52.4662534, "lon": 13.50257}, {"type": "node", "id": 12054214845, "lat": 52.4660659, "lon": 13.5026153}, {"type": "node", "id": 12054214847, "lat": 52.4660329, "lon": 13.5025057}, {"type": "node", "id": 12078750214, "lat": 52.4535664, "lon": 13.5240033}, {"type": "node", "id": 12078750215, "lat": 52.4539895, "lon": 13.5227815}, {"type": "node", "id": 12078750217, "lat": 52.4547295, "lon": 13.5215296}, {"type": "node", "id": 12078750219, "lat": 52.4549478, "lon": 13.5212529}, {"type": "node", "id": 12078750220, "lat": 52.4552233, "lon": 13.5209704}, {"type": "node", "id": 12078750222, "lat": 52.4553737, "lon": 13.5208383}, {"type": "node", "id": 12078750223, "lat": 52.4558739, "lon": 13.5204784}, {"type": "node", "id": 12078750224, "lat": 52.4557739, "lon": 13.520537}, {"type": "node", "id": 12078750225, "lat": 52.456206, "lon": 13.520306}, {"type": "node", "id": 12078750226, "lat": 52.4565345, "lon": 13.5201833}, {"type": "node", "id": 12078750227, "lat": 52.456632, "lon": 13.520141}, {"type": "node", "id": 12078750228, "lat": 52.4568161, "lon": 13.5200446}, {"type": "node", "id": 12078750229, "lat": 52.4570259, "lon": 13.5198757}, {"type": "node", "id": 12078750230, "lat": 52.4572016, "lon": 13.5196986}, {"type": "node", "id": 12078750232, "lat": 52.4574804, "lon": 13.5193013}, {"type": "node", "id": 12078750233, "lat": 52.4549811, "lon": 13.5207646}, {"type": "node", "id": 12078750251, "lat": 52.4561848, "lon": 13.5202412}, {"type": "node", "id": 12078755988, "lat": 52.4588893, "lon": 13.5129914}, {"type": "node", "id": 12078755989, "lat": 52.4589571, "lon": 13.513084}, {"type": "node", "id": 12247110072, "lat": 52.4674059, "lon": 13.5091244, "tags": {"addr:housenumber": "17", "addr:street": "Wattstra\u00dfe, 12459 Berlin", "amenity": "bar", "name": "Watt \u2018n ditt?!", "website": "https://maps.app.goo.gl/GbHtuvsaqWzBu5kn9"}}, {"type": "node", "id": 12276976903, "lat": 52.4611373, "lon": 13.5473227}, {"type": "node", "id": 12276976904, "lat": 52.4608669, "lon": 13.5472978}, {"type": "node", "id": 12276976905, "lat": 52.4609864, "lon": 13.5468772}, {"type": "node", "id": 12276976906, "lat": 52.4612513, "lon": 13.5469307}, {"type": "node", "id": 12296524552, "lat": 52.4682355, "lon": 13.5131584}, {"type": "node", "id": 12415081281, "lat": 52.4660396, "lon": 13.5094523, "tags": {"addr:housenumber": "12", "addr:street": "Wattstra\u00dfe", "healthcare": "physiotherapist", "name": "Physio Galperina", "opening_hours": "Mo-Fr 09:00-18:00", "phone": "+493084433359", "wheelchair": "no"}}, {"type": "node", "id": 12423528682, "lat": 52.4608002, "lon": 13.5207268, "tags": {"amenity": "fast_food", "cuisine": "lebanese", "drive_through": "no", "name": "Rissan", "takeaway": "yes"}}, {"type": "node", "id": 12423558490, "lat": 52.4613313, "lon": 13.5183617, "tags": {"amenity": "bar", "name": "Sky Sportsbar"}}, {"type": "node", "id": 12431143882, "lat": 52.4756136, "lon": 13.500153, "tags": {"amenity": "restaurant", "name": "Wilhelmstrand"}}, {"type": "node", "id": 12431719409, "lat": 52.4693105, "lon": 13.5128514}, {"type": "node", "id": 12431719410, "lat": 52.4693292, "lon": 13.5128347}, {"type": "node", "id": 12587770501, "lat": 52.46359, "lon": 13.5472671, "tags": {"leisure": "playground"}}, {"type": "node", "id": 12773052182, "lat": 52.4623426, "lon": 13.5152343, "tags": {"healthcare": "psychotherapist", "name": "Dr. med. Ulrich Adam-Ke\u00dfler", "opening_hours": "\"by appointment\"", "phone": "+49 30 98393601", "website": "https://www.adam-kessler.de"}}, {"type": "node", "id": 12836881979, "lat": 52.4641206, "lon": 13.5469363}, {"type": "node", "id": 12836881980, "lat": 52.4641097, "lon": 13.5469777}, {"type": "node", "id": 12836881981, "lat": 52.4640664, "lon": 13.546947}, {"type": "node", "id": 12836881982, "lat": 52.4640769, "lon": 13.5469073}, {"type": "node", "id": 12836881983, "lat": 52.4640819, "lon": 13.5469108}, {"type": "node", "id": 12836881984, "lat": 52.4640974, "lon": 13.5468518}, {"type": "node", "id": 12836881985, "lat": 52.4641193, "lon": 13.5468673}, {"type": "node", "id": 12836881986, "lat": 52.4641042, "lon": 13.5469247}, {"type": "way", "id": 23482445, "nodes": [95950762, 3859592460, 3859592462, 3859592461, 254302988, 254302989, 254302990, 254302991, 254302992, 254302993, 3859590646, 3507463054, 95956855, 7861067851, 2450695563, 2450695566, 2450695567, 441260011, 441260985, 254303138, 95950762], "tags": {"access": "yes", "leisure": "playground"}}, {"type": "way", "id": 25376224, "nodes": [8300933462, 8300918191, 8300933439, 8300933444, 8300933481, 8300933492, 8300933425, 8300918182, 8300918171, 8300933491, 8300918208, 8300933453, 8300933465, 8300918185, 8300918206, 8300933437, 8300933447, 8300918200, 8300933484, 8300918209, 8300918186, 8300933433, 8300933423, 8300918214, 8300933431, 8300933462]}, {"type": "way", "id": 27088512, "nodes": [297201906, 297201907, 9977048305, 9977048306, 9977048307, 9977048309, 297201909, 11956120973, 297201910, 297105912, 297201906], "tags": {"leisure": "park", "protection_title": "Gesch\u00fctzte Gr\u00fcnanlage"}}, {"type": "way", "id": 32843241, "nodes": [369979346, 6993011273, 2042665339, 369979366, 369979363, 1316803538, 5277878818, 5277878819, 10568344361, 369979356, 369979349, 6993011272, 12431719409, 12431719410, 369979346], "tags": {"addr:city": "Berlin", "addr:country": "DE", "addr:housenumber": "16", "addr:postcode": "12459", "addr:street": "Rummelsburger Stra\u00dfe", "addr:suburb": "Obersch\u00f6neweide", "brand": "Rewe", "brand:wikidata": "Q16968817", "brand:wikipedia": "de:Rewe", "building": "retail", "building:levels": "1", "height": "5", "internet_access": "wlan", "name": "REWE", "opening_hours": "Mo-Sa 06:00-22:00", "operator": "Marcin Paczek", "phone": "+49 30 53010764", "roof:shape": "flat", "shop": "supermarket", "website": "https://www.rewe.de", "wheelchair": "yes"}}, {"type": "way", "id": 32843244, "nodes": [369979397, 369979389, 10568344357, 10568344354, 10568344355, 10568344353, 10568344352, 10568344351, 10568344346, 369979400, 12296524552, 369979409, 369979397], "tags": {"addr:city": "Berlin", "addr:housenumber": "16", "addr:postcode": "12459", "addr:street": "Rummelsburger Stra\u00dfe", "brand": "Aldi Nord", "brand:wikidata": "Q41171373", "brand:wikipedia": "en:Aldi", "building": "retail", "building:levels": "1", "check_date:opening_hours": "2025-05-07", "height": "5", "name": "Aldi", "opening_hours": "Mo-Sa 07:00-21:00", "operator": "Aldi Nord", "roof:shape": "flat", "shop": "supermarket", "website": "https://www.aldi-nord.de", "wheelchair": "yes"}}, {"type": "way", "id": 42871787, "nodes": [536668306, 536668311, 536668312, 10542961533, 10542961535, 536668306], "tags": {"access": "yes", "leisure": "playground", "protection_title": "Gesch\u00fctzte Gr\u00fcnanlage"}}, {"type": "way", "id": 43555530, "nodes": [549934701, 549934704, 549934706, 549934709, 549934701], "tags": {"addr:city": "Berlin", "addr:country": "DE", "addr:housename": "H32", "addr:street": "Wilhelminenhofstra\u00dfe", "amenity": "fast_food", "note": "Alte Stra\u00dfenbahn"}}, {"type": "way", "id": 46150886, "nodes": [588400222, 588400220, 588400218, 588400210, 588400207, 588400209, 588400222], "tags": {"addr:city": "Berlin", "addr:housenumber": "250-256", "addr:postcode": "12459", "addr:street": "An der Wuhlheide", "addr:suburb": "K\u00f6penick", "leisure": "playground", "name": "Skatebowl", "phone": "+49 30 64329841", "website": "https://www.mellowpark.de"}}, {"type": "way", "id": 70417119, "nodes": [297201965, 297201970, 3166193497, 86058626, 840198884, 840198898, 2450176002, 2450176001, 2450176000, 2450175936, 9837728914, 9837728913, 840198896, 2450175919, 2450175923, 840198899, 840198881, 840198875, 840198893, 297201965], "tags": {"leisure": "park", "protection_title": "Gesch\u00fctzte Gr\u00fcnanlage"}}, {"type": "way", "id": 119129004, "nodes": [1339373062, 2317468879, 2317468876, 1339373060, 1403275531, 1403275523, 638725550, 2317468873, 1339373058, 1339373062], "tags": {"brand": "Netto Marken-Discount", "brand:wikidata": "Q879858", "brand:wikipedia": "de:Netto Marken-Discount", "building": "retail", "building:levels": "1", "disused:shop": "yes", "name": "Netto Marken-Discount", "opening_hours": "Mo-Sa 07:00-21:00", "payment:cash": "yes", "payment:contactless": "yes", "payment:credit_cards": "yes", "payment:girocard": "yes", "shop": "supermarket", "website": "https://www.netto-online.de/filialen/Berlin-Koepenick/An-der-Wuhlheide-154/5015/"}}, {"type": "way", "id": 151368586, "nodes": [298088350, 1791397286, 503979676, 503979678, 5829800522, 503979680, 503979682, 9049276260, 9049276279, 9049276280, 9049276281, 9049276303, 298087980, 86058472, 86058468, 5834498707, 262347496, 86058466, 298088350], "tags": {"leisure": "park", "name": "Hasselwerderpark", "protection_title": "Gesch\u00fctzte Gr\u00fcnanlage", "wikidata": "Q112861580", "wikimedia_commons": "Category:Hasselwerder Park"}}, {"type": "way", "id": 162722519, "nodes": [1745643038, 1745643041, 4283567427, 9086674751, 9086674753, 9086674754, 1745643042, 9086674750, 1745643040, 1311872097, 1311872170, 4283567424, 4283567425, 2704581106, 2704581110, 1311872121, 1311872108, 1311872122, 1311872103, 1745643038], "tags": {"description": "Generationenpark f\u00fcr Obersch\u00f6neweide", "leisure": "park", "name": "Aktionspark", "protection_title": "Gesch\u00fctzte Gr\u00fcnanlage"}}, {"type": "way", "id": 199769073, "nodes": [2097622336, 2097622335, 2097622331, 1739128452, 2097622336], "tags": {"access": "yes", "leisure": "playground", "protection_title": "Gesch\u00fctzte Gr\u00fcnanlage"}}, {"type": "way", "id": 219558864, "nodes": [2287046262, 2287046263, 2287046260, 2287046264, 2287046265, 2287046266, 2287046259, 2287046256, 2287046257, 2287046255, 2287046262], "tags": {"addr:city": "Berlin", "addr:country": "DE", "addr:housenumber": "30", "addr:postcode": "12459", "addr:street": "Mentelinstra\u00dfe", "addr:suburb": "Obersch\u00f6neweide", "amenity": "restaurant", "building": "retail", "building:levels": "1", "indoor_seating": "yes", "level": "0", "name": "Garten-Oase", "opening_hours": "Tu-Fr 16:00-20:00; Sa,Su 12:00-20:00", "outdoor_seating": "yes", "roof:shape": "hipped", "smoking": "outside"}}, {"type": "way", "id": 270880623, "nodes": [2758433180, 2758433178, 2758433171, 2758433176, 2758433180], "tags": {"addr:city": "Berlin", "addr:country": "DE", "addr:housenumber": "9", "addr:postcode": "12459", "addr:street": "Reinbeckstra\u00dfe", "addr:suburb": "Obersch\u00f6neweide", "amenity": "cafe", "building": "yes", "contact:email": "nele@cafe-schoeneweile.de", "contact:phone": "+49 179 1127110", "contact:website": "http://www.cafe-schoeneweile.de/", "name": "Caf\u00e9 Sch\u00f6neweile", "opening_hours": "Mo-Fr 10:00-18:00; Sa,Su,PH 13:00-18:00", "smoking": "outside", "toilets:wheelchair": "no", "wheelchair": "limited"}}, {"type": "way", "id": 271964818, "nodes": [2769012861, 1311872168, 1311872114, 10218356668, 2769012868, 1311872152, 1311872180, 1311872156, 1311872178, 9086210702, 1739128451, 9086210709, 2769012861], "tags": {"access": "yes", "leisure": "playground", "name": "Spielplatz Sch\u00f6ne Weide", "protection_title": "Gesch\u00fctzte Gr\u00fcnanlage", "wheelchair": "yes"}}, {"type": "way", "id": 283421915, "nodes": [2872836243, 2872836241, 536668325, 2872836244, 2872836243], "tags": {"access": "private", "leisure": "playground"}}, {"type": "way", "id": 283644535, "nodes": [366908823, 366908824, 86058416, 2125335142, 4093356917, 2125335131, 86058415, 366908833, 366908823], "tags": {"leisure": "park"}}, {"type": "way", "id": 288073856, "nodes": [534423601, 2916141750, 86058609, 534423573, 297106173, 297106375, 297106374, 297106372, 534423601], "tags": {"leisure": "park", "protection_title": "Gesch\u00fctzte Gr\u00fcnanlage"}}, {"type": "way", "id": 293409955, "nodes": [12078750219, 12078750217, 2704581093, 86058491, 12078750215, 2446830282, 5632519227, 12078750214, 2970026045, 2970026049, 2970026052, 5868768803, 2970026054, 295896032, 3540728139, 873653417, 12078750233, 3540728164, 3540728159, 7149309341, 3540728765, 3540728189, 12078750251, 3972068380, 3972068384, 3972068377, 12052369366, 3540729112, 12078750232, 12078750230, 12078750229, 12078750228, 12078750227, 12078750226, 12078750225, 12078750223, 12078750224, 12078750222, 12078750220, 12078750219], "tags": {"leisure": "park", "protection_title": "Gesch\u00fctzte Gr\u00fcnanlage"}}, {"type": "way", "id": 329510208, "nodes": [217862792, 217862793, 217862796, 3754485563, 217862797, 217862798, 217862791, 217862792], "tags": {"amenity": "restaurant", "building:levels": "2", "building:part": "yes", "name": "Dachrestaurant", "opening_hours": "Mo-Fr 12:00-14:30; Sa,Su 12:00-16:00", "roof:material": "tar_paper", "roof:shape": "flat", "wheelchair": "yes"}}, {"type": "way", "id": 355335576, "nodes": [3609505014, 3609505013, 3609505015, 3609505017, 3609505019, 3609505020, 3609505022, 3609505014], "tags": {"leisure": "playground"}}, {"type": "way", "id": 371901311, "nodes": [3754485593, 3754485585, 3754485572, 3754485577, 3754485593], "tags": {"leisure": "playground", "surface": "sand"}}, {"type": "way", "id": 382737861, "nodes": [3859556863, 503965620, 9956884071, 5829897575, 5829897578, 5829897579, 9956884041, 9956884042, 9956884040, 3042113644, 3859556861, 5829897569, 5829897571, 5829897572, 298088688, 298087960, 3859588574, 1373718465, 5829897573, 9956884073, 9956884072, 5829897577, 5829897561, 3859556863], "tags": {"leisure": "park", "protection_title": "Gesch\u00fctzte Gr\u00fcnanlage"}}, {"type": "way", "id": 407446601, "nodes": [4094948230, 4094948238, 4094948231, 4094948225, 4094948230], "tags": {"access": "yes", "leisure": "playground"}}, {"type": "way", "id": 407446603, "nodes": [4094948213, 4608500581, 4608500580, 4608500579, 8303965899, 8303965902, 8303965884, 8303965885, 8303965880, 8303965879, 1339442590, 1339442603, 277003140, 1773907576, 3363880806, 3363880800, 3363880795, 4094948223, 4094948220, 4094948221, 4094948213], "tags": {"alt_name": "B\u00fcrgerwiese in Sch\u00f6neweide", "leisure": "park", "name": "B\u00fcrgerwiese in Block 56", "protection_title": "Gesch\u00fctzte Gr\u00fcnanlage"}}, {"type": "way", "id": 427590163, "nodes": [4267884666, 4267884667, 4267884668, 4267884669, 4267887461, 4267884666], "tags": {"access": "yes", "leisure": "playground"}}, {"type": "way", "id": 427590164, "nodes": [4267884670, 4267884671, 8300918168, 4267884672, 4267884673, 4267884670], "tags": {"access": "yes", "leisure": "playground"}}, {"type": "way", "id": 427590302, "nodes": [4267887462, 4267887463, 4267887464, 4267887465, 4267887462], "tags": {"access": "yes", "leisure": "playground"}}, {"type": "way", "id": 469495334, "nodes": [4637973144, 4637973143, 4637973142, 4637973141, 4637973140, 4637973139, 4637973138, 4637973137, 4637973144], "tags": {"access": "private", "leisure": "playground"}}, {"type": "way", "id": 469495335, "nodes": [4637973152, 4637973151, 4637973150, 4637973149, 4637973148, 4637973147, 4637973146, 4637973145, 4637973152], "tags": {"access": "private", "leisure": "playground"}}, {"type": "way", "id": 469495336, "nodes": [4637973163, 4637973162, 4637973161, 4637973160, 4637973159, 4637973158, 4637973157, 4637973156, 4637973155, 4637973154, 4637973153, 4637973163], "tags": {"access": "private", "leisure": "playground"}}, {"type": "way", "id": 469495337, "nodes": [4637973164, 4637973174, 4637973173, 4637973172, 4637973171, 4637973170, 4637973169, 4637973168, 4637973167, 4637973166, 4637973165, 4637973164], "tags": {"access": "yes", "leisure": "playground", "wheelchair": "yes"}}, {"type": "way", "id": 522509031, "nodes": [5088892609, 5088892608, 5088892607, 5088892606, 5088892605, 5088892604, 5088892603, 5088892602, 5088892601, 5088892600, 5088892599, 5088892598, 5088892597, 5088892596, 5088892595, 5088892594, 5088892593, 5088892592, 5088892591, 5088892609], "tags": {"access": "private", "leisure": "playground", "surface": "sand"}}, {"type": "way", "id": 541193006, "nodes": [2967343003, 5233782491, 5233782490, 2967343002, 2967343003], "tags": {"access": "customers", "leisure": "playground", "surface": "sand"}}, {"type": "way", "id": 550675518, "nodes": [5318663840, 5834680804, 5834680805, 5318663839, 6340152129, 6340152128, 5834680794, 6340152125, 6340152126, 6340152124, 6340152127, 5318663838, 5318663837, 5834680806, 5834680807, 5318663840], "tags": {"addr:city": "Berlin", "addr:country": "DE", "addr:housenumber": "3", "addr:postcode": "12459", "addr:street": "Kottmeierstra\u00dfe", "addr:suburb": "Obersch\u00f6neweide", "branch": "Kottmeierstra\u00dfe", "brand": "EDEKA", "brand:wikidata": "Q701755", "brand:wikipedia": "de:Edeka", "building": "supermarket", "building:levels": "2", "check_date:opening_hours": "2024-04-04", "contact:email": "edeka.kruppa@minden.edeka.de", "contact:phone": "+49 30 13885680", "contact:website": "https://www.edeka.de/eh/minden-hannover/edeka-kruppa-kottmeierstr.-3/index.jsp", "name": "EDEKA Kruppa", "opening_hours": "Mo-Sa 07:00-21:00", "roof:levels": "0", "roof:shape": "flat", "shop": "supermarket", "wheelchair": "yes"}}, {"type": "way", "id": 584210908, "nodes": [5584679712, 5584679713, 5584679714, 5584679715, 5584679716, 5584679717, 5584679718, 5584679719, 5584679720, 5584681021, 5584681022, 5584681023, 5584681024, 5584681025, 5584681026, 5584681027, 5584681028, 5584681029, 5584681030, 5584681031, 5584681032, 5584679712], "tags": {"access": "private", "leisure": "playground"}}, {"type": "way", "id": 591390990, "nodes": [5646074321, 5646073988, 5646074020, 5646074008, 12054214847, 12054214845, 12054214843, 12054214842, 12054214841, 5646074018, 5646074017, 5646074016, 5646073992, 550551152, 5646074014, 5646074013, 86058382, 86058385, 550547964, 5646074009, 5646074321], "tags": {"leisure": "park"}}, {"type": "way", "id": 616652577, "nodes": [482955814, 5829797162, 1806879092, 1806879090, 5829797161, 3042113640, 2097620350, 5829797159, 5829797158, 5829797157, 5829797156, 5829797155, 5829797154, 12078755988, 12078755989, 482955814], "tags": {"leisure": "park"}}, {"type": "way", "id": 660704388, "nodes": [6185890182, 6185893185, 6185893191, 6185893187, 6185890181, 6185893189, 6185890184, 6185893190, 6185893186, 6185890180, 6185893188, 6185890183, 6185890182], "tags": {"access": "yes", "leisure": "playground", "surface": "sand"}}, {"type": "way", "id": 671089622, "nodes": [6284391529, 6284391534, 6284391530, 6284391532, 6284391529], "tags": {"access": "yes", "leisure": "playground", "min_age": "3", "surface": "gravel", "wheelchair": "no"}}, {"type": "way", "id": 671091832, "nodes": [6284412382, 6284416186, 6284412380, 6284416190, 6284412384, 6284416193, 6284416188, 6284412381, 6284416191, 6284416185, 6284412379, 6284416189, 6284412383, 6284416192, 6284416187, 6284412382], "tags": {"access": "yes", "leisure": "playground", "min_age": "0", "surface": "sand"}}, {"type": "way", "id": 679800287, "nodes": [6365160412, 6365160411, 6365160410, 6365160409, 6365160412], "tags": {"access": "private", "leisure": "playground"}}, {"type": "way", "id": 765467684, "nodes": [7149309342, 3540728164, 3540728159, 7149309341, 7149309334, 7149309340, 7149309339, 7149309330, 7149309338, 7149309337, 7149309333, 7149309342], "tags": {"access": "yes", "barrier": "fence", "leisure": "playground", "wheelchair": "yes"}}, {"type": "way", "id": 854597320, "nodes": [7969596388, 8939742162, 8939742165, 8939742166, 4219866805, 7969596387, 7969596386, 7969596391, 7969596390, 7969596389, 8939742164, 8939742163, 7969596388], "tags": {"access": "yes", "leisure": "playground"}}, {"type": "way", "id": 893136665, "nodes": [8300918174, 8300918173, 8300918184, 8300933477, 8300933499, 8300918163, 8300918178, 8300918202, 8300933419, 3600009142, 8300933461, 8300933480, 8300918170, 8300918193, 8300918181, 8300918205, 8300933422, 8300933441, 8300933430, 8300933451, 8300933472, 8300933490, 8300933482, 8300918172, 8300918195, 8300918213, 8300933424, 8300933443, 8300933464, 8300933463, 8300918196, 8300933452, 8300933483, 8300933494, 11221088834, 8300933495, 8300933473, 8300918174]}, {"type": "way", "id": 893136668, "nodes": [8300933457, 8300933476, 8300933498, 8300918189, 8300918177, 8300918201, 8300933418, 8300933436, 8300933428, 8300933449, 8300933469, 8300933487, 8300933478, 8300933500, 8300918190, 8300918211, 8300918203, 8300933420, 8300933438, 8300933459, 8300933450, 8300933470, 8300933488, 8300918179, 8300918169, 8300918192, 8300918212, 8300933429, 8300933421, 8300933440, 8300933442, 8300933460, 8300933479, 8300933471, 8300933489, 8300918180, 8300918204, 8300918194, 8300933457]}, {"type": "way", "id": 957834654, "nodes": [8862844666, 8862844665, 8862844664, 8862844663, 8862844666], "tags": {"access": "customers", "leisure": "playground", "surface": "sand"}}, {"type": "way", "id": 957834657, "nodes": [8862844708, 8862844707, 8862844706, 8862844705, 8862844704, 8862844703, 8862844708], "tags": {"access": "customers", "leisure": "playground", "playground": "sandpit", "surface": "sand"}}, {"type": "way", "id": 977333834, "nodes": [9043421262, 9043421263, 9043421264, 9043421265, 9043421262], "tags": {"leisure": "playground"}}, {"type": "way", "id": 1053431143, "nodes": [2804261182, 9681029844, 9681029839, 2804261175, 9681029874, 9681029875, 2804261172, 9681029873, 9681029870, 9681029843, 9681029842, 9681029841, 9681029838, 9681002005, 2804261182], "tags": {"leisure": "park"}}, {"type": "way", "id": 1053431144, "nodes": [9681029856, 9681029855, 9681029854, 9681029853, 9681029852, 9681029851, 9681029850, 9681029849, 9681029848, 9681029847, 9681029846, 9681029845, 9681029856], "tags": {"access": "yes", "leisure": "playground"}}, {"type": "way", "id": 1097481849, "nodes": [1883431621, 1883431624, 10049003797, 10049003798, 10049003799, 10049003800, 10049003801, 10219051311, 1883431621], "tags": {"leisure": "park", "protection_title": "Gesch\u00fctzte Gr\u00fcnanlage"}}, {"type": "way", "id": 1131114239, "nodes": [10542596356, 10542596357, 10542596358, 10542596351, 10542596352, 10542596355, 10542596354, 10542596353, 1316803536, 10542596359, 10542596360, 4084373096, 4084373095, 2813587461, 2813587459, 1316803542, 10542596356], "tags": {"leisure": "park", "protection_title": "Gesch\u00fctzte Gr\u00fcnanlage"}}, {"type": "way", "id": 1131164427, "nodes": [10542974133, 10542974134, 10542974135, 10542974136, 10542974137, 10542974138, 10542974139, 10542974140, 10542974141, 10542974142, 10542974143, 10542974144, 10542974145, 10542974146, 10542974147, 10542974148, 10542974149, 10542974150, 10542974151, 10542974152, 10542974133], "tags": {"leisure": "park", "protection_title": "Gesch\u00fctzte Gr\u00fcnanlage"}}, {"type": "way", "id": 1166220056, "nodes": [2287046201, 10847048532, 10847048533, 10847048534, 2287046201], "tags": {"access": "yes", "leisure": "playground"}}, {"type": "way", "id": 1208533587, "nodes": [438210468, 11198096316, 11198096315, 11198096314, 11198096313, 438210468], "tags": {"addr:city": "Berlin", "addr:country": "DE", "addr:housenumber": "161", "addr:postcode": "12459", "addr:street": "An der Wuhlheide", "amenity": "fast_food", "check_date:opening_hours": "2025-06-01", "contact:email": "finnhuetten@web.de", "contact:mobile": "+49 177 8794368", "contact:website": "https://wuhlheide-erleben.de/angebot/finnhutten-am-badesee/", "cuisine": "coffee_shop;german;burger;cake;noodle;sausage", "delivery": "no", "diet:vegetarian": "yes", "indoor_seating": "no", "name": "Finnh\u00fctten am Badesee", "opening_hours": "Mar-Oct Mo-Su 10:00-18:00", "opening_hours:signed": "no", "operator": "Michael Schindler", "outdoor_seating": "yes", "payment:credit_cards": "no", "payment:debit_cards": "no", "smoking": "yes", "takeaway": "yes", "wheelchair": "limited"}}, {"type": "way", "id": 1293684994, "nodes": [11992259029, 11992259028, 11992259027, 11992259026, 11992259025, 11992259024, 11992259023, 11992259022, 11992259021, 11992259020, 11992259019, 11992259018, 11992259017, 11992259016, 11992259015, 11992259014, 11992259013, 11992259029], "tags": {"leisure": "playground", "name": "Spielplatz"}}, {"type": "way", "id": 1327051531, "nodes": [12276976906, 12276976905, 12276976904, 12276976903, 12276976906], "tags": {"access": "yes", "leisure": "playground", "min_age": "3", "surface": "gravel", "wheelchair": "no"}}, {"type": "way", "id": 1386591104, "nodes": [12836881979, 12836881980, 12836881981, 12836881982, 12836881983, 12836881984, 12836881985, 12836881986, 12836881979], "tags": {"amenity": "fast_food", "brewery": "yes", "building": "yes", "check_date:opening_hours": "2023-11-18", "indoor_seating": "no", "name": "Fritten Fritze", "opening_hours:signed": "no", "outdoor_seating": "no", "takeaway": "only", "wheelchair": "yes"}}, {"type": "relation", "id": 12147997, "members": [{"type": "way", "ref": 25376224, "role": "outer"}, {"type": "way", "ref": 893136668, "role": "outer"}, {"type": "way", "ref": 893136665, "role": "outer"}], "tags": {"leisure": "park", "name": "Griechischer Park", "protection_title": "Gesch\u00fctzte Gr\u00fcnanlage", "type": "multipolygon", "wikidata": "Q109999054"}}]}