{"version": 0.6, "generator": "Overpass API 0.7.62.7 375dc00a", "osm3s": {"timestamp_osm_base": "2025-08-05T15:12:15Z", "copyright": "The data included in this document is from www.openstreetmap.org. The data is made available under ODbL."}, "elements": [{"type": "node", "id": 60848447, "lat": 52.5318353, "lon": 13.4696536, "tags": {"amenity": "pharmacy", "check_date:opening_hours": "2025-02-11", "dispensing": "yes", "healthcare": "pharmacy", "name": "Castello-Apotheke", "opening_hours": "Mo-Fr 08:30-19:00; Sa 08:30-14:00", "wheelchair": "yes"}}, {"type": "node", "id": 60852928, "lat": 52.5275552, "lon": 13.4685134, "tags": {"addr:city": "Berlin", "addr:country": "DE", "addr:housenumber": "11", "addr:postcode": "10369", "addr:street": "Rudolf-Seiffert-Stra\u00dfe", "addr:suburb": "Fennpfuhl", "amenity": "pharmacy", "check_date:opening_hours": "2024-10-16", "dispensing": "yes", "healthcare": "pharmacy", "name": "Rosen Apotheke", "opening_hours": "Mo-Fr 08:00-19:00; Sa 08:00-12:00", "phone": "+49 30 9759449", "website": "https://www.zurrose.de/", "wheelchair": "yes"}}, {"type": "node", "id": 237731210, "lat": 52.5328583, "lon": 13.4812201}, {"type": "node", "id": 237731211, "lat": 52.5326109, "lon": 13.4779598}, {"type": "node", "id": 237737973, "lat": 52.5288877, "lon": 13.4836084}, {"type": "node", "id": 237737975, "lat": 52.5304911, "lon": 13.4837002}, {"type": "node", "id": 237737976, "lat": 52.5309854, "lon": 13.4831893}, {"type": "node", "id": 237737977, "lat": 52.5315376, "lon": 13.483214}, {"type": "node", "id": 257981410, "lat": 52.5244616, "lon": 13.4714623}, {"type": "node", "id": 257981414, "lat": 52.5242876, "lon": 13.4724369}, {"type": "node", "id": 257981423, "lat": 52.5236008, "lon": 13.4710321}, {"type": "node", "id": 262213475, "lat": 52.5241575, "lon": 13.4800051, "tags": {"addr:city": "Berlin", "addr:country": "DE", "addr:housenumber": "47", "addr:postcode": "10367", "addr:street": "M\u00f6llendorffstra\u00dfe", "addr:suburb": "Fennpfuhl", "amenity": "pharmacy", "check_date:opening_hours": "2024-09-23", "contact:phone": "+49 30 55487020", "contact:website": "http://www.moellendorffapotheke.de", "dispensing": "yes", "healthcare": "pharmacy", "name": "M\u00f6llendorff-Apotheke", "opening_hours": "Mo-Fr 08:30-18:30, Sa 08:30-13:00", "source": "survey", "wheelchair": "yes"}}, {"type": "node", "id": 268002620, "lat": 52.5231963, "lon": 13.4769761, "tags": {"addr:city": "Berlin", "addr:country": "DE", "addr:housenumber": "225", "addr:postcode": "10367", "addr:street": "Storkower Stra\u00dfe", "addr:suburb": "Fennpfuhl", "amenity": "pub", "contact:email": "club.schlauch@googlemail.com", "indoor_seating": "yes", "level": "0", "name": "Studentenclub Schlauch", "opening_hours": "Th, Sa 18:00-22:00", "outdoor_seating": "yes", "wheelchair": "no"}}, {"type": "node", "id": 279173970, "lat": 52.5258649, "lon": 13.4814245, "tags": {"access": "private", "leisure": "playground"}}, {"type": "node", "id": 281339071, "lat": 52.5363843, "lon": 13.4580582}, {"type": "node", "id": 281339072, "lat": 52.5365951, "lon": 13.4574969}, {"type": "node", "id": 281339074, "lat": 52.5370113, "lon": 13.4577423}, {"type": "node", "id": 281339076, "lat": 52.5375855, "lon": 13.458421}, {"type": "node", "id": 281339078, "lat": 52.5377977, "lon": 13.4579394}, {"type": "node", "id": 281339080, "lat": 52.5388531, "lon": 13.4591818}, {"type": "node", "id": 281339081, "lat": 52.5384889, "lon": 13.4614437}, {"type": "node", "id": 281339082, "lat": 52.5370734, "lon": 13.4652145}, {"type": "node", "id": 281339083, "lat": 52.5366562, "lon": 13.4663816}, {"type": "node", "id": 282685584, "lat": 52.5272372, "lon": 13.4806935}, {"type": "node", "id": 282687675, "lat": 52.5367704, "lon": 13.4663546}, {"type": "node", "id": 292082810, "lat": 52.5319261, "lon": 13.4753847}, {"type": "node", "id": 292082916, "lat": 52.5278962, "lon": 13.4726993}, {"type": "node", "id": 292082917, "lat": 52.5278017, "lon": 13.4726184}, {"type": "node", "id": 292082918, "lat": 52.5278861, "lon": 13.4729428}, {"type": "node", "id": 292082919, "lat": 52.5278044, "lon": 13.4728755}, {"type": "node", "id": 292092560, "lat": 52.5248282, "lon": 13.4664205}, {"type": "node", "id": 292092563, "lat": 52.5248773, "lon": 13.4665439}, {"type": "node", "id": 292092618, "lat": 52.5254295, "lon": 13.4657308, "tags": {"addr:city": "Berlin", "addr:country": "DE", "addr:housenumber": "4", "addr:postcode": "10369", "addr:street": "Franz-Jacob-Stra\u00dfe", "addr:suburb": "Fennpfuhl", "branch": "Franz Jacob Stra\u00dfe", "brand": "Edeka", "brand:wikidata": "Q701755", "brand:wikipedia": "de:Edeka", "check_date": "2024-08-16", "check_date:opening_hours": "2023-12-17", "contact:website": "https://www.edeka.de/eh/minden-hannover/edeka-scheuner-franz-jacob-str.-4/index.jsp", "name": "EDEKA", "opening_hours": "Mo-Sa 07:00-22:00", "payment:mastercard": "yes", "payment:visa": "yes", "shop": "supermarket", "wheelchair": "yes"}}, {"type": "node", "id": 300343914, "lat": 52.5247872, "lon": 13.4663834}, {"type": "node", "id": 300343921, "lat": 52.524693, "lon": 13.4664355}, {"type": "node", "id": 300343925, "lat": 52.5246634, "lon": 13.4664852}, {"type": "node", "id": 300343929, "lat": 52.524688, "lon": 13.4666853}, {"type": "node", "id": 300343933, "lat": 52.5247478, "lon": 13.4666952}, {"type": "node", "id": 300344038, "lat": 52.5249429, "lon": 13.4715342}, {"type": "node", "id": 300344041, "lat": 52.5247573, "lon": 13.4713912}, {"type": "node", "id": 300344048, "lat": 52.5245514, "lon": 13.4712135}, {"type": "node", "id": 300344054, "lat": 52.5245849, "lon": 13.4710666}, {"type": "node", "id": 300344062, "lat": 52.5250372, "lon": 13.4712395}, {"type": "node", "id": 313717517, "lat": 52.5329731, "lon": 13.4690365}, {"type": "node", "id": 316657525, "lat": 52.527485, "lon": 13.4801013, "tags": {"amenity": "fast_food", "cuisine": "kebab", "level": "0", "name": "Mac's Deluxe", "opening_hours": "PH,Mo-Su 10:00-24:00", "outdoor_seating": "yes", "takeaway": "yes", "wheelchair": "yes"}}, {"type": "node", "id": 324368704, "lat": 52.5288176, "lon": 13.4594478}, {"type": "node", "id": 324368705, "lat": 52.5287427, "lon": 13.4598766}, {"type": "node", "id": 324368706, "lat": 52.5285177, "lon": 13.4597704}, {"type": "node", "id": 324368707, "lat": 52.5285926, "lon": 13.4593416}, {"type": "node", "id": 361187341, "lat": 52.530299, "lon": 13.4726124}, {"type": "node", "id": 361187342, "lat": 52.5302389, "lon": 13.4725962}, {"type": "node", "id": 361187343, "lat": 52.5301769, "lon": 13.4725273}, {"type": "node", "id": 361187344, "lat": 52.5298423, "lon": 13.4715623}, {"type": "node", "id": 361187345, "lat": 52.5303739, "lon": 13.4718101}, {"type": "node", "id": 361190375, "lat": 52.5331785, "lon": 13.4696274}, {"type": "node", "id": 441568699, "lat": 52.526244, "lon": 13.4727019}, {"type": "node", "id": 449119486, "lat": 52.5296108, "lon": 13.4824127}, {"type": "node", "id": 450862040, "lat": 52.5293928, "lon": 13.468559}, {"type": "node", "id": 450862041, "lat": 52.5296478, "lon": 13.4684031}, {"type": "node", "id": 451987270, "lat": 52.5320444, "lon": 13.4780222}, {"type": "node", "id": 451987272, "lat": 52.5321016, "lon": 13.4785881}, {"type": "node", "id": 452438622, "lat": 52.5282011, "lon": 13.4673438}, {"type": "node", "id": 452438623, "lat": 52.5280135, "lon": 13.4672369}, {"type": "node", "id": 452438625, "lat": 52.5281152, "lon": 13.4678599}, {"type": "node", "id": 452438626, "lat": 52.5280602, "lon": 13.4681835}, {"type": "node", "id": 452438630, "lat": 52.5271374, "lon": 13.4675958}, {"type": "node", "id": 452438631, "lat": 52.527482, "lon": 13.4677512}, {"type": "node", "id": 452438672, "lat": 52.5276342, "lon": 13.468463}, {"type": "node", "id": 452438674, "lat": 52.5272617, "lon": 13.4682877}, {"type": "node", "id": 452438676, "lat": 52.5272048, "lon": 13.4686149}, {"type": "node", "id": 452438678, "lat": 52.5275816, "lon": 13.4687892}, {"type": "node", "id": 453013649, "lat": 52.5280106, "lon": 13.4679731, "tags": {"addr:city": "Berlin", "addr:country": "DE", "addr:housenumber": "10", "addr:postcode": "10369", "addr:street": "Franz-Jacob-Stra\u00dfe", "addr:suburb": "Fennpfuhl", "amenity": "pharmacy", "check_date:opening_hours": "2023-05-04", "contact:phone": "+49 30 97105429", "contact:website": "http://www.apotheke-am-fennpfuhl.de", "dispensing": "yes", "healthcare": "pharmacy", "name": "Apotheke am Fennpfuhl", "opening_hours": "Mo-Th 08:00-19:00; Fr 08:00-18:00; Sa 08:30-12:30", "wheelchair": "yes"}}, {"type": "node", "id": 453042696, "lat": 52.5298871, "lon": 13.4713873, "tags": {"addr:city": "Berlin", "addr:country": "DE", "addr:postcode": "10369", "addr:suburb": "Fennpfuhl", "amenity": "restaurant", "check_date:opening_hours": "2024-08-23", "cuisine": "italian", "diet:vegetarian": "yes", "name": "Marco Polo Due", "opening_hours": "Mo-Su 11:00-22:00", "toilets:wheelchair": "yes", "wheelchair": "yes"}}, {"type": "node", "id": 456490878, "lat": 52.5313868, "lon": 13.4797989}, {"type": "node", "id": 463444162, "lat": 52.5288152, "lon": 13.464128, "tags": {"addr:city": "Berlin", "addr:country": "DE", "addr:housenumber": "30", "addr:postcode": "10369", "addr:street": "Karl-Lade-Stra\u00dfe", "addr:suburb": "Fennpfuhl", "amenity": "pub", "check_date:opening_hours": "2025-06-09", "name": "Libero", "opening_hours": "Mo-Sa 15:00-24:00, Su 15:00-23:00", "wheelchair": "limited"}}, {"type": "node", "id": 473174402, "lat": 52.5319047, "lon": 13.4779944}, {"type": "node", "id": 473174403, "lat": 52.532145, "lon": 13.4794251}, {"type": "node", "id": 473174404, "lat": 52.5314007, "lon": 13.4796982}, {"type": "node", "id": 473594664, "lat": 52.5307005, "lon": 13.482328}, {"type": "node", "id": 473594665, "lat": 52.530726, "lon": 13.4811689}, {"type": "node", "id": 473594672, "lat": 52.5314075, "lon": 13.4823654}, {"type": "node", "id": 473595522, "lat": 52.5298929, "lon": 13.4823067}, {"type": "node", "id": 473595523, "lat": 52.5299186, "lon": 13.4811594}, {"type": "node", "id": 473595524, "lat": 52.5306574, "lon": 13.4811648}, {"type": "node", "id": 473595527, "lat": 52.5306346, "lon": 13.4823471}, {"type": "node", "id": 473769934, "lat": 52.5308193, "lon": 13.4765774}, {"type": "node", "id": 592353523, "lat": 52.5232666, "lon": 13.4809384, "tags": {"amenity": "fast_food", "check_date:opening_hours": "2024-06-22", "diet:vegan": "no", "diet:vegetarian": "yes", "name": "Alanya Bistro", "opening_hours": "Mo-Su 09:00-24:00", "outdoor_seating": "yes", "wheelchair": "no"}}, {"type": "node", "id": 600889192, "lat": 52.5304549, "lon": 13.4681135}, {"type": "node", "id": 600889196, "lat": 52.5305348, "lon": 13.4680667}, {"type": "node", "id": 600889200, "lat": 52.5306124, "lon": 13.4688192}, {"type": "node", "id": 600889201, "lat": 52.5308543, "lon": 13.4686714}, {"type": "node", "id": 602132216, "lat": 52.5295951, "lon": 13.4666297}, {"type": "node", "id": 602132218, "lat": 52.5299211, "lon": 13.4682369}, {"type": "node", "id": 612383029, "lat": 52.5248784, "lon": 13.4661687, "tags": {"addr:city": "Berlin", "addr:country": "DE", "addr:housenumber": "2a", "addr:postcode": "10369", "addr:street": "Franz-Jacob-Stra\u00dfe", "addr:suburb": "Fennpfuhl", "amenity": "restaurant", "check_date:opening_hours": "2024-02-19", "cuisine": "asian", "diet:vegan": "no", "diet:vegetarian": "yes", "name": "Son La", "opening_hours": "Mo-Sa 11:00-22:00; PH 12:00-22:00", "takeaway": "yes", "wheelchair": "yes"}}, {"type": "node", "id": 612811382, "lat": 52.5248933, "lon": 13.4800899, "tags": {"addr:city": "Berlin", "addr:country": "DE", "addr:housenumber": "52", "addr:postcode": "10367", "addr:street": "M\u00f6llendorffstra\u00dfe", "addr:suburb": "Fennpfuhl", "amenity": "doctors", "check_date:opening_hours": "2024-03-12", "contact:phone": "+493057799999", "contact:website": "https://rzm.berlin/praxis", "healthcare": "doctor", "healthcare:speciality": "radiology", "name": "Radiologisches Zentrum", "opening_hours": "Mo-Th 08:00-18:00; Fr 08:00-13:00", "wheelchair": "yes"}}, {"type": "node", "id": 737197006, "lat": 52.5268357, "lon": 13.4783092, "tags": {"amenity": "cafe", "check_date:opening_hours": "2025-03-24", "name": "Kaffee-Haus Madlen", "opening_hours": "Mo-Sa 11:00-19:00; Su off", "outdoor_seating": "yes", "wheelchair": "limited"}}, {"type": "node", "id": 737199963, "lat": 52.5268005, "lon": 13.478518, "tags": {"amenity": "pharmacy", "check_date:opening_hours": "2025-03-24", "dispensing": "yes", "healthcare": "pharmacy", "name": "gesundLeben", "opening_hours": "Mo-Fr 08:30-18:30; Sa 08:30-13:00", "wheelchair": "limited"}}, {"type": "node", "id": 737202792, "lat": 52.526903, "lon": 13.4789037, "tags": {"amenity": "fast_food", "check_date:opening_hours": "2025-05-12", "cuisine": "kebab", "name": "Bistro Max & Moritz", "opening_hours": "Mo-Su 09:00-24:00", "takeaway": "yes", "wheelchair": "limited"}}, {"type": "node", "id": 769958194, "lat": 52.5285621, "lon": 13.4654732, "tags": {"addr:city": "Berlin", "addr:country": "DE", "addr:housenumber": "40", "addr:postcode": "10369", "addr:street": "Karl-Lade-Stra\u00dfe", "amenity": "dentist", "check_date:opening_hours": "2025-06-09", "contact:website": "https://www.zahnarztpraxis-kleinschmidt.de/", "healthcare": "dentist", "name": "Zahnarztpraxis Birgit Kleinschmidt", "opening_hours": "Tu,Fr 08:00-15:00, We,Th 14:00-20:00, We 14:00-16:00", "wheelchair": "limited"}}, {"type": "node", "id": 769963652, "lat": 52.5285154, "lon": 13.4659303, "tags": {"addr:housenumber": "42", "addr:street": "Karl-Lade-Stra\u00dfe", "amenity": "restaurant", "check_date:opening_hours": "2025-06-09", "cuisine": "vietnamese", "name": "Koah Bistro", "opening_hours": "Mo-Sa 11:30-21:30; Tu off; Su,PH 12:30-21:30", "toilets:wheelchair": "no", "wheelchair": "limited"}}, {"type": "node", "id": 981170265, "lat": 52.5284999, "lon": 13.4810681}, {"type": "node", "id": 981170276, "lat": 52.5281387, "lon": 13.4814608}, {"type": "node", "id": 981170280, "lat": 52.5284559, "lon": 13.4813956}, {"type": "node", "id": 981170286, "lat": 52.5281042, "lon": 13.4810787}, {"type": "node", "id": 1118590825, "lat": 52.5321063, "lon": 13.4815515}, {"type": "node", "id": 1118590834, "lat": 52.5316073, "lon": 13.4815192}, {"type": "node", "id": 1118590866, "lat": 52.5321801, "lon": 13.4798503}, {"type": "node", "id": 1247659955, "lat": 52.5283847, "lon": 13.4693795, "tags": {"addr:city": "Berlin", "addr:country": "DE", "addr:housenumber": "16-18", "addr:postcode": "10369", "addr:street": "Franz-Jacob-Stra\u00dfe", "amenity": "fast_food", "check_date:opening_hours": "2024-02-07", "contact:mobile": "+49 175 31852187", "contact:phone": "+49 30 83218471", "cuisine": "asian", "indoor_seating": "yes", "name": "Asia Imbiss", "opening_hours": "Mo-Sa 10:00-20:00; PH,Su off", "wheelchair": "yes"}}, {"type": "node", "id": 1252662771, "lat": 52.5319294, "lon": 13.4843493}, {"type": "node", "id": 1252662772, "lat": 52.5327034, "lon": 13.4837558}, {"type": "node", "id": 1252662773, "lat": 52.5319085, "lon": 13.4838816}, {"type": "node", "id": 1252662774, "lat": 52.5327374, "lon": 13.484219}, {"type": "node", "id": 1255675770, "lat": 52.5270177, "lon": 13.4584931}, {"type": "node", "id": 1255677006, "lat": 52.5265222, "lon": 13.4582}, {"type": "node", "id": 1255677007, "lat": 52.5265805, "lon": 13.4586436}, {"type": "node", "id": 1271841754, "lat": 52.5262623, "lon": 13.4726358}, {"type": "node", "id": 1271841755, "lat": 52.5262492, "lon": 13.4725576}, {"type": "node", "id": 1306459550, "lat": 52.5319916, "lon": 13.4704311}, {"type": "node", "id": 1306459572, "lat": 52.5329195, "lon": 13.4698739}, {"type": "node", "id": 1306459640, "lat": 52.532406, "lon": 13.4701789}, {"type": "node", "id": 1306459643, "lat": 52.5330347, "lon": 13.4693362}, {"type": "node", "id": 1308239871, "lat": 52.5278557, "lon": 13.4762174}, {"type": "node", "id": 1308239876, "lat": 52.5274428, "lon": 13.4760951}, {"type": "node", "id": 1308533215, "lat": 52.5325899, "lon": 13.4760985}, {"type": "node", "id": 1308533227, "lat": 52.5255293, "lon": 13.4730294}, {"type": "node", "id": 1308533246, "lat": 52.5243633, "lon": 13.4732187}, {"type": "node", "id": 1308533256, "lat": 52.5266112, "lon": 13.4693228}, {"type": "node", "id": 1308533264, "lat": 52.5265788, "lon": 13.4692185}, {"type": "node", "id": 1308533276, "lat": 52.5250747, "lon": 13.4717209}, {"type": "node", "id": 1426097868, "lat": 52.5340827, "lon": 13.4671714}, {"type": "node", "id": 1487547519, "lat": 52.5284217, "lon": 13.4702202}, {"type": "node", "id": 1487547521, "lat": 52.5285284, "lon": 13.4709561}, {"type": "node", "id": 1487547524, "lat": 52.5287284, "lon": 13.4700328}, {"type": "node", "id": 1487547529, "lat": 52.5289347, "lon": 13.4707213}, {"type": "node", "id": 1510819293, "lat": 52.5254526, "lon": 13.4718898}, {"type": "node", "id": 1510819295, "lat": 52.5255378, "lon": 13.471297}, {"type": "node", "id": 1510819296, "lat": 52.5261481, "lon": 13.472274}, {"type": "node", "id": 1510819297, "lat": 52.526278, "lon": 13.4715121}, {"type": "node", "id": 1579881884, "lat": 52.5247989, "lon": 13.4811648, "tags": {"access": "yes", "leisure": "playground"}}, {"type": "node", "id": 1639656712, "lat": 52.5232009, "lon": 13.4708443}, {"type": "node", "id": 1639656725, "lat": 52.5232666, "lon": 13.4703105}, {"type": "node", "id": 1678370391, "lat": 52.5387847, "lon": 13.4593977}, {"type": "node", "id": 1678370415, "lat": 52.5390079, "lon": 13.4601471}, {"type": "node", "id": 1678370546, "lat": 52.5351984, "lon": 13.4619817}, {"type": "node", "id": 1690439220, "lat": 52.529183, "lon": 13.4700307, "tags": {"addr:city": "Berlin", "addr:country": "DE", "addr:housename": "Coconut", "addr:housenumber": "11", "addr:postcode": "10369", "addr:street": "Anton-Saefkow-Platz", "addr:suburb": "Fennpfuhl", "amenity": "bar", "check_date": "2025-06-09", "indoor_seating": "yes", "name": "Coconut Cafe / Bar / Lounge", "opening_hours": "24/7", "outdoor_seating": "yes", "smoking": "separated", "source": "Garmin Oregon 550", "wheelchair": "yes"}}, {"type": "node", "id": 1706143710, "lat": 52.5251104, "lon": 13.4773294}, {"type": "node", "id": 1706143724, "lat": 52.5257513, "lon": 13.4773232}, {"type": "node", "id": 1706157219, "lat": 52.5243789, "lon": 13.472478}, {"type": "node", "id": 1719664188, "lat": 52.5286228, "lon": 13.4714754, "tags": {"addr:city": "Berlin", "addr:country": "DE", "addr:housenumber": "8", "addr:postcode": "10369", "addr:street": "Anton-Saefkow-Platz", "addr:suburb": "Fennpfuhl", "amenity": "pharmacy", "check_date:opening_hours": "2025-03-03", "contact:phone": "+49 30 98195444", "contact:website": "http://www.apotheke-in-lichtenberg.de/", "dispensing": "yes", "healthcare": "pharmacy", "name": "Apotheke am Anton-Saefkow-Platz", "opening_hours": "Mo-Fr 08:30-19:00; Sa 09:00-14:00", "wheelchair": "yes"}}, {"type": "node", "id": 1792828519, "lat": 52.5357963, "lon": 13.4733267, "tags": {"amenity": "fast_food", "check_date": "2025-04-23", "cuisine": "kebab", "indoor_seating": "yes", "name": "Emo Bistro", "opening_hours": "24/7", "outdoor_seating": "yes", "wheelchair": "yes", "wheelchair:description": "Ebenerdig zug\u00e4ngliche Imbissbude"}}, {"type": "node", "id": 1795994679, "lat": 52.5341666, "lon": 13.4682114}, {"type": "node", "id": 1795994716, "lat": 52.5344448, "lon": 13.468831}, {"type": "node", "id": 1795994722, "lat": 52.5347131, "lon": 13.468742}, {"type": "node", "id": 1829909836, "lat": 52.5277463, "lon": 13.4728519}, {"type": "node", "id": 1829909838, "lat": 52.5277523, "lon": 13.4728117}, {"type": "node", "id": 1829909844, "lat": 52.5277634, "lon": 13.4727383}, {"type": "node", "id": 1829909855, "lat": 52.5277825, "lon": 13.4727461}, {"type": "node", "id": 1829909859, "lat": 52.5277967, "lon": 13.4729263}, {"type": "node", "id": 1829909882, "lat": 52.5278618, "lon": 13.4729528}, {"type": "node", "id": 1829909887, "lat": 52.5278646, "lon": 13.4729341}, {"type": "node", "id": 1829909890, "lat": 52.5278905, "lon": 13.4729134}, {"type": "node", "id": 1829909891, "lat": 52.5279022, "lon": 13.4726593}, {"type": "node", "id": 1829909893, "lat": 52.527908, "lon": 13.4729206}, {"type": "node", "id": 1829909899, "lat": 52.5279387, "lon": 13.4727166}, {"type": "node", "id": 1829909900, "lat": 52.5280539, "lon": 13.4724904}, {"type": "node", "id": 1829944015, "lat": 52.527803, "lon": 13.4762623}, {"type": "node", "id": 1830062117, "lat": 52.5282192, "lon": 13.4766519}, {"type": "node", "id": 1830062123, "lat": 52.5285403, "lon": 13.4771342}, {"type": "node", "id": 1830062130, "lat": 52.5286358, "lon": 13.4772359}, {"type": "node", "id": 1830062132, "lat": 52.5286441, "lon": 13.4771859}, {"type": "node", "id": 1830062135, "lat": 52.5286699, "lon": 13.4772535}, {"type": "node", "id": 1830062137, "lat": 52.5286895, "lon": 13.4772513}, {"type": "node", "id": 1830062139, "lat": 52.5287104, "lon": 13.4772341}, {"type": "node", "id": 1830200819, "lat": 52.5310859, "lon": 13.4746775}, {"type": "node", "id": 1830200824, "lat": 52.5311222, "lon": 13.4747259}, {"type": "node", "id": 1830200827, "lat": 52.5311314, "lon": 13.4745854}, {"type": "node", "id": 1830200832, "lat": 52.5311677, "lon": 13.4746337}, {"type": "node", "id": 1830215972, "lat": 52.5315235, "lon": 13.4753414}, {"type": "node", "id": 1830215973, "lat": 52.5318052, "lon": 13.4751709}, {"type": "node", "id": 1830215974, "lat": 52.5318439, "lon": 13.4753567}, {"type": "node", "id": 1860812109, "lat": 52.5332248, "lon": 13.4698412}, {"type": "node", "id": 1860812121, "lat": 52.5342114, "lon": 13.4691522}, {"type": "node", "id": 1860812123, "lat": 52.5343533, "lon": 13.4686176}, {"type": "node", "id": 1860812125, "lat": 52.5342805, "lon": 13.4690837}, {"type": "node", "id": 1860812127, "lat": 52.5344356, "lon": 13.4688883}, {"type": "node", "id": 1860817571, "lat": 52.5324992, "lon": 13.4626929}, {"type": "node", "id": 1860817572, "lat": 52.5324534, "lon": 13.4628525}, {"type": "node", "id": 1860817574, "lat": 52.5326144, "lon": 13.4623986}, {"type": "node", "id": 1860817575, "lat": 52.5330183, "lon": 13.4609659}, {"type": "node", "id": 1860817576, "lat": 52.5329886, "lon": 13.4644428}, {"type": "node", "id": 1860817577, "lat": 52.5330214, "lon": 13.4644284}, {"type": "node", "id": 1860817578, "lat": 52.5332007, "lon": 13.4645226}, {"type": "node", "id": 1860817579, "lat": 52.5331506, "lon": 13.4645399}, {"type": "node", "id": 1860817581, "lat": 52.5340792, "lon": 13.4673609}, {"type": "node", "id": 1860817582, "lat": 52.5342417, "lon": 13.4677224}, {"type": "node", "id": 1860817584, "lat": 52.534871, "lon": 13.468661}, {"type": "node", "id": 1860817585, "lat": 52.5352335, "lon": 13.4619831}, {"type": "node", "id": 1984331507, "lat": 52.5271133, "lon": 13.4688339}, {"type": "node", "id": 1984331508, "lat": 52.5277126, "lon": 13.4691012}, {"type": "node", "id": 2163096456, "lat": 52.525906, "lon": 13.4777098, "tags": {"amenity": "cafe", "diet:vegetarian": "limited", "name": "Caf\u00e9 Sonnenstrahl", "opening_hours": "Mo-Fr 09:00-18:00", "toilets:wheelchair": "yes", "wheelchair": "yes"}}, {"type": "node", "id": 2248592549, "lat": 52.5285151, "lon": 13.4573709, "tags": {"addr:city": "Berlin", "addr:country": "DE", "addr:housename": "andel's Hotel", "addr:housenumber": "106", "addr:postcode": "10369", "addr:street": "Landsberger Allee", "addr:suburb": "Fennpfuhl", "amenity": "restaurant", "cuisine": "german", "email": "restaurant@skykitchen.berlin", "name": "Skykitchen", "opening_hours": "Mo-Su 18:00-02:00", "phone": "+49 30 453 053 2620", "website": "https://www.skykitchen.berlin/", "wheelchair": "limited"}}, {"type": "node", "id": 2398196131, "lat": 52.5245841, "lon": 13.4651602, "tags": {"addr:city": "Berlin", "addr:country": "DE", "addr:housename": "Werkskantine", "addr:housenumber": "207", "addr:postcode": "10369", "addr:street": "Storkower Stra\u00dfe", "addr:suburb": "Fennpfuhl", "amenity": "restaurant", "check_date:opening_hours": "2023-05-04", "indoor_seating": "yes", "name": "Werksk\u00fcche", "opening_hours": "Mo-Fr 11:00-14:00; Sa,Su 12:00-14:00", "outdoor_seating": "no", "phone": "+49 152 55944320", "website": "https://werkskueche.berlin", "wheelchair": "yes"}}, {"type": "node", "id": 2542475908, "lat": 52.5274725, "lon": 13.4683839}, {"type": "node", "id": 2542475909, "lat": 52.5275845, "lon": 13.4684379}, {"type": "node", "id": 2542475911, "lat": 52.5275922, "lon": 13.4683823}, {"type": "node", "id": 2542475912, "lat": 52.5274795, "lon": 13.4683354}, {"type": "node", "id": 2561132708, "lat": 52.5330476, "lon": 13.4683339}, {"type": "node", "id": 2562494404, "lat": 52.5319053, "lon": 13.479558}, {"type": "node", "id": 2562494405, "lat": 52.5319451, "lon": 13.479723}, {"type": "node", "id": 2562494406, "lat": 52.5319849, "lon": 13.4786443}, {"type": "node", "id": 2562494407, "lat": 52.5320358, "lon": 13.4786129}, {"type": "node", "id": 2562494408, "lat": 52.5321367, "lon": 13.480285}, {"type": "node", "id": 2562494409, "lat": 52.5321697, "lon": 13.4802871}, {"type": "node", "id": 2562494411, "lat": 52.5325927, "lon": 13.4819839}, {"type": "node", "id": 2562494421, "lat": 52.5328539, "lon": 13.4812585}, {"type": "node", "id": 2585285213, "lat": 52.5300954, "lon": 13.4803519}, {"type": "node", "id": 2585285215, "lat": 52.5307618, "lon": 13.4799769}, {"type": "node", "id": 2586318883, "lat": 52.5289094, "lon": 13.4805443}, {"type": "node", "id": 2586318884, "lat": 52.5289436, "lon": 13.4805683}, {"type": "node", "id": 2586318891, "lat": 52.5297083, "lon": 13.4807004}, {"type": "node", "id": 2586318892, "lat": 52.5297105, "lon": 13.4806103}, {"type": "node", "id": 2586318895, "lat": 52.5305814, "lon": 13.4787501}, {"type": "node", "id": 2586318897, "lat": 52.530816, "lon": 13.4785805}, {"type": "node", "id": 2586318898, "lat": 52.5310331, "lon": 13.4807748}, {"type": "node", "id": 2586318899, "lat": 52.531052, "lon": 13.4797479}, {"type": "node", "id": 2586318900, "lat": 52.5310702, "lon": 13.4797339}, {"type": "node", "id": 2586320678, "lat": 52.5288465, "lon": 13.4805125}, {"type": "node", "id": 2586320679, "lat": 52.528867, "lon": 13.4800719}, {"type": "node", "id": 2586320680, "lat": 52.5288947, "lon": 13.4805082}, {"type": "node", "id": 2586320682, "lat": 52.5291849, "lon": 13.4795354}, {"type": "node", "id": 2586320688, "lat": 52.5298409, "lon": 13.4791775}, {"type": "node", "id": 2586320690, "lat": 52.5300383, "lon": 13.4801659}, {"type": "node", "id": 2586508437, "lat": 52.5293138, "lon": 13.4812747}, {"type": "node", "id": 2586508443, "lat": 52.5292503, "lon": 13.4812735}, {"type": "node", "id": 2586508445, "lat": 52.5294997, "lon": 13.4818255}, {"type": "node", "id": 2586508449, "lat": 52.5292546, "lon": 13.4811048}, {"type": "node", "id": 2586508458, "lat": 52.5299841, "lon": 13.4836759}, {"type": "node", "id": 2586508476, "lat": 52.5314212, "lon": 13.4823661}, {"type": "node", "id": 2586508478, "lat": 52.5314946, "lon": 13.4829232}, {"type": "node", "id": 2586508480, "lat": 52.5315116, "lon": 13.4830184}, {"type": "node", "id": 2586516645, "lat": 52.5304995, "lon": 13.4827992}, {"type": "node", "id": 2586516647, "lat": 52.5305088, "lon": 13.4829034}, {"type": "node", "id": 2586516649, "lat": 52.5305163, "lon": 13.4826859}, {"type": "node", "id": 2586516650, "lat": 52.5305368, "lon": 13.482643}, {"type": "node", "id": 2586516652, "lat": 52.5305498, "lon": 13.4829954}, {"type": "node", "id": 2586516654, "lat": 52.5305927, "lon": 13.482643}, {"type": "node", "id": 2586516656, "lat": 52.530602, "lon": 13.4830291}, {"type": "node", "id": 2586516657, "lat": 52.5306542, "lon": 13.4830138}, {"type": "node", "id": 2586516659, "lat": 52.5306598, "lon": 13.4826613}, {"type": "node", "id": 2586516661, "lat": 52.5306841, "lon": 13.4829984}, {"type": "node", "id": 2586516663, "lat": 52.5306934, "lon": 13.4826092}, {"type": "node", "id": 2586516665, "lat": 52.5307139, "lon": 13.4829525}, {"type": "node", "id": 2586516666, "lat": 52.5307307, "lon": 13.4828667}, {"type": "node", "id": 2586516668, "lat": 52.5307624, "lon": 13.4826001}, {"type": "node", "id": 2586516670, "lat": 52.5307624, "lon": 13.4828789}, {"type": "node", "id": 2586516672, "lat": 52.530809, "lon": 13.4826399}, {"type": "node", "id": 2586516673, "lat": 52.5308239, "lon": 13.4828759}, {"type": "node", "id": 2586516675, "lat": 52.5308425, "lon": 13.4825786}, {"type": "node", "id": 2586516677, "lat": 52.5308518, "lon": 13.482836}, {"type": "node", "id": 2586516679, "lat": 52.5309208, "lon": 13.4828452}, {"type": "node", "id": 2586516680, "lat": 52.5310327, "lon": 13.4825786}, {"type": "node", "id": 2586516682, "lat": 52.5310457, "lon": 13.4828391}, {"type": "node", "id": 2586516685, "lat": 52.5311016, "lon": 13.4828667}, {"type": "node", "id": 2586516686, "lat": 52.5311277, "lon": 13.4825939}, {"type": "node", "id": 2586516688, "lat": 52.5311408, "lon": 13.4828636}, {"type": "node", "id": 2586516690, "lat": 52.5311613, "lon": 13.4826215}, {"type": "node", "id": 2586516692, "lat": 52.5311762, "lon": 13.4828115}, {"type": "node", "id": 2586516693, "lat": 52.5311986, "lon": 13.4828023}, {"type": "node", "id": 2586516695, "lat": 52.5312228, "lon": 13.4828084}, {"type": "node", "id": 2586516697, "lat": 52.5312359, "lon": 13.482741}, {"type": "node", "id": 2586516699, "lat": 52.5312396, "lon": 13.4828483}, {"type": "node", "id": 2586516700, "lat": 52.5312545, "lon": 13.4826767}, {"type": "node", "id": 2586516702, "lat": 52.531275, "lon": 13.4826184}, {"type": "node", "id": 2586516704, "lat": 52.5312793, "lon": 13.4828778}, {"type": "node", "id": 2586516706, "lat": 52.5313235, "lon": 13.482597}, {"type": "node", "id": 2586516712, "lat": 52.5313259, "lon": 13.4828801}, {"type": "node", "id": 2586516714, "lat": 52.5313539, "lon": 13.4828801}, {"type": "node", "id": 2586516715, "lat": 52.5313682, "lon": 13.4828636}, {"type": "node", "id": 2586516717, "lat": 52.5313813, "lon": 13.4826399}, {"type": "node", "id": 2586516719, "lat": 52.5313887, "lon": 13.4827992}, {"type": "node", "id": 2586516721, "lat": 52.5313943, "lon": 13.4827134}, {"type": "node", "id": 2591666805, "lat": 52.5305181, "lon": 13.4724805}, {"type": "node", "id": 2611034642, "lat": 52.5284516, "lon": 13.4715787, "tags": {"addr:city": "Berlin", "addr:country": "DE", "addr:housenumber": "8", "addr:postcode": "10369", "addr:street": "Anton-Saefkow-Platz", "brand": "Norma", "brand:wikidata": "Q450180", "brand:wikipedia": "de:Norma (Handelskette)", "check_date:opening_hours": "2025-03-03", "name": "Norma", "opening_hours": "Mo-Sa 07:00-21:00", "shop": "supermarket", "source": "Openstreetbugs", "wheelchair": "yes"}}, {"type": "node", "id": 2702494698, "lat": 52.5287625, "lon": 13.4597632, "tags": {"entrance": "main"}}, {"type": "node", "id": 2763457969, "lat": 52.5293019, "lon": 13.4705843, "tags": {"addr:city": "Berlin", "addr:country": "DE", "addr:housenumber": "11", "addr:postcode": "10369", "addr:street": "Anton-Saefkow-Platz", "addr:suburb": "Fennpfuhl", "amenity": "cafe", "check_date:opening_hours": "2025-03-04", "indoor_seating": "yes", "name": "Pl\u00f6tners Cafe", "opening_hours": "Mo-Su 09:00-18:00", "outdoor_seating": "yes", "smoking": "no", "wheelchair": "yes"}}, {"type": "node", "id": 2763478479, "lat": 52.5287373, "lon": 13.4708388, "tags": {"access": "no", "entrance": "yes", "wheelchair": "yes"}}, {"type": "node", "id": 2763478482, "lat": 52.5286173, "lon": 13.4707754, "tags": {"addr:city": "Berlin", "addr:country": "DE", "addr:housenumber": "8", "addr:postcode": "10369", "addr:street": "Anton-Saefkow-Platz", "amenity": "fast_food", "check_date:opening_hours": "2025-03-03", "name": "deli am Markt", "opening_hours": "Mo-Sa 07:00-18:00"}}, {"type": "node", "id": 2763619161, "lat": 52.5287877, "lon": 13.4700706}, {"type": "node", "id": 2763619162, "lat": 52.52883, "lon": 13.4707865, "tags": {"access": "yes", "entrance": "yes", "wheelchair": "yes"}}, {"type": "node", "id": 2763619174, "lat": 52.5268331, "lon": 13.4704495}, {"type": "node", "id": 2763619179, "lat": 52.528397, "lon": 13.470204}, {"type": "node", "id": 2763619182, "lat": 52.5272707, "lon": 13.4694707}, {"type": "node", "id": 2763619184, "lat": 52.5273297, "lon": 13.4695215}, {"type": "node", "id": 2763619185, "lat": 52.528494, "lon": 13.4705462}, {"type": "node", "id": 2763619186, "lat": 52.5284481, "lon": 13.4705743}, {"type": "node", "id": 2763619187, "lat": 52.5286269, "lon": 13.4700676}, {"type": "node", "id": 2763619190, "lat": 52.5271876, "lon": 13.469213}, {"type": "node", "id": 2763619191, "lat": 52.5271526, "lon": 13.4694286}, {"type": "node", "id": 2763619193, "lat": 52.5271026, "lon": 13.4693116}, {"type": "node", "id": 2763619194, "lat": 52.528315, "lon": 13.4700755}, {"type": "node", "id": 2763619195, "lat": 52.5280962, "lon": 13.4699029}, {"type": "node", "id": 2763619196, "lat": 52.5281418, "lon": 13.4696875}, {"type": "node", "id": 2763619197, "lat": 52.5285929, "lon": 13.4699058}, {"type": "node", "id": 2766896579, "lat": 52.5273672, "lon": 13.4693509}, {"type": "node", "id": 2766896580, "lat": 52.5274023, "lon": 13.4694097}, {"type": "node", "id": 2766896581, "lat": 52.5272472, "lon": 13.4693494}, {"type": "node", "id": 2766896582, "lat": 52.5273022, "lon": 13.4693074}, {"type": "node", "id": 2780316217, "lat": 52.5293192, "lon": 13.4725534, "tags": {"addr:city": "Berlin", "addr:country": "DE", "addr:housenumber": "4", "addr:postcode": "10369", "addr:street": "Anton-Saefkow-Platz", "addr:suburb": "Fennpfuhl", "amenity": "restaurant", "check_date:opening_hours": "2025-02-14", "contact:website": "http://www.lovelysushi.de/", "cuisine": "sushi", "name": "Lovely Sushi", "opening_hours": "Mo-Su 11:30-22:00", "wheelchair": "yes"}}, {"type": "node", "id": 2810647448, "lat": 52.5270729, "lon": 13.4575759}, {"type": "node", "id": 2888649939, "lat": 52.5272658, "lon": 13.481685}, {"type": "node", "id": 2888649940, "lat": 52.5272858, "lon": 13.4807952}, {"type": "node", "id": 2888649941, "lat": 52.527625, "lon": 13.4808158}, {"type": "node", "id": 2888649942, "lat": 52.5276061, "lon": 13.4817056}, {"type": "node", "id": 2936113241, "lat": 52.5311058, "lon": 13.4724593}, {"type": "node", "id": 2936271528, "lat": 52.5302677, "lon": 13.4718177}, {"type": "node", "id": 2936330367, "lat": 52.5305468, "lon": 13.4681241}, {"type": "node", "id": 2936330368, "lat": 52.5306585, "lon": 13.4680597}, {"type": "node", "id": 2936330686, "lat": 52.5307411, "lon": 13.4684381}, {"type": "node", "id": 2936330687, "lat": 52.5307952, "lon": 13.4684055}, {"type": "node", "id": 3241729699, "lat": 52.5323278, "lon": 13.4635338}, {"type": "node", "id": 3241729702, "lat": 52.5323469, "lon": 13.4634711}, {"type": "node", "id": 3241729706, "lat": 52.5323863, "lon": 13.4635034}, {"type": "node", "id": 3241730006, "lat": 52.5335481, "lon": 13.4743682}, {"type": "node", "id": 3241730189, "lat": 52.5336797, "lon": 13.474274}, {"type": "node", "id": 3241730193, "lat": 52.5336826, "lon": 13.4742885}, {"type": "node", "id": 3241730199, "lat": 52.5336891, "lon": 13.474265}, {"type": "node", "id": 3241730203, "lat": 52.5336956, "lon": 13.4742591}, {"type": "node", "id": 3241730211, "lat": 52.5337107, "lon": 13.4742484}, {"type": "node", "id": 3241730224, "lat": 52.5337221, "lon": 13.4742426}, {"type": "node", "id": 3241730230, "lat": 52.5337302, "lon": 13.4742395}, {"type": "node", "id": 3241730236, "lat": 52.5337435, "lon": 13.4742355}, {"type": "node", "id": 3241730241, "lat": 52.5337464, "lon": 13.4742506}, {"type": "node", "id": 3241730393, "lat": 52.5338437, "lon": 13.4698396}, {"type": "node", "id": 3241730412, "lat": 52.5338694, "lon": 13.4741586}, {"type": "node", "id": 3241730417, "lat": 52.5338732, "lon": 13.4741755}, {"type": "node", "id": 3241730430, "lat": 52.5338917, "lon": 13.4741386}, {"type": "node", "id": 3241730437, "lat": 52.5339093, "lon": 13.474128}, {"type": "node", "id": 3241730449, "lat": 52.5339334, "lon": 13.4741193}, {"type": "node", "id": 3241730450, "lat": 52.5339374, "lon": 13.4741375}, {"type": "node", "id": 3241730570, "lat": 52.5339774, "lon": 13.4697601}, {"type": "node", "id": 3241730572, "lat": 52.5339819, "lon": 13.4697801}, {"type": "node", "id": 3241730614, "lat": 52.5340379, "lon": 13.4697242}, {"type": "node", "id": 3241730619, "lat": 52.5340423, "lon": 13.4697442}, {"type": "node", "id": 3241730629, "lat": 52.5340627, "lon": 13.4740451}, {"type": "node", "id": 3241730631, "lat": 52.5340666, "lon": 13.4740609}, {"type": "node", "id": 3241730634, "lat": 52.534074, "lon": 13.474037}, {"type": "node", "id": 3241730638, "lat": 52.5340856, "lon": 13.4740247}, {"type": "node", "id": 3241730640, "lat": 52.534096, "lon": 13.4740181}, {"type": "node", "id": 3241730644, "lat": 52.5341072, "lon": 13.4740123}, {"type": "node", "id": 3241730652, "lat": 52.5341276, "lon": 13.4740058}, {"type": "node", "id": 3241730654, "lat": 52.5341313, "lon": 13.4740225}, {"type": "node", "id": 3241730779, "lat": 52.5341943, "lon": 13.4696313}, {"type": "node", "id": 3241730785, "lat": 52.5341987, "lon": 13.4696513}, {"type": "node", "id": 3241730823, "lat": 52.5342589, "lon": 13.4695929}, {"type": "node", "id": 3241730825, "lat": 52.5342622, "lon": 13.4739449}, {"type": "node", "id": 3241730826, "lat": 52.5342634, "lon": 13.4696129}, {"type": "node", "id": 3241730968, "lat": 52.5343885, "lon": 13.4738518}, {"type": "node", "id": 3241730970, "lat": 52.5343897, "lon": 13.4695854}, {"type": "node", "id": 3241730972, "lat": 52.5343905, "lon": 13.4695148}, {"type": "node", "id": 3241730973, "lat": 52.5343923, "lon": 13.4738685}, {"type": "node", "id": 3241730982, "lat": 52.5344106, "lon": 13.4738321}, {"type": "node", "id": 3241730986, "lat": 52.534424, "lon": 13.4738239}, {"type": "node", "id": 3241730987, "lat": 52.5344259, "lon": 13.4698109}, {"type": "node", "id": 3241730990, "lat": 52.5344325, "lon": 13.4738198}, {"type": "node", "id": 3241730992, "lat": 52.5344383, "lon": 13.4698035}, {"type": "node", "id": 3241730996, "lat": 52.5344409, "lon": 13.4738166}, {"type": "node", "id": 3241731001, "lat": 52.5344478, "lon": 13.4699092}, {"type": "node", "id": 3241731003, "lat": 52.5344529, "lon": 13.4738132}, {"type": "node", "id": 3241731006, "lat": 52.5344565, "lon": 13.4738308}, {"type": "node", "id": 3241731008, "lat": 52.5344602, "lon": 13.4699019}, {"type": "node", "id": 3241731034, "lat": 52.5344969, "lon": 13.4701295}, {"type": "node", "id": 3241731038, "lat": 52.5345092, "lon": 13.4701221}, {"type": "node", "id": 3241731043, "lat": 52.5345187, "lon": 13.4702275}, {"type": "node", "id": 3241731053, "lat": 52.5345311, "lon": 13.4702201}, {"type": "node", "id": 3241731170, "lat": 52.5345657, "lon": 13.4704386}, {"type": "node", "id": 3241731180, "lat": 52.5345781, "lon": 13.4704311}, {"type": "node", "id": 3241731183, "lat": 52.5345809, "lon": 13.4737382}, {"type": "node", "id": 3241731188, "lat": 52.5345847, "lon": 13.4737554}, {"type": "node", "id": 3241731195, "lat": 52.5345902, "lon": 13.4705487}, {"type": "node", "id": 3241731201, "lat": 52.5345976, "lon": 13.4737231}, {"type": "node", "id": 3241731204, "lat": 52.5346026, "lon": 13.4705413}, {"type": "node", "id": 3241731206, "lat": 52.5346114, "lon": 13.4737139}, {"type": "node", "id": 3241731217, "lat": 52.534624, "lon": 13.4737076}, {"type": "node", "id": 3241731226, "lat": 52.5346449, "lon": 13.4737012}, {"type": "node", "id": 3241731228, "lat": 52.5346487, "lon": 13.4737179}, {"type": "node", "id": 3241731229, "lat": 52.5346491, "lon": 13.4707499}, {"type": "node", "id": 3241731394, "lat": 52.5347448, "lon": 13.4706931}, {"type": "node", "id": 3241731396, "lat": 52.5347475, "lon": 13.4707518}, {"type": "node", "id": 3241731417, "lat": 52.5347723, "lon": 13.4736255}, {"type": "node", "id": 3241731420, "lat": 52.5347757, "lon": 13.4736432}, {"type": "node", "id": 3241731422, "lat": 52.5347841, "lon": 13.4709748}, {"type": "node", "id": 3241731423, "lat": 52.5347939, "lon": 13.4736062}, {"type": "node", "id": 3241731427, "lat": 52.5347951, "lon": 13.4709683}, {"type": "node", "id": 3241731431, "lat": 52.5348069, "lon": 13.4710785}, {"type": "node", "id": 3241731432, "lat": 52.5348095, "lon": 13.4735967}, {"type": "node", "id": 3241731435, "lat": 52.5348179, "lon": 13.4710719}, {"type": "node", "id": 3241731439, "lat": 52.5348223, "lon": 13.4735912}, {"type": "node", "id": 3241731446, "lat": 52.5348364, "lon": 13.4735872}, {"type": "node", "id": 3241731449, "lat": 52.5348399, "lon": 13.4736055}, {"type": "node", "id": 3241731562, "lat": 52.5348643, "lon": 13.4713396}, {"type": "node", "id": 3241731572, "lat": 52.5348754, "lon": 13.4713331}, {"type": "node", "id": 3241731575, "lat": 52.5348869, "lon": 13.4714422}, {"type": "node", "id": 3241731582, "lat": 52.5348979, "lon": 13.4714357}, {"type": "node", "id": 3241731606, "lat": 52.534945, "lon": 13.4716497}, {"type": "node", "id": 3241731621, "lat": 52.5349743, "lon": 13.4735265}, {"type": "node", "id": 3241731638, "lat": 52.5349982, "lon": 13.4734922}, {"type": "node", "id": 3241731664, "lat": 52.5350458, "lon": 13.4732715}, {"type": "node", "id": 3241731665, "lat": 52.5350464, "lon": 13.4715972}, {"type": "node", "id": 3241731666, "lat": 52.5350494, "lon": 13.4716549}, {"type": "node", "id": 3241731671, "lat": 52.5350579, "lon": 13.473282}, {"type": "node", "id": 3241731675, "lat": 52.5350739, "lon": 13.4731694}, {"type": "node", "id": 3241731681, "lat": 52.5350845, "lon": 13.4718788}, {"type": "node", "id": 3241731683, "lat": 52.5350868, "lon": 13.4731791}, {"type": "node", "id": 3241731688, "lat": 52.5350978, "lon": 13.4718707}, {"type": "node", "id": 3241731697, "lat": 52.5351082, "lon": 13.4719847}, {"type": "node", "id": 3241731702, "lat": 52.5351216, "lon": 13.4719766}, {"type": "node", "id": 3241731714, "lat": 52.535146, "lon": 13.4729236}, {"type": "node", "id": 3241731725, "lat": 52.535158, "lon": 13.4729337}, {"type": "node", "id": 3241731737, "lat": 52.5351671, "lon": 13.4722413}, {"type": "node", "id": 3241731741, "lat": 52.5351749, "lon": 13.4728219}, {"type": "node", "id": 3241731745, "lat": 52.5351793, "lon": 13.4722339}, {"type": "node", "id": 3241731749, "lat": 52.5351859, "lon": 13.4728293}, {"type": "node", "id": 3241731755, "lat": 52.535189, "lon": 13.4723391}, {"type": "node", "id": 3241731871, "lat": 52.5352012, "lon": 13.4723317}, {"type": "node", "id": 3241731905, "lat": 52.5352449, "lon": 13.4726211}, {"type": "node", "id": 3241731907, "lat": 52.5352509, "lon": 13.4725531}, {"type": "node", "id": 3241732324, "lat": 52.5363092, "lon": 13.458066}, {"type": "node", "id": 3241732339, "lat": 52.5363505, "lon": 13.4580617}, {"type": "node", "id": 3241732346, "lat": 52.5363766, "lon": 13.457848}, {"type": "node", "id": 3241732350, "lat": 52.5363822, "lon": 13.4580018}, {"type": "node", "id": 3394368129, "lat": 52.5379933, "lon": 13.4626289}, {"type": "node", "id": 3585479132, "lat": 52.5324066, "lon": 13.4779592}, {"type": "node", "id": 3585479134, "lat": 52.532435, "lon": 13.4785313}, {"type": "node", "id": 3666796896, "lat": 52.5294778, "lon": 13.4712901, "tags": {"addr:city": "Berlin", "addr:country": "DE", "addr:housenumber": "12", "addr:postcode": "10369", "addr:street": "Anton-Saefkow-Platz", "addr:suburb": "Fennpfuhl", "amenity": "fast_food", "check_date:opening_hours": "2025-03-15", "cuisine": "pizza", "indoor_seating": "yes", "name": "PizzaLovers", "opening_hours": "Mo-Fr 11:00-20:00; Sa,Su 12:00-20:00", "outdoor_seating": "yes", "smoking": "outside", "snack": "yes", "takeaway": "yes", "wheelchair": "limited"}}, {"type": "node", "id": 3754612953, "lat": 52.5333916, "lon": 13.4738754}, {"type": "node", "id": 3754612958, "lat": 52.5337633, "lon": 13.4700848}, {"type": "node", "id": 3754612962, "lat": 52.5341003, "lon": 13.472817}, {"type": "node", "id": 3754612963, "lat": 52.5340503, "lon": 13.4734893}, {"type": "node", "id": 3754612965, "lat": 52.5341659, "lon": 13.4701485}, {"type": "node", "id": 3754612966, "lat": 52.5342205, "lon": 13.4704026}, {"type": "node", "id": 3754612967, "lat": 52.5342913, "lon": 13.4703546}, {"type": "node", "id": 3754612968, "lat": 52.5344634, "lon": 13.4707872}, {"type": "node", "id": 3754612969, "lat": 52.5345583, "lon": 13.4735527}, {"type": "node", "id": 3754612970, "lat": 52.5347393, "lon": 13.4717584}, {"type": "node", "id": 3754612971, "lat": 52.5348074, "lon": 13.4717143}, {"type": "node", "id": 3754612972, "lat": 52.5349387, "lon": 13.4729393}, {"type": "node", "id": 3754612973, "lat": 52.5349151, "lon": 13.472156}, {"type": "node", "id": 3754612974, "lat": 52.5349886, "lon": 13.4724853}, {"type": "node", "id": 3849567057, "lat": 52.531996, "lon": 13.4698142, "tags": {"amenity": "restaurant", "name": "Culinarium", "opening_hours": "Sa 10:00-16:00"}}, {"type": "node", "id": 3885075821, "lat": 52.5236096, "lon": 13.4709892}, {"type": "node", "id": 3885075833, "lat": 52.5237188, "lon": 13.4710469}, {"type": "node", "id": 3885075836, "lat": 52.5237323, "lon": 13.4709868}, {"type": "node", "id": 3885077582, "lat": 52.5244165, "lon": 13.4714395}, {"type": "node", "id": 3885077588, "lat": 52.5244341, "lon": 13.4713305}, {"type": "node", "id": 3885077644, "lat": 52.5250529, "lon": 13.4711647}, {"type": "node", "id": 3885077656, "lat": 52.5258464, "lon": 13.476189}, {"type": "node", "id": 3885077657, "lat": 52.5258675, "lon": 13.476086}, {"type": "node", "id": 3885077658, "lat": 52.5258533, "lon": 13.477282}, {"type": "node", "id": 3885077659, "lat": 52.5258951, "lon": 13.4760264}, {"type": "node", "id": 3885077660, "lat": 52.5259724, "lon": 13.4759384}, {"type": "node", "id": 3885077661, "lat": 52.5260796, "lon": 13.4758259}, {"type": "node", "id": 3885077662, "lat": 52.5261216, "lon": 13.4757398}, {"type": "node", "id": 3885077663, "lat": 52.5261428, "lon": 13.4756308}, {"type": "node", "id": 3923171814, "lat": 52.5245665, "lon": 13.4751196}, {"type": "node", "id": 3923171815, "lat": 52.5245682, "lon": 13.4739113}, {"type": "node", "id": 3923171816, "lat": 52.5252443, "lon": 13.4750179}, {"type": "node", "id": 3923171817, "lat": 52.5252431, "lon": 13.4739093}, {"type": "node", "id": 4081750174, "lat": 52.5273775, "lon": 13.4695275}, {"type": "node", "id": 4162715392, "lat": 52.5275501, "lon": 13.4825538}, {"type": "node", "id": 4205891390, "lat": 52.5265569, "lon": 13.4746721}, {"type": "node", "id": 4205891391, "lat": 52.5265437, "lon": 13.4747711}, {"type": "node", "id": 4205891392, "lat": 52.5264955, "lon": 13.47487}, {"type": "node", "id": 4205891393, "lat": 52.5263437, "lon": 13.4748537}, {"type": "node", "id": 4205891396, "lat": 52.5263011, "lon": 13.4744874}, {"type": "node", "id": 4205891397, "lat": 52.5263576, "lon": 13.4744445}, {"type": "node", "id": 4205891398, "lat": 52.5263969, "lon": 13.4744328}, {"type": "node", "id": 4205891399, "lat": 52.5264596, "lon": 13.4744209}, {"type": "node", "id": 4205891400, "lat": 52.5264971, "lon": 13.4744436}, {"type": "node", "id": 4205891401, "lat": 52.5265573, "lon": 13.4746092}, {"type": "node", "id": 4207708158, "lat": 52.5388003, "lon": 13.4594803}, {"type": "node", "id": 4207714316, "lat": 52.5353057, "lon": 13.4618826}, {"type": "node", "id": 4207714317, "lat": 52.5357992, "lon": 13.4583026}, {"type": "node", "id": 4286822078, "lat": 52.5273437, "lon": 13.4805962}, {"type": "node", "id": 4286822082, "lat": 52.5276197, "lon": 13.4811005}, {"type": "node", "id": 4286822083, "lat": 52.5276203, "lon": 13.4810232}, {"type": "node", "id": 4286822084, "lat": 52.5276719, "lon": 13.4811036}, {"type": "node", "id": 4286822085, "lat": 52.5276737, "lon": 13.4810265}, {"type": "node", "id": 4286822086, "lat": 52.5284363, "lon": 13.4806547}, {"type": "node", "id": 4287460116, "lat": 52.5314568, "lon": 13.4825444}, {"type": "node", "id": 4287470236, "lat": 52.5290723, "lon": 13.4833078}, {"type": "node", "id": 4287470237, "lat": 52.5290784, "lon": 13.4830501}, {"type": "node", "id": 4287470253, "lat": 52.529487, "lon": 13.4836457}, {"type": "node", "id": 4287470255, "lat": 52.529488, "lon": 13.4836181}, {"type": "node", "id": 4287470789, "lat": 52.5299844, "lon": 13.483645}, {"type": "node", "id": 4287470815, "lat": 52.5302622, "lon": 13.4833075}, {"type": "node", "id": 4287470816, "lat": 52.5302674, "lon": 13.4824545}, {"type": "node", "id": 4287470817, "lat": 52.530305, "lon": 13.4833787}, {"type": "node", "id": 4287470818, "lat": 52.5303059, "lon": 13.4833104}, {"type": "node", "id": 4287470819, "lat": 52.5305126, "lon": 13.4836974}, {"type": "node", "id": 4287470824, "lat": 52.5314331, "lon": 13.4824272}, {"type": "node", "id": 4290846695, "lat": 52.5272122, "lon": 13.4836586}, {"type": "node", "id": 4290846696, "lat": 52.527229, "lon": 13.482562}, {"type": "node", "id": 4290846697, "lat": 52.5272594, "lon": 13.4825235}, {"type": "node", "id": 4290846698, "lat": 52.5275279, "lon": 13.4836807}, {"type": "node", "id": 4291317357, "lat": 52.5270594, "lon": 13.4759219}, {"type": "node", "id": 4291317363, "lat": 52.5276815, "lon": 13.4724041}, {"type": "node", "id": 4291317364, "lat": 52.5276588, "lon": 13.4722995}, {"type": "node", "id": 4291317365, "lat": 52.5276611, "lon": 13.472942}, {"type": "node", "id": 4291317366, "lat": 52.5277423, "lon": 13.4724305}, {"type": "node", "id": 4291317369, "lat": 52.5278445, "lon": 13.4723876}, {"type": "node", "id": 4291317370, "lat": 52.5278476, "lon": 13.4712739}, {"type": "node", "id": 4291317371, "lat": 52.5278555, "lon": 13.4723274}, {"type": "node", "id": 4291317372, "lat": 52.5278774, "lon": 13.4712949}, {"type": "node", "id": 4291317373, "lat": 52.5278869, "lon": 13.4714068}, {"type": "node", "id": 4291317375, "lat": 52.5279555, "lon": 13.4730837}, {"type": "node", "id": 4291317376, "lat": 52.5279573, "lon": 13.4763411}, {"type": "node", "id": 4291317377, "lat": 52.5279624, "lon": 13.4717431}, {"type": "node", "id": 4291317378, "lat": 52.5280032, "lon": 13.4724658}, {"type": "node", "id": 4291317379, "lat": 52.5280143, "lon": 13.4724055}, {"type": "node", "id": 4291317382, "lat": 52.528143, "lon": 13.4725335}, {"type": "node", "id": 4291317385, "lat": 52.5282957, "lon": 13.4726097}, {"type": "node", "id": 4291317388, "lat": 52.5285815, "lon": 13.4783308}, {"type": "node", "id": 4291319589, "lat": 52.5286576, "lon": 13.4778792}, {"type": "node", "id": 4291319590, "lat": 52.5287151, "lon": 13.47839}, {"type": "node", "id": 4291319591, "lat": 52.5287343, "lon": 13.4771229}, {"type": "node", "id": 4291319594, "lat": 52.5290328, "lon": 13.4780445}, {"type": "node", "id": 4291319595, "lat": 52.5290923, "lon": 13.4721397}, {"type": "node", "id": 4291319597, "lat": 52.5291892, "lon": 13.4725908}, {"type": "node", "id": 4291319598, "lat": 52.5292176, "lon": 13.4725728}, {"type": "node", "id": 4291319601, "lat": 52.5292675, "lon": 13.4773702}, {"type": "node", "id": 4291319602, "lat": 52.529357, "lon": 13.4732209}, {"type": "node", "id": 4291319603, "lat": 52.5293864, "lon": 13.4778387}, {"type": "node", "id": 4291319606, "lat": 52.5297179, "lon": 13.4748515}, {"type": "node", "id": 4291319607, "lat": 52.5297466, "lon": 13.4748879}, {"type": "node", "id": 4291319608, "lat": 52.5297803, "lon": 13.4749021}, {"type": "node", "id": 4291319609, "lat": 52.529957, "lon": 13.4720816}, {"type": "node", "id": 4291319610, "lat": 52.5299689, "lon": 13.4736037}, {"type": "node", "id": 4291319611, "lat": 52.5299722, "lon": 13.4722197}, {"type": "node", "id": 4291319612, "lat": 52.529996, "lon": 13.4721903}, {"type": "node", "id": 4291319613, "lat": 52.5300296, "lon": 13.4734189}, {"type": "node", "id": 4291319614, "lat": 52.530059, "lon": 13.4726041}, {"type": "node", "id": 4291319615, "lat": 52.5301587, "lon": 13.4746821}, {"type": "node", "id": 4291319616, "lat": 52.5301703, "lon": 13.4745453}, {"type": "node", "id": 4291319617, "lat": 52.5301711, "lon": 13.4746025}, {"type": "node", "id": 4291319618, "lat": 52.5302134, "lon": 13.4729921}, {"type": "node", "id": 4291319619, "lat": 52.5302132, "lon": 13.4715983}, {"type": "node", "id": 4291319620, "lat": 52.5302773, "lon": 13.471781}, {"type": "node", "id": 4291319621, "lat": 52.5302992, "lon": 13.4717616}, {"type": "node", "id": 4291319622, "lat": 52.5303367, "lon": 13.4717559}, {"type": "node", "id": 4291319626, "lat": 52.5309286, "lon": 13.4771238}, {"type": "node", "id": 4291319631, "lat": 52.530868, "lon": 13.4768632}, {"type": "node", "id": 4291319632, "lat": 52.5308728, "lon": 13.4768224}, {"type": "node", "id": 4291319633, "lat": 52.5314585, "lon": 13.4750311}, {"type": "node", "id": 4291319634, "lat": 52.531516, "lon": 13.4745977}, {"type": "node", "id": 4291319635, "lat": 52.5315504, "lon": 13.4744556}, {"type": "node", "id": 4291319636, "lat": 52.5316046, "lon": 13.4745}, {"type": "node", "id": 4291319637, "lat": 52.5316172, "lon": 13.4745414}, {"type": "node", "id": 4291319638, "lat": 52.5316225, "lon": 13.4760861}, {"type": "node", "id": 4291319639, "lat": 52.5316414, "lon": 13.4758435}, {"type": "node", "id": 4291319641, "lat": 52.531687, "lon": 13.4760466}, {"type": "node", "id": 4291319643, "lat": 52.5319085, "lon": 13.4756868}, {"type": "node", "id": 4291319644, "lat": 52.5319296, "lon": 13.4753449}, {"type": "node", "id": 4291319645, "lat": 52.5319751, "lon": 13.4757527}, {"type": "node", "id": 4291319646, "lat": 52.532031, "lon": 13.4760281}, {"type": "node", "id": 4291319647, "lat": 52.5320533, "lon": 13.4760868}, {"type": "node", "id": 4291319648, "lat": 52.5320805, "lon": 13.4761167}, {"type": "node", "id": 4291319649, "lat": 52.5320908, "lon": 13.4752513}, {"type": "node", "id": 4291319651, "lat": 52.5321169, "lon": 13.4761264}, {"type": "node", "id": 4291319652, "lat": 52.5321312, "lon": 13.4754678}, {"type": "node", "id": 4291319653, "lat": 52.5321862, "lon": 13.4760888}, {"type": "node", "id": 4291319656, "lat": 52.5322092, "lon": 13.4759999}, {"type": "node", "id": 4291319657, "lat": 52.5322107, "lon": 13.4754937}, {"type": "node", "id": 4291319658, "lat": 52.532223, "lon": 13.4754074}, {"type": "node", "id": 4291319660, "lat": 52.5322761, "lon": 13.4763167}, {"type": "node", "id": 4291319662, "lat": 52.5323918, "lon": 13.4752998}, {"type": "node", "id": 4291319664, "lat": 52.5327383, "lon": 13.4759971}, {"type": "node", "id": 4291319667, "lat": 52.5326038, "lon": 13.4751697}, {"type": "node", "id": 4291513229, "lat": 52.5268485, "lon": 13.4705049}, {"type": "node", "id": 4291513230, "lat": 52.5269332, "lon": 13.4706208}, {"type": "node", "id": 4291513233, "lat": 52.52711, "lon": 13.4693943}, {"type": "node", "id": 4291513234, "lat": 52.5271422, "lon": 13.4692413}, {"type": "node", "id": 4291513238, "lat": 52.5272471, "lon": 13.4694088}, {"type": "node", "id": 4291513240, "lat": 52.5272733, "lon": 13.4693133}, {"type": "node", "id": 4291513244, "lat": 52.5273315, "lon": 13.4708006}, {"type": "node", "id": 4291513246, "lat": 52.5273703, "lon": 13.4706331}, {"type": "node", "id": 4291513248, "lat": 52.5273986, "lon": 13.4706432}, {"type": "node", "id": 4291513249, "lat": 52.527403, "lon": 13.4694793}, {"type": "node", "id": 4291513251, "lat": 52.5275121, "lon": 13.470231}, {"type": "node", "id": 4296421854, "lat": 52.5240237, "lon": 13.4706957}, {"type": "node", "id": 4296421855, "lat": 52.52403, "lon": 13.4706557}, {"type": "node", "id": 4296421857, "lat": 52.5243651, "lon": 13.4726754}, {"type": "node", "id": 4296421863, "lat": 52.5250634, "lon": 13.4711156}, {"type": "node", "id": 4296421865, "lat": 52.5251726, "lon": 13.471165}, {"type": "node", "id": 4296421866, "lat": 52.5251659, "lon": 13.4712139}, {"type": "node", "id": 4296421869, "lat": 52.5254033, "lon": 13.472913}, {"type": "node", "id": 4296421876, "lat": 52.5255526, "lon": 13.4741908}, {"type": "node", "id": 4296421877, "lat": 52.5255526, "lon": 13.4753341}, {"type": "node", "id": 4296421882, "lat": 52.5256834, "lon": 13.4712703}, {"type": "node", "id": 4296421886, "lat": 52.525795, "lon": 13.4712863}, {"type": "node", "id": 4296421887, "lat": 52.5258761, "lon": 13.4773685}, {"type": "node", "id": 4296423390, "lat": 52.5259225, "lon": 13.4774241}, {"type": "node", "id": 4296423392, "lat": 52.5261166, "lon": 13.4758656}, {"type": "node", "id": 4296423393, "lat": 52.5259792, "lon": 13.4760257}, {"type": "node", "id": 4296423394, "lat": 52.5258978, "lon": 13.47624}, {"type": "node", "id": 4296423400, "lat": 52.5261264, "lon": 13.4737065}, {"type": "node", "id": 4296423402, "lat": 52.5261372, "lon": 13.4736429}, {"type": "node", "id": 4296423403, "lat": 52.5261818, "lon": 13.4758654}, {"type": "node", "id": 4296423404, "lat": 52.5258978, "lon": 13.4765858}, {"type": "node", "id": 4296423405, "lat": 52.5260767, "lon": 13.473615}, {"type": "node", "id": 4296423409, "lat": 52.5261066, "lon": 13.4734388}, {"type": "node", "id": 4296423410, "lat": 52.5260637, "lon": 13.473909}, {"type": "node", "id": 4296423411, "lat": 52.5262746, "lon": 13.473516}, {"type": "node", "id": 4296423414, "lat": 52.5260741, "lon": 13.4739857}, {"type": "node", "id": 4296423415, "lat": 52.5260745, "lon": 13.4738052}, {"type": "node", "id": 4296423417, "lat": 52.5262759, "lon": 13.4735084}, {"type": "node", "id": 4296423419, "lat": 52.526057, "lon": 13.476682}, {"type": "node", "id": 4296423422, "lat": 52.5261046, "lon": 13.4740572}, {"type": "node", "id": 4296423423, "lat": 52.5261067, "lon": 13.4737535}, {"type": "node", "id": 4296423425, "lat": 52.5264114, "lon": 13.4760607}, {"type": "node", "id": 4296423426, "lat": 52.5263267, "lon": 13.4735317}, {"type": "node", "id": 4296423431, "lat": 52.5263294, "lon": 13.4735156}, {"type": "node", "id": 4296423433, "lat": 52.5261405, "lon": 13.4726131}, {"type": "node", "id": 4296423434, "lat": 52.5262015, "lon": 13.4766337}, {"type": "node", "id": 4296423436, "lat": 52.5261503, "lon": 13.4755192}, {"type": "node", "id": 4296423437, "lat": 52.5263479, "lon": 13.4762488}, {"type": "node", "id": 4296423438, "lat": 52.5261557, "lon": 13.4726951}, {"type": "node", "id": 4296423439, "lat": 52.5261562, "lon": 13.4741061}, {"type": "node", "id": 4296423441, "lat": 52.5261599, "lon": 13.4725535}, {"type": "node", "id": 4296423442, "lat": 52.5262508, "lon": 13.4765311}, {"type": "node", "id": 4296423443, "lat": 52.526272, "lon": 13.4763626}, {"type": "node", "id": 4296423446, "lat": 52.5261862, "lon": 13.4725393}, {"type": "node", "id": 4296423447, "lat": 52.5261973, "lon": 13.4727266}, {"type": "node", "id": 4296423448, "lat": 52.5262082, "lon": 13.4740801}, {"type": "node", "id": 4296423449, "lat": 52.5262099, "lon": 13.4725265}, {"type": "node", "id": 4296423451, "lat": 52.5262215, "lon": 13.4727138}, {"type": "node", "id": 4296423452, "lat": 52.526226, "lon": 13.4741015}, {"type": "node", "id": 4296423453, "lat": 52.5262398, "lon": 13.4753345}, {"type": "node", "id": 4296423457, "lat": 52.5262574, "lon": 13.4746195}, {"type": "node", "id": 4296423458, "lat": 52.526254, "lon": 13.4775271}, {"type": "node", "id": 4296423459, "lat": 52.5262637, "lon": 13.4740121}, {"type": "node", "id": 4296423460, "lat": 52.5262766, "lon": 13.4745722}, {"type": "node", "id": 4296423463, "lat": 52.526301, "lon": 13.473991}, {"type": "node", "id": 4296423466, "lat": 52.5263634, "lon": 13.4770611}, {"type": "node", "id": 4296423468, "lat": 52.5263746, "lon": 13.4740765}, {"type": "node", "id": 4296423469, "lat": 52.526382, "lon": 13.4740212}, {"type": "node", "id": 4296423470, "lat": 52.5263842, "lon": 13.4755463}, {"type": "node", "id": 4296423475, "lat": 52.5265027, "lon": 13.4741227}, {"type": "node", "id": 4296423477, "lat": 52.5265097, "lon": 13.4753879}, {"type": "node", "id": 4296423478, "lat": 52.5265154, "lon": 13.4740628}, {"type": "node", "id": 4296423480, "lat": 52.5265382, "lon": 13.4753627}, {"type": "node", "id": 4296423483, "lat": 52.5265416, "lon": 13.4745309}, {"type": "node", "id": 4296423486, "lat": 52.5265874, "lon": 13.4756798}, {"type": "node", "id": 4296423488, "lat": 52.5265981, "lon": 13.4726735}, {"type": "node", "id": 4296423489, "lat": 52.5266133, "lon": 13.4729106}, {"type": "node", "id": 4296423491, "lat": 52.5266159, "lon": 13.4756109}, {"type": "node", "id": 4296423492, "lat": 52.5266186, "lon": 13.4724945}, {"type": "node", "id": 4296423494, "lat": 52.5266881, "lon": 13.4742373}, {"type": "node", "id": 4296423495, "lat": 52.526703, "lon": 13.4741443}, {"type": "node", "id": 4296423496, "lat": 52.5267273, "lon": 13.4742579}, {"type": "node", "id": 4296423499, "lat": 52.5269589, "lon": 13.4737773}, {"type": "node", "id": 4296423500, "lat": 52.5271947, "lon": 13.4731612}, {"type": "node", "id": 4296439801, "lat": 52.5249716, "lon": 13.4736745}, {"type": "node", "id": 4296439802, "lat": 52.5249721, "lon": 13.4738279}, {"type": "node", "id": 4296439803, "lat": 52.5251635, "lon": 13.4736726}, {"type": "node", "id": 4296439804, "lat": 52.525164, "lon": 13.473826}, {"type": "node", "id": 4296699723, "lat": 52.5257507, "lon": 13.4772278}, {"type": "node", "id": 4296699733, "lat": 52.5258011, "lon": 13.4772252}, {"type": "node", "id": 4297057021, "lat": 52.5257918, "lon": 13.4683405}, {"type": "node", "id": 4297057022, "lat": 52.5256568, "lon": 13.4691183}, {"type": "node", "id": 4297057032, "lat": 52.5262473, "lon": 13.4694119}, {"type": "node", "id": 4297057033, "lat": 52.5262967, "lon": 13.4691231}, {"type": "node", "id": 4297057035, "lat": 52.5263211, "lon": 13.4690948}, {"type": "node", "id": 4297057042, "lat": 52.5269296, "lon": 13.4694717}, {"type": "node", "id": 4530414912, "lat": 52.5350025, "lon": 13.4726206}, {"type": "node", "id": 4530453918, "lat": 52.5329045, "lon": 13.4697936}, {"type": "node", "id": 4530453927, "lat": 52.5329882, "lon": 13.4668014}, {"type": "node", "id": 4530453928, "lat": 52.532998, "lon": 13.466753}, {"type": "node", "id": 4530453930, "lat": 52.533018, "lon": 13.4669187}, {"type": "node", "id": 4530453932, "lat": 52.5330417, "lon": 13.4667309}, {"type": "node", "id": 4530453934, "lat": 52.5330593, "lon": 13.4671232}, {"type": "node", "id": 4530453937, "lat": 52.5330733, "lon": 13.4668259}, {"type": "node", "id": 4530453939, "lat": 52.533092, "lon": 13.4668496}, {"type": "node", "id": 4530453941, "lat": 52.5331144, "lon": 13.4671728}, {"type": "node", "id": 4530453945, "lat": 52.5331322, "lon": 13.4672597}, {"type": "node", "id": 4530453951, "lat": 52.5331786, "lon": 13.4669595}, {"type": "node", "id": 4530453954, "lat": 52.5331892, "lon": 13.4669677}, {"type": "node", "id": 4530453955, "lat": 52.533238, "lon": 13.4671856}, {"type": "node", "id": 4530453964, "lat": 52.5333894, "lon": 13.4691418}, {"type": "node", "id": 4530453965, "lat": 52.5333968, "lon": 13.4690608}, {"type": "node", "id": 4530453966, "lat": 52.5334583, "lon": 13.4687488}, {"type": "node", "id": 4530453967, "lat": 52.5334071, "lon": 13.4692956}, {"type": "node", "id": 4530453969, "lat": 52.533467, "lon": 13.4691545}, {"type": "node", "id": 4530453970, "lat": 52.5334697, "lon": 13.4694375}, {"type": "node", "id": 4530453971, "lat": 52.533523, "lon": 13.4691954}, {"type": "node", "id": 4530453972, "lat": 52.5335248, "lon": 13.4694905}, {"type": "node", "id": 4530453973, "lat": 52.5335875, "lon": 13.4694901}, {"type": "node", "id": 4530453974, "lat": 52.5336851, "lon": 13.4694283}, {"type": "node", "id": 4530453975, "lat": 52.5337036, "lon": 13.4691823}, {"type": "node", "id": 4530453976, "lat": 52.5337219, "lon": 13.4693584}, {"type": "node", "id": 4530453977, "lat": 52.5339631, "lon": 13.468447}, {"type": "node", "id": 4679663099, "lat": 52.5296475, "lon": 13.4668603}, {"type": "node", "id": 4679663106, "lat": 52.5296152, "lon": 13.4667182}, {"type": "node", "id": 4679663112, "lat": 52.529887, "lon": 13.4679091}, {"type": "node", "id": 4679666833, "lat": 52.5298001, "lon": 13.46962}, {"type": "node", "id": 4679666834, "lat": 52.5297662, "lon": 13.4696121}, {"type": "node", "id": 4679666835, "lat": 52.5297284, "lon": 13.4695873}, {"type": "node", "id": 4679666836, "lat": 52.5296756, "lon": 13.4695428}, {"type": "node", "id": 4679666837, "lat": 52.5296526, "lon": 13.4694277}, {"type": "node", "id": 4679666838, "lat": 52.5296574, "lon": 13.4694195}, {"type": "node", "id": 4679666839, "lat": 52.5297018, "lon": 13.4693837}, {"type": "node", "id": 4679666840, "lat": 52.5297535, "lon": 13.469392}, {"type": "node", "id": 4679666841, "lat": 52.5297969, "lon": 13.4694197}, {"type": "node", "id": 4679666842, "lat": 52.5298312, "lon": 13.4694638}, {"type": "node", "id": 4679666843, "lat": 52.5298497, "lon": 13.4695176}, {"type": "node", "id": 4679666844, "lat": 52.5298548, "lon": 13.4696262}, {"type": "node", "id": 4679698767, "lat": 52.5284295, "lon": 13.4587017}, {"type": "node", "id": 4679698768, "lat": 52.5284127, "lon": 13.4586779}, {"type": "node", "id": 4679698769, "lat": 52.528399, "lon": 13.4586413}, {"type": "node", "id": 4679698770, "lat": 52.5283619, "lon": 13.4586708}, {"type": "node", "id": 4679698771, "lat": 52.5283272, "lon": 13.4586489}, {"type": "node", "id": 4679698772, "lat": 52.5283194, "lon": 13.4585864}, {"type": "node", "id": 4679698773, "lat": 52.5283224, "lon": 13.4585223}, {"type": "node", "id": 4679698774, "lat": 52.5283602, "lon": 13.4584799}, {"type": "node", "id": 4679698775, "lat": 52.5284201, "lon": 13.4584638}, {"type": "node", "id": 4679698776, "lat": 52.5284584, "lon": 13.4585201}, {"type": "node", "id": 4679698777, "lat": 52.5284731, "lon": 13.4585695}, {"type": "node", "id": 4679698778, "lat": 52.5284596, "lon": 13.4586789}, {"type": "node", "id": 4679735254, "lat": 52.52566, "lon": 13.4627546}, {"type": "node", "id": 4679735255, "lat": 52.5255999, "lon": 13.4627226}, {"type": "node", "id": 4679735256, "lat": 52.525545, "lon": 13.4627257}, {"type": "node", "id": 4679735257, "lat": 52.5254045, "lon": 13.4628437}, {"type": "node", "id": 4679735258, "lat": 52.5254058, "lon": 13.462892}, {"type": "node", "id": 4679735259, "lat": 52.5254722, "lon": 13.4628985}, {"type": "node", "id": 4679735260, "lat": 52.5254669, "lon": 13.4628481}, {"type": "node", "id": 4679735261, "lat": 52.5254974, "lon": 13.4628273}, {"type": "node", "id": 4679735262, "lat": 52.5256236, "lon": 13.4629503}, {"type": "node", "id": 4679735263, "lat": 52.5256999, "lon": 13.4627862}, {"type": "node", "id": 4746854421, "lat": 52.5321759, "lon": 13.4707502, "tags": {"amenity": "bar", "name": "Joker's Bar", "name:de": "Joker's Bar"}}, {"type": "node", "id": 4793690287, "lat": 52.5366954, "lon": 13.4664139}, {"type": "node", "id": 4846723150, "lat": 52.5305765, "lon": 13.4766342, "tags": {"amenity": "bar", "check_date:opening_hours": "2025-04-07", "contact:website": "http://beach-zone.de/#lichtenberg", "name": "Beach Zone Lichtenberg", "opening_hours": "Mo-Fr 14:00-23:00; Sa,Su 11:00-23:00"}}, {"type": "node", "id": 4949373037, "lat": 52.532565, "lon": 13.4819853}, {"type": "node", "id": 4949373040, "lat": 52.5324573, "lon": 13.4818149, "tags": {"barrier": "gate", "bicycle": "no", "foot": "no"}}, {"type": "node", "id": 4949373042, "lat": 52.5316127, "lon": 13.4817176}, {"type": "node", "id": 4949419145, "lat": 52.532332, "lon": 13.4817317}, {"type": "node", "id": 4949419147, "lat": 52.5323685, "lon": 13.4818729}, {"type": "node", "id": 4949419148, "lat": 52.5323525, "lon": 13.4819403}, {"type": "node", "id": 4949419149, "lat": 52.5323174, "lon": 13.4819864}, {"type": "node", "id": 4949419150, "lat": 52.5322788, "lon": 13.4819164}, {"type": "node", "id": 4949419151, "lat": 52.5322315, "lon": 13.4818467}, {"type": "node", "id": 4949419152, "lat": 52.5321903, "lon": 13.4818859}, {"type": "node", "id": 4949419153, "lat": 52.5321169, "lon": 13.4818483}, {"type": "node", "id": 4949419154, "lat": 52.5321094, "lon": 13.481854}, {"type": "node", "id": 4949419155, "lat": 52.5320838, "lon": 13.4819381}, {"type": "node", "id": 4949419156, "lat": 52.5320847, "lon": 13.4820047}, {"type": "node", "id": 4949419157, "lat": 52.5320442, "lon": 13.4820539}, {"type": "node", "id": 4949419158, "lat": 52.532002, "lon": 13.4820274}, {"type": "node", "id": 4949419159, "lat": 52.5319984, "lon": 13.4821081}, {"type": "node", "id": 4949419160, "lat": 52.5320238, "lon": 13.4821467}, {"type": "node", "id": 4949419161, "lat": 52.5320325, "lon": 13.4821863}, {"type": "node", "id": 4949419162, "lat": 52.532033, "lon": 13.4822295}, {"type": "node", "id": 4949419163, "lat": 52.5320134, "lon": 13.4822714}, {"type": "node", "id": 4949419165, "lat": 52.5319792, "lon": 13.4823105}, {"type": "node", "id": 4949419170, "lat": 52.5319448, "lon": 13.4823202}, {"type": "node", "id": 4949419171, "lat": 52.531896, "lon": 13.4823049}, {"type": "node", "id": 4949419172, "lat": 52.5318709, "lon": 13.4822653}, {"type": "node", "id": 4949419178, "lat": 52.5318673, "lon": 13.4821504}, {"type": "node", "id": 4949419179, "lat": 52.5317745, "lon": 13.4821213}, {"type": "node", "id": 4949419180, "lat": 52.5317781, "lon": 13.4817176}, {"type": "node", "id": 4949461837, "lat": 52.5312357, "lon": 13.4741452, "tags": {"access": "yes", "leisure": "playground", "name": "Spielplatz Am Kleinen Fennpfuhl", "wheelchair": "yes"}}, {"type": "node", "id": 4949481835, "lat": 52.5320823, "lon": 13.4817233, "tags": {"barrier": "kissing_gate", "bicycle": "yes", "foot": "yes"}}, {"type": "node", "id": 4992716421, "lat": 52.5252771, "lon": 13.483169, "tags": {"addr:city": "Berlin", "addr:housenumber": "9", "addr:postcode": "10367", "addr:street": "Paul-Zobel-Stra\u00dfe", "amenity": "cafe", "name": "Caf\u00e9 Blaupause", "wheelchair": "no", "wheelchair:description": "Zugang zum Caf\u00e9 \u00fcber hohe Stahltreppe."}}, {"type": "node", "id": 5015863108, "lat": 52.5287182, "lon": 13.47722}, {"type": "node", "id": 5018581174, "lat": 52.5254235, "lon": 13.4718966}, {"type": "node", "id": 5018581175, "lat": 52.5254143, "lon": 13.4718779}, {"type": "node", "id": 5018581176, "lat": 52.5254589, "lon": 13.4717693}, {"type": "node", "id": 5157275142, "lat": 52.526418, "lon": 13.4748926}, {"type": "node", "id": 5157275150, "lat": 52.5269083, "lon": 13.4730377}, {"type": "node", "id": 5157275163, "lat": 52.5271282, "lon": 13.4735547}, {"type": "node", "id": 5157275164, "lat": 52.5271733, "lon": 13.4735714}, {"type": "node", "id": 5157275165, "lat": 52.5270934, "lon": 13.4740191}, {"type": "node", "id": 5157275166, "lat": 52.5265342, "lon": 13.4736257}, {"type": "node", "id": 5157275167, "lat": 52.5264818, "lon": 13.4736016}, {"type": "node", "id": 5157275168, "lat": 52.5264806, "lon": 13.4736085}, {"type": "node", "id": 5157275169, "lat": 52.5264303, "lon": 13.4735853}, {"type": "node", "id": 5157275170, "lat": 52.526434, "lon": 13.4735637}, {"type": "node", "id": 5157275188, "lat": 52.5269533, "lon": 13.4738322}, {"type": "node", "id": 5157275189, "lat": 52.5269502, "lon": 13.4738308}, {"type": "node", "id": 5157275190, "lat": 52.5269119, "lon": 13.4737565}, {"type": "node", "id": 5157275191, "lat": 52.5269062, "lon": 13.4737914}, {"type": "node", "id": 5157275192, "lat": 52.5268492, "lon": 13.4737662}, {"type": "node", "id": 5157275193, "lat": 52.5268535, "lon": 13.4737395}, {"type": "node", "id": 5157275194, "lat": 52.5267465, "lon": 13.4736922}, {"type": "node", "id": 5157275195, "lat": 52.5267433, "lon": 13.473712}, {"type": "node", "id": 5157275196, "lat": 52.5266927, "lon": 13.4736896}, {"type": "node", "id": 5157275197, "lat": 52.5266916, "lon": 13.4736964}, {"type": "node", "id": 5157275198, "lat": 52.5266404, "lon": 13.4736738}, {"type": "node", "id": 5157275199, "lat": 52.5266449, "lon": 13.473646}, {"type": "node", "id": 5157275200, "lat": 52.5265378, "lon": 13.4735987}, {"type": "node", "id": 5157275246, "lat": 52.52704, "lon": 13.4739953}, {"type": "node", "id": 5157275247, "lat": 52.5269343, "lon": 13.4739487}, {"type": "node", "id": 5157280678, "lat": 52.5270677, "lon": 13.4758665}, {"type": "node", "id": 5157313850, "lat": 52.5272752, "lon": 13.4807483}, {"type": "node", "id": 5157313851, "lat": 52.5273825, "lon": 13.480752}, {"type": "node", "id": 5157313852, "lat": 52.527382, "lon": 13.480801}, {"type": "node", "id": 5157314552, "lat": 52.5273414, "lon": 13.4806968}, {"type": "node", "id": 5204488844, "lat": 52.5362297, "lon": 13.4676199}, {"type": "node", "id": 5204488845, "lat": 52.5363083, "lon": 13.4674035}, {"type": "node", "id": 5204488846, "lat": 52.5364273, "lon": 13.4669085}, {"type": "node", "id": 5204488847, "lat": 52.536135, "lon": 13.4677915}, {"type": "node", "id": 5204488848, "lat": 52.5357677, "lon": 13.4680696}, {"type": "node", "id": 5218358431, "lat": 52.5284777, "lon": 13.4810672, "tags": {"man_made": "surveillance"}}, {"type": "node", "id": 5218359172, "lat": 52.5281463, "lon": 13.4810528, "tags": {"man_made": "surveillance"}}, {"type": "node", "id": 5226618204, "lat": 52.5283122, "lon": 13.4814683, "tags": {"man_made": "surveillance"}}, {"type": "node", "id": 5226618205, "lat": 52.5284546, "lon": 13.4814745, "tags": {"man_made": "surveillance"}}, {"type": "node", "id": 5226618206, "lat": 52.5281491, "lon": 13.4814612, "tags": {"man_made": "surveillance"}}, {"type": "node", "id": 5313931649, "lat": 52.5387947, "lon": 13.4593325}, {"type": "node", "id": 5418942204, "lat": 52.5238219, "lon": 13.4800578, "tags": {"addr:city": "Berlin", "addr:housenumber": "45", "addr:postcode": "10367", "addr:street": "M\u00f6llendorffstra\u00dfe", "amenity": "clinic", "description": "Nieren-, Hochdruck- und Dialysezentrum.", "email": "dialyseotto@gmx.de", "fax": "+493055490862", "healthcare": "dialysis", "healthcare:speciality": "nephrology;internal", "level": "3", "name": "Nierenzentrum Lichtenberg", "opening_hours": "Tu 08:00-12:00; Th 08:00-13:00", "operator": "Dr. med. Franz Otto", "phone": "+493055490860", "website": "https://www.nierenzentrum-lichtenberg.berlin/", "wheelchair": "yes"}}, {"type": "node", "id": 5647908244, "lat": 52.5281522, "lon": 13.480503}, {"type": "node", "id": 5647908247, "lat": 52.5283658, "lon": 13.4804506}, {"type": "node", "id": 5647908264, "lat": 52.5286781, "lon": 13.4817675}, {"type": "node", "id": 5647908265, "lat": 52.5286632, "lon": 13.4818332}, {"type": "node", "id": 5647908266, "lat": 52.5286613, "lon": 13.4818744}, {"type": "node", "id": 5647908267, "lat": 52.528148, "lon": 13.4806379}, {"type": "node", "id": 5647908268, "lat": 52.5281517, "lon": 13.4804392}, {"type": "node", "id": 5647908269, "lat": 52.5284381, "lon": 13.4804544}, {"type": "node", "id": 5647908270, "lat": 52.5284381, "lon": 13.4809107}, {"type": "node", "id": 5647908271, "lat": 52.5284721, "lon": 13.4809413}, {"type": "node", "id": 5647908272, "lat": 52.528473, "lon": 13.4809497}, {"type": "node", "id": 5647908273, "lat": 52.5286818, "lon": 13.480968}, {"type": "node", "id": 5647908274, "lat": 52.5286943, "lon": 13.4809443}, {"type": "node", "id": 5647908275, "lat": 52.5277016, "lon": 13.4809898}, {"type": "node", "id": 5647908288, "lat": 52.5272409, "lon": 13.4807456}, {"type": "node", "id": 5647908289, "lat": 52.5277054, "lon": 13.4807716}, {"type": "node", "id": 5647908293, "lat": 52.5280759, "lon": 13.4810085}, {"type": "node", "id": 5647908294, "lat": 52.5285242, "lon": 13.4810338}, {"type": "node", "id": 5647908295, "lat": 52.5285107, "lon": 13.481866}, {"type": "node", "id": 5647908296, "lat": 52.5284946, "lon": 13.4813973}, {"type": "node", "id": 5647908297, "lat": 52.5280995, "lon": 13.4813734}, {"type": "node", "id": 5647908298, "lat": 52.5281401, "lon": 13.4813751}, {"type": "node", "id": 5647908299, "lat": 52.5281458, "lon": 13.4810805}, {"type": "node", "id": 5647928611, "lat": 52.5290652, "lon": 13.4796311}, {"type": "node", "id": 5647928612, "lat": 52.52902, "lon": 13.4796898}, {"type": "node", "id": 5647928613, "lat": 52.5289553, "lon": 13.4798157}, {"type": "node", "id": 5647928614, "lat": 52.528912, "lon": 13.4799305}, {"type": "node", "id": 5647928615, "lat": 52.528854, "lon": 13.480227}, {"type": "node", "id": 5966966473, "lat": 52.5351527, "lon": 13.468831, "tags": {"addr:city": "Berlin", "addr:country": "DE", "addr:housenumber": "72", "addr:postcode": "10369", "addr:street": "Hohensch\u00f6nhauser Stra\u00dfe", "amenity": "bar", "check_date": "2023-12-24", "name": "Rodi Bier Bar", "opening_hours": "24/7", "outdoor_seating": "yes", "smoking": "yes"}}, {"type": "node", "id": 5991267145, "lat": 52.5254831, "lon": 13.48286}, {"type": "node", "id": 5991267146, "lat": 52.5254639, "lon": 13.4840496}, {"type": "node", "id": 5991267147, "lat": 52.5259231, "lon": 13.483745}, {"type": "node", "id": 5991267148, "lat": 52.5261627, "lon": 13.4829544}, {"type": "node", "id": 5993415610, "lat": 52.5257315, "lon": 13.4839548}, {"type": "node", "id": 5993415611, "lat": 52.5261226, "lon": 13.4831871}, {"type": "node", "id": 5993415612, "lat": 52.52554, "lon": 13.4840432}, {"type": "node", "id": 5993415613, "lat": 52.5260613, "lon": 13.4833994}, {"type": "node", "id": 6141319186, "lat": 52.5300852, "lon": 13.4619077, "tags": {"addr:city": "Berlin", "addr:country": "DE", "addr:housenumber": "131A", "addr:postcode": "10369", "addr:street": "Landsberger Allee", "addr:suburb": "Fennpfuhl", "amenity": "doctors", "email": "praxis@gastroenterologie-horn.de", "health_facility:type": "office", "health_specialty:gastroenterology": "main", "health_specialty:internal_medicine": "yes", "healthcare": "doctor", "healthcare:speciality": "internal;gastroenterology", "level": "2", "medical_system:western": "yes", "office": "physician", "opening_hours": "Mo 08:00-13:00,14:00-16:30, Tu-Th \"nach Vereinbarung\", Tu-Fr 08:00-13:00; PH off", "operator": "Dr. med. Andreas Horn", "phone": "+49 30 9705025", "website": "https://www.gastroenterologie-horn.de/", "wheelchair": "limited"}}, {"type": "node", "id": 6148166801, "lat": 52.5242388, "lon": 13.4806906, "tags": {"addr:city": "Berlin", "addr:country": "DE", "addr:housenumber": "48", "addr:postcode": "10367", "addr:street": "M\u00f6llendorffstra\u00dfe", "amenity": "restaurant", "check_date:opening_hours": "2024-09-23", "cuisine": "vietnamese", "diet:vegan": "no", "diet:vegetarian": "yes", "indoor_seating": "yes", "name": "Lang Van", "opening_hours": "Mo-Su 11:00-23:00", "outdoor_seating": "yes", "phone": "+49 1525 726 1298", "smoking": "outside", "wheelchair": "limited"}}, {"type": "node", "id": 6237544658, "lat": 52.5285274, "lon": 13.4575012, "tags": {"addr:city": "Berlin", "addr:housenumber": "106", "addr:street": "Landsberger Allee", "amenity": "restaurant", "level": "1", "name": "Mavericks", "opening_hours": "Mo-Su,PH 12:00-23:00"}}, {"type": "node", "id": 6320574423, "lat": 52.5233014, "lon": 13.4788325, "tags": {"amenity": "pub", "check_date:opening_hours": "2025-04-05", "name": "Cafe Mila", "opening_hours": "Mo-Th 08:00-07:00, Fr-Su 08:00-06:00", "smoking": "yes", "wheelchair": "yes"}}, {"type": "node", "id": 6339288026, "lat": 52.5295367, "lon": 13.4715069, "tags": {"addr:city": "Berlin", "addr:country": "DE", "addr:housenumber": "12", "addr:postcode": "10369", "addr:street": "Anton-Saefkow-Platz", "amenity": "restaurant", "check_date:opening_hours": "2025-03-04", "contact:phone": "+49 30 94708500", "contact:website": "http://teja.berlin/", "cuisine": "indian", "diet:vegan": "yes", "diet:vegetarian": "yes", "indoor_seating": "yes", "level": "0", "name": "Teja", "opening_hours": "Mo-Su 11:30-23:00", "outdoor_seating": "yes", "smoking": "outside", "wheelchair": "yes"}}, {"type": "node", "id": 6342582223, "lat": 52.5300345, "lon": 13.4801474}, {"type": "node", "id": 6342582226, "lat": 52.5299933, "lon": 13.4799407}, {"type": "node", "id": 6342582227, "lat": 52.5297994, "lon": 13.4796617}, {"type": "node", "id": 6342582228, "lat": 52.5298391, "lon": 13.4797962}, {"type": "node", "id": 6342582229, "lat": 52.5298631, "lon": 13.4799485}, {"type": "node", "id": 6342582230, "lat": 52.5298463, "lon": 13.480075}, {"type": "node", "id": 6342582231, "lat": 52.5297224, "lon": 13.480075}, {"type": "node", "id": 6342582232, "lat": 52.529655, "lon": 13.4800394}, {"type": "node", "id": 6342582233, "lat": 52.5295551, "lon": 13.47999}, {"type": "node", "id": 6342582234, "lat": 52.5294408, "lon": 13.4799603}, {"type": "node", "id": 6342582235, "lat": 52.5293482, "lon": 13.4798061}, {"type": "node", "id": 6342582236, "lat": 52.5293349, "lon": 13.4797111}, {"type": "node", "id": 6342582237, "lat": 52.5293662, "lon": 13.4796004}, {"type": "node", "id": 6342582238, "lat": 52.5294577, "lon": 13.4795292}, {"type": "node", "id": 6342582239, "lat": 52.5296478, "lon": 13.4795015}, {"type": "node", "id": 6342582240, "lat": 52.5297476, "lon": 13.4794936}, {"type": "node", "id": 6342582241, "lat": 52.5297982, "lon": 13.4796123}, {"type": "node", "id": 6342582242, "lat": 52.5300531, "lon": 13.4801581}, {"type": "node", "id": 6342582243, "lat": 52.5295028, "lon": 13.479368}, {"type": "node", "id": 6346569898, "lat": 52.5285246, "lon": 13.4574432, "tags": {"addr:city": "Berlin", "addr:country": "DE", "addr:housenumber": "106", "addr:postcode": "10369", "addr:street": "Landsberger Allee", "addr:suburb": "Fennpfuhl", "amenity": "bar", "name": "Loft14"}}, {"type": "node", "id": 6347320701, "lat": 52.5270136, "lon": 13.4787739, "tags": {"addr:city": "Berlin", "addr:country": "DE", "addr:housenumber": "111", "addr:postcode": "10369", "addr:street": "Wei\u00dfenseer Weg", "amenity": "clinic", "check_date:opening_hours": "2024-02-26", "description": "City Point Centrum f\u00fcr psychische Gesundheit (CPC)", "healthcare": "clinic", "name": "CPC", "opening_hours:signed": "no", "operator": "Evangelisches Krankenhaus K\u00f6nigin Elisabeth Herzberge gemeinn\u00fctzige GmbH (KEH gGmbH)", "website": "https://www.keh-berlin.de/de/city-point-centrum-fuer-psychische-gesundheit"}}, {"type": "node", "id": 6398565228, "lat": 52.524034, "lon": 13.4840754}, {"type": "node", "id": 6398565229, "lat": 52.5240075, "lon": 13.4840995}, {"type": "node", "id": 6398565230, "lat": 52.5239783, "lon": 13.484113}, {"type": "node", "id": 6398565231, "lat": 52.5239481, "lon": 13.4841151}, {"type": "node", "id": 6398565232, "lat": 52.5239184, "lon": 13.4841059}, {"type": "node", "id": 6398565233, "lat": 52.5238907, "lon": 13.4840857}, {"type": "node", "id": 6398565234, "lat": 52.5238666, "lon": 13.4840556}, {"type": "node", "id": 6398565235, "lat": 52.5238473, "lon": 13.4840172}, {"type": "node", "id": 6398565236, "lat": 52.5239113, "lon": 13.4836977}, {"type": "node", "id": 6398565237, "lat": 52.5239538, "lon": 13.483684}, {"type": "node", "id": 6398565238, "lat": 52.5239967, "lon": 13.4836937}, {"type": "node", "id": 6398565239, "lat": 52.5240353, "lon": 13.4837259}, {"type": "node", "id": 6398565240, "lat": 52.5240655, "lon": 13.4837769}, {"type": "node", "id": 6398565241, "lat": 52.524084, "lon": 13.4838412}, {"type": "node", "id": 6398565242, "lat": 52.5240887, "lon": 13.483912}, {"type": "node", "id": 6398565243, "lat": 52.5240791, "lon": 13.4839814}, {"type": "node", "id": 6510508423, "lat": 52.5324531, "lon": 13.4818085}, {"type": "node", "id": 6510508425, "lat": 52.5325869, "lon": 13.4819536}, {"type": "node", "id": 6510508426, "lat": 52.5326373, "lon": 13.4818157}, {"type": "node", "id": 6510508427, "lat": 52.5326494, "lon": 13.4818265}, {"type": "node", "id": 6510508428, "lat": 52.532667, "lon": 13.4817777}, {"type": "node", "id": 6510508429, "lat": 52.5326548, "lon": 13.4817674}, {"type": "node", "id": 6510508430, "lat": 52.5327635, "lon": 13.4814645}, {"type": "node", "id": 6510508431, "lat": 52.532776, "lon": 13.4814746}, {"type": "node", "id": 6510508432, "lat": 52.5327939, "lon": 13.481425}, {"type": "node", "id": 6510508433, "lat": 52.5327825, "lon": 13.4814142}, {"type": "node", "id": 6510508434, "lat": 52.5328421, "lon": 13.4812481}, {"type": "node", "id": 6510508435, "lat": 52.532799, "lon": 13.4803892}, {"type": "node", "id": 6510508436, "lat": 52.5328101, "lon": 13.4805778}, {"type": "node", "id": 6510508437, "lat": 52.5328235, "lon": 13.4805759}, {"type": "node", "id": 6510508438, "lat": 52.5328264, "lon": 13.480626}, {"type": "node", "id": 6510508439, "lat": 52.5328122, "lon": 13.4806294}, {"type": "node", "id": 6510508440, "lat": 52.532833, "lon": 13.4809764}, {"type": "node", "id": 6510508441, "lat": 52.5328463, "lon": 13.4809733}, {"type": "node", "id": 6510508442, "lat": 52.5328459, "lon": 13.4812003}, {"type": "node", "id": 6510508443, "lat": 52.5328367, "lon": 13.4810363}, {"type": "node", "id": 6510508444, "lat": 52.5328497, "lon": 13.481034}, {"type": "node", "id": 6510508449, "lat": 52.53278, "lon": 13.4803907}, {"type": "node", "id": 6510508450, "lat": 52.5327687, "lon": 13.4802139}, {"type": "node", "id": 6510508451, "lat": 52.5327826, "lon": 13.4802121}, {"type": "node", "id": 6510508452, "lat": 52.5327794, "lon": 13.4801597}, {"type": "node", "id": 6510508453, "lat": 52.5327653, "lon": 13.480162}, {"type": "node", "id": 6510508454, "lat": 52.5327436, "lon": 13.4798083}, {"type": "node", "id": 6510508455, "lat": 52.5327577, "lon": 13.4798066}, {"type": "node", "id": 6510508456, "lat": 52.5327545, "lon": 13.4797547}, {"type": "node", "id": 6510508457, "lat": 52.5327401, "lon": 13.4797575}, {"type": "node", "id": 6510508458, "lat": 52.5327185, "lon": 13.4794046}, {"type": "node", "id": 6510508459, "lat": 52.5327328, "lon": 13.479403}, {"type": "node", "id": 6510508460, "lat": 52.5327297, "lon": 13.4793517}, {"type": "node", "id": 6510508461, "lat": 52.5327153, "lon": 13.4793544}, {"type": "node", "id": 6510508462, "lat": 52.5326938, "lon": 13.4790034}, {"type": "node", "id": 6510508463, "lat": 52.5327081, "lon": 13.4790019}, {"type": "node", "id": 6510508464, "lat": 52.5327048, "lon": 13.4789485}, {"type": "node", "id": 6510508465, "lat": 52.5326904, "lon": 13.4789518}, {"type": "node", "id": 6510508466, "lat": 52.5326801, "lon": 13.478769}, {"type": "node", "id": 6510508469, "lat": 52.5326213, "lon": 13.4781388}, {"type": "node", "id": 6510508470, "lat": 52.5326343, "lon": 13.4781367}, {"type": "node", "id": 6510508471, "lat": 52.5326378, "lon": 13.4781967}, {"type": "node", "id": 6510508472, "lat": 52.5326249, "lon": 13.4781988}, {"type": "node", "id": 6510508473, "lat": 52.5326448, "lon": 13.4785433}, {"type": "node", "id": 6510508474, "lat": 52.5326579, "lon": 13.4785413}, {"type": "node", "id": 6510508475, "lat": 52.5326611, "lon": 13.4785962}, {"type": "node", "id": 6510508476, "lat": 52.5326495, "lon": 13.478598}, {"type": "node", "id": 6510508477, "lat": 52.5326596, "lon": 13.4787722}, {"type": "node", "id": 6510508483, "lat": 52.5328593, "lon": 13.4812011}, {"type": "node", "id": 6510528090, "lat": 52.5325707, "lon": 13.4820113}, {"type": "node", "id": 6510528092, "lat": 52.5325987, "lon": 13.4819673}, {"type": "node", "id": 6510528096, "lat": 52.5328567, "lon": 13.481236}, {"type": "node", "id": 6510528117, "lat": 52.5325874, "lon": 13.4819994}, {"type": "node", "id": 6510528118, "lat": 52.5319831, "lon": 13.482046}, {"type": "node", "id": 6510528119, "lat": 52.5320723, "lon": 13.4820418}, {"type": "node", "id": 6510528120, "lat": 52.5320847, "lon": 13.4818706}, {"type": "node", "id": 6510528122, "lat": 52.5324013, "lon": 13.4817298}, {"type": "node", "id": 6510530006, "lat": 52.5296163, "lon": 13.4821038}, {"type": "node", "id": 6510530007, "lat": 52.5295814, "lon": 13.4819674}, {"type": "node", "id": 6510530011, "lat": 52.5296125, "lon": 13.4823275, "tags": {"barrier": "gate"}}, {"type": "node", "id": 6510530017, "lat": 52.5295675, "lon": 13.4819403}, {"type": "node", "id": 6510530018, "lat": 52.5296131, "lon": 13.4822933}, {"type": "node", "id": 6510530020, "lat": 52.5288998, "lon": 13.4830413}, {"type": "node", "id": 6518533979, "lat": 52.5256494, "lon": 13.4640391}, {"type": "node", "id": 6518533980, "lat": 52.5255736, "lon": 13.4643519}, {"type": "node", "id": 6518533981, "lat": 52.5252032, "lon": 13.464188}, {"type": "node", "id": 6518533982, "lat": 52.5252119, "lon": 13.4641271}, {"type": "node", "id": 6518533983, "lat": 52.5251175, "lon": 13.4640811}, {"type": "node", "id": 6518533984, "lat": 52.5252296, "lon": 13.463412}, {"type": "node", "id": 6518544170, "lat": 52.5253254, "lon": 13.4641309}, {"type": "node", "id": 6518544171, "lat": 52.5252031, "lon": 13.4640793}, {"type": "node", "id": 6518544172, "lat": 52.5252482, "lon": 13.4638222}, {"type": "node", "id": 6518544173, "lat": 52.5253464, "lon": 13.4638739}, {"type": "node", "id": 6518544174, "lat": 52.5253634, "lon": 13.4639072}, {"type": "node", "id": 6518544175, "lat": 52.5253575, "lon": 13.4639621}, {"type": "node", "id": 6518557185, "lat": 52.5257475, "lon": 13.463645}, {"type": "node", "id": 6518561222, "lat": 52.5267557, "lon": 13.4650835}, {"type": "node", "id": 6518561223, "lat": 52.5266707, "lon": 13.4650388}, {"type": "node", "id": 6518561224, "lat": 52.5266487, "lon": 13.4651484}, {"type": "node", "id": 6518561225, "lat": 52.5265321, "lon": 13.465097}, {"type": "node", "id": 6518561228, "lat": 52.5265632, "lon": 13.4649329}, {"type": "node", "id": 6518561229, "lat": 52.5265137, "lon": 13.4651942}, {"type": "node", "id": 6518561230, "lat": 52.5267306, "lon": 13.4640398}, {"type": "node", "id": 6518561231, "lat": 52.5267416, "lon": 13.4640467}, {"type": "node", "id": 6518561232, "lat": 52.5267433, "lon": 13.4641022}, {"type": "node", "id": 6518561233, "lat": 52.5269214, "lon": 13.4641896}, {"type": "node", "id": 6518561234, "lat": 52.5267863, "lon": 13.4649138}, {"type": "node", "id": 6518561235, "lat": 52.526718, "lon": 13.4652927}, {"type": "node", "id": 6518561236, "lat": 52.5267827, "lon": 13.4649334}, {"type": "node", "id": 6518561237, "lat": 52.5265819, "lon": 13.464834}, {"type": "node", "id": 6518561238, "lat": 52.5266736, "lon": 13.4643506}, {"type": "node", "id": 6518561239, "lat": 52.5268719, "lon": 13.4644493}, {"type": "node", "id": 6534075150, "lat": 52.5280247, "lon": 13.467171}, {"type": "node", "id": 6534075151, "lat": 52.5280848, "lon": 13.4671981}, {"type": "node", "id": 6534075152, "lat": 52.5280951, "lon": 13.467137}, {"type": "node", "id": 6534075153, "lat": 52.5280351, "lon": 13.4671095}, {"type": "node", "id": 6534075154, "lat": 52.5281984, "lon": 13.4678459, "tags": {"addr:city": "Berlin", "addr:country": "DE", "addr:housenumber": "60", "addr:postcode": "10369", "addr:street": "Karl-Lade-Stra\u00dfe", "addr:suburb": "Fennpfuhl", "entrance": "yes"}}, {"type": "node", "id": 6534075156, "lat": 52.5280102, "lon": 13.4672559}, {"type": "node", "id": 6534075157, "lat": 52.5278774, "lon": 13.4671949}, {"type": "node", "id": 6534075158, "lat": 52.5277348, "lon": 13.468034}, {"type": "node", "id": 6534075159, "lat": 52.5281902, "lon": 13.4678943}, {"type": "node", "id": 6534075160, "lat": 52.5282069, "lon": 13.4677962}, {"type": "node", "id": 6534075161, "lat": 52.5281303, "lon": 13.467761}, {"type": "node", "id": 6534075162, "lat": 52.5280702, "lon": 13.4672838}, {"type": "node", "id": 6534075163, "lat": 52.5280736, "lon": 13.4672642}, {"type": "node", "id": 6720670507, "lat": 52.5261474, "lon": 13.4829037}, {"type": "node", "id": 6966377944, "lat": 52.5301647, "lon": 13.4692138}, {"type": "node", "id": 6966377945, "lat": 52.530154, "lon": 13.4691934}, {"type": "node", "id": 6966377946, "lat": 52.5300099, "lon": 13.4685231}, {"type": "node", "id": 6966377947, "lat": 52.5299974, "lon": 13.4684684}, {"type": "node", "id": 6966377948, "lat": 52.5299873, "lon": 13.4684078}, {"type": "node", "id": 6966377949, "lat": 52.5299245, "lon": 13.467831}, {"type": "node", "id": 6966377950, "lat": 52.5298877, "lon": 13.4674606}, {"type": "node", "id": 6966377951, "lat": 52.5298617, "lon": 13.4672582}, {"type": "node", "id": 6966377952, "lat": 52.5298391, "lon": 13.4671398}, {"type": "node", "id": 6966377953, "lat": 52.5297168, "lon": 13.4665533}, {"type": "node", "id": 7090511500, "lat": 52.5231836, "lon": 13.477905, "tags": {"addr:city": "Berlin", "addr:housenumber": "12", "addr:postcode": "10369", "addr:street": "Alfred-Jung-Stra\u00dfe", "brand": "Rewe", "brand:wikidata": "Q16968817", "brand:wikipedia": "en:REWE", "check_date:opening_hours": "2024-08-12", "internet_access": "wlan", "name": "REWE", "opening_hours": "Mo-Sa 07:00-22:00", "payment:cash": "yes", "payment:contactless": "yes", "payment:credit_cards": "yes", "payment:debit_cards": "yes", "payment:maestro": "yes", "payment:mastercard": "yes", "payment:visa": "yes", "phone": "+49 30 959997610", "shop": "supermarket", "website": "https://www.rewe.de/marktseite/berlin-stadt/1931604/rewe-markt-alfred-jung-strasse-12", "wheelchair": "yes"}}, {"type": "node", "id": 7090551421, "lat": 52.5285723, "lon": 13.4594578}, {"type": "node", "id": 7095195247, "lat": 52.5299642, "lon": 13.468227}, {"type": "node", "id": 7095195248, "lat": 52.5298286, "lon": 13.4689243}, {"type": "node", "id": 7095195249, "lat": 52.5299312, "lon": 13.4688626}, {"type": "node", "id": 7095195250, "lat": 52.5299397, "lon": 13.4688475}, {"type": "node", "id": 7095195251, "lat": 52.5299454, "lon": 13.4688186}, {"type": "node", "id": 7095195252, "lat": 52.5299481, "lon": 13.4688016}, {"type": "node", "id": 7095195253, "lat": 52.5299201, "lon": 13.4686807}, {"type": "node", "id": 7095195254, "lat": 52.5298899, "lon": 13.4686524}, {"type": "node", "id": 7095195255, "lat": 52.5296681, "lon": 13.4687884}, {"type": "node", "id": 7095195256, "lat": 52.5294311, "lon": 13.4685844}, {"type": "node", "id": 7095195257, "lat": 52.5294089, "lon": 13.468597}, {"type": "node", "id": 7095211815, "lat": 52.5299464, "lon": 13.4680615}, {"type": "node", "id": 7100985030, "lat": 52.5324916, "lon": 13.4638119}, {"type": "node", "id": 7100985031, "lat": 52.5325121, "lon": 13.4638031}, {"type": "node", "id": 7100985032, "lat": 52.5325141, "lon": 13.4638038}, {"type": "node", "id": 7100985045, "lat": 52.5319963, "lon": 13.4645535}, {"type": "node", "id": 7100985046, "lat": 52.5322719, "lon": 13.4635717}, {"type": "node", "id": 7100985047, "lat": 52.5322887, "lon": 13.4635551}, {"type": "node", "id": 7100985048, "lat": 52.5323157, "lon": 13.4635797}, {"type": "node", "id": 7100985049, "lat": 52.5322962, "lon": 13.46364}, {"type": "node", "id": 7100985050, "lat": 52.5323505, "lon": 13.463685}, {"type": "node", "id": 7100985051, "lat": 52.5324033, "lon": 13.4635151}, {"type": "node", "id": 7100985052, "lat": 52.5322992, "lon": 13.4635101}, {"type": "node", "id": 7100985053, "lat": 52.5322958, "lon": 13.4634837}, {"type": "node", "id": 7100985054, "lat": 52.5323239, "lon": 13.4633913}, {"type": "node", "id": 7100985055, "lat": 52.5323363, "lon": 13.4633784}, {"type": "node", "id": 7100985056, "lat": 52.5323513, "lon": 13.4633772}, {"type": "node", "id": 7100985057, "lat": 52.5323797, "lon": 13.4633913}, {"type": "node", "id": 7100985058, "lat": 52.5323992, "lon": 13.4634006}, {"type": "node", "id": 7100985059, "lat": 52.5324157, "lon": 13.4634283}, {"type": "node", "id": 7100985060, "lat": 52.5325347, "lon": 13.4637865}, {"type": "node", "id": 7100985061, "lat": 52.5324975, "lon": 13.4638047}, {"type": "node", "id": 7100985062, "lat": 52.5324864, "lon": 13.4638179}, {"type": "node", "id": 7100985063, "lat": 52.5324748, "lon": 13.4638111}, {"type": "node", "id": 7100985064, "lat": 52.5324636, "lon": 13.4637933}, {"type": "node", "id": 7100985065, "lat": 52.5324295, "lon": 13.4636677}, {"type": "node", "id": 7100985066, "lat": 52.5323078, "lon": 13.4637416}, {"type": "node", "id": 7100985067, "lat": 52.5323198, "lon": 13.4638105}, {"type": "node", "id": 7100985068, "lat": 52.5323183, "lon": 13.4638204}, {"type": "node", "id": 7100985069, "lat": 52.5323108, "lon": 13.4638296}, {"type": "node", "id": 7100985070, "lat": 52.5322962, "lon": 13.4638395}, {"type": "node", "id": 7100985071, "lat": 52.5322921, "lon": 13.4638493}, {"type": "node", "id": 7100985072, "lat": 52.5322906, "lon": 13.4638672}, {"type": "node", "id": 7100985073, "lat": 52.5324896, "lon": 13.4647678}, {"type": "node", "id": 7100985074, "lat": 52.5321217, "lon": 13.4649795}, {"type": "node", "id": 7100985075, "lat": 52.5320745, "lon": 13.4649383}, {"type": "node", "id": 7647351870, "lat": 52.523827, "lon": 13.4839241}, {"type": "node", "id": 7647351871, "lat": 52.5238339, "lon": 13.4839726}, {"type": "node", "id": 7647351872, "lat": 52.5240564, "lon": 13.4840419}, {"type": "node", "id": 7647351873, "lat": 52.5238739, "lon": 13.4837334}, {"type": "node", "id": 7647351874, "lat": 52.5238455, "lon": 13.4837871}, {"type": "node", "id": 7647351875, "lat": 52.5238293, "lon": 13.4838531}, {"type": "node", "id": 7692766741, "lat": 52.5318937, "lon": 13.4700216}, {"type": "node", "id": 7694542321, "lat": 52.5332202, "lon": 13.4740258}, {"type": "node", "id": 7694542322, "lat": 52.5332748, "lon": 13.474158}, {"type": "node", "id": 8139154272, "lat": 52.5232291, "lon": 13.4705935}, {"type": "node", "id": 8459440164, "lat": 52.5319562, "lon": 13.46888, "tags": {"addr:city": "Berlin", "addr:housenumber": "171", "addr:postcode": "10369", "addr:street": "Landsberger Allee", "check_date:opening_hours": "2025-02-11", "cuisine": "russian", "name": "Nova", "opening_hours": "Mo-Sa 09:00-20:00", "shop": "supermarket", "wheelchair": "yes"}}, {"type": "node", "id": 8461582189, "lat": 52.5270965, "lon": 13.4780992, "tags": {"addr:city": "Berlin", "addr:country": "DE", "addr:housenumber": "112", "addr:postcode": "10369", "addr:street": "Wei\u00dfenseer Weg", "amenity": "restaurant", "check_date:opening_hours": "2025-03-24", "cuisine": "hawaiian", "delivery": "yes", "name": "SUN-POKE Bowl", "opening_hours": "Mo-Fr 11:00-21:30; Sa off; Su 12:00-21:30", "phone": "+49 30 94075975", "takeaway": "yes", "website": "https://sun-pokebowl.de/", "wheelchair": "yes"}}, {"type": "node", "id": 8504463641, "lat": 52.5344904, "lon": 13.4732526}, {"type": "node", "id": 8504463644, "lat": 52.5342922, "lon": 13.4733977}, {"type": "node", "id": 8504463645, "lat": 52.5341656, "lon": 13.4733233}, {"type": "node", "id": 8504463647, "lat": 52.5343569, "lon": 13.4726623}, {"type": "node", "id": 8557172624, "lat": 52.5279668, "lon": 13.4763536, "tags": {"barrier": "gate"}}, {"type": "node", "id": 8929140492, "lat": 52.5337223, "lon": 13.4699052}, {"type": "node", "id": 8929140493, "lat": 52.5334329, "lon": 13.4744686}, {"type": "node", "id": 8929140511, "lat": 52.5344217, "lon": 13.4732843, "tags": {"barrier": "gate"}}, {"type": "node", "id": 8929213618, "lat": 52.5340807, "lon": 13.4728643, "tags": {"barrier": "gate"}}, {"type": "node", "id": 8929213619, "lat": 52.5340808, "lon": 13.4729437}, {"type": "node", "id": 8929213620, "lat": 52.5342305, "lon": 13.4733613, "tags": {"barrier": "gate"}}, {"type": "node", "id": 8929213621, "lat": 52.5348163, "lon": 13.4733}, {"type": "node", "id": 8929213622, "lat": 52.5348524, "lon": 13.4732204}, {"type": "node", "id": 8929213623, "lat": 52.5348968, "lon": 13.4731016}, {"type": "node", "id": 8929213624, "lat": 52.5350032, "lon": 13.4726473}, {"type": "node", "id": 8929213625, "lat": 52.5347709, "lon": 13.4733828}, {"type": "node", "id": 8929213626, "lat": 52.5347211, "lon": 13.4734421}, {"type": "node", "id": 9081149116, "lat": 52.5271096, "lon": 13.4576715}, {"type": "node", "id": 9081193817, "lat": 52.5268419, "lon": 13.4578517}, {"type": "node", "id": 9081193818, "lat": 52.5267178, "lon": 13.4578999}, {"type": "node", "id": 9081193819, "lat": 52.5267328, "lon": 13.458037}, {"type": "node", "id": 9081193820, "lat": 52.526615, "lon": 13.4580791}, {"type": "node", "id": 9081193821, "lat": 52.5269274, "lon": 13.4578826}, {"type": "node", "id": 9081193822, "lat": 52.5269613, "lon": 13.4580327}, {"type": "node", "id": 9176889761, "lat": 52.530836, "lon": 13.4799757}, {"type": "node", "id": 9176889762, "lat": 52.5305914, "lon": 13.4787129}, {"type": "node", "id": 9176889763, "lat": 52.530583, "lon": 13.4787287}, {"type": "node", "id": 9531768335, "lat": 52.5311691, "lon": 13.4840822}, {"type": "node", "id": 9531768336, "lat": 52.5311166, "lon": 13.4840932}, {"type": "node", "id": 9531768337, "lat": 52.5311298, "lon": 13.4842847}, {"type": "node", "id": 9531768338, "lat": 52.5311807, "lon": 13.4842309}, {"type": "node", "id": 9546916773, "lat": 52.5246395, "lon": 13.4653952, "tags": {"addr:city": "Berlin", "addr:country": "DE", "addr:housenumber": "207", "addr:postcode": "10369", "addr:street": "Storkower Stra\u00dfe", "addr:suburb": "Fennpfuhl", "amenity": "restaurant", "contact:email": "kontakt@lastazione-berlin.de", "contact:phone": "+49 30 94708470", "contact:website": "https://www.trattoria-lastazione.de", "cuisine": "italian", "diet:vegetarian": "yes", "indoor_seating": "yes", "name": "Trattoria La Stazione", "opening_hours:signed": "no", "outdoor_seating": "yes", "smoking": "outside", "wheelchair": "yes"}}, {"type": "node", "id": 9643094609, "lat": 52.5358841, "lon": 13.4688256}, {"type": "node", "id": 9643094610, "lat": 52.5357931, "lon": 13.4687879}, {"type": "node", "id": 9643094611, "lat": 52.5358875, "lon": 13.4688025}, {"type": "node", "id": 9643094612, "lat": 52.5358859, "lon": 13.4688176}, {"type": "node", "id": 9643094613, "lat": 52.5357943, "lon": 13.4687759}, {"type": "node", "id": 9643094614, "lat": 52.5357977, "lon": 13.4687616}, {"type": "node", "id": 9643094615, "lat": 52.5358027, "lon": 13.4687487}, {"type": "node", "id": 9643094616, "lat": 52.5358091, "lon": 13.4687376}, {"type": "node", "id": 9643094617, "lat": 52.5358167, "lon": 13.4687288}, {"type": "node", "id": 9643094618, "lat": 52.5358253, "lon": 13.4687226}, {"type": "node", "id": 9643094619, "lat": 52.5358343, "lon": 13.4687192}, {"type": "node", "id": 9643094620, "lat": 52.5358437, "lon": 13.4687189}, {"type": "node", "id": 9643094621, "lat": 52.5358528, "lon": 13.4687215}, {"type": "node", "id": 9643094622, "lat": 52.5358615, "lon": 13.468727}, {"type": "node", "id": 9643094623, "lat": 52.5358694, "lon": 13.4687352}, {"type": "node", "id": 9643094624, "lat": 52.5358761, "lon": 13.4687458}, {"type": "node", "id": 9643094625, "lat": 52.5358815, "lon": 13.4687583}, {"type": "node", "id": 9643094626, "lat": 52.5358853, "lon": 13.4687723}, {"type": "node", "id": 9643094627, "lat": 52.5358873, "lon": 13.4687872}, {"type": "node", "id": 9643094628, "lat": 52.5359086, "lon": 13.4689361}, {"type": "node", "id": 9643094629, "lat": 52.5359056, "lon": 13.468964}, {"type": "node", "id": 9643094630, "lat": 52.5358994, "lon": 13.4689905}, {"type": "node", "id": 9643094631, "lat": 52.5358902, "lon": 13.4690145}, {"type": "node", "id": 9643094632, "lat": 52.5358782, "lon": 13.469035}, {"type": "node", "id": 9643094633, "lat": 52.5358641, "lon": 13.4690513}, {"type": "node", "id": 9643094634, "lat": 52.5358483, "lon": 13.4690628}, {"type": "node", "id": 9643094635, "lat": 52.5358315, "lon": 13.469069}, {"type": "node", "id": 9643094636, "lat": 52.5358142, "lon": 13.4690697}, {"type": "node", "id": 9643094637, "lat": 52.5357972, "lon": 13.4690649}, {"type": "node", "id": 9643094638, "lat": 52.5357811, "lon": 13.4690546}, {"type": "node", "id": 9643094639, "lat": 52.5357666, "lon": 13.4690395}, {"type": "node", "id": 9643094640, "lat": 52.5357541, "lon": 13.4690199}, {"type": "node", "id": 9643094641, "lat": 52.5357441, "lon": 13.4689967}, {"type": "node", "id": 9643094642, "lat": 52.5357371, "lon": 13.4689707}, {"type": "node", "id": 9643094643, "lat": 52.5357334, "lon": 13.468943}, {"type": "node", "id": 9643094644, "lat": 52.5357329, "lon": 13.4689147}, {"type": "node", "id": 9643094645, "lat": 52.5357359, "lon": 13.4688867}, {"type": "node", "id": 9643094646, "lat": 52.5357421, "lon": 13.4688602}, {"type": "node", "id": 9643094647, "lat": 52.5357514, "lon": 13.4688363}, {"type": "node", "id": 9643094648, "lat": 52.5357633, "lon": 13.4688157}, {"type": "node", "id": 9643094649, "lat": 52.5357774, "lon": 13.4687994}, {"type": "node", "id": 9643094650, "lat": 52.5358874, "lon": 13.4688308}, {"type": "node", "id": 9643094651, "lat": 52.5358974, "lon": 13.468854}, {"type": "node", "id": 9643094652, "lat": 52.5359044, "lon": 13.46888}, {"type": "node", "id": 9643094653, "lat": 52.5359082, "lon": 13.4689077}, {"type": "node", "id": 9783652926, "lat": 52.532483, "lon": 13.4626787}, {"type": "node", "id": 9783652927, "lat": 52.5325539, "lon": 13.4624287}, {"type": "node", "id": 9783652928, "lat": 52.5327437, "lon": 13.4637175}, {"type": "node", "id": 9783652929, "lat": 52.5330699, "lon": 13.4644403}, {"type": "node", "id": 9783652930, "lat": 52.5331348, "lon": 13.4645092}, {"type": "node", "id": 9783652931, "lat": 52.5331153, "lon": 13.4644837}, {"type": "node", "id": 9783652932, "lat": 52.5330896, "lon": 13.4644567}, {"type": "node", "id": 9783652933, "lat": 52.5330497, "lon": 13.4644319}, {"type": "node", "id": 9783652934, "lat": 52.5334097, "lon": 13.4651492}, {"type": "node", "id": 9783652935, "lat": 52.5338332, "lon": 13.4664118}, {"type": "node", "id": 9783652936, "lat": 52.5336222, "lon": 13.4657914}, {"type": "node", "id": 9783652937, "lat": 52.5340822, "lon": 13.4671502}, {"type": "node", "id": 9783652938, "lat": 52.534078, "lon": 13.4671306}, {"type": "node", "id": 9783652939, "lat": 52.5340713, "lon": 13.4671101}, {"type": "node", "id": 9783652940, "lat": 52.5340396, "lon": 13.4670077}, {"type": "node", "id": 9783652941, "lat": 52.5340436, "lon": 13.4669895}, {"type": "node", "id": 9783652942, "lat": 52.5340328, "lon": 13.4670241}, {"type": "node", "id": 9783652943, "lat": 52.5340454, "lon": 13.4669705}, {"type": "node", "id": 9783652944, "lat": 52.5340552, "lon": 13.4669608}, {"type": "node", "id": 9783652945, "lat": 52.5340764, "lon": 13.4672224}, {"type": "node", "id": 9783652946, "lat": 52.5340829, "lon": 13.4671969}, {"type": "node", "id": 9783652947, "lat": 52.5340674, "lon": 13.4672468}, {"type": "node", "id": 9783652948, "lat": 52.5340634, "lon": 13.4673828}, {"type": "node", "id": 9783652949, "lat": 52.5340294, "lon": 13.4673095}, {"type": "node", "id": 9783652950, "lat": 52.534691, "lon": 13.4686906}, {"type": "node", "id": 9783652951, "lat": 52.5346824, "lon": 13.4686946}, {"type": "node", "id": 9783652952, "lat": 52.5347935, "lon": 13.468707}, {"type": "node", "id": 9783652953, "lat": 52.5353207, "lon": 13.4683702}, {"type": "node", "id": 9783652954, "lat": 52.5359559, "lon": 13.4679357}, {"type": "node", "id": 9783652955, "lat": 52.5361609, "lon": 13.4677551}, {"type": "node", "id": 9783652956, "lat": 52.5361844, "lon": 13.4677117}, {"type": "node", "id": 9783652957, "lat": 52.5362714, "lon": 13.4675138}, {"type": "node", "id": 9783652958, "lat": 52.5367263, "lon": 13.4664327}, {"type": "node", "id": 9783652960, "lat": 52.5367491, "lon": 13.4663393}, {"type": "node", "id": 9783652962, "lat": 52.5370426, "lon": 13.465338}, {"type": "node", "id": 9783652963, "lat": 52.5370516, "lon": 13.4654123}, {"type": "node", "id": 9783652964, "lat": 52.5370486, "lon": 13.4653278}, {"type": "node", "id": 9783652965, "lat": 52.5370495, "lon": 13.4652957}, {"type": "node", "id": 9783652968, "lat": 52.5381835, "lon": 13.4621237}, {"type": "node", "id": 9783652969, "lat": 52.5381622, "lon": 13.4621473}, {"type": "node", "id": 9783652970, "lat": 52.5382522, "lon": 13.4621517}, {"type": "node", "id": 9783652971, "lat": 52.5383076, "lon": 13.4620358}, {"type": "node", "id": 9783652972, "lat": 52.5383861, "lon": 13.4617209}, {"type": "node", "id": 9783652973, "lat": 52.538281, "lon": 13.4621655}, {"type": "node", "id": 9783652974, "lat": 52.5387111, "lon": 13.4609044}, {"type": "node", "id": 9783652975, "lat": 52.5388014, "lon": 13.4595485}, {"type": "node", "id": 9783652976, "lat": 52.539127, "lon": 13.4598458}, {"type": "node", "id": 9783652977, "lat": 52.5388191, "lon": 13.4594998}, {"type": "node", "id": 9783652978, "lat": 52.5366626, "lon": 13.4573259}, {"type": "node", "id": 9783652979, "lat": 52.5363633, "lon": 13.4575198}, {"type": "node", "id": 9783652980, "lat": 52.5358157, "lon": 13.4582987}, {"type": "node", "id": 9783652981, "lat": 52.5358129, "lon": 13.4581872}, {"type": "node", "id": 9783652982, "lat": 52.5358534, "lon": 13.4581719}, {"type": "node", "id": 9783652983, "lat": 52.5358511, "lon": 13.4581137}, {"type": "node", "id": 9783652985, "lat": 52.5336878, "lon": 13.4613015}, {"type": "node", "id": 9783652986, "lat": 52.5337024, "lon": 13.4612282}, {"type": "node", "id": 9783652987, "lat": 52.5352916, "lon": 13.4619213}, {"type": "node", "id": 9783652988, "lat": 52.5352757, "lon": 13.4619498}, {"type": "node", "id": 9783652989, "lat": 52.5352588, "lon": 13.4619687}, {"type": "node", "id": 9783701496, "lat": 52.5351425, "lon": 13.4619535}, {"type": "node", "id": 9783706011, "lat": 52.5339456, "lon": 13.4666898}, {"type": "node", "id": 9783709008, "lat": 52.5340437, "lon": 13.4672859}, {"type": "node", "id": 9783709034, "lat": 52.533346, "lon": 13.4649582}, {"type": "node", "id": 9783709035, "lat": 52.5333365, "lon": 13.4649298}, {"type": "node", "id": 9783709050, "lat": 52.532572, "lon": 13.4632059}, {"type": "node", "id": 9783709136, "lat": 52.5360361, "lon": 13.4678711}, {"type": "node", "id": 9783709137, "lat": 52.5359318, "lon": 13.4679528}, {"type": "node", "id": 9783709138, "lat": 52.5349025, "lon": 13.4686407}, {"type": "node", "id": 9783709163, "lat": 52.5346935, "lon": 13.4686964}, {"type": "node", "id": 9783709181, "lat": 52.5344541, "lon": 13.4681909}, {"type": "node", "id": 9783709182, "lat": 52.5343184, "lon": 13.4678917}, {"type": "node", "id": 9783729623, "lat": 52.5331962, "lon": 13.461055}, {"type": "node", "id": 9783729624, "lat": 52.5329881, "lon": 13.4610732}, {"type": "node", "id": 9783729625, "lat": 52.5331081, "lon": 13.4610109}, {"type": "node", "id": 9783729626, "lat": 52.5331747, "lon": 13.4610443}, {"type": "node", "id": 9783798507, "lat": 52.5357779, "lon": 13.4584574}, {"type": "node", "id": 9783838743, "lat": 52.5371807, "lon": 13.4579425}, {"type": "node", "id": 9888789494, "lat": 52.5326157, "lon": 13.4694019, "tags": {"addr:city": "Berlin", "addr:housenumber": "171", "addr:postcode": "10369", "addr:street": "Landsberger Allee", "amenity": "cafe", "cuisine": "ice_cream", "name": "Tucano Eis Cafe&Bar", "opening_hours": "Tu-Th 13:00-23:00, Fr,Sa 13:00-24:00, Su 13:00-19:00", "outdoor_seating": "yes", "shop": "confectionery"}}, {"type": "node", "id": 9923286559, "lat": 52.5265673, "lon": 13.4585429, "tags": {"entrance": "yes"}}, {"type": "node", "id": 9923286564, "lat": 52.5265323, "lon": 13.458277, "tags": {"access": "customers", "amenity": "parking_entrance", "fee": "no", "maxheight": "1.9", "operator": "Aldi", "parking": "underground"}}, {"type": "node", "id": 9937337158, "lat": 52.5302488, "lon": 13.4615806, "tags": {"addr:city": "Berlin", "addr:housenumber": "10", "addr:postcode": "10369", "addr:street": "Oderbruchstra\u00dfe", "amenity": "doctors", "email": "info@neurologische-praxis.berlin", "fax": "+49 30 97105403", "health_facility:type": "office", "health_specialty:adult_psychiatry": "yes", "health_specialty:neurology": "yes", "healthcare": "doctor", "healthcare:speciality": "neurology;neuropsychiatry", "level": "6", "medical_system:western": "yes", "name": "Dr.med. Wolfgang M\u00f6ller Facharzt f\u00fcr Neurologie und Psychiatrie", "opening_hours": "Mo,Fr 10:00-14:00 open \"mit Termin\", Mo,Fr 11:00-12:00 open \"ohne Termin\", Tu,Th 09:00-12:45,14:15-18:00 open \"mit Termin\", Th 10:00-11:00,15:00-16:00 open \"ohne Termin\", We open \"Nur mit Termin.\"; PH off", "operator": "Dr. med. Wolfgang M\u00f6ller", "phone": "+49 30 9756244", "website": "https://www.neurologische-praxis.berlin/"}}, {"type": "node", "id": 10003502135, "lat": 52.5246484, "lon": 13.4775575}, {"type": "node", "id": 10003502136, "lat": 52.5245778, "lon": 13.4775584}, {"type": "node", "id": 10003502137, "lat": 52.5245772, "lon": 13.4774317}, {"type": "node", "id": 10003502138, "lat": 52.5246478, "lon": 13.4774308}, {"type": "node", "id": 10223606687, "lat": 52.5319849, "lon": 13.4704349}, {"type": "node", "id": 10223606698, "lat": 52.5332567, "lon": 13.4697899}, {"type": "node", "id": 10223606699, "lat": 52.5333277, "lon": 13.469701}, {"type": "node", "id": 10223606704, "lat": 52.5341625, "lon": 13.4682661}, {"type": "node", "id": 10223606705, "lat": 52.5341078, "lon": 13.4683295}, {"type": "node", "id": 10223606706, "lat": 52.534128, "lon": 13.4692188}, {"type": "node", "id": 10274691300, "lat": 52.5270447, "lon": 13.4679043}, {"type": "node", "id": 10274691301, "lat": 52.5270963, "lon": 13.467609}, {"type": "node", "id": 10274691302, "lat": 52.5271303, "lon": 13.4676238}, {"type": "node", "id": 10274694412, "lat": 52.527425, "lon": 13.4680791}, {"type": "node", "id": 10274694424, "lat": 52.5263244, "lon": 13.4689771}, {"type": "node", "id": 10274694425, "lat": 52.5263803, "lon": 13.4686097}, {"type": "node", "id": 10274694426, "lat": 52.5263469, "lon": 13.4685369}, {"type": "node", "id": 10274694427, "lat": 52.5269637, "lon": 13.4692677}, {"type": "node", "id": 10274694428, "lat": 52.5267364, "lon": 13.4691653}, {"type": "node", "id": 10274694435, "lat": 52.526296, "lon": 13.4684606}, {"type": "node", "id": 10274694436, "lat": 52.5259218, "lon": 13.4684017}, {"type": "node", "id": 10274694437, "lat": 52.5259301, "lon": 13.4683827}, {"type": "node", "id": 10274694438, "lat": 52.5260175, "lon": 13.4684222}, {"type": "node", "id": 10274694439, "lat": 52.5260314, "lon": 13.468349}, {"type": "node", "id": 10275481423, "lat": 52.5252431, "lon": 13.4735656}, {"type": "node", "id": 10275481424, "lat": 52.5252101, "lon": 13.4734523}, {"type": "node", "id": 10275481425, "lat": 52.5244964, "lon": 13.4734602}, {"type": "node", "id": 10275481426, "lat": 52.5244958, "lon": 13.4736579}, {"type": "node", "id": 10275481427, "lat": 52.5243953, "lon": 13.4736585}, {"type": "node", "id": 10275481428, "lat": 52.5243207, "lon": 13.4751549}, {"type": "node", "id": 10275481429, "lat": 52.524379, "lon": 13.475156}, {"type": "node", "id": 10275481430, "lat": 52.52438, "lon": 13.4753389}, {"type": "node", "id": 10275481431, "lat": 52.5245886, "lon": 13.4753385}, {"type": "node", "id": 10275481432, "lat": 52.524589, "lon": 13.4753134}, {"type": "node", "id": 10275481433, "lat": 52.5252092, "lon": 13.4753105}, {"type": "node", "id": 10275481434, "lat": 52.5252458, "lon": 13.4752757}, {"type": "node", "id": 10275481435, "lat": 52.525205, "lon": 13.4750205}, {"type": "node", "id": 10275481436, "lat": 52.525205, "lon": 13.4751341}, {"type": "node", "id": 10275481437, "lat": 52.524567, "lon": 13.474441}, {"type": "node", "id": 10275481438, "lat": 52.5245597, "lon": 13.474441}, {"type": "node", "id": 10275481439, "lat": 52.5245597, "lon": 13.4743732}, {"type": "node", "id": 10275481440, "lat": 52.5245664, "lon": 13.4743732}, {"type": "node", "id": 10275481441, "lat": 52.5244326, "lon": 13.4732204}, {"type": "node", "id": 10275481442, "lat": 52.5244695, "lon": 13.4732984}, {"type": "node", "id": 10275481443, "lat": 52.5244708, "lon": 13.47292}, {"type": "node", "id": 10275481444, "lat": 52.5255527, "lon": 13.4732438}, {"type": "node", "id": 10275524966, "lat": 52.5260121, "lon": 13.4775907}, {"type": "node", "id": 10275524967, "lat": 52.5259532, "lon": 13.4775954}, {"type": "node", "id": 10275524968, "lat": 52.525952, "lon": 13.4775446}, {"type": "node", "id": 10275524969, "lat": 52.5252713, "lon": 13.4775533}, {"type": "node", "id": 10275524970, "lat": 52.5252713, "lon": 13.4775449}, {"type": "node", "id": 10275524971, "lat": 52.5246744, "lon": 13.4775451}, {"type": "node", "id": 10275524972, "lat": 52.52467, "lon": 13.4773282}, {"type": "node", "id": 10275524973, "lat": 52.5245148, "lon": 13.4773241}, {"type": "node", "id": 10275524974, "lat": 52.5244863, "lon": 13.4772925}, {"type": "node", "id": 10275524975, "lat": 52.5243621, "lon": 13.4772958}, {"type": "node", "id": 10275524976, "lat": 52.5243266, "lon": 13.4773354}, {"type": "node", "id": 10275524977, "lat": 52.5243266, "lon": 13.4772618}, {"type": "node", "id": 10275524978, "lat": 52.5243444, "lon": 13.4772529}, {"type": "node", "id": 10275524979, "lat": 52.5245129, "lon": 13.4772561}, {"type": "node", "id": 10275524980, "lat": 52.5245409, "lon": 13.4772391}, {"type": "node", "id": 10275524981, "lat": 52.5245695, "lon": 13.4772035}, {"type": "node", "id": 10275524982, "lat": 52.5245848, "lon": 13.4771614}, {"type": "node", "id": 10275524983, "lat": 52.5246326, "lon": 13.4771581}, {"type": "node", "id": 10275524984, "lat": 52.5246347, "lon": 13.4767349}, {"type": "node", "id": 10275524985, "lat": 52.5251142, "lon": 13.4767397}, {"type": "node", "id": 10275524986, "lat": 52.5258019, "lon": 13.4774967}, {"type": "node", "id": 10275524987, "lat": 52.5259953, "lon": 13.4775193}, {"type": "node", "id": 10275524988, "lat": 52.5260056, "lon": 13.4775306}, {"type": "node", "id": 10275524989, "lat": 52.526013, "lon": 13.4775494}, {"type": "node", "id": 10564702392, "lat": 52.5269118, "lon": 13.4605115}, {"type": "node", "id": 10564702393, "lat": 52.5269113, "lon": 13.4604933}, {"type": "node", "id": 10564702394, "lat": 52.5269074, "lon": 13.4604763}, {"type": "node", "id": 10564702395, "lat": 52.5269004, "lon": 13.4604621}, {"type": "node", "id": 10564702396, "lat": 52.5268911, "lon": 13.4604522}, {"type": "node", "id": 10564702397, "lat": 52.5268418, "lon": 13.4604996}, {"type": "node", "id": 10564702398, "lat": 52.5268428, "lon": 13.4605195}, {"type": "node", "id": 10564702399, "lat": 52.5268478, "lon": 13.4605376}, {"type": "node", "id": 10564702400, "lat": 52.5268563, "lon": 13.4605519}, {"type": "node", "id": 10564702401, "lat": 52.5268672, "lon": 13.4605606}, {"type": "node", "id": 10564702402, "lat": 52.5268805, "lon": 13.4604475}, {"type": "node", "id": 10564702403, "lat": 52.5268694, "lon": 13.4604485}, {"type": "node", "id": 10564702404, "lat": 52.5268591, "lon": 13.4604551}, {"type": "node", "id": 10564702405, "lat": 52.5268505, "lon": 13.4604666}, {"type": "node", "id": 10564702406, "lat": 52.5268446, "lon": 13.460482}, {"type": "node", "id": 10564702407, "lat": 52.5268793, "lon": 13.4605626}, {"type": "node", "id": 10564702408, "lat": 52.5268911, "lon": 13.4605578}, {"type": "node", "id": 10564739009, "lat": 52.5269012, "lon": 13.4605467}, {"type": "node", "id": 10564739010, "lat": 52.5269083, "lon": 13.4605306}, {"type": "node", "id": 10564942664, "lat": 52.5293975, "lon": 13.4637112}, {"type": "node", "id": 10564942665, "lat": 52.5294368, "lon": 13.4637143}, {"type": "node", "id": 10564942666, "lat": 52.5294799, "lon": 13.463712}, {"type": "node", "id": 10564942667, "lat": 52.5295301, "lon": 13.463695}, {"type": "node", "id": 10564942668, "lat": 52.529598, "lon": 13.4636573}, {"type": "node", "id": 10564942669, "lat": 52.5296613, "lon": 13.4636203}, {"type": "node", "id": 10564942670, "lat": 52.5297297, "lon": 13.4640016}, {"type": "node", "id": 10564942671, "lat": 52.529732, "lon": 13.4640247}, {"type": "node", "id": 10564942672, "lat": 52.5297339, "lon": 13.4640655}, {"type": "node", "id": 10564942673, "lat": 52.5297241, "lon": 13.4644075}, {"type": "node", "id": 10564942674, "lat": 52.529717, "lon": 13.46451}, {"type": "node", "id": 10564942675, "lat": 52.5297077, "lon": 13.4646217}, {"type": "node", "id": 10564942676, "lat": 52.529695, "lon": 13.4647372}, {"type": "node", "id": 10564942677, "lat": 52.5296627, "lon": 13.4649644}, {"type": "node", "id": 10564942678, "lat": 52.5297653, "lon": 13.4650384}, {"type": "node", "id": 10564942679, "lat": 52.5297452, "lon": 13.4650407}, {"type": "node", "id": 10564942680, "lat": 52.5297325, "lon": 13.4650561}, {"type": "node", "id": 10564942681, "lat": 52.529725, "lon": 13.4650807}, {"type": "node", "id": 10564942682, "lat": 52.5296458, "lon": 13.4654297}, {"type": "node", "id": 10564942683, "lat": 52.5296186, "lon": 13.4654112}, {"type": "node", "id": 10564942684, "lat": 52.529218, "lon": 13.46564}, {"type": "node", "id": 10564942685, "lat": 52.5292157, "lon": 13.4658302}, {"type": "node", "id": 10564942686, "lat": 52.5292194, "lon": 13.4658626}, {"type": "node", "id": 10564942687, "lat": 52.5293375, "lon": 13.4664333}, {"type": "node", "id": 10564942688, "lat": 52.5293131, "lon": 13.4664495}, {"type": "node", "id": 10564942689, "lat": 52.5291969, "lon": 13.4658926}, {"type": "node", "id": 10564942690, "lat": 52.5291716, "lon": 13.465603}, {"type": "node", "id": 10564942691, "lat": 52.5291978, "lon": 13.4654736}, {"type": "node", "id": 10564942692, "lat": 52.5292147, "lon": 13.4653604}, {"type": "node", "id": 10564942693, "lat": 52.529256, "lon": 13.4650761}, {"type": "node", "id": 10564942694, "lat": 52.5292906, "lon": 13.4648412}, {"type": "node", "id": 10564942695, "lat": 52.529338, "lon": 13.4644021}, {"type": "node", "id": 10564942696, "lat": 52.5293839, "lon": 13.463893}, {"type": "node", "id": 10564961677, "lat": 52.5291127, "lon": 13.4680087}, {"type": "node", "id": 10564961678, "lat": 52.5291053, "lon": 13.4680248}, {"type": "node", "id": 10564961679, "lat": 52.5290923, "lon": 13.4680355}, {"type": "node", "id": 10564961680, "lat": 52.5290768, "lon": 13.4680355}, {"type": "node", "id": 10564961681, "lat": 52.5284828, "lon": 13.4677686}, {"type": "node", "id": 10564961682, "lat": 52.5284649, "lon": 13.4678639}, {"type": "node", "id": 10564961683, "lat": 52.5284306, "lon": 13.4678464}, {"type": "node", "id": 10564961684, "lat": 52.528557, "lon": 13.467071}, {"type": "node", "id": 10564961685, "lat": 52.5285737, "lon": 13.4670745}, {"type": "node", "id": 10564961686, "lat": 52.5286012, "lon": 13.4670993}, {"type": "node", "id": 10564961687, "lat": 52.5286797, "lon": 13.4671798}, {"type": "node", "id": 10564961688, "lat": 52.528782, "lon": 13.4672993}, {"type": "node", "id": 10564961689, "lat": 52.5288859, "lon": 13.467447}, {"type": "node", "id": 10564961690, "lat": 52.5289758, "lon": 13.4676134}, {"type": "node", "id": 10564961691, "lat": 52.5290259, "lon": 13.4677355}, {"type": "node", "id": 10564961692, "lat": 52.5290781, "lon": 13.4678912}, {"type": "node", "id": 10564961702, "lat": 52.5296718, "lon": 13.4669692}, {"type": "node", "id": 10564961703, "lat": 52.5296615, "lon": 13.4669217}, {"type": "node", "id": 10564961704, "lat": 52.5296819, "lon": 13.4669103}, {"type": "node", "id": 10564961705, "lat": 52.5296929, "lon": 13.466957}, {"type": "node", "id": 10564961722, "lat": 52.5310123, "lon": 13.4707345}, {"type": "node", "id": 10564961723, "lat": 52.5310378, "lon": 13.4707179}, {"type": "node", "id": 10564961724, "lat": 52.5310591, "lon": 13.4707634}, {"type": "node", "id": 10564961725, "lat": 52.5310554, "lon": 13.4707791}, {"type": "node", "id": 10564961726, "lat": 52.5310283, "lon": 13.4707975}, {"type": "node", "id": 10564961727, "lat": 52.5310134, "lon": 13.4707852}, {"type": "node", "id": 10565758852, "lat": 52.5334457, "lon": 13.4725006}, {"type": "node", "id": 10565758853, "lat": 52.5331566, "lon": 13.4726715}, {"type": "node", "id": 10565758854, "lat": 52.5332667, "lon": 13.4731626}, {"type": "node", "id": 10565758855, "lat": 52.5335533, "lon": 13.4729996}, {"type": "node", "id": 10565758871, "lat": 52.5343187, "lon": 13.4736978}, {"type": "node", "id": 10565758873, "lat": 52.5340574, "lon": 13.4728454}, {"type": "node", "id": 10579931141, "lat": 52.5312929, "lon": 13.4762877}, {"type": "node", "id": 10579931144, "lat": 52.532756, "lon": 13.4758688}, {"type": "node", "id": 10580852091, "lat": 52.5284859, "lon": 13.4768376}, {"type": "node", "id": 10580852143, "lat": 52.5286328, "lon": 13.4700933}, {"type": "node", "id": 10580852147, "lat": 52.5299773, "lon": 13.4721381}, {"type": "node", "id": 10580852176, "lat": 52.5281354, "lon": 13.4697288}, {"type": "node", "id": 10580852177, "lat": 52.5281262, "lon": 13.4697252}, {"type": "node", "id": 10580852178, "lat": 52.5283529, "lon": 13.4701209}, {"type": "node", "id": 10580852179, "lat": 52.5283761, "lon": 13.4701601}, {"type": "node", "id": 10580852180, "lat": 52.5284546, "lon": 13.4701641}, {"type": "node", "id": 10580852181, "lat": 52.528458, "lon": 13.4701708}, {"type": "node", "id": 10580852192, "lat": 52.5292657, "lon": 13.4727889}, {"type": "node", "id": 10580852231, "lat": 52.5302402, "lon": 13.4715796}, {"type": "node", "id": 10580852232, "lat": 52.53019, "lon": 13.4713573}, {"type": "node", "id": 10581698730, "lat": 52.5342855, "lon": 13.4735481}, {"type": "node", "id": 10581698731, "lat": 52.5342075, "lon": 13.4733463}, {"type": "node", "id": 10581698735, "lat": 52.5342375, "lon": 13.4733315}, {"type": "node", "id": 10581698736, "lat": 52.5341745, "lon": 13.4733626}, {"type": "node", "id": 10581698739, "lat": 52.5343738, "lon": 13.473307}, {"type": "node", "id": 10581698740, "lat": 52.5343934, "lon": 13.4734131}, {"type": "node", "id": 10591635507, "lat": 52.5350511, "lon": 13.4727591}, {"type": "node", "id": 10591635508, "lat": 52.5350228, "lon": 13.4727422}, {"type": "node", "id": 10591635509, "lat": 52.5350093, "lon": 13.4728033}, {"type": "node", "id": 10591635510, "lat": 52.5350376, "lon": 13.4728202}, {"type": "node", "id": 10591635521, "lat": 52.5345246, "lon": 13.4706853}, {"type": "node", "id": 10591635522, "lat": 52.5344939, "lon": 13.4707117}, {"type": "node", "id": 10591635523, "lat": 52.5345175, "lon": 13.4707856}, {"type": "node", "id": 10591635524, "lat": 52.5345481, "lon": 13.4707592}, {"type": "node", "id": 10699447616, "lat": 52.5262938, "lon": 13.4748864}, {"type": "node", "id": 10699447617, "lat": 52.5262777, "lon": 13.4748294}, {"type": "node", "id": 10699447618, "lat": 52.5262561, "lon": 13.4747281}, {"type": "node", "id": 10748272047, "lat": 52.5302993, "lon": 13.4793296}, {"type": "node", "id": 10748272048, "lat": 52.5303092, "lon": 13.4793645}, {"type": "node", "id": 10748272049, "lat": 52.5303077, "lon": 13.4794064}, {"type": "node", "id": 10748272050, "lat": 52.5302967, "lon": 13.4794354}, {"type": "node", "id": 10748272051, "lat": 52.5302761, "lon": 13.4794548}, {"type": "node", "id": 10748272052, "lat": 52.5302467, "lon": 13.4794635}, {"type": "node", "id": 10748272053, "lat": 52.5302111, "lon": 13.4794626}, {"type": "node", "id": 10748272054, "lat": 52.5301807, "lon": 13.4794438}, {"type": "node", "id": 10748272055, "lat": 52.5301589, "lon": 13.4794181}, {"type": "node", "id": 10748272056, "lat": 52.5301456, "lon": 13.4793823}, {"type": "node", "id": 10748272057, "lat": 52.5301391, "lon": 13.4793462}, {"type": "node", "id": 10748272058, "lat": 52.5301394, "lon": 13.4793165}, {"type": "node", "id": 10748272059, "lat": 52.5301465, "lon": 13.479292}, {"type": "node", "id": 10748272060, "lat": 52.5301637, "lon": 13.4792705}, {"type": "node", "id": 10748272061, "lat": 52.530183, "lon": 13.4792577}, {"type": "node", "id": 10748272062, "lat": 52.5302111, "lon": 13.4792568}, {"type": "node", "id": 10748272063, "lat": 52.5302374, "lon": 13.4792636}, {"type": "node", "id": 10748272064, "lat": 52.5302625, "lon": 13.4792814}, {"type": "node", "id": 10748272065, "lat": 52.5302842, "lon": 13.4793043}, {"type": "node", "id": 10826958898, "lat": 52.5272583, "lon": 13.4686398}, {"type": "node", "id": 10826958899, "lat": 52.5275297, "lon": 13.4687653}, {"type": "node", "id": 10826958900, "lat": 52.5275267, "lon": 13.4687842}, {"type": "node", "id": 10826958901, "lat": 52.5272541, "lon": 13.4686571}, {"type": "node", "id": 10827046781, "lat": 52.5308007, "lon": 13.4687078}, {"type": "node", "id": 10827046782, "lat": 52.5308003, "lon": 13.4687026}, {"type": "node", "id": 10891963354, "lat": 52.5278114, "lon": 13.4762085}, {"type": "node", "id": 10891963356, "lat": 52.5270846, "lon": 13.4759345}, {"type": "node", "id": 10891963359, "lat": 52.5271673, "lon": 13.475461}, {"type": "node", "id": 10891963362, "lat": 52.5281656, "lon": 13.4765933}, {"type": "node", "id": 11145465919, "lat": 52.5242451, "lon": 13.4679231}, {"type": "node", "id": 11145465920, "lat": 52.5241784, "lon": 13.467894}, {"type": "node", "id": 11145465921, "lat": 52.524229, "lon": 13.4675818}, {"type": "node", "id": 11145465922, "lat": 52.5242957, "lon": 13.4676111}, {"type": "node", "id": 11181838948, "lat": 52.5328786, "lon": 13.4682647}, {"type": "node", "id": 11181838949, "lat": 52.5329096, "lon": 13.468412}, {"type": "node", "id": 11181838950, "lat": 52.5330166, "lon": 13.4681866}, {"type": "node", "id": 11204123734, "lat": 52.5252765, "lon": 13.465384, "tags": {"amenity": "fast_food", "check_date": "2024-08-16", "check_date:opening_hours": "2023-09-22", "level": "0", "name": "Kebab Bro's", "name:de": "Kebab Bro's", "opening_hours:signed": "no"}}, {"type": "node", "id": 11313833410, "lat": 52.5278239, "lon": 13.467508}, {"type": "node", "id": 11313833413, "lat": 52.5278072, "lon": 13.4676097}, {"type": "node", "id": 11339197352, "lat": 52.5273708, "lon": 13.4722383, "tags": {"addr:city": "Berlin", "addr:country": "DE", "addr:housenumber": "31", "addr:postcode": "10369", "addr:street": "Rudolf-Seiffert-Stra\u00dfe", "addr:suburb": "Fennpfuhl", "amenity": "fast_food", "check_date:opening_hours": "2024-03-16", "cuisine": "kebab", "name": "Anton D\u00f6ner", "opening_hours:signed": "no", "website": "https://anton-doener.metro.bar"}}, {"type": "node", "id": 11339197353, "lat": 52.5263028, "lon": 13.4757105}, {"type": "node", "id": 11339197354, "lat": 52.5263811, "lon": 13.4757681}, {"type": "node", "id": 11339197355, "lat": 52.5264154, "lon": 13.4758472}, {"type": "node", "id": 11377237179, "lat": 52.5256404, "lon": 13.4840045}, {"type": "node", "id": 11377237180, "lat": 52.5258393, "lon": 13.483854}, {"type": "node", "id": 11377237181, "lat": 52.5259817, "lon": 13.4836351}, {"type": "node", "id": 11422395869, "lat": 52.5239738, "lon": 13.4800041, "tags": {"addr:housenumber": "45", "addr:postcode": "10367", "addr:street": "M\u00f6llendorffstra\u00dfe", "amenity": "doctors", "email": "anmeldung@hausarztpraxis-lichtenberg.de", "healthcare": "doctor", "healthcare:speciality": "general", "name": "Hausarztpraxis Lichtenberg Boehmer/Steinbeis/Dicke/Frize", "opening_hours": "Mo-Tu, Th 09:00-12:00, 14:30-18:00; We, Fr 09:00-12:00", "phone": "+493057797490", "website": "https://www.hausarztpraxis-lichtenberg.de/"}}, {"type": "node", "id": 11521734194, "lat": 52.5250926, "lon": 13.4668055, "tags": {"name": "Hamdan", "shop": "supermarket"}}, {"type": "node", "id": 11530411411, "lat": 52.5232542, "lon": 13.4704041}, {"type": "node", "id": 11598530649, "lat": 52.5324512, "lon": 13.4694831, "tags": {"addr:city": "Berlin", "addr:country": "DE", "addr:housenumber": "171c", "addr:postcode": "10369", "addr:street": "Landsberger Allee", "amenity": "restaurant", "contact:instagram": "tucano_restaurant", "cuisine": "brazilian", "name": "TUCANO", "opening_hours": "Tu-Sa 13:00-23:00; Su 13:00-19:00", "website": "https://tucano-restaurant.de/"}}, {"type": "node", "id": 12030273603, "lat": 52.5310046, "lon": 13.4842228}, {"type": "node", "id": 12030273604, "lat": 52.5309578, "lon": 13.4842632}, {"type": "node", "id": 12030273605, "lat": 52.5309647, "lon": 13.4843073}, {"type": "node", "id": 12030273606, "lat": 52.5310177, "lon": 13.4843162}, {"type": "node", "id": 12030273611, "lat": 52.528319, "lon": 13.4838174}, {"type": "node", "id": 12030273612, "lat": 52.5282751, "lon": 13.4838238}, {"type": "node", "id": 12030273613, "lat": 52.5282061, "lon": 13.48388}, {"type": "node", "id": 12030273614, "lat": 52.5282913, "lon": 13.4840666}, {"type": "node", "id": 12030273615, "lat": 52.5283267, "lon": 13.4840952}, {"type": "node", "id": 12030273616, "lat": 52.5283538, "lon": 13.4840963}, {"type": "node", "id": 12030273617, "lat": 52.5283758, "lon": 13.4840868}, {"type": "node", "id": 12030273618, "lat": 52.5283951, "lon": 13.4840645}, {"type": "node", "id": 12030273619, "lat": 52.5284035, "lon": 13.4840295}, {"type": "node", "id": 12030273620, "lat": 52.5284054, "lon": 13.4839935}, {"type": "node", "id": 12030273621, "lat": 52.5283971, "lon": 13.483915}, {"type": "node", "id": 12030273622, "lat": 52.5283532, "lon": 13.4839033}, {"type": "node", "id": 12030273623, "lat": 52.5283338, "lon": 13.4838418}, {"type": "node", "id": 12030273627, "lat": 52.5274175, "lon": 13.4838534}, {"type": "node", "id": 12030273628, "lat": 52.5274317, "lon": 13.4838258}, {"type": "node", "id": 12030273629, "lat": 52.5274349, "lon": 13.4837951}, {"type": "node", "id": 12030273630, "lat": 52.5274239, "lon": 13.483775}, {"type": "node", "id": 12030273631, "lat": 52.5273994, "lon": 13.4837739}, {"type": "node", "id": 12030273632, "lat": 52.5273665, "lon": 13.4837919}, {"type": "node", "id": 12030273633, "lat": 52.5273485, "lon": 13.4838152}, {"type": "node", "id": 12030273634, "lat": 52.5273381, "lon": 13.4838513}, {"type": "node", "id": 12030273635, "lat": 52.5274065, "lon": 13.4838608}, {"type": "node", "id": 12032298648, "lat": 52.526589, "lon": 13.4706562}, {"type": "node", "id": 12032298649, "lat": 52.5264553, "lon": 13.4706009}, {"type": "node", "id": 12032298650, "lat": 52.5264411, "lon": 13.4706763}, {"type": "node", "id": 12032298651, "lat": 52.5265176, "lon": 13.470839}, {"type": "node", "id": 12032298652, "lat": 52.5265553, "lon": 13.470839}, {"type": "node", "id": 12032298658, "lat": 52.526086, "lon": 13.4702161}, {"type": "node", "id": 12032298659, "lat": 52.5260088, "lon": 13.4701513}, {"type": "node", "id": 12032298660, "lat": 52.5260002, "lon": 13.4701964}, {"type": "node", "id": 12032298661, "lat": 52.5259994, "lon": 13.4702316}, {"type": "node", "id": 12032298662, "lat": 52.5260071, "lon": 13.4702683}, {"type": "node", "id": 12032298663, "lat": 52.5260182, "lon": 13.4703064}, {"type": "node", "id": 12032298664, "lat": 52.5260363, "lon": 13.4703303}, {"type": "node", "id": 12032617025, "lat": 52.5247266, "lon": 13.4698532}, {"type": "node", "id": 12032617026, "lat": 52.5246168, "lon": 13.4698053}, {"type": "node", "id": 12032617027, "lat": 52.524598, "lon": 13.4699322}, {"type": "node", "id": 12032617028, "lat": 52.5247043, "lon": 13.4699773}, {"type": "node", "id": 12032617031, "lat": 52.5252464, "lon": 13.4690484}, {"type": "node", "id": 12032617032, "lat": 52.5251251, "lon": 13.4689931}, {"type": "node", "id": 12032617033, "lat": 52.5251771, "lon": 13.4686779}, {"type": "node", "id": 12032617034, "lat": 52.5253005, "lon": 13.4687366}, {"type": "node", "id": 12058902243, "lat": 52.5268179, "lon": 13.4610194}, {"type": "node", "id": 12058902244, "lat": 52.5267573, "lon": 13.4610183}, {"type": "node", "id": 12058902245, "lat": 52.526696, "lon": 13.4610799}, {"type": "node", "id": 12058902246, "lat": 52.5267984, "lon": 13.4611273}, {"type": "node", "id": 12058902247, "lat": 52.5273711, "lon": 13.4595621}, {"type": "node", "id": 12058902248, "lat": 52.5273249, "lon": 13.4595372}, {"type": "node", "id": 12058902249, "lat": 52.5272723, "lon": 13.4596877}, {"type": "node", "id": 12058902250, "lat": 52.5273026, "lon": 13.4597008}, {"type": "node", "id": 12058902251, "lat": 52.527353, "lon": 13.4596569}, {"type": "node", "id": 12058902252, "lat": 52.5278153, "lon": 13.4596759}, {"type": "node", "id": 12058902253, "lat": 52.5277547, "lon": 13.459651}, {"type": "node", "id": 12058902254, "lat": 52.527736, "lon": 13.4597541}, {"type": "node", "id": 12058902255, "lat": 52.5277583, "lon": 13.4597612}, {"type": "node", "id": 12058902256, "lat": 52.5277792, "lon": 13.4597541}, {"type": "node", "id": 12058902257, "lat": 52.5277966, "lon": 13.4597328}, {"type": "node", "id": 12058902258, "lat": 52.5278081, "lon": 13.4597043}, {"type": "node", "id": 12058902260, "lat": 52.5270609, "lon": 13.4634731}, {"type": "node", "id": 12058902261, "lat": 52.5269416, "lon": 13.4634145}, {"type": "node", "id": 12058902262, "lat": 52.5269609, "lon": 13.4633022}, {"type": "node", "id": 12058902263, "lat": 52.5268793, "lon": 13.4632653}, {"type": "node", "id": 12058902264, "lat": 52.5269783, "lon": 13.4627288}, {"type": "node", "id": 12058902265, "lat": 52.5271772, "lon": 13.4628311}, {"type": "node", "id": 12086508019, "lat": 52.5295036, "lon": 13.4656163}, {"type": "node", "id": 12086508020, "lat": 52.5294163, "lon": 13.4656673}, {"type": "node", "id": 12086508021, "lat": 52.5294335, "lon": 13.4657035}, {"type": "node", "id": 12086508022, "lat": 52.5294702, "lon": 13.4657437}, {"type": "node", "id": 12086508023, "lat": 52.5295077, "lon": 13.4657746}, {"type": "node", "id": 12086508024, "lat": 52.5295371, "lon": 13.4657799}, {"type": "node", "id": 12116858426, "lat": 52.5292021, "lon": 13.4725826}, {"type": "node", "id": 12116858427, "lat": 52.5291832, "lon": 13.4725629}, {"type": "node", "id": 12116861272, "lat": 52.529669, "lon": 13.4778386}, {"type": "node", "id": 12116861273, "lat": 52.5292133, "lon": 13.4781052}, {"type": "node", "id": 12116861274, "lat": 52.5292017, "lon": 13.4779462}, {"type": "node", "id": 12116862748, "lat": 52.5307604, "lon": 13.4772182}, {"type": "node", "id": 12116862749, "lat": 52.5306409, "lon": 13.4772856}, {"type": "node", "id": 12116862753, "lat": 52.5308902, "lon": 13.4769528}, {"type": "node", "id": 12116952800, "lat": 52.5327292, "lon": 13.479579}, {"type": "node", "id": 12132449135, "lat": 52.5292079, "lon": 13.4769144, "tags": {"access": "yes", "leisure": "playground", "name": "Spielplatz Fennpfuhlpark am Gemeindezentrum", "wheelchair": "yes"}}, {"type": "node", "id": 12521378302, "lat": 52.528116, "lon": 13.467686, "tags": {"addr:postcode": "10369", "email": "termine@physiobalanceberlin.de", "healthcare": "physiotherapist", "name": "Physiotherapie physio balance Berlin", "opening_hours": "Mo-Th 07:00-20:00, Fr 07:00-17:00", "phone": "03097606662", "website": "https://www.physiobalance.berlin/"}}, {"type": "node", "id": 12673090869, "lat": 52.5290973, "lon": 13.4721631}, {"type": "node", "id": 12673090871, "lat": 52.5299624, "lon": 13.4720966}, {"type": "node", "id": 12673090872, "lat": 52.5298858, "lon": 13.4717595}, {"type": "node", "id": 12871304790, "lat": 52.5305621, "lon": 13.4709229, "tags": {"addr:housenumber": "14", "contact:email": "lichtenberg@physiosquad.de", "description": "5. Obergeshoss", "healthcare": "physiotherapist", "name": "physio squad Lichtenberg", "opening_hours": "Mo-Fr 08:00-20:00", "phone": "+493098316900", "website": "https://physiosquad.de/"}}, {"type": "way", "id": 4687127, "nodes": [4296439804, 4296439803, 4296439801, 4296439802, 4296439804], "tags": {"access": "yes", "leisure": "playground"}}, {"type": "way", "id": 26629255, "nodes": [292082916, 1829909899, 1829909893, 1829909890, 292082918, 1829909887, 1829909882, 1829909859, 292082919, 1829909836, 1829909838, 1829909844, 1829909855, 292082917, 1829909891, 292082916], "tags": {"addr:city": "Berlin", "addr:country": "DE", "addr:housenumber": "79", "addr:postcode": "10369", "addr:street": "Karl-Lade-Stra\u00dfe", "addr:suburb": "Fennpfuhl", "amenity": "restaurant", "building": "apartments", "building:levels": "3", "check_date:opening_hours": "2024-03-05", "name": "Villa Loo\u00df am Fennpfuhl", "opening_hours": "Th 13:00-19:00", "roof:levels": "1", "roof:shape": "many"}}, {"type": "way", "id": 27357396, "nodes": [300344038, 300344041, 300344048, 300344054, 300344062, 300344038], "tags": {"access": "yes", "leisure": "playground", "wheelchair": "no"}}, {"type": "way", "id": 29431382, "nodes": [324368704, 2702494698, 324368705, 324368706, 7090551421, 324368707, 324368704], "tags": {"addr:city": "Berlin", "addr:country": "DE", "addr:housenumber": "116", "addr:postcode": "10369", "addr:street": "Landsberger Allee", "addr:suburb": "Fennpfuhl", "building": "retail", "building:levels": "1", "check_date:opening_hours": "2025-06-09", "contact:phone": "+49 30 97898323", "contact:website": "https://www.intermarktstolitschniy.de/", "name": "Intermarkt Stolitschniy", "name:ru": "\u0421\u0442\u043e\u043b\u0438\u0447\u043d\u044b\u0439", "opening_hours": "Mo-Sa 08:00-21:00", "operator": "Intermarkt Stolitschniy GmbH", "roof:shape": "flat", "shop": "supermarket", "wheelchair": "yes"}}, {"type": "way", "id": 32208296, "nodes": [361187341, 361187342, 361187343, 4291319614, 4291319611, 4291319612, 10580852147, 12673090871, 4291319609, 12673090872, 361187344, 10580852232, 10580852231, 4291319619, 2936271528, 4291319620, 4291319621, 4291319622, 361187345, 2591666805, 361187341], "tags": {"access": "yes", "leisure": "playground", "protection_title": "Gesch\u00fctzte Gr\u00fcnanlage"}}, {"type": "way", "id": 38320233, "nodes": [452438623, 6534075150, 6534075153, 6534075152, 6534075151, 6534075163, 6534075162, 452438622, 6534075161, 6534075160, 6534075154, 6534075159, 452438625, 452438626, 6534075158, 11313833413, 11313833410, 6534075157, 6534075156, 452438623], "tags": {"addr:city": "Berlin", "addr:country": "DE", "addr:housenumber": "10", "addr:postcode": "10369", "addr:street": "Franz-Jacob-Stra\u00dfe", "addr:suburb": "Fennpfuhl", "amenity": "clinic", "building": "yes", "building:levels": "4", "contact:phone": "+49 30 86204689", "contact:website": "https://policum.berlin/medizinische-einrichtungen/policum-berlin-fennpfuhl", "healthcare": "clinic", "name": "Polikum", "opening_hours": "Mo-Fr 07:00-20:00", "toilets:wheelchair": "yes", "wheelchair": "yes"}}, {"type": "way", "id": 38320240, "nodes": [452438672, 2542475909, 2542475911, 2542475912, 2542475908, 452438674, 452438676, 10826958898, 10826958901, 10826958900, 10826958899, 452438678, 452438672], "tags": {"addr:city": "Berlin", "addr:country": "DE", "addr:housenumber": "11", "addr:postcode": "10369", "addr:street": "Rudolf-Seiffert-Stra\u00dfe", "addr:suburb": "Fennpfuhl", "amenity": "clinic", "building": "yes", "check_date:opening_hours": "2024-10-16", "healthcare": "clinic", "name": "\u00c4rztehaus", "opening_hours:signed": "no", "wheelchair": "limited"}}, {"type": "way", "id": 47127804, "nodes": [600889196, 2936330367, 2936330368, 2936330686, 2936330687, 600889201, 10827046782, 10827046781, 600889200, 600889192, 600889196], "tags": {"addr:city": "Berlin", "addr:country": "DE", "addr:housenumber": "174", "addr:inclusion": "actual", "addr:postcode": "10369", "addr:street": "Landsberger Allee", "addr:suburb": "Fennpfuhl", "brand": "Netto Marken-Discount", "brand:wikidata": "Q879858", "brand:wikipedia": "de:Netto Marken-Discount", "building": "retail", "building:levels": "1", "check_date:opening_hours": "2025-06-09", "name": "Netto Marken-Discount", "opening_hours": "Mo-Sa 07:00-22:00", "roof:shape": "flat", "shop": "supermarket", "source": "Geoportal Berlin / Hauskoordinaten", "website": "https://www.netto-online.de/filialen/Berlin-Lichtenberg/Landsberger-Allee-174/5040/", "wheelchair": "yes"}}, {"type": "way", "id": 75801792, "nodes": [3885077656, 3885077658, 4296421887, 4296423390, 4296423458, 4296423466, 4296423486, 4296423491, 4296423470, 4296423436, 3885077663, 3885077662, 3885077661, 3885077660, 3885077659, 3885077657, 3885077656], "tags": {"leisure": "park", "protection_title": "Gesch\u00fctzte Gr\u00fcnanlage"}}, {"type": "way", "id": 84404796, "nodes": [981170265, 5647908296, 981170280, 5226618205, 5226618204, 5226618206, 981170276, 5647908298, 5647908297, 981170286, 5647908299, 5218359172, 5218358431, 981170265], "tags": {"addr:city": "Berlin", "addr:country": "DE", "addr:housenumber": "5", "addr:postcode": "10367", "addr:street": "Bernhard-B\u00e4stlein-Stra\u00dfe", "addr:suburb": "Fennpfuhl", "alt_name": "NP", "brand": "Edeka", "brand:wikidata": "Q701755", "building": "retail", "building:levels": "1", "check_date:opening_hours": "2024-11-07", "name": "nah und gut", "opening_hours": "Mo-Sa 07:00-21:00", "roof:shape": "gabled", "shop": "supermarket", "wheelchair": "yes"}}, {"type": "way", "id": 109431974, "nodes": [1252662773, 1252662771, 1252662774, 1252662772, 1252662773], "tags": {"access": "yes", "leisure": "playground"}}, {"type": "way", "id": 109768062, "nodes": [1255677006, 9923286564, 9923286559, 1255677007, 1255675770, 9081193822, 9081193821, 9081149116, 2810647448, 9081193817, 9081193818, 9081193819, 9081193820, 1255677006], "tags": {"addr:city": "Berlin", "addr:country": "DE", "addr:housenumber": "176", "addr:postcode": "10369", "addr:street": "Storkower Stra\u00dfe", "addr:suburb": "Fennpfuhl", "brand": "Aldi Nord", "brand:wikidata": "Q41171373", "brand:wikipedia": "en:Aldi", "building": "retail", "building:levels": "1", "name": "Aldi", "opening_hours": "Mo-Sa 07:00-22:00", "operator": "ALDI GmbH & Co. Kommanditgesellschaft, Kastanienstra\u00dfe 2-4, 16356 Werneuchen OT Seefeld", "roof:shape": "flat", "shop": "supermarket", "wheelchair": "yes"}}, {"type": "way", "id": 115704664, "nodes": [1678370546, 1860817585, 9783652989, 9783652988, 9783652987, 4207714316, 9783798507, 4207714317, 9783652980, 9783652981, 9783652982, 9783652983, 3241732324, 3241732339, 281339071, 3241732350, 3241732346, 9783652979, 281339072, 9783652978, 281339074, 9783838743, 281339076, 281339078, 281339080, 5313931649, 1678370391, 4207708158, 9783652977, 9783652975, 9783652976, 1678370415, 9783652974, 281339081, 9783652972, 9783652971, 9783652973, 9783652970, 9783652968, 9783652969, 3394368129, 281339082, 9783652965, 9783652964, 9783652962, 9783652963, 282687675, 9783652960, 9783652958, 4793690287, 281339083, 5204488846, 5204488845, 9783652957, 5204488844, 9783652956, 9783652955, 5204488847, 9783709136, 9783652954, 9783709137, 5204488848, 9783652953, 9783709138, 1860817584, 9783652952, 1795994722, 9783709163, 9783652950, 9783652951, 9783709181, 9783709182, 1860817582, 1860817581, 9783652948, 9783652949, 9783709008, 9783652947, 9783652945, 9783652946, 1426097868, 9783652937, 9783652938, 9783652939, 9783652942, 9783652940, 9783652941, 9783652943, 9783652944, 9783706011, 9783652935, 9783652936, 9783652934, 9783709034, 9783709035, 1860817578, 1860817579, 9783652930, 9783652931, 9783652932, 9783652929, 9783652933, 1860817577, 1860817576, 9783652928, 9783709050, 1860817572, 1860817571, 9783652926, 9783652927, 1860817574, 9783729624, 1860817575, 9783729625, 9783729626, 9783729623, 9783652985, 9783652986, 9783701496, 1678370546], "tags": {"communication:amateur_radio:pota": "DE-0229", "leisure": "park", "name": "Volkspark Prenzlauer Berg", "old_name": "Oderbruchkippe", "opening_hours": "24/7", "protection_title": "Gesch\u00fctzte Gr\u00fcnanlage", "wikidata": "Q877341", "wikimedia_commons": "Category:Volkspark Prenzlauer Berg", "wikipedia": "de:Volkspark Prenzlauer Berg"}}, {"type": "way", "id": 115941400, "nodes": [10274694424, 10274694425, 10274694426, 10274694435, 10274694439, 10274694438, 10274694437, 10274694436, 4297057021, 4297057022, 4297057032, 4297057033, 4297057035, 1308533264, 1308533256, 4297057042, 10274694427, 10274694428, 10274694424], "tags": {"leisure": "park", "protection_title": "Gesch\u00fctzte Gr\u00fcnanlage"}}, {"type": "way", "id": 115941402, "nodes": [1639656712, 8139154272, 11530411411, 1639656725, 4296421855, 4296421854, 3885077644, 4296421863, 4296421865, 4296421866, 1308533276, 5018581175, 5018581174, 1510819293, 5018581176, 1510819295, 4296421882, 4296421886, 1510819297, 1510819296, 4296423492, 4296423488, 4296423489, 5157275150, 4296423500, 5157275163, 5157275164, 5157275165, 5157275246, 5157275247, 5157275188, 5157275189, 4296423499, 5157275190, 5157275191, 5157275192, 5157275193, 5157275194, 5157275195, 5157275196, 5157275197, 5157275198, 5157275199, 5157275200, 5157275166, 5157275167, 5157275168, 5157275169, 5157275170, 4296423431, 4296423426, 4296423417, 4296423411, 4296423409, 4296423405, 4296423402, 4296423400, 4296423423, 4296423415, 4296423410, 4296423414, 4296423422, 4296423439, 4296423448, 4296423452, 4296423459, 4296423463, 4296423469, 4296423468, 4296423475, 4296423478, 4296423495, 4296423494, 4296423496, 4296423480, 4296423477, 4296423453, 4296421877, 4296421876, 10275481444, 1308533227, 4296421869, 10275481443, 10275481442, 10275481441, 1308533246, 4296421857, 1706157219, 257981414, 257981410, 3885077582, 3885077588, 3885075836, 3885075833, 3885075821, 257981423, 1639656712], "tags": {"leisure": "park", "protection_title": "Gesch\u00fctzte Gr\u00fcnanlage"}}, {"type": "way", "id": 135438002, "nodes": [1487547524, 10580852143, 1487547519, 2763619185, 2763619186, 1487547521, 2763478479, 2763619162, 1487547529, 2763619161, 1487547524], "tags": {"addr:city": "Berlin", "addr:country": "DE", "addr:housenumber": "10", "addr:postcode": "10369", "addr:street": "Anton-Saefkow-Platz", "addr:suburb": "Fennpfuhl", "brand": "Rewe", "brand:wikidata": "Q16968817", "brand:wikipedia": "en:REWE", "building": "retail", "building:levels": "1", "check_date:opening_hours": "2025-03-03", "name": "REWE", "opening_hours": "Mo-Sa 07:00-23:00", "roof:shape": "flat", "shop": "supermarket", "toilets:wheelchair": "yes", "wheelchair": "yes"}}, {"type": "way", "id": 158419821, "nodes": [4296423449, 1271841755, 1271841754, 441568699, 4296423451, 4296423447, 4296423438, 4296423433, 4296423441, 4296423446, 4296423449], "tags": {"access": "yes", "leisure": "playground", "name": "Rudolf-Seiffert-Stra\u00dfe Gr\u00fcnzug Spr\u00fchanlage", "playground": "splash_pad", "surface": "paving_stones", "wheelchair": "yes"}}, {"type": "way", "id": 160958205, "nodes": [292092560, 292092563, 300343933, 300343929, 300343925, 300343921, 300343914, 292092560], "tags": {"leisure": "park", "noname": "yes"}}, {"type": "way", "id": 172077477, "nodes": [1830200832, 1830200824, 1830200819, 1830200827, 1830200832], "tags": {"access": "yes", "leisure": "playground", "playground": "swing", "wheelchair": "yes"}}, {"type": "way", "id": 175502881, "nodes": [1860812109, 10223606698, 10223606699, 10223606706, 1860812121, 1860812125, 1860812127, 1795994716, 1860812123, 1795994679, 10223606704, 10223606705, 4530453977, 4530453966, 313717517, 1306459643, 7692766741, 10223606687, 1306459550, 1306459640, 1306459572, 4530453918, 361190375, 1860812109], "tags": {"leisure": "park", "protection_title": "Gesch\u00fctzte Gr\u00fcnanlage"}}, {"type": "way", "id": 252581412, "nodes": [2586318897, 2586318900, 2586318899, 2586318898, 2586318891, 2586318892, 2586318884, 2586318883, 2586320680, 2586320678, 5647928615, 2586320679, 5647928614, 5647928613, 5647928612, 5647928611, 2586320682, 6342582243, 2586320688, 6342582226, 6342582223, 2586320690, 6342582242, 2585285213, 2585285215, 9176889761, 2586318895, 9176889763, 9176889762, 2586318897], "tags": {"leisure": "park"}}, {"type": "way", "id": 252601733, "nodes": [2586508478, 4287460116, 4287470824, 2586508476, 473594672, 473594664, 473594665, 473595524, 473595527, 473595522, 473595523, 2586508449, 2586508443, 2586508437, 2586508445, 6510530017, 6510530007, 6510530006, 6510530018, 6510530011, 449119486, 4287470816, 4287470815, 4287470818, 4287470817, 4287470236, 4287470237, 6510530020, 237737973, 4287470253, 4287470255, 4287470789, 2586508458, 237737975, 4287470819, 237737976, 237737977, 2586508480, 2586508478], "tags": {"leisure": "park", "protection_title": "Gesch\u00fctzte Gr\u00fcnanlage"}}, {"type": "way", "id": 252601899, "nodes": [2586516715, 2586516719, 2586516721, 2586516717, 2586516706, 2586516702, 2586516700, 2586516697, 2586516690, 2586516686, 2586516680, 2586516675, 2586516672, 2586516668, 2586516663, 2586516659, 2586516654, 2586516650, 2586516649, 2586516645, 2586516647, 2586516652, 2586516656, 2586516657, 2586516661, 2586516665, 2586516666, 2586516670, 2586516673, 2586516677, 2586516679, 2586516682, 2586516685, 2586516688, 2586516692, 2586516693, 2586516695, 2586516699, 2586516704, 2586516712, 2586516714, 2586516715], "tags": {"access": "yes", "leisure": "playground", "name": "Spielplatz Elli"}}, {"type": "way", "id": 271412602, "nodes": [2763619174, 1984331507, 1984331508, 4291513251, 4291513248, 4291513246, 4291513244, 4291513230, 4291513229, 2763619174], "tags": {"leisure": "park", "protection_title": "Gesch\u00fctzte Gr\u00fcnanlage"}}, {"type": "way", "id": 271412608, "nodes": [2763619190, 2763619191, 4291513233, 2763619193, 4291513234, 2763619190], "tags": {"access": "yes", "leisure": "playground", "wheelchair": "yes"}}, {"type": "way", "id": 271412609, "nodes": [2763619194, 2763619195, 10580852177, 10580852176, 2763619196, 2763619197, 2763619187, 10580852181, 10580852180, 2763619179, 10580852179, 10580852178, 2763619194], "tags": {"leisure": "park"}}, {"type": "way", "id": 271744532, "nodes": [2766896579, 2766896580, 4291513249, 4081750174, 2763619184, 2763619182, 4291513238, 2766896581, 4291513240, 2766896582, 2766896579], "tags": {"access": "yes", "leisure": "playground", "natural": "sand", "playground": "sandpit", "wheelchair": "yes"}}, {"type": "way", "id": 285188123, "nodes": [2888649940, 5157313852, 2888649941, 4286822083, 4286822085, 4286822084, 4286822082, 2888649942, 2888649939, 2888649940], "tags": {"addr:city": "Berlin", "addr:country": "DE", "addr:housenumber": "1", "addr:postcode": "10367", "addr:street": "Bernhard-B\u00e4stlein-Stra\u00dfe", "addr:suburb": "Fennpfuhl", "brand": "Rewe", "brand:wikidata": "Q16968817", "brand:wikipedia": "de:Rewe", "building": "retail", "building:levels": "1", "check_date:opening_hours": "2025-04-07", "name": "REWE", "opening_hours": "Mo-Sa 07:00-22:00", "roof:levels": "0", "roof:shape": "skillion", "shop": "supermarket", "toilets:wheelchair": "yes", "wheelchair": "yes"}}, {"type": "way", "id": 420627411, "nodes": [4205891390, 4205891391, 4205891392, 5157275142, 4205891393, 10699447616, 10699447617, 10699447618, 4296423457, 4296423460, 4205891396, 4205891397, 4205891398, 4205891399, 4205891400, 4296423483, 4205891401, 4205891390], "tags": {"access": "yes", "leisure": "playground", "wheelchair": "yes"}}, {"type": "way", "id": 429883652, "nodes": [4162715392, 4290846697, 4290846696, 4290846695, 4290846698, 4162715392], "tags": {"leisure": "park"}}, {"type": "way", "id": 429932098, "nodes": [4291317372, 4291317373, 4291317377, 4291317382, 4291317385, 4291319595, 12673090869, 12116858427, 4291319597, 12116858426, 4291319598, 10580852192, 4291319602, 4291319606, 4291319607, 4291319608, 4291319615, 4291319617, 4291319616, 4291319610, 4291319613, 4291319618, 2936113241, 4291319635, 4291319636, 4291319637, 4291319634, 4291319633, 1830215972, 1830215973, 1830215974, 292082810, 4291319644, 4291319649, 4291319652, 4291319657, 4291319658, 4291319662, 4291319667, 10579931144, 4291319664, 1308533215, 4291319660, 4291319656, 4291319653, 4291319651, 4291319648, 4291319647, 4291319646, 4291319645, 4291319643, 4291319639, 4291319641, 4291319638, 10579931141, 473769934, 4291319632, 4291319631, 12116862753, 4291319626, 12116862748, 12116862749, 12116861272, 12116861273, 4291319590, 4291317388, 4291319589, 4291319594, 12116861274, 4291319603, 4291319601, 4291319591, 5015863108, 1830062139, 1830062137, 1830062135, 1830062130, 1830062132, 1830062123, 10580852091, 1830062117, 10891963362, 8557172624, 4291317376, 1308239871, 10891963354, 1829944015, 1308239876, 10891963356, 4291317357, 5157280678, 10891963359, 4291317363, 4291317366, 4291317365, 4291317375, 1829909900, 4291317378, 4291317379, 4291317371, 4291317369, 4291317364, 4291317370, 4291317372], "tags": {"communication:amateur_radio:pota": "DE-0793", "image": "https://commons.wikimedia.org/wiki/File:Fennpfuhlpark_gesamt.jpg", "leisure": "park", "name": "Fennpfuhlpark", "name:etymology:wikidata": "Q566387", "name:etymology:wikipedia": "de:Berlin-Fennpfuhl", "protection_title": "Gesch\u00fctzte Gr\u00fcnanlage", "wikidata": "Q1404794", "wikimedia_commons": "Category:Fennpfuhlpark", "wikipedia": "de:Fennpfuhlpark"}}, {"type": "way", "id": 430357577, "nodes": [4296423425, 4296423437, 4296423443, 4296423442, 4296423434, 4296423419, 4296423404, 4296423394, 4296423393, 4296423392, 4296423403, 11339197353, 11339197354, 11339197355, 4296423425], "tags": {"access": "yes", "leisure": "playground", "wheelchair": "yes"}}, {"type": "way", "id": 456810294, "nodes": [4530453975, 4530453976, 4530453974, 4530453973, 4530453972, 4530453970, 4530453967, 4530453964, 4530453965, 4530453969, 4530453971, 4530453975], "tags": {"access": "yes", "leisure": "playground"}}, {"type": "way", "id": 456810295, "nodes": [4530453951, 4530453939, 4530453937, 4530453932, 4530453928, 4530453927, 4530453930, 4530453934, 4530453941, 4530453945, 4530453955, 4530453954, 4530453951], "tags": {"access": "yes", "leisure": "playground"}}, {"type": "way", "id": 473934475, "nodes": [4679666844, 4679666843, 4679666842, 4679666841, 4679666840, 4679666839, 4679666838, 4679666837, 4679666836, 4679666835, 4679666834, 4679666833, 4679666844], "tags": {"access": "yes", "leisure": "playground", "wheelchair": "yes"}}, {"type": "way", "id": 473937759, "nodes": [4679698778, 4679698777, 4679698776, 4679698775, 4679698774, 4679698773, 4679698772, 4679698771, 4679698770, 4679698769, 4679698768, 4679698767, 4679698778], "tags": {"access": "yes", "leisure": "playground", "wheelchair": "no"}}, {"type": "way", "id": 473941453, "nodes": [4679735263, 4679735262, 4679735261, 4679735260, 4679735259, 4679735258, 4679735257, 4679735256, 4679735255, 4679735254, 4679735263], "tags": {"access": "yes", "leisure": "playground", "wheelchair": "limited"}}, {"type": "way", "id": 504838272, "nodes": [4949419180, 4949419179, 4949419178, 4949419172, 4949419171, 4949419170, 4949419165, 4949419163, 4949419162, 4949419161, 4949419160, 4949419159, 6510528118, 4949419158, 4949419157, 6510528119, 4949419156, 4949419155, 6510528120, 4949419154, 4949419153, 4949419152, 4949419151, 4949419150, 4949419149, 4949419148, 4949419147, 4949419145, 4949481835, 4949419180], "tags": {"access": "yes", "leisure": "playground", "opening_hours": "Mo-Su 08:00-20:00"}}, {"type": "way", "id": 591622865, "nodes": [5647908274, 5647908273, 5647908272, 5647908271, 5647908270, 4286822086, 5647908269, 5647908247, 5647908268, 5647908244, 5647908267, 4286822078, 5157314552, 282685584, 5647908288, 5157313850, 5157313851, 5647908289, 5647908275, 5647908293, 5647908294, 5647908295, 5647908266, 5647908265, 5647908264, 5647908274], "tags": {"leisure": "park", "protection_title": "Gesch\u00fctzte Gr\u00fcnanlage"}}, {"type": "way", "id": 635007496, "nodes": [5991267148, 5993415611, 5993415613, 11377237181, 5991267147, 11377237180, 5993415610, 11377237179, 5993415612, 5991267146, 5991267145, 6720670507, 5991267148], "tags": {"access": "yes", "leisure": "playground", "name": "Spielplatz Paul-Zobel-Stra\u00dfe 1-4", "protection_title": "Gesch\u00fctzte Gr\u00fcnanlage"}}, {"type": "way", "id": 677371640, "nodes": [6342582241, 6342582240, 6342582239, 6342582238, 6342582237, 6342582236, 6342582235, 6342582234, 6342582233, 6342582232, 6342582231, 6342582230, 6342582229, 6342582228, 6342582227, 6342582241], "tags": {"access": "yes", "leisure": "playground"}}, {"type": "way", "id": 683138739, "nodes": [7647351872, 6398565243, 6398565242, 6398565241, 6398565240, 6398565239, 6398565238, 6398565237, 6398565236, 7647351873, 7647351874, 7647351875, 7647351870, 7647351871, 6398565235, 6398565234, 6398565233, 6398565232, 6398565231, 6398565230, 6398565229, 6398565228, 7647351872], "tags": {"access": "private", "leisure": "playground"}}, {"type": "way", "id": 693469884, "nodes": [4949373042, 1118590834, 1118590825, 2562494408, 2562494409, 1118590866, 456490878, 473174404, 2562494405, 2562494404, 473174403, 2562494406, 2562494407, 473174402, 451987270, 451987272, 3585479134, 3585479132, 237731211, 6510508469, 6510508470, 6510508471, 6510508472, 6510508473, 6510508474, 6510508475, 6510508476, 6510508477, 6510508466, 6510508465, 6510508464, 6510508463, 6510508462, 6510508461, 6510508460, 6510508459, 6510508458, 12116952800, 6510508457, 6510508456, 6510508455, 6510508454, 6510508453, 6510508452, 6510508451, 6510508450, 6510508449, 6510508435, 6510508436, 6510508437, 6510508438, 6510508439, 6510508440, 6510508441, 6510508444, 6510508443, 6510508442, 6510508483, 237731210, 6510528096, 2562494421, 6510508434, 6510508433, 6510508432, 6510508431, 6510508430, 6510508429, 6510508428, 6510508427, 6510508426, 6510508425, 6510528092, 2562494411, 6510528117, 6510528090, 4949373037, 4949373040, 6510508423, 6510528122, 4949419145, 4949481835, 4949419180, 4949373042], "tags": {"leisure": "park"}}, {"type": "way", "id": 694300663, "nodes": [6518544175, 6518544174, 6518544173, 6518544172, 6518544171, 6518544170, 6518544175], "tags": {"access": "yes", "leisure": "playground"}}, {"type": "way", "id": 694301008, "nodes": [6518557185, 6518533984, 6518533983, 6518533982, 6518533981, 6518533980, 6518533979, 6518557185], "tags": {"leisure": "park"}}, {"type": "way", "id": 694303420, "nodes": [6518561236, 6518561237, 6518561228, 6518561225, 6518561224, 6518561223, 6518561222, 6518561236], "tags": {"access": "yes", "leisure": "playground", "wheelchair": "yes"}}, {"type": "way", "id": 694303422, "nodes": [6518561235, 6518561222, 6518561234, 6518561239, 6518561233, 6518561232, 6518561231, 6518561230, 6518561238, 6518561237, 6518561228, 6518561225, 6518561229, 6518561235], "tags": {"leisure": "park", "protection_title": "Gesch\u00fctzte Gr\u00fcnanlage"}}, {"type": "way", "id": 759539581, "nodes": [450862040, 7095195257, 7095195256, 7095195255, 7095195254, 7095195253, 7095195252, 7095195251, 7095195250, 7095195249, 7095195248, 6966377944, 6966377945, 6966377946, 6966377947, 6966377948, 7095195247, 7095211815, 6966377949, 6966377950, 6966377951, 6966377952, 6966377953, 602132216, 4679663106, 4679663099, 10564961703, 10564961704, 10564961705, 10564961702, 4679663112, 602132218, 450862041, 450862040], "tags": {"leisure": "park", "protection_title": "Gesch\u00fctzte Gr\u00fcnanlage"}}, {"type": "way", "id": 760132530, "nodes": [7100985075, 7100985074, 7100985073, 7100985072, 7100985071, 7100985070, 7100985069, 7100985068, 7100985067, 7100985066, 7100985065, 7100985064, 7100985063, 7100985062, 7100985030, 7100985061, 7100985031, 7100985032, 7100985060, 7100985059, 7100985058, 7100985057, 7100985056, 7100985055, 7100985054, 7100985053, 7100985052, 3241729699, 3241729702, 3241729706, 7100985051, 7100985050, 7100985049, 7100985048, 7100985047, 7100985046, 7100985045, 7100985075], "tags": {"leisure": "park", "protection_title": "Gesch\u00fctzte Gr\u00fcnanlage"}}, {"type": "way", "id": 915547557, "nodes": [8504463647, 3754612962, 8929213618, 8929213619, 8504463645, 10581698731, 8929213620, 8504463644, 10581698740, 10581698739, 8929140511, 8504463641, 8504463647], "tags": {"access": "yes", "leisure": "playground", "name": "Spielplatz Otto-Marquardt-Stra\u00dfe 10", "operator": "Bezirksamt", "wheelchair": "yes"}}, {"type": "way", "id": 965234491, "nodes": [10581698730, 3754612963, 3754612953, 7694542321, 7694542322, 8929140493, 3241730006, 3241730193, 3241730189, 3241730199, 3241730203, 3241730211, 3241730224, 3241730230, 3241730236, 3241730241, 3241730417, 3241730412, 3241730430, 3241730437, 3241730449, 3241730450, 3241730631, 3241730629, 3241730634, 3241730638, 3241730640, 3241730644, 3241730652, 3241730654, 3241730825, 3241730973, 3241730968, 3241730982, 3241730986, 3241730990, 3241730996, 3241731003, 3241731006, 3241731188, 3241731183, 3241731201, 3241731206, 3241731217, 3241731226, 3241731228, 3241731420, 3241731417, 3241731423, 3241731432, 3241731439, 3241731446, 3241731449, 3241731621, 3241731638, 3241731671, 3241731664, 3241731675, 3241731683, 3241731725, 3241731714, 3241731741, 3241731749, 3241731905, 3241731907, 3241731871, 3241731755, 3241731737, 3241731745, 3241731702, 3241731697, 3241731681, 3241731688, 3241731666, 3241731665, 3241731606, 3241731582, 3241731575, 3241731562, 3241731572, 3241731435, 3241731431, 3241731422, 3241731427, 3241731396, 3241731394, 3241731229, 3241731204, 3241731195, 3241731170, 3241731180, 3241731053, 3241731043, 3241731034, 3241731038, 3241731008, 3241731001, 3241730987, 3241730992, 3241730970, 3241730972, 3241730823, 3241730826, 3241730785, 3241730779, 3241730614, 3241730619, 3241730572, 3241730570, 3241730393, 8929140492, 3754612958, 3754612965, 3754612966, 3754612967, 3754612968, 3754612970, 3754612971, 3754612973, 3754612974, 4530414912, 8929213624, 3754612972, 8929213623, 8929213622, 8929213621, 8929213625, 8929213626, 3754612969, 10565758871, 10581698730], "tags": {"leisure": "park"}}, {"type": "way", "id": 1034724221, "nodes": [9531768338, 9531768337, 9531768336, 9531768335, 9531768338], "tags": {"access": "yes", "leisure": "playground"}}, {"type": "way", "id": 1049299478, "nodes": [9643094653, 9643094652, 9643094651, 9643094650, 9643094609, 9643094612, 9643094611, 9643094627, 9643094626, 9643094625, 9643094624, 9643094623, 9643094622, 9643094621, 9643094620, 9643094619, 9643094618, 9643094617, 9643094616, 9643094615, 9643094614, 9643094613, 9643094610, 9643094649, 9643094648, 9643094647, 9643094646, 9643094645, 9643094644, 9643094643, 9643094642, 9643094641, 9643094640, 9643094639, 9643094638, 9643094637, 9643094636, 9643094635, 9643094634, 9643094633, 9643094632, 9643094631, 9643094630, 9643094629, 9643094628, 9643094653], "tags": {"access": "customers", "leisure": "playground"}}, {"type": "way", "id": 1092263533, "nodes": [10003502135, 10003502136, 10003502137, 10003502138, 10003502135], "tags": {"access": "private", "leisure": "playground"}}, {"type": "way", "id": 1123507658, "nodes": [10274691300, 10274691301, 10274691302, 452438630, 452438631, 10274694412, 10274691300], "tags": {"leisure": "park"}}, {"type": "way", "id": 1123594648, "nodes": [3923171817, 10275481423, 10275481424, 10275481425, 10275481426, 10275481427, 10275481428, 10275481429, 10275481430, 10275481431, 10275481432, 10275481433, 10275481434, 3923171816, 10275481435, 10275481436, 3923171814, 10275481437, 10275481438, 10275481439, 10275481440, 3923171815, 3923171817], "tags": {"leisure": "park", "protection_title": "Gesch\u00fctzte Gr\u00fcnanlage"}}, {"type": "way", "id": 1123600230, "nodes": [10275524966, 10275524967, 10275524968, 10275524969, 10275524970, 10275524971, 10275524972, 10275524973, 10275524974, 10275524975, 10275524976, 10275524977, 10275524978, 10275524979, 10275524980, 10275524981, 10275524982, 10275524983, 10275524984, 10275524985, 1706143710, 1706143724, 4296699723, 4296699733, 10275524986, 10275524987, 10275524988, 10275524989, 10275524966], "tags": {"leisure": "park", "protection_title": "Gesch\u00fctzte Gr\u00fcnanlage"}}, {"type": "way", "id": 1133102273, "nodes": [10564702407, 10564702408, 10564739009, 10564739010, 10564702392, 10564702393, 10564702394, 10564702395, 10564702396, 10564702402, 10564702403, 10564702404, 10564702405, 10564702406, 10564702397, 10564702398, 10564702399, 10564702400, 10564702401, 10564702407], "tags": {"access": "yes", "leisure": "playground"}}, {"type": "way", "id": 1133126922, "nodes": [10564942664, 10564942665, 10564942666, 10564942667, 10564942668, 10564942669, 10564942670, 10564942671, 10564942672, 10564942673, 10564942674, 10564942675, 10564942676, 10564942677, 10564942678, 10564942679, 10564942680, 10564942681, 10564942682, 10564942683, 10564942684, 10564942685, 10564942686, 10564942687, 10564942688, 10564942689, 10564942690, 10564942691, 10564942692, 10564942693, 10564942694, 10564942695, 10564942696, 10564942664], "tags": {"leisure": "park", "protection_title": "Gesch\u00fctzte Gr\u00fcnanlage"}}, {"type": "way", "id": 1133126935, "nodes": [10564961677, 10564961678, 10564961679, 10564961680, 10564961681, 10564961682, 10564961683, 10564961684, 10564961685, 10564961686, 10564961687, 10564961688, 10564961689, 10564961690, 10564961691, 10564961692, 10564961677], "tags": {"leisure": "park"}}, {"type": "way", "id": 1133126941, "nodes": [10564961722, 10564961723, 10564961724, 10564961725, 10564961726, 10564961727, 10564961722], "tags": {"addr:city": "Berlin", "addr:housenumber": "14", "addr:postcode": "10369", "addr:street": "Anton-Saefkow-Platz", "air_conditioning": "no", "amenity": "fast_food", "building": "yes", "check_date:opening_hours": "2024-09-29", "cuisine": "kebab", "diet:vegetarian": "yes", "name": "Maxim Grill", "opening_hours": "Mo-Su 09:00-04:00", "phone": "+49 30 24358175", "website": "https://maxim-grill.business.site/", "wheelchair": "yes"}}, {"type": "way", "id": 1133247664, "nodes": [10565758852, 10565758853, 10565758854, 10565758855, 10565758852], "tags": {"leisure": "park", "protection_title": "Gesch\u00fctzte Gr\u00fcnanlage"}}, {"type": "way", "id": 1133247670, "nodes": [3754612969, 10565758871, 10581698730, 10581698735, 10581698731, 10581698736, 8504463645, 10565758873, 8504463647, 8504463641, 3754612969], "tags": {"leisure": "park", "protection_title": "Gesch\u00fctzte Gr\u00fcnanlage"}}, {"type": "way", "id": 1136169612, "nodes": [10591635507, 10591635508, 10591635509, 10591635510, 10591635507], "tags": {"access": "yes", "leisure": "playground"}}, {"type": "way", "id": 1136169614, "nodes": [10591635521, 10591635522, 10591635523, 10591635524, 10591635521], "tags": {"access": "yes", "leisure": "playground"}}, {"type": "way", "id": 1155769597, "nodes": [10748272065, 10748272064, 10748272063, 10748272062, 10748272061, 10748272060, 10748272059, 10748272058, 10748272057, 10748272056, 10748272055, 10748272054, 10748272053, 10748272052, 10748272051, 10748272050, 10748272049, 10748272048, 10748272047, 10748272065], "tags": {"access": "private", "leisure": "playground"}}, {"type": "way", "id": 1202221223, "nodes": [11145465919, 11145465920, 11145465921, 11145465922, 11145465919], "tags": {"leisure": "playground"}}, {"type": "way", "id": 1206709152, "nodes": [11181838950, 2561132708, 11181838949, 11181838948, 11181838950], "tags": {"access": "private", "leisure": "playground"}}, {"type": "way", "id": 1298687478, "nodes": [12030273603, 12030273604, 12030273605, 12030273606, 12030273603], "tags": {"access": "yes", "leisure": "playground"}}, {"type": "way", "id": 1298687479, "nodes": [12030273611, 12030273612, 12030273613, 12030273614, 12030273615, 12030273616, 12030273617, 12030273618, 12030273619, 12030273620, 12030273621, 12030273622, 12030273623, 12030273611], "tags": {"leisure": "playground"}}, {"type": "way", "id": 1298687480, "nodes": [12030273627, 12030273628, 12030273629, 12030273630, 12030273631, 12030273632, 12030273633, 12030273634, 12030273635, 12030273627], "tags": {"leisure": "playground"}}, {"type": "way", "id": 1298936393, "nodes": [12032298648, 12032298649, 12032298650, 12032298651, 12032298652, 12032298648], "tags": {"access": "private", "leisure": "playground"}}, {"type": "way", "id": 1298936394, "nodes": [12032298658, 12032298659, 12032298660, 12032298661, 12032298662, 12032298663, 12032298664, 12032298658], "tags": {"access": "private", "leisure": "playground"}}, {"type": "way", "id": 1298936405, "nodes": [12032617025, 12032617026, 12032617027, 12032617028, 12032617025], "tags": {"access": "private", "leisure": "playground"}}, {"type": "way", "id": 1298936408, "nodes": [12032617031, 12032617032, 12032617033, 12032617034, 12032617031], "tags": {"access": "private", "leisure": "playground"}}, {"type": "way", "id": 1301955979, "nodes": [12058902243, 12058902244, 12058902245, 12058902246, 12058902243], "tags": {"access": "yes", "leisure": "playground"}}, {"type": "way", "id": 1301955980, "nodes": [12058902247, 12058902248, 12058902249, 12058902250, 12058902251, 12058902247], "tags": {"access": "yes", "leisure": "playground"}}, {"type": "way", "id": 1301955981, "nodes": [12058902252, 12058902253, 12058902254, 12058902255, 12058902256, 12058902257, 12058902258, 12058902252], "tags": {"access": "yes", "leisure": "playground"}}, {"type": "way", "id": 1301955983, "nodes": [12058902260, 12058902261, 12058902262, 12058902263, 12058902264, 12058902265, 12058902260], "tags": {"access": "yes", "leisure": "playground"}}, {"type": "way", "id": 1304963608, "nodes": [12086508019, 12086508020, 12086508021, 12086508022, 12086508023, 12086508024, 12086508019], "tags": {"leisure": "playground", "operator:type": "private"}}]}