{"version": 0.6, "generator": "Overpass API 0.7.62.7 375dc00a", "osm3s": {"timestamp_osm_base": "2025-08-05T15:13:14Z", "copyright": "The data included in this document is from www.openstreetmap.org. The data is made available under ODbL."}, "elements": [{"type": "node", "id": 29786544, "lat": 52.5001886, "lon": 13.4715837}, {"type": "node", "id": 29786545, "lat": 52.5005955, "lon": 13.4730594}, {"type": "node", "id": 29786549, "lat": 52.4932936, "lon": 13.4830721}, {"type": "node", "id": 29786550, "lat": 52.4933735, "lon": 13.4839919}, {"type": "node", "id": 29786551, "lat": 52.492399, "lon": 13.4863431}, {"type": "node", "id": 29806172, "lat": 52.5094732, "lon": 13.503849}, {"type": "node", "id": 257380544, "lat": 52.4964392, "lon": 13.4792802}, {"type": "node", "id": 262511595, "lat": 52.5048741, "lon": 13.4818739}, {"type": "node", "id": 262511596, "lat": 52.5043981, "lon": 13.4822179}, {"type": "node", "id": 281386144, "lat": 52.4954588, "lon": 13.4982137}, {"type": "node", "id": 296331744, "lat": 52.4946139, "lon": 13.501358}, {"type": "node", "id": 297766270, "lat": 52.51138, "lon": 13.5001681}, {"type": "node", "id": 297766273, "lat": 52.5118882, "lon": 13.5011925}, {"type": "node", "id": 304338099, "lat": 52.4967267, "lon": 13.4790141}, {"type": "node", "id": 304338102, "lat": 52.496292, "lon": 13.4795919}, {"type": "node", "id": 304338103, "lat": 52.4960372, "lon": 13.4799841}, {"type": "node", "id": 304338104, "lat": 52.4958564, "lon": 13.480187}, {"type": "node", "id": 304338108, "lat": 52.4954113, "lon": 13.4807921}, {"type": "node", "id": 304338110, "lat": 52.4953288, "lon": 13.4807476}, {"type": "node", "id": 304338111, "lat": 52.4950547, "lon": 13.4808577}, {"type": "node", "id": 304338112, "lat": 52.4949835, "lon": 13.4810696}, {"type": "node", "id": 304338115, "lat": 52.4949136, "lon": 13.4812182}, {"type": "node", "id": 304338116, "lat": 52.4947915, "lon": 13.481267}, {"type": "node", "id": 304338119, "lat": 52.4946627, "lon": 13.4813298}, {"type": "node", "id": 304338122, "lat": 52.4946209, "lon": 13.4815872}, {"type": "node", "id": 304338123, "lat": 52.4944034, "lon": 13.481824}, {"type": "node", "id": 304338402, "lat": 52.49399, "lon": 13.4822681}, {"type": "node", "id": 304338403, "lat": 52.4931409, "lon": 13.4847177}, {"type": "node", "id": 304338404, "lat": 52.4927551, "lon": 13.4853302}, {"type": "node", "id": 304338405, "lat": 52.4925313, "lon": 13.4857944}, {"type": "node", "id": 309749158, "lat": 52.5001989, "lon": 13.4707473}, {"type": "node", "id": 309749159, "lat": 52.5002609, "lon": 13.4703572}, {"type": "node", "id": 309749161, "lat": 52.4994612, "lon": 13.4697871}, {"type": "node", "id": 309749163, "lat": 52.4995482, "lon": 13.4698561}, {"type": "node", "id": 309749164, "lat": 52.4999901, "lon": 13.470171}, {"type": "node", "id": 309749168, "lat": 52.5002306, "lon": 13.4717684}, {"type": "node", "id": 309749171, "lat": 52.5002959, "lon": 13.4717913}, {"type": "node", "id": 309749173, "lat": 52.5005407, "lon": 13.4723176}, {"type": "node", "id": 351682431, "lat": 52.493305, "lon": 13.4842761}, {"type": "node", "id": 355124181, "lat": 52.4925901, "lon": 13.4867254}, {"type": "node", "id": 355124197, "lat": 52.4937215, "lon": 13.4835459}, {"type": "node", "id": 355124200, "lat": 52.4939533, "lon": 13.4830425}, {"type": "node", "id": 355124204, "lat": 52.4945546, "lon": 13.4832093}, {"type": "node", "id": 355124213, "lat": 52.4961997, "lon": 13.4808566}, {"type": "node", "id": 355124215, "lat": 52.4965353, "lon": 13.4801307}, {"type": "node", "id": 355124222, "lat": 52.4968135, "lon": 13.4798711}, {"type": "node", "id": 355124225, "lat": 52.4967463, "lon": 13.4790001}, {"type": "node", "id": 355125892, "lat": 52.4929635, "lon": 13.4859071}, {"type": "node", "id": 399348493, "lat": 52.5047368, "lon": 13.4953236, "tags": {"addr:city": "Berlin", "addr:country": "DE", "addr:housenumber": "73", "addr:postcode": "10317", "addr:street": "Weitlingstra\u00dfe", "addr:suburb": "Rummelsburg", "amenity": "pharmacy", "check_date": "2024-09-05", "check_date:opening_hours": "2023-11-08", "dispensing": "yes", "healthcare": "pharmacy", "name": "Elsen-Apotheke", "opening_hours": "Mo-Fr 08:00-19:00; Sa 08:00-13:00", "website": "https://www.elsen-apotheke.de/", "wheelchair": "yes"}}, {"type": "node", "id": 411612513, "lat": 52.4991305, "lon": 13.4691565}, {"type": "node", "id": 411636590, "lat": 52.4994296, "lon": 13.4697487}, {"type": "node", "id": 411636600, "lat": 52.5003054, "lon": 13.4705258}, {"type": "node", "id": 412729127, "lat": 52.5084635, "lon": 13.5033878}, {"type": "node", "id": 412729128, "lat": 52.5081894, "lon": 13.5031612}, {"type": "node", "id": 421622883, "lat": 52.4970052, "lon": 13.4946962}, {"type": "node", "id": 421622885, "lat": 52.4965676, "lon": 13.4954224}, {"type": "node", "id": 421622890, "lat": 52.4960722, "lon": 13.4962042}, {"type": "node", "id": 421622894, "lat": 52.4957959, "lon": 13.4965704}, {"type": "node", "id": 422747532, "lat": 52.5010321, "lon": 13.4888365}, {"type": "node", "id": 422747533, "lat": 52.500446, "lon": 13.4894997}, {"type": "node", "id": 422747545, "lat": 52.5003924, "lon": 13.4895644}, {"type": "node", "id": 422747548, "lat": 52.5002144, "lon": 13.4897639}, {"type": "node", "id": 422747552, "lat": 52.500505, "lon": 13.4905446}, {"type": "node", "id": 422747555, "lat": 52.5006737, "lon": 13.4906841}, {"type": "node", "id": 422747566, "lat": 52.5012759, "lon": 13.4900566}, {"type": "node", "id": 422747569, "lat": 52.5014349, "lon": 13.4896178}, {"type": "node", "id": 422759789, "lat": 52.4977158, "lon": 13.4937738}, {"type": "node", "id": 422759802, "lat": 52.4964604, "lon": 13.4959825}, {"type": "node", "id": 426425004, "lat": 52.4958821, "lon": 13.4826384}, {"type": "node", "id": 426425005, "lat": 52.4969946, "lon": 13.4827348}, {"type": "node", "id": 426425007, "lat": 52.4962196, "lon": 13.4818382}, {"type": "node", "id": 435172125, "lat": 52.5016109, "lon": 13.477768, "tags": {"barrier": "gate", "foot": "yes", "maxwidth:physical": "1.3", "source:maxwidth:physical": "ARCore"}}, {"type": "node", "id": 435181689, "lat": 52.5029837, "lon": 13.4891438, "tags": {"addr:city": "Berlin", "addr:country": "DE", "addr:housenumber": "4", "addr:postcode": "10317", "addr:street": "Giselastra\u00dfe", "addr:suburb": "Rummelsburg", "amenity": "pub", "check_date": "2025-06-09", "check_date:opening_hours": "2025-06-09", "entrance": "yes", "indoor_seating": "yes", "name": "Heinzelm\u00e4nnchen", "opening_hours": "Mo-Su 16:00-24:00+", "outdoor_seating": "yes", "smoking": "yes", "wheelchair": "no"}}, {"type": "node", "id": 472501535, "lat": 52.504154, "lon": 13.4729988, "tags": {"addr:housenumber": "6", "addr:postcode": "10317", "addr:street": "Marktstra\u00dfe", "brand": "Kaufland", "brand:wikidata": "Q685967", "brand:wikipedia": "en:Kaufland", "check_date": "2024-09-21", "check_date:opening_hours": "2024-09-21", "name": "Kaufland", "opening_hours": "Mo-Sa 07:00-22:00", "phone": "+49 30 5549650", "shop": "supermarket", "website": "https://filiale.kaufland.de/", "wheelchair": "yes"}}, {"type": "node", "id": 472501536, "lat": 52.5028556, "lon": 13.4799764, "tags": {"addr:city": "Berlin", "addr:country": "DE", "addr:housenumber": "20", "addr:postcode": "10317", "addr:street": "T\u00fcrrschmidtstra\u00dfe", "addr:suburb": "Rummelsburg", "amenity": "pub", "check_date:opening_hours": "2025-06-29", "contact:facebook": "https://facebook.com/pages/Zum-Guten-Happen/179362118760644", "contact:mobile": "+49 173 9503336", "contact:phone": "+49 30 5597416", "contact:yelp": "zum-guten-happen-berlin", "indoor_seating": "yes", "name": "Zum guten Happen", "opening_hours": "Mo-Su 10:00-24:00", "outdoor_seating": "yes", "wheelchair": "no"}}, {"type": "node", "id": 472501537, "lat": 52.5032338, "lon": 13.4806506, "tags": {"addr:city": "Berlin", "addr:country": "DE", "addr:housenumber": "36", "addr:postcode": "10317", "addr:street": "T\u00fcrrschmidtstra\u00dfe", "addr:suburb": "Rummelsburg", "amenity": "restaurant", "contact:email": "maya.in.berlin@gmail.com", "contact:phone": "+49 30 98440339", "contact:website": "http://mayarestaurant.de", "cuisine": "indian", "diet:vegan": "yes", "diet:vegetarian": "yes", "indoor_seating": "yes", "name": "Maya", "opening_hours": "Tu-Su 12:00-23:00; Mo 16:00-23:00", "outdoor_seating": "yes", "smoking": "outside", "takeaway": "yes", "wheelchair": "no"}}, {"type": "node", "id": 506698064, "lat": 52.5081376, "lon": 13.5033344}, {"type": "node", "id": 512101160, "lat": 52.5004809, "lon": 13.4903362}, {"type": "node", "id": 512101162, "lat": 52.4978063, "lon": 13.4939488}, {"type": "node", "id": 520275499, "lat": 52.496373, "lon": 13.4972258}, {"type": "node", "id": 520275504, "lat": 52.4958644, "lon": 13.4969846}, {"type": "node", "id": 521973711, "lat": 52.5000091, "lon": 13.4804391, "tags": {"access": "permissive", "leisure": "playground"}}, {"type": "node", "id": 521990097, "lat": 52.5044617, "lon": 13.4765842, "tags": {"addr:city": "Berlin", "addr:country": "DE", "addr:housenumber": "121", "addr:postcode": "10317", "addr:street": "Pfarrstra\u00dfe", "addr:suburb": "Rummelsburg", "amenity": "restaurant", "check_date:opening_hours": "2025-07-27", "contact:website": "https://dongda-restaurant.de/", "cuisine": "vietnamese", "diet:vegan": "yes", "diet:vegetarian": "yes", "indoor_seating": "yes", "name": "\u0110\u1ed1ng \u0110a", "old_name": "Fid\u00e9l", "opening_hours": "Tu-Su 11:30-21:30", "outdoor_seating": "yes", "toilets:wheelchair": "no", "wheelchair": "no", "wheelchair:description": "Es gibt auch drau\u00dfen Pl\u00e4tze."}}, {"type": "node", "id": 521990108, "lat": 52.5050537, "lon": 13.4766674, "tags": {"addr:housenumber": "116", "addr:street": "Pfarrstra\u00dfe", "air_conditioning": "no", "amenity": "fast_food", "check_date:opening_hours": "2025-07-27", "diet:gluten_free": "no", "diet:vegan": "yes", "diet:vegetarian": "yes", "indoor_seating": "yes", "name": "Final Bistro", "opening_hours:signed": "no", "outdoor_seating": "yes", "payment:credit_cards": "yes", "payment:debit_cards": "yes", "smoking": "no", "wheelchair": "no"}}, {"type": "node", "id": 521990119, "lat": 52.5053318, "lon": 13.4776931, "tags": {"addr:city": "Berlin", "addr:country": "DE", "addr:housenumber": "111", "addr:postcode": "10317", "addr:street": "Pfarrstra\u00dfe", "addr:suburb": "Rummelsburg", "amenity": "restaurant", "cuisine": "regional", "diet:gluten_free": "no", "diet:vegan": "yes", "diet:vegetarian": "yes", "indoor_seating": "yes", "name": "Ausbildungsrestaurant Am Kuhgraben", "opening_hours": "Mo-Fr 09:00-15:00", "outdoor_seating": "yes", "payment:credit_cards": "yes", "payment:debit_cards": "yes", "phone": "+49 30 5530463", "website": "https://www.sozdia.de/Kuhgraben.87.0.html", "wheelchair": "limited"}}, {"type": "node", "id": 521990175, "lat": 52.5037992, "lon": 13.4818809, "tags": {"addr:city": "Berlin", "addr:country": "DE", "addr:housenumber": "49", "addr:postcode": "10317", "addr:street": "Kaskelstra\u00dfe", "addr:suburb": "Rummelsburg", "amenity": "restaurant", "contact:phone": "+49 30 55576067", "contact:website": "https://jel\u00e4ngerjelieber.de", "cuisine": "regional", "diet:vegetarian": "yes", "indoor_seating": "yes", "name": "Jel\u00e4nger Jelieber", "opening_hours": "Tu 11:30-14:30; We-Fr 11:30-23:00; Sa 17:00-23:00", "outdoor_seating": "yes", "phone": "+49 30 55576067", "smoking": "outside", "wheelchair": "no"}}, {"type": "node", "id": 521990178, "lat": 52.504447, "lon": 13.4792013, "tags": {"addr:city": "Berlin", "addr:country": "DE", "addr:housenumber": "27", "addr:postcode": "10317", "addr:street": "Kaskelstra\u00dfe", "addr:suburb": "Rummelsburg", "alt_name": "J.A.S.", "amenity": "restaurant", "contact:phone": "+49 30 57794123", "contact:website": "https://www.jas-berlin.de", "cuisine": "regional", "diet:vegetarian": "yes", "indoor_seating": "yes", "name": "JAS", "opening_hours": "17:00-18:00+", "outdoor_seating": "yes", "smoking": "no", "wheelchair": "no"}}, {"type": "node", "id": 523972919, "lat": 52.4949194, "lon": 13.4992584}, {"type": "node", "id": 523972921, "lat": 52.4952256, "lon": 13.4995217}, {"type": "node", "id": 523977211, "lat": 52.4936688, "lon": 13.4991388}, {"type": "node", "id": 530786774, "lat": 52.4913302, "lon": 13.4877675}, {"type": "node", "id": 544752150, "lat": 52.5032645, "lon": 13.4823881, "tags": {"addr:city": "Berlin", "addr:country": "DE", "addr:housenumber": "31", "addr:postcode": "10317", "addr:street": "T\u00fcrrschmidtstra\u00dfe", "addr:suburb": "Rummelsburg", "amenity": "cafe", "check_date": "2024-08-29", "contact:instagram": "cafe_nadia_und_kosta", "diet:vegetarian": "yes", "indoor_seating": "yes", "internet_access": "wlan", "name": "Nadia + Kosta", "opening_hours": "Sa-Su 10:00-18:00; Mo-Fr 09:00-18:00", "outdoor_seating": "yes", "phone": "+49 178 2895049", "smoking": "no", "wheelchair": "no"}}, {"type": "node", "id": 544774503, "lat": 52.5031964, "lon": 13.4775211}, {"type": "node", "id": 544774509, "lat": 52.5030965, "lon": 13.4779374}, {"type": "node", "id": 550476314, "lat": 52.4961768, "lon": 13.4818773}, {"type": "node", "id": 550476315, "lat": 52.4962962, "lon": 13.4818711}, {"type": "node", "id": 558610616, "lat": 52.4926845, "lon": 13.485733}, {"type": "node", "id": 558610627, "lat": 52.4927842, "lon": 13.4858561}, {"type": "node", "id": 558610645, "lat": 52.4926799, "lon": 13.4859652}, {"type": "node", "id": 558611199, "lat": 52.4927254, "lon": 13.4859192}, {"type": "node", "id": 581287707, "lat": 52.4935853, "lon": 13.4846302}, {"type": "node", "id": 581287708, "lat": 52.4936422, "lon": 13.4842291}, {"type": "node", "id": 581287711, "lat": 52.4937042, "lon": 13.484383}, {"type": "node", "id": 581287721, "lat": 52.4948672, "lon": 13.4862895}, {"type": "node", "id": 581287725, "lat": 52.495024, "lon": 13.4859465}, {"type": "node", "id": 581287728, "lat": 52.4952654, "lon": 13.4867765}, {"type": "node", "id": 581287730, "lat": 52.495423, "lon": 13.4864375}, {"type": "node", "id": 595969066, "lat": 52.5003948, "lon": 13.4901639}, {"type": "node", "id": 638463015, "lat": 52.501526, "lon": 13.4923047}, {"type": "node", "id": 638679189, "lat": 52.5053307, "lon": 13.4966882}, {"type": "node", "id": 638682651, "lat": 52.5043303, "lon": 13.4956836}, {"type": "node", "id": 638682653, "lat": 52.5041776, "lon": 13.4955955}, {"type": "node", "id": 638682655, "lat": 52.5040271, "lon": 13.4963495}, {"type": "node", "id": 638682657, "lat": 52.5041289, "lon": 13.4964087}, {"type": "node", "id": 638953355, "lat": 52.5060983, "lon": 13.4957547, "tags": {"addr:city": "Berlin", "addr:housenumber": "58", "addr:postcode": "10317", "addr:street": "Weitlingstra\u00dfe", "amenity": "pharmacy", "check_date": "2025-01-06", "check_date:opening_hours": "2023-10-03", "dispensing": "yes", "healthcare": "pharmacy", "name": "Weitling-Apotheke", "opening_hours": "Mo-Fr 08:00-19:00; Sa 08:00-13:00; Su 08:00-16:00", "phone": "+49 30 52279730", "website": "https://www.weitling-apotheke.de/", "wheelchair": "no"}}, {"type": "node", "id": 639631252, "lat": 52.5060384, "lon": 13.4961055, "tags": {"amenity": "fast_food", "check_date": "2024-09-05", "cuisine": "kebab", "delivery": "no", "diet:vegan": "yes", "diet:vegetarian": "yes", "drive_through": "no", "indoor_seating": "yes", "level": "1", "name": "AVCI Caf\u00e9 & Bistro", "opening_hours": "24/7", "outdoor_seating": "yes", "smoking": "separated", "surveillance": "yes", "takeaway": "yes", "wheelchair": "no"}}, {"type": "node", "id": 639631261, "lat": 52.5072647, "lon": 13.4968096, "tags": {"addr:city": "Berlin", "addr:housenumber": "41", "addr:postcode": "10317", "addr:street": "Weitlingstra\u00dfe", "air_conditioning": "no", "amenity": "restaurant", "cuisine": "asian;vietnamese", "diet:vegetarian": "yes", "drive_through": "no", "indoor_seating": "yes", "name": "Asia Mami", "note": "alt- Krauts Burger\nalt- Eichler - B\u00e4cherei/Konditorei", "opening_hours": "PH,Mo-Su 11:30-22:00", "outdoor_seating": "yes", "smoking": "outside", "takeaway": "yes", "wheelchair": "no"}}, {"type": "node", "id": 639631267, "lat": 52.5080701, "lon": 13.4969018, "tags": {"amenity": "restaurant", "check_date": "2025-02-03", "check_date:opening_hours": "2025-02-03", "cuisine": "mexican", "diet:vegan": "no", "diet:vegetarian": "yes", "email": "info@restaurant-salsa.de", "fax": "+49 30 5261207", "indoor_seating": "yes", "internet_access": "yes", "internet_access:ssid": "Salsa Mexicana Free", "name": "Salsa", "opening_hours": "Mo-Su 11:00-23:00", "opening_hours:signed": "no", "outdoor_seating": "yes", "payment:american_express": "yes", "phone": "+49 30 5252541", "smoking": "outside", "website": "http://restaurant-salsa.de/", "wheelchair": "no"}}, {"type": "node", "id": 639631273, "lat": 52.5082789, "lon": 13.4970409, "tags": {"addr:city": "Berlin", "addr:country": "DE", "addr:housenumber": "32", "addr:postcode": "10317", "addr:street": "Weitlingstra\u00dfe", "addr:suburb": "Rummelsburg", "amenity": "pub", "contact:phone": "+49 30 52679688", "cuisine": "german", "indoor_seating": "yes", "name": "Zum Happen", "note": "gibt es wirklich 2 mal", "opening_hours": "Mo 15:00-22:00; Sa 13:00-24:00; Tu-Fr 15:00-24:00; Su 14:00-22:00", "outdoor_seating": "no", "smoking": "yes", "wheelchair": "no"}}, {"type": "node", "id": 639631282, "lat": 52.5088702, "lon": 13.497386, "tags": {"air_conditioning": "no", "amenity": "fast_food", "check_date:opening_hours": "2024-03-28", "cuisine": "kebab;chicken", "diet:vegan": "yes", "diet:vegetarian": "yes", "drive_through": "no", "indoor_seating": "yes", "internet_access": "no", "name": "AVCI Bistro", "opening_hours:signed": "no", "outdoor_seating": "yes", "smoking": "outside", "surveillance": "indoor", "wheelchair": "no"}}, {"type": "node", "id": 641217953, "lat": 52.4940727, "lon": 13.5034459}, {"type": "node", "id": 641791092, "lat": 52.4932394, "lon": 13.5045476}, {"type": "node", "id": 646797476, "lat": 52.4993243, "lon": 13.4695858}, {"type": "node", "id": 647907957, "lat": 52.5029418, "lon": 13.4944202, "tags": {"amenity": "cafe", "indoor_seating": "yes", "name": "Kleines Cafe", "opening_hours": "Mo-Su,PH 15:00-22:00", "outdoor_seating": "yes", "wheelchair": "no"}}, {"type": "node", "id": 648207420, "lat": 52.5098108, "lon": 13.498338, "tags": {"amenity": "fast_food", "cuisine": "asian;vietnamese", "diet:vegetarian": "yes", "indoor_seating": "yes", "name": "Lavendel Viet", "opening_hours": "Mo-Fr 10:00-22:00; Su,PH 11:00-22:00", "outdoor_seating": "no", "takeaway": "yes", "wheelchair": "no"}}, {"type": "node", "id": 648207421, "lat": 52.5098608, "lon": 13.4983676, "tags": {"addr:city": "Berlin", "addr:country": "DE", "addr:housenumber": "13", "addr:postcode": "10317", "addr:street": "Weitlingstra\u00dfe", "addr:suburb": "Rummelsburg", "amenity": "pub", "check_date:opening_hours": "2022-08-06", "name": "Bierstube bei Birgit", "opening_hours:signed": "no", "wheelchair": "no"}}, {"type": "node", "id": 648207426, "lat": 52.5099198, "lon": 13.4984136, "tags": {"amenity": "cafe", "check_date:opening_hours": "2022-08-06", "contact:mobile": "+49 152 22338888", "indoor_seating": "yes", "name": "Vinacafe Tin Tin", "opening_hours:signed": "no", "outdoor_seating": "yes", "wheelchair": "no"}}, {"type": "node", "id": 653830510, "lat": 52.4937513, "lon": 13.4990979}, {"type": "node", "id": 653830514, "lat": 52.4936226, "lon": 13.4994809}, {"type": "node", "id": 654261389, "lat": 52.5006402, "lon": 13.4808123}, {"type": "node", "id": 654262461, "lat": 52.5000849, "lon": 13.4760625, "tags": {"access": "yes", "leisure": "playground"}}, {"type": "node", "id": 655145025, "lat": 52.5000343, "lon": 13.4777222, "tags": {"addr:city": "Berlin", "addr:country": "DE", "addr:housenumber": "5B", "addr:postcode": "10317", "addr:street": "Hauptstra\u00dfe", "addr:suburb": "Rummelsburg", "amenity": "dentist", "contact:phone": "+49 30 +5589089", "entrance": "yes", "healthcare": "dentist", "name": "Zahnarzt Dr. Kalinke", "opening_hours": "Mo,Th 08:00-16:00; Tu 08:00-16:00; Fr 08:00-13:00", "operator": "Dr. med. Joachim Kalinke", "wheelchair": "yes"}}, {"type": "node", "id": 656901778, "lat": 52.5042665, "lon": 13.4769068}, {"type": "node", "id": 656901785, "lat": 52.5040114, "lon": 13.4767451}, {"type": "node", "id": 656902586, "lat": 52.5043757, "lon": 13.4814331}, {"type": "node", "id": 666062591, "lat": 52.5012324, "lon": 13.4751275}, {"type": "node", "id": 679668161, "lat": 52.5045704, "lon": 13.4947803, "tags": {"addr:city": "Berlin", "addr:country": "DE", "addr:housenumber": "76", "addr:postcode": "10317", "addr:street": "Weitlingstra\u00dfe", "addr:suburb": "Rummelsburg", "amenity": "pub", "check_date": "2024-09-05", "check_date:opening_hours": "2022-01-01", "indoor_seating": "yes", "name": "Treffer Bar", "opening_hours": "Mo-Su,PH 08:00-05:30", "outdoor_seating": "yes", "smoking": "yes", "wheelchair": "yes"}}, {"type": "node", "id": 685354648, "lat": 52.5067062, "lon": 13.4961187, "tags": {"amenity": "bar", "indoor_seating": "yes", "name": "AVCI Cocktail-Bar", "opening_hours:signed": "no", "outdoor_seating": "yes", "smoking": "yes", "wheelchair": "no"}}, {"type": "node", "id": 698789138, "lat": 52.5047687, "lon": 13.4779093, "tags": {"amenity": "fast_food", "check_date:opening_hours": "2024-06-11", "diet:vegan": "no", "diet:vegetarian": "yes", "indoor_seating": "yes", "name": "Viktoria Bistro", "opening_hours": "Mo-Fr 11:30-21:00; Su 12:00-21:00", "outdoor_seating": "yes", "wheelchair": "yes"}}, {"type": "node", "id": 698797309, "lat": 52.5040468, "lon": 13.4866048, "tags": {"addr:city": "Berlin", "addr:country": "DE", "addr:housenumber": "25", "addr:postcode": "10317", "addr:street": "Archibaldweg", "addr:suburb": "Rummelsburg", "amenity": "pub", "check_date": "2024-08-29", "check_date:opening_hours": "2022-07-17", "indoor_seating": "yes", "name": "Cafe Palme", "opening_hours": "Mo-Fr 13:00-24:00; Sa,Su 10:00-24:00", "outdoor_seating": "yes", "wheelchair": "limited"}}, {"type": "node", "id": 721661007, "lat": 52.5005578, "lon": 13.4732723}, {"type": "node", "id": 721661017, "lat": 52.5006567, "lon": 13.4729759}, {"type": "node", "id": 721661027, "lat": 52.5000746, "lon": 13.4713355}, {"type": "node", "id": 721661032, "lat": 52.5001423, "lon": 13.470198}, {"type": "node", "id": 721661039, "lat": 52.5000595, "lon": 13.4712206}, {"type": "node", "id": 721661057, "lat": 52.500122, "lon": 13.4714862}, {"type": "node", "id": 721661065, "lat": 52.4991399, "lon": 13.469354}, {"type": "node", "id": 721672420, "lat": 52.4997362, "lon": 13.4701179}, {"type": "node", "id": 721672429, "lat": 52.4997093, "lon": 13.4701576}, {"type": "node", "id": 721672476, "lat": 52.4997649, "lon": 13.4701345}, {"type": "node", "id": 768669370, "lat": 52.5013045, "lon": 13.4917129}, {"type": "node", "id": 768669371, "lat": 52.5016131, "lon": 13.4918992}, {"type": "node", "id": 822185327, "lat": 52.4970747, "lon": 13.4792801}, {"type": "node", "id": 833910409, "lat": 52.502903, "lon": 13.4843628, "tags": {"barrier": "gate"}}, {"type": "node", "id": 833910843, "lat": 52.5026873, "lon": 13.4846731, "tags": {"barrier": "gate"}}, {"type": "node", "id": 833910846, "lat": 52.5024476, "lon": 13.4848025}, {"type": "node", "id": 833910848, "lat": 52.5023875, "lon": 13.4840533}, {"type": "node", "id": 833911309, "lat": 52.502858, "lon": 13.4845711}, {"type": "node", "id": 1221366529, "lat": 52.5097357, "lon": 13.4983171, "tags": {"addr:city": "Berlin", "addr:country": "DE", "addr:housenumber": "13A", "addr:street": "Weitlingstra\u00dfe", "amenity": "bar", "check_date": "2025-01-06", "check_date:opening_hours": "2022-08-06", "indoor_seating": "yes", "name": "C&B Cafe & Bar", "opening_hours": "PH,Mo-Su 07:00-05:30", "outdoor_seating": "yes", "toilets:wheelchair": "no", "wheelchair": "no"}}, {"type": "node", "id": 1221375861, "lat": 52.508645, "lon": 13.4972631, "tags": {"addr:city": "Berlin", "addr:housenumber": "26", "addr:street": "Weitlingstra\u00dfe", "amenity": "restaurant", "check_date": "2025-02-03", "check_date:opening_hours": "2025-02-03", "cuisine": "sushi;vietnamese", "diet:vegan": "yes", "diet:vegetarian": "yes", "indoor_seating": "yes", "name": "Coco's Asia + Sushi", "opening_hours": "Mo-Fr 11:00-22:00; Sa,Su,PH 12:00-22:00", "outdoor_seating": "yes", "phone": "+49 30 52678171", "smoking": "outside", "website": "https://www.coco-sushi.de", "wheelchair": "limited"}}, {"type": "node", "id": 1257922168, "lat": 52.5030013, "lon": 13.4790344, "tags": {"addr:housenumber": "37", "addr:street": "T\u00fcrrschmidtstra\u00dfe", "amenity": "restaurant", "indoor_seating": "yes", "name": "ANOMI asian fusion kitchen", "opening_hours": "We-Mo 12:00-22:00", "outdoor_seating": "yes", "smoking": "outside", "wheelchair": "no"}}, {"type": "node", "id": 1259381367, "lat": 52.500891, "lon": 13.4937741, "tags": {"addr:city": "Berlin", "addr:housenumber": "46", "addr:postcode": "10317", "addr:street": "L\u00fcckstra\u00dfe", "amenity": "fast_food", "check_date:opening_hours": "2024-07-22", "cuisine": "kebab", "diet:vegan": "no", "diet:vegetarian": "yes", "indoor_seating": "yes", "name": "Bistro by Ossi", "opening_hours": "Mo-Su,PH 12:00-23:00", "outdoor_seating": "no", "smoking": "no", "wheelchair": "no"}}, {"type": "node", "id": 1259381376, "lat": 52.5008159, "lon": 13.4941085, "tags": {"addr:city": "Berlin", "addr:housenumber": "45", "addr:postcode": "10317", "addr:street": "L\u00fcckstra\u00dfe", "amenity": "fast_food", "check_date:opening_hours": "2024-07-22", "cuisine": "pizza", "delivery": "no", "diet:vegan": "no", "diet:vegetarian": "yes", "indoor_seating": "yes", "name": "Pizzeria Toscana", "opening_hours": "PH,Mo-Su 14:00-01:00", "opening_hours:signed": "no", "outdoor_seating": "yes", "smoking": "outside", "takeaway": "yes", "wheelchair": "no"}}, {"type": "node", "id": 1259381390, "lat": 52.5012991, "lon": 13.4933337, "tags": {"addr:city": "Berlin", "addr:housenumber": "117", "addr:postcode": "10317", "addr:street": "Weitlingstra\u00dfe", "air_conditioning": "no", "amenity": "fast_food", "cuisine": "asian", "diet:vegan": "no", "diet:vegetarian": "yes", "indoor_seating": "yes", "name": "New Asia", "opening_hours": "Su-Fr,PH 11:00-21:00", "outdoor_seating": "yes", "smoking": "outside", "wheelchair": "no"}}, {"type": "node", "id": 1270333627, "lat": 52.5061361, "lon": 13.4955614, "tags": {"addr:city": "Berlin", "addr:country": "DE", "addr:housenumber": "27", "addr:postcode": "10317", "addr:street": "Sophienstra\u00dfe", "addr:suburb": "Rummelsburg", "amenity": "cafe", "contact:instagram": "https://www.greenwallcoffee.de", "contact:phone": "+49 30 62863806", "cuisine": "coffee_shop", "diet:gluten_free": "yes", "diet:vegan": "yes", "diet:vegetarian": "yes", "indoor_seating": "yes", "internet_access": "no", "name": "Green Wall Coffee", "opening_hours": "Mo-Fr 08:00-17:00; Sa 10:00-17:00; Su off", "outdoor_seating": "yes", "payment:app": "yes", "payment:cards": "yes", "payment:cash": "yes", "payment:credit_cards": "yes", "payment:debit_cards": "yes", "payment:girocard": "yes", "payment:mastercard": "yes", "payment:visa": "yes", "smoking": "outside", "website": "https://greenwallcoffee.de", "wheelchair": "no"}}, {"type": "node", "id": 1323984172, "lat": 52.4913548, "lon": 13.4890225, "tags": {"addr:city": "Berlin", "addr:country": "DE", "addr:housenumber": "5", "addr:postcode": "10317", "addr:street": "Zur Alten Flussbadeanstalt", "addr:suburb": "Rummelsburg", "amenity": "restaurant", "capacity": "50", "check_date": "2024-10-03", "cuisine": "regional", "delivery": "no", "fax": "+49 30 42219911", "indoor_seating": "yes", "internet_access": "yes", "name": "Hafenk\u00fcche", "opening_hours:cantina": "Mo-Fr 09:00-16:00; Sa,Su off", "opening_hours:restaurant": "We-Fr 18:00-23:00; Sa,Su 12:00-24:00; Mo-Tu off", "outdoor_seating": "yes", "phone": "+49 30 42219926", "smoking": "outside", "takeaway": "no", "toilets:wheelchair": "yes", "website": "https://hafenkueche.de/", "wheelchair": "yes"}}, {"type": "node", "id": 1371452435, "lat": 52.5000509, "lon": 13.4711675}, {"type": "node", "id": 1371452438, "lat": 52.5001992, "lon": 13.471216}, {"type": "node", "id": 1371452441, "lat": 52.5002049, "lon": 13.471022}, {"type": "node", "id": 1371452442, "lat": 52.5002087, "lon": 13.471365}, {"type": "node", "id": 1371452444, "lat": 52.5003093, "lon": 13.4715704}, {"type": "node", "id": 1371452450, "lat": 52.5003147, "lon": 13.4707113}, {"type": "node", "id": 1371452454, "lat": 52.5003432, "lon": 13.473856}, {"type": "node", "id": 1371452459, "lat": 52.5003633, "lon": 13.4705707}, {"type": "node", "id": 1371452460, "lat": 52.5004431, "lon": 13.4738046}, {"type": "node", "id": 1371452462, "lat": 52.5004324, "lon": 13.4702769}, {"type": "node", "id": 1371452464, "lat": 52.5004747, "lon": 13.4737304}, {"type": "node", "id": 1393203705, "lat": 52.4963283, "lon": 13.4871146}, {"type": "node", "id": 1393203706, "lat": 52.4964925, "lon": 13.4866705}, {"type": "node", "id": 1393203707, "lat": 52.4964975, "lon": 13.4873361}, {"type": "node", "id": 1393203708, "lat": 52.4964943, "lon": 13.4872233}, {"type": "node", "id": 1393203709, "lat": 52.4965236, "lon": 13.4867131}, {"type": "node", "id": 1393203710, "lat": 52.4965313, "lon": 13.4872694}, {"type": "node", "id": 1393203711, "lat": 52.4966124, "lon": 13.4835563}, {"type": "node", "id": 1393203712, "lat": 52.4965866, "lon": 13.4864797}, {"type": "node", "id": 1393203713, "lat": 52.496616, "lon": 13.4865198}, {"type": "node", "id": 1393203715, "lat": 52.4966555, "lon": 13.4864426}, {"type": "node", "id": 1393203718, "lat": 52.4967904, "lon": 13.486616}, {"type": "node", "id": 1395765676, "lat": 52.5003464, "lon": 13.4744636}, {"type": "node", "id": 1395765678, "lat": 52.5003997, "lon": 13.471704}, {"type": "node", "id": 1395765683, "lat": 52.500421, "lon": 13.4717436}, {"type": "node", "id": 1395765685, "lat": 52.5004718, "lon": 13.4718417}, {"type": "node", "id": 1395765688, "lat": 52.5005478, "lon": 13.4719923}, {"type": "node", "id": 1395765695, "lat": 52.5007013, "lon": 13.4722393}, {"type": "node", "id": 1395765699, "lat": 52.5007392, "lon": 13.4723968}, {"type": "node", "id": 1395765701, "lat": 52.5007811, "lon": 13.472629}, {"type": "node", "id": 1395765702, "lat": 52.5008171, "lon": 13.47285}, {"type": "node", "id": 1395765703, "lat": 52.5007576, "lon": 13.4732546}, {"type": "node", "id": 1422009768, "lat": 52.507557, "lon": 13.4995249, "tags": {"addr:city": "Berlin", "addr:housenumber": "21", "addr:postcode": "10317", "addr:street": "Margaretenstra\u00dfe", "amenity": "pub", "brewery": "Augustiner", "indoor_seating": "yes", "name": "Sturgis", "opening_hours": "Tu-Th 16:00+; Fr-Su 15:00+", "outdoor_seating": "no", "smoking": "yes", "wheelchair": "no"}}, {"type": "node", "id": 1430090827, "lat": 52.5006036, "lon": 13.4753478}, {"type": "node", "id": 1465075423, "lat": 52.5047115, "lon": 13.477134, "tags": {"addr:city": "Berlin", "addr:country": "DE", "addr:housenumber": "16", "addr:postcode": "10317", "addr:street": "Kaskelstra\u00dfe", "addr:suburb": "Rummelsburg", "check_date:opening_hours": "2024-02-16", "contact:phone": "+49 30 57799869", "contact:website": "http://www.wurzelwerk-berlin.de/", "name": "Wurzelwerk Bioladen", "note": "Bioladen", "opening_hours": "Mo-Fr 09:30-19:30; Sa 09:30-14:30", "organic": "only", "payment:credit_cards": "no", "payment:debit_cards": "no", "shop": "supermarket", "source": "http://www.wurzelwerk-berlin.de/", "toilets:wheelchair": "no", "wheelchair": "limited"}}, {"type": "node", "id": 1465195692, "lat": 52.5001706, "lon": 13.4890504}, {"type": "node", "id": 1465195700, "lat": 52.500335, "lon": 13.4894314}, {"type": "node", "id": 1469522916, "lat": 52.4967262, "lon": 13.4865341, "tags": {"addr:city": "Berlin", "addr:country": "DE", "addr:housenumber": "36", "addr:postcode": "10317", "addr:street": "Hauptstra\u00dfe", "addr:suburb": "Rummelsburg"}}, {"type": "node", "id": 1633400052, "lat": 52.5085086, "lon": 13.4971695, "tags": {"addr:city": "Berlin", "addr:country": "DE", "addr:housenumber": "28", "addr:postcode": "10317", "addr:street": "Weitlingstra\u00dfe", "addr:suburb": "Rummelsburg", "amenity": "restaurant", "contact:phone": "+49 30 63962115", "cuisine": "italian;italian_pizza", "diet:vegan": "yes", "diet:vegetarian": "yes", "indoor_seating": "yes", "name": "Pizzeria Ledi", "opening_hours": "Tu-Su 15:00-23:00", "outdoor_seating": "yes", "payment:cash": "only", "smoking": "outside", "website": "https://pizzeria-ledi.de", "wheelchair": "limited"}}, {"type": "node", "id": 1681011114, "lat": 52.4913643, "lon": 13.4889483}, {"type": "node", "id": 1681011116, "lat": 52.4917558, "lon": 13.4897038}, {"type": "node", "id": 1687718440, "lat": 52.5106353, "lon": 13.4985792, "tags": {"amenity": "fast_food", "check_date": "2024-10-15", "covered": "yes", "cuisine": "german", "delivery": "no", "diet:halal": "no", "diet:kosher": "no", "diet:vegetarian": "no", "email": "azeroh@web.de", "name": "Centies", "opening_hours": "24/7", "outdoor_seating": "no", "phone": "+49 176 79000027", "smoking": "no", "takeaway": "only", "wheelchair": "yes"}}, {"type": "node", "id": 1707013603, "lat": 52.5068439, "lon": 13.4962055, "tags": {"amenity": "bar", "check_date": "2025-01-06", "cuisine": "german", "indoor_seating": "yes", "name": "Emil's Bar", "opening_hours:signed": "no", "outdoor_seating": "yes", "smoking": "outside", "toilets": "yes", "toilets:wheelchair": "no", "wheelchair": "limited"}}, {"type": "node", "id": 1710025846, "lat": 52.5047366, "lon": 13.4955457, "tags": {"addr:city": "Berlin", "addr:country": "DE", "addr:housenumber": "71", "addr:postcode": "10317", "addr:street": "Weitlingstra\u00dfe", "addr:suburb": "Rummelsburg", "amenity": "fast_food", "brand": "Domino\u2019s Pizza", "brand:wikidata": "Q1691878", "brand:wikipedia": "de:Domino\u2019s Pizza Deutschland", "check_date": "2024-09-05", "check_date:opening_hours": "2021-12-15", "contact:phone": "+49 30 68077222", "contact:website": "https://www.dominos.de/kaufhaus/de-berlinfriedrichsfelde-33924", "cuisine": "pizza", "delivery": "yes", "diet:vegan": "yes", "diet:vegetarian": "yes", "indoor_seating": "no", "name": "Domino\u2019s", "not:brand:wikidata": "Q839466", "opening_hours": "Mo-Su 11:00-23:00", "outdoor_seating": "no", "smoking": "no", "takeaway": "only", "wheelchair": "yes"}}, {"type": "node", "id": 1716403198, "lat": 52.4955659, "lon": 13.4808654}, {"type": "node", "id": 1775174624, "lat": 52.50122, "lon": 13.4921233}, {"type": "node", "id": 1800422978, "lat": 52.5031006, "lon": 13.4761498}, {"type": "node", "id": 1800422986, "lat": 52.5028762, "lon": 13.475529}, {"type": "node", "id": 1800422987, "lat": 52.5028715, "lon": 13.4764914}, {"type": "node", "id": 1800422989, "lat": 52.5033571, "lon": 13.4763138}, {"type": "node", "id": 1984032064, "lat": 52.4937476, "lon": 13.5043551}, {"type": "node", "id": 1984032068, "lat": 52.4935259, "lon": 13.5042465}, {"type": "node", "id": 1984032074, "lat": 52.4936788, "lon": 13.5036908}, {"type": "node", "id": 1984032076, "lat": 52.4938931, "lon": 13.5038505}, {"type": "node", "id": 2159932177, "lat": 52.5052424, "lon": 13.4957527, "tags": {"entrance": "shop"}}, {"type": "node", "id": 2168885825, "lat": 52.4923395, "lon": 13.4861528}, {"type": "node", "id": 2168885827, "lat": 52.4923497, "lon": 13.4860838}, {"type": "node", "id": 2168885828, "lat": 52.4923647, "lon": 13.4862912}, {"type": "node", "id": 2168885832, "lat": 52.4924224, "lon": 13.4859382}, {"type": "node", "id": 2168885836, "lat": 52.4925713, "lon": 13.4857628}, {"type": "node", "id": 2168885837, "lat": 52.4926088, "lon": 13.485774}, {"type": "node", "id": 2168885839, "lat": 52.4925907, "lon": 13.4854996}, {"type": "node", "id": 2168885840, "lat": 52.492619, "lon": 13.4856248}, {"type": "node", "id": 2168885841, "lat": 52.4926451, "lon": 13.4858226}, {"type": "node", "id": 2168885842, "lat": 52.4926587, "lon": 13.4853544}, {"type": "node", "id": 2168885845, "lat": 52.4928451, "lon": 13.4853001}, {"type": "node", "id": 2168885847, "lat": 52.4929155, "lon": 13.4851527}, {"type": "node", "id": 2168885853, "lat": 52.4932931, "lon": 13.4831723}, {"type": "node", "id": 2168885855, "lat": 52.4933194, "lon": 13.4830073}, {"type": "node", "id": 2168885859, "lat": 52.493377, "lon": 13.4835834}, {"type": "node", "id": 2168885860, "lat": 52.4934004, "lon": 13.4837798}, {"type": "node", "id": 2168885861, "lat": 52.4934017, "lon": 13.4829045}, {"type": "node", "id": 2168885865, "lat": 52.4937393, "lon": 13.4824799}, {"type": "node", "id": 2168885875, "lat": 52.4945182, "lon": 13.4816739}, {"type": "node", "id": 2168885877, "lat": 52.4946203, "lon": 13.4814548}, {"type": "node", "id": 2168885884, "lat": 52.4950122, "lon": 13.4809626}, {"type": "node", "id": 2168885886, "lat": 52.4951289, "lon": 13.4807828}, {"type": "node", "id": 2168885889, "lat": 52.4952362, "lon": 13.4807273}, {"type": "node", "id": 2168885896, "lat": 52.4957862, "lon": 13.480395}, {"type": "node", "id": 2168885901, "lat": 52.4959272, "lon": 13.4800608}, {"type": "node", "id": 2168885904, "lat": 52.4961434, "lon": 13.479778}, {"type": "node", "id": 2168885907, "lat": 52.4963716, "lon": 13.4794126}, {"type": "node", "id": 2168885908, "lat": 52.4965299, "lon": 13.4792175}, {"type": "node", "id": 2168885909, "lat": 52.4966114, "lon": 13.4791027}, {"type": "node", "id": 2319475202, "lat": 52.4993696, "lon": 13.4693597}, {"type": "node", "id": 2389572558, "lat": 52.5003559, "lon": 13.4718651}, {"type": "node", "id": 2389572564, "lat": 52.5004216, "lon": 13.4720229}, {"type": "node", "id": 2389572566, "lat": 52.5004262, "lon": 13.4719445}, {"type": "node", "id": 2408062578, "lat": 52.5112525, "lon": 13.5011854}, {"type": "node", "id": 2408062586, "lat": 52.5114881, "lon": 13.5016355}, {"type": "node", "id": 2557011341, "lat": 52.5101483, "lon": 13.4989402}, {"type": "node", "id": 2706852525, "lat": 52.5064102, "lon": 13.4752721, "tags": {"addr:city": "Berlin", "addr:country": "DE", "addr:housenumber": "10", "addr:postcode": "10317", "addr:street": "Schreiberhauer Stra\u00dfe", "addr:suburb": "Rummelsburg", "amenity": "fast_food", "check_date:opening_hours": "2024-02-11", "diet:vegetarian": "no", "indoor_seating": "yes", "name": "Schlemmerbuffet", "opening_hours": "Mo-Th 05:30-14:00; Fr 05:30-10:00", "outdoor_seating": "yes", "smoking": "outside", "wheelchair": "yes"}}, {"type": "node", "id": 2714266806, "lat": 52.4933588, "lon": 13.5045904}, {"type": "node", "id": 2789821399, "lat": 52.5002258, "lon": 13.4742558, "tags": {"description": "Kontaktschleife der Fahrradz\u00e4hlstelle", "display": "no", "man_made": "monitoring_station", "monitoring:bicycle": "yes", "monitoring:traffic": "yes", "name": "Z\u00e4hlstelle Paul- und Paula-Uferweg Richtung Osten / Westen", "operator": "Senatsverwaltung f\u00fcr Stadtentwicklung Berlin", "operator:type": "government", "operator:wikidata": "Q27978799", "recording": "yes", "recording:automated": "yes", "website": "https://www.stadtentwicklung.berlin.de/verkehr/lenkung/vlb/de/radzaehlungen.shtml", "website2": "http://www.eco-public.com/public2/?id=101033035", "website3": "http://www.eco-public.com/public2/?id=102033035"}}, {"type": "node", "id": 2789821401, "lat": 52.500197, "lon": 13.4742232}, {"type": "node", "id": 2789821402, "lat": 52.5002993, "lon": 13.4743468, "tags": {"description": "Kontaktschleife der Fahrradz\u00e4hlstelle", "display": "no", "man_made": "monitoring_station", "monitoring:bicycle": "yes", "monitoring:traffic": "yes", "name": "Z\u00e4hlstelle Paul- und Paula-Uferweg Richtung Osten / Westen", "operator": "Eco-Compteur", "operator:wikidata": "Q21074971", "recording": "yes", "recording:automated": "yes", "ref": "100032801", "website": "https://www.stadtentwicklung.berlin.de/verkehr/lenkung/vlb/de/radzaehlungen.shtml", "website2": "http://www.eco-public.com/public2/?id=101033035", "website3": "http://www.eco-public.com/public2/?id=102033035"}}, {"type": "node", "id": 2806467180, "lat": 52.4944455, "lon": 13.5007042}, {"type": "node", "id": 2806467200, "lat": 52.4953505, "lon": 13.4985781}, {"type": "node", "id": 2844000693, "lat": 52.4954292, "lon": 13.4983194}, {"type": "node", "id": 2844016801, "lat": 52.4972101, "lon": 13.4943873}, {"type": "node", "id": 2893545189, "lat": 52.501523, "lon": 13.4908156, "tags": {"addr:city": "Berlin", "addr:country": "DE", "addr:housenumber": "1", "addr:postcode": "10317", "addr:street": "Emanuelstra\u00dfe", "addr:suburb": "Rummelsburg", "amenity": "restaurant", "check_date": "2024-09-05", "contact:email": "info@restaurantyuumi.com", "contact:phone": "+49 30 24355881", "contact:website": "https://www.restaurantyuumi.com", "cuisine": "japanese", "diet:vegan": "no", "diet:vegetarian": "yes", "indoor_seating": "yes", "name": "Yuumi", "opening_hours": "Tu-Sa 19:00+ || \"Nur mit Reservierung\"", "outdoor_seating": "no", "smoking": "no", "wheelchair": "no"}}, {"type": "node", "id": 2902791122, "lat": 52.5003794, "lon": 13.4737745}, {"type": "node", "id": 2902791123, "lat": 52.5004055, "lon": 13.4737671}, {"type": "node", "id": 2902791135, "lat": 52.5005324, "lon": 13.4734345}, {"type": "node", "id": 2902791142, "lat": 52.50045, "lon": 13.4736263}, {"type": "node", "id": 2902791156, "lat": 52.4992949, "lon": 13.4695389}, {"type": "node", "id": 2995518386, "lat": 52.4921158, "lon": 13.5060477}, {"type": "node", "id": 2995518393, "lat": 52.4925771, "lon": 13.5062074}, {"type": "node", "id": 3062599042, "lat": 52.5105052, "lon": 13.4987272}, {"type": "node", "id": 3062599043, "lat": 52.5105267, "lon": 13.4986935}, {"type": "node", "id": 3062599044, "lat": 52.5105417, "lon": 13.49879}, {"type": "node", "id": 3062599045, "lat": 52.5105632, "lon": 13.4987563}, {"type": "node", "id": 3177981420, "lat": 52.5098127, "lon": 13.4995186}, {"type": "node", "id": 3177981421, "lat": 52.5098822, "lon": 13.4991462}, {"type": "node", "id": 3177981422, "lat": 52.5098902, "lon": 13.4995828}, {"type": "node", "id": 3177981423, "lat": 52.5098945, "lon": 13.4995566}, {"type": "node", "id": 3177981424, "lat": 52.5099257, "lon": 13.4996008}, {"type": "node", "id": 3177981425, "lat": 52.5099299, "lon": 13.4995763}, {"type": "node", "id": 3177981426, "lat": 52.5099565, "lon": 13.4991794}, {"type": "node", "id": 3177981429, "lat": 52.5100218, "lon": 13.4988403}, {"type": "node", "id": 3177981430, "lat": 52.5100492, "lon": 13.4996343}, {"type": "node", "id": 3179301534, "lat": 52.510073, "lon": 13.4987348}, {"type": "node", "id": 3179301537, "lat": 52.510135, "lon": 13.499169}, {"type": "node", "id": 3179301541, "lat": 52.5101601, "lon": 13.499033}, {"type": "node", "id": 3179301546, "lat": 52.5101754, "lon": 13.4989517}, {"type": "node", "id": 3189414961, "lat": 52.5024732, "lon": 13.4940034, "tags": {"addr:city": "Berlin", "addr:country": "DE", "addr:housenumber": "97", "addr:postcode": "10317", "addr:street": "Weitlingstra\u00dfe", "addr:suburb": "Rummelsburg", "amenity": "cafe", "name": "Caf\u00e9 Wostok", "opening_hours": "Fr,Sa 16:00-20:00"}}, {"type": "node", "id": 3228925964, "lat": 52.5054002, "lon": 13.4762149}, {"type": "node", "id": 3228925966, "lat": 52.5054169, "lon": 13.476154}, {"type": "node", "id": 3228925981, "lat": 52.5056002, "lon": 13.4762754}, {"type": "node", "id": 3228925985, "lat": 52.5056378, "lon": 13.4761224}, {"type": "node", "id": 3228949953, "lat": 52.5054528, "lon": 13.4760059}, {"type": "node", "id": 3228949954, "lat": 52.5054725, "lon": 13.4759289}, {"type": "node", "id": 3228949955, "lat": 52.5056684, "lon": 13.4763646}, {"type": "node", "id": 3228949956, "lat": 52.5058081, "lon": 13.4761978}, {"type": "node", "id": 3247240561, "lat": 52.5098605, "lon": 13.5033924, "tags": {"addr:city": "Berlin", "addr:housenumber": "37", "addr:postcode": "10317", "addr:street": "Einbecker Stra\u00dfe", "amenity": "doctors", "check_date:opening_hours": "2022-01-08", "contact:phone": "+49 30 5251660", "healthcare": "doctor", "healthcare:speciality": "gynaecology", "name": "Dr. med. Jana B\u00f6ldt", "opening_hours": "Mo,Th 13:00-19:00; Tu,We 08:00-13:00; Fr 08:00-11:00", "phone": "+49 30 5251660", "website": "https://www.frauenarzt-boeldt.de", "wheelchair": "no"}}, {"type": "node", "id": 3342853687, "lat": 52.4967824, "lon": 13.482013, "tags": {"air_conditioning": "no", "amenity": "cafe", "changing_table": "no", "check_date:opening_hours": "2025-06-29", "contact:facebook": "https://m.facebook.com/Crepesamanger/", "contact:phone": "+49171 9598303", "diet:gluten_free": "yes", "diet:vegan": "no", "diet:vegetarian": "yes", "email": "crepesamanger@gmail.com", "highchair": "yes", "indoor_seating": "yes", "internet_access": "no", "name": "Cr\u00eapes \u00e0 manger", "opening_hours": "Oct-Apr: Fr-Su 12:00-18:00; May-Sep: Fr-Su,PH 12:00-20:00", "organic": "yes", "outdoor_seating": "garden", "payment:credit_cards": "yes", "payment:debit_cards": "yes", "phone": "+49 30 2834519", "smoking": "outside", "toilets": "no", "website": "http://https://www.crepesamanger.com/", "wheelchair": "no"}}, {"type": "node", "id": 3342923868, "lat": 52.4969451, "lon": 13.4800334}, {"type": "node", "id": 3464843945, "lat": 52.5027909, "lon": 13.4813125}, {"type": "node", "id": 3464843948, "lat": 52.5029811, "lon": 13.4822111}, {"type": "node", "id": 3464843952, "lat": 52.5031117, "lon": 13.4811565}, {"type": "node", "id": 3464843960, "lat": 52.5032638, "lon": 13.4820735}, {"type": "node", "id": 3481251418, "lat": 52.5052057, "lon": 13.4973127}, {"type": "node", "id": 3481251429, "lat": 52.5055517, "lon": 13.4975127}, {"type": "node", "id": 3481251438, "lat": 52.5056768, "lon": 13.4968886}, {"type": "node", "id": 3593105706, "lat": 52.5044734, "lon": 13.4882568, "tags": {"access": "private", "leisure": "playground"}}, {"type": "node", "id": 3593174868, "lat": 52.5055177, "lon": 13.496797}, {"type": "node", "id": 3622434200, "lat": 52.4995241, "lon": 13.4694777}, {"type": "node", "id": 3622434206, "lat": 52.5005127, "lon": 13.4698505}, {"type": "node", "id": 3653030827, "lat": 52.4968115, "lon": 13.4960016}, {"type": "node", "id": 3653030828, "lat": 52.4968238, "lon": 13.4959512}, {"type": "node", "id": 3662858526, "lat": 52.4972111, "lon": 13.4961389}, {"type": "node", "id": 3741754195, "lat": 52.5049669, "lon": 13.4965732, "tags": {"addr:city": "Berlin", "addr:country": "DE", "addr:housenumber": "64", "addr:postcode": "10317", "addr:street": "W\u00f6nnichstra\u00dfe", "addr:suburb": "Rummelsburg", "amenity": "doctors", "check_date:opening_hours": "2024-03-24", "contact:phone": "+49 30 51009310", "healthcare": "doctor", "healthcare:speciality": "internal", "name": "Dr. med. Aline Kahl", "opening_hours": "Mo 08:00-14:00, Tu 15:00-19:00, We 08:00-14:00, Th 07:00-11:00", "toilets:wheelchair": "yes", "wheelchair": "yes"}}, {"type": "node", "id": 3741811284, "lat": 52.5052556, "lon": 13.500017, "tags": {"addr:city": "Berlin", "addr:country": "DE", "addr:housenumber": "1", "addr:postcode": "10315", "addr:street": "Bietzkestra\u00dfe", "amenity": "doctors", "check_date:opening_hours": "2025-03-24", "healthcare": "doctor", "healthcare:speciality": "general", "name": "Andreas B\u00e4r", "opening_hours": "Mo 08:00-13:00; Tu,We,Fr 08:00-12:00; Th 13:00-18:00", "operator": "Andreas B\u00e4r", "phone": "+49305251703", "wheelchair": "no"}}, {"type": "node", "id": 3742323290, "lat": 52.5077424, "lon": 13.4974554, "tags": {"addr:city": "Berlin", "addr:country": "DE", "addr:housenumber": "4", "addr:postcode": "10317", "addr:street": "Margaretenstra\u00dfe", "addr:suburb": "Rummelsburg", "amenity": "fast_food", "brand": "Pizza Max", "brand:wikidata": "Q114189329", "contact:phone": "+49 30 52696060", "contact:website": "http://www.pizzamax.de", "cuisine": "pizza", "delivery": "yes", "diet:vegetarian": "yes", "drive_through": "no", "name": "Pizza Max", "opening_hours:signed": "no", "outdoor_seating": "no", "smoking": "no", "takeaway": "only", "toilets:wheelchair": "no", "wheelchair": "no"}}, {"type": "node", "id": 3743762184, "lat": 52.5050387, "lon": 13.4965183}, {"type": "node", "id": 3743762210, "lat": 52.5050711, "lon": 13.496368}, {"type": "node", "id": 3743762325, "lat": 52.5051058, "lon": 13.4963882}, {"type": "node", "id": 3743762333, "lat": 52.5051439, "lon": 13.4961794}, {"type": "node", "id": 3743762338, "lat": 52.5051499, "lon": 13.4961514}, {"type": "node", "id": 3743762339, "lat": 52.50515, "lon": 13.496183}, {"type": "node", "id": 3743762341, "lat": 52.5051557, "lon": 13.4961548}, {"type": "node", "id": 3743762391, "lat": 52.5052479, "lon": 13.4957272}, {"type": "node", "id": 3743762483, "lat": 52.5054822, "lon": 13.4967764}, {"type": "node", "id": 3743762494, "lat": 52.5055015, "lon": 13.4966867}, {"type": "node", "id": 3743762518, "lat": 52.5055889, "lon": 13.4967376}, {"type": "node", "id": 3743762520, "lat": 52.5055984, "lon": 13.4966933}, {"type": "node", "id": 3743762534, "lat": 52.5056364, "lon": 13.4966153}, {"type": "node", "id": 3743762544, "lat": 52.5056678, "lon": 13.4967336}, {"type": "node", "id": 3743762547, "lat": 52.5056869, "lon": 13.4966447}, {"type": "node", "id": 3743762575, "lat": 52.5057632, "lon": 13.496027}, {"type": "node", "id": 3836099114, "lat": 52.502843, "lon": 13.4755708}, {"type": "node", "id": 3868389440, "lat": 52.5014742, "lon": 13.492273}, {"type": "node", "id": 3868399880, "lat": 52.5011775, "lon": 13.4903229}, {"type": "node", "id": 3868399934, "lat": 52.5013494, "lon": 13.4904694}, {"type": "node", "id": 3868399949, "lat": 52.5014278, "lon": 13.490534}, {"type": "node", "id": 3869448422, "lat": 52.5034917, "lon": 13.4954453}, {"type": "node", "id": 3869448425, "lat": 52.5035692, "lon": 13.4963611}, {"type": "node", "id": 3869448428, "lat": 52.5035473, "lon": 13.4951825}, {"type": "node", "id": 3869448438, "lat": 52.5038873, "lon": 13.4948088}, {"type": "node", "id": 3869448445, "lat": 52.5038357, "lon": 13.4965142}, {"type": "node", "id": 3869448455, "lat": 52.5041458, "lon": 13.4949624}, {"type": "node", "id": 3873919794, "lat": 52.5035016, "lon": 13.4732595, "tags": {"amenity": "restaurant", "check_date": "2024-09-05", "diet:vegan": "yes", "diet:vegetarian": "yes", "indoor_seating": "yes", "name": "Zhou's Five", "opening_hours": "Mo-Su,PH 12:00-23:00", "opening_hours:covid19": "off", "outdoor_seating": "yes", "phone": "+49 30 67952100", "smoking": "outside", "toilets:wheelchair": "yes", "website": "https://zhousfive.de/", "wheelchair": "yes"}}, {"type": "node", "id": 3880035204, "lat": 52.5029251, "lon": 13.4778428}, {"type": "node", "id": 3880035206, "lat": 52.5029043, "lon": 13.4773369}, {"type": "node", "id": 3887494542, "lat": 52.5082623, "lon": 13.5032218, "tags": {"barrier": "gate", "foot": "yes"}}, {"type": "node", "id": 3887494559, "lat": 52.5086988, "lon": 13.5028751}, {"type": "node", "id": 3887494561, "lat": 52.5087114, "lon": 13.502836}, {"type": "node", "id": 3887494563, "lat": 52.5087659, "lon": 13.5032614}, {"type": "node", "id": 3887494567, "lat": 52.5088434, "lon": 13.5030026}, {"type": "node", "id": 3887494575, "lat": 52.5091313, "lon": 13.5032052}, {"type": "node", "id": 3887494616, "lat": 52.5095708, "lon": 13.5035852}, {"type": "node", "id": 3887620012, "lat": 52.5029211, "lon": 13.4773457}, {"type": "node", "id": 3887620060, "lat": 52.5030929, "lon": 13.4779502}, {"type": "node", "id": 3887620112, "lat": 52.5031639, "lon": 13.4759083}, {"type": "node", "id": 3887620132, "lat": 52.5032069, "lon": 13.4757437}, {"type": "node", "id": 3887620161, "lat": 52.5032527, "lon": 13.4767294}, {"type": "node", "id": 3887620180, "lat": 52.5032932, "lon": 13.476567}, {"type": "node", "id": 3887620544, "lat": 52.5039109, "lon": 13.4771649}, {"type": "node", "id": 3887620566, "lat": 52.5039572, "lon": 13.4769738}, {"type": "node", "id": 3887620625, "lat": 52.5040907, "lon": 13.4823082}, {"type": "node", "id": 3887620655, "lat": 52.5041244, "lon": 13.4821786}, {"type": "node", "id": 3887620676, "lat": 52.504166, "lon": 13.4773301}, {"type": "node", "id": 3887620708, "lat": 52.5042037, "lon": 13.477173}, {"type": "node", "id": 4012848704, "lat": 52.5030327, "lon": 13.4774178}, {"type": "node", "id": 4021339040, "lat": 52.5029859, "lon": 13.4879532, "tags": {"addr:city": "Berlin", "addr:country": "DE", "addr:housenumber": "8B", "addr:postcode": "10317", "addr:street": "Leopoldstra\u00dfe", "addr:suburb": "Rummelsburg", "check_date": "2023-05-14", "contact:phone": "+49 30 26345696", "contact:website": "http://www.robert-wallach.de/", "healthcare": "psychotherapist", "healthcare:speciality": "depth", "name": "Praxis f\u00fcr Psychotherapie und Psychoanalyse Dipl.-Psych. Robert Wallach", "opening_hours": "\"nach Vereinbarung\"", "operator": "Dipl.-Psych. Robert Wallach", "wheelchair": "yes"}}, {"type": "node", "id": 4031251227, "lat": 52.4946215, "lon": 13.5010877}, {"type": "node", "id": 4097945375, "lat": 52.498974, "lon": 13.4930899}, {"type": "node", "id": 4097945378, "lat": 52.4991408, "lon": 13.4928189}, {"type": "node", "id": 4110028312, "lat": 52.494575, "lon": 13.4833085}, {"type": "node", "id": 4110028338, "lat": 52.4958754, "lon": 13.4825813}, {"type": "node", "id": 4110028339, "lat": 52.4958861, "lon": 13.4825137}, {"type": "node", "id": 4110028340, "lat": 52.4959093, "lon": 13.4826886}, {"type": "node", "id": 4110028355, "lat": 52.4962469, "lon": 13.4818385}, {"type": "node", "id": 4110034674, "lat": 52.4938117, "lon": 13.4838245}, {"type": "node", "id": 4110034687, "lat": 52.4944352, "lon": 13.4836328}, {"type": "node", "id": 4110034809, "lat": 52.4967702, "lon": 13.4804164}, {"type": "node", "id": 4110034833, "lat": 52.4981642, "lon": 13.4794322}, {"type": "node", "id": 4110034834, "lat": 52.4982494, "lon": 13.4792434}, {"type": "node", "id": 4110034837, "lat": 52.4983858, "lon": 13.4797051}, {"type": "node", "id": 4110034838, "lat": 52.4984723, "lon": 13.4795147}, {"type": "node", "id": 4110034839, "lat": 52.4985463, "lon": 13.4798519}, {"type": "node", "id": 4110034841, "lat": 52.4986199, "lon": 13.4796888}, {"type": "node", "id": 4110034845, "lat": 52.4988885, "lon": 13.4802727}, {"type": "node", "id": 4110034852, "lat": 52.498964, "lon": 13.4801096}, {"type": "node", "id": 4135342186, "lat": 52.4952154, "lon": 13.4820036}, {"type": "node", "id": 4135342187, "lat": 52.4954718, "lon": 13.4814699}, {"type": "node", "id": 4135342188, "lat": 52.4955551, "lon": 13.4815664}, {"type": "node", "id": 4135344289, "lat": 52.4957745, "lon": 13.4811295}, {"type": "node", "id": 4302090187, "lat": 52.5105171, "lon": 13.4983692, "tags": {"amenity": "fast_food", "covered": "yes", "cuisine": "german", "diet:vegetarian": "yes", "indoor_seating": "no", "name": "Cuccis", "opening_hours": "Mo-Sa 05:00-20:00", "outdoor_seating": "no", "payment:credit_cards": "yes", "payment:debit_cards": "yes", "source": "Garmin Oregon 550", "takeaway": "only", "wheelchair": "yes"}}, {"type": "node", "id": 4302091802, "lat": 52.5092208, "lon": 13.4969121}, {"type": "node", "id": 4302091851, "lat": 52.5093079, "lon": 13.4967849}, {"type": "node", "id": 4302091854, "lat": 52.5093109, "lon": 13.4970798}, {"type": "node", "id": 4302091864, "lat": 52.5093263, "lon": 13.4970766}, {"type": "node", "id": 4302091872, "lat": 52.5093424, "lon": 13.4970765}, {"type": "node", "id": 4302091877, "lat": 52.5093596, "lon": 13.4970799}, {"type": "node", "id": 4302091882, "lat": 52.5093812, "lon": 13.4970897}, {"type": "node", "id": 4302091903, "lat": 52.5094329, "lon": 13.4970132}, {"type": "node", "id": 4302091924, "lat": 52.5094869, "lon": 13.4972477}, {"type": "node", "id": 4302091934, "lat": 52.5095271, "lon": 13.497185}, {"type": "node", "id": 4302091951, "lat": 52.5095804, "lon": 13.4974085}, {"type": "node", "id": 4302091964, "lat": 52.5096191, "lon": 13.4973476}, {"type": "node", "id": 4302092159, "lat": 52.5110132, "lon": 13.4993646}, {"type": "node", "id": 4302092165, "lat": 52.5110405, "lon": 13.4992241}, {"type": "node", "id": 4302092170, "lat": 52.511056, "lon": 13.499387}, {"type": "node", "id": 4302092178, "lat": 52.5110833, "lon": 13.4992464}, {"type": "node", "id": 4381833723, "lat": 52.4951475, "lon": 13.4819331}, {"type": "node", "id": 4497557409, "lat": 52.4982069, "lon": 13.4780762}, {"type": "node", "id": 4497557410, "lat": 52.4982279, "lon": 13.4780336}, {"type": "node", "id": 4497557413, "lat": 52.498286, "lon": 13.4780199}, {"type": "node", "id": 4497557419, "lat": 52.4983319, "lon": 13.4783123}, {"type": "node", "id": 4497557420, "lat": 52.4983832, "lon": 13.4780197}, {"type": "node", "id": 4497557421, "lat": 52.4983925, "lon": 13.4784245}, {"type": "node", "id": 4497557422, "lat": 52.498443, "lon": 13.4780338}, {"type": "node", "id": 4497557423, "lat": 52.4985025, "lon": 13.4780503}, {"type": "node", "id": 4497557425, "lat": 52.4985498, "lon": 13.4780878}, {"type": "node", "id": 4528376828, "lat": 52.492549, "lon": 13.5062589}, {"type": "node", "id": 4530380969, "lat": 52.5054918, "lon": 13.4967319, "tags": {"access": "private", "amenity": "loading_dock", "entrance": "service", "level": "0"}}, {"type": "node", "id": 4595174279, "lat": 52.5036091, "lon": 13.4795316, "tags": {"addr:city": "Berlin", "addr:country": "DE", "addr:housenumber": "8", "addr:postcode": "10317", "addr:street": "Geusenstra\u00dfe", "addr:suburb": "Rummelsburg", "amenity": "doctors", "check_date": "2023-08-11", "contact:mobile": "+49 178 1373781", "contact:phone": "+49 30 30346346", "description": "klassische Hom\u00f6opathie", "healthcare": "doctor", "healthcare:speciality": "homeopathy", "name": "Barbara Teigelkamp", "opening_hours": "\"Termine nach telefonischer Vereinbarung\"", "wheelchair": "no"}}, {"type": "node", "id": 4639806230, "lat": 52.5027112, "lon": 13.4970095}, {"type": "node", "id": 4639806231, "lat": 52.5026436, "lon": 13.4973095}, {"type": "node", "id": 4639806232, "lat": 52.5025487, "lon": 13.4972518}, {"type": "node", "id": 4639806233, "lat": 52.5026164, "lon": 13.4969517}, {"type": "node", "id": 4639964143, "lat": 52.5052419, "lon": 13.4971338}, {"type": "node", "id": 4704975520, "lat": 52.5034512, "lon": 13.4925067, "tags": {"access": "private", "leisure": "playground"}}, {"type": "node", "id": 4802157418, "lat": 52.4932592, "lon": 13.5044954}, {"type": "node", "id": 4802157721, "lat": 52.4932099, "lon": 13.5045489}, {"type": "node", "id": 4806911720, "lat": 52.5083814, "lon": 13.4974682, "tags": {"addr:city": "Berlin", "addr:housenumber": "29", "addr:postcode": "10317", "addr:street": "Weitlingstra\u00dfe", "amenity": "fast_food", "check_date": "2024-09-08", "cuisine": "african", "diet:lactose_free": "yes", "diet:vegan": "yes", "diet:vegetarian": "yes", "drive_through": "no", "level": "0", "name": "Kilimanjaro Wraps & Bowls", "payment:account_cards": "yes", "payment:app": "yes", "payment:apple_pay": "yes", "payment:cards": "yes", "payment:cash": "yes", "payment:contactless": "yes", "payment:credit_cards": "yes", "payment:debit_cards": "yes", "takeaway": "yes"}}, {"type": "node", "id": 4807140263, "lat": 52.5010568, "lon": 13.490219}, {"type": "node", "id": 4840232748, "lat": 52.4981477, "lon": 13.4793954}, {"type": "node", "id": 4840232749, "lat": 52.4981496, "lon": 13.4793522}, {"type": "node", "id": 4840232750, "lat": 52.4981625, "lon": 13.4793183}, {"type": "node", "id": 4840232751, "lat": 52.4981842, "lon": 13.4792722}, {"type": "node", "id": 4840232752, "lat": 52.4982035, "lon": 13.479233}, {"type": "node", "id": 4840232753, "lat": 52.4982263, "lon": 13.4792214}, {"type": "node", "id": 5001529700, "lat": 52.5025731, "lon": 13.4881867}, {"type": "node", "id": 5001529718, "lat": 52.502586, "lon": 13.4881235}, {"type": "node", "id": 5001529719, "lat": 52.5025666, "lon": 13.4881116}, {"type": "node", "id": 5001529720, "lat": 52.5025425, "lon": 13.4881604}, {"type": "node", "id": 5001530221, "lat": 52.5026736, "lon": 13.4880047}, {"type": "node", "id": 5001530222, "lat": 52.5026658, "lon": 13.4880381}, {"type": "node", "id": 5001530224, "lat": 52.5026612, "lon": 13.4880426}, {"type": "node", "id": 5001530226, "lat": 52.502654, "lon": 13.4880457}, {"type": "node", "id": 5001530228, "lat": 52.5026437, "lon": 13.4880471}, {"type": "node", "id": 5001530229, "lat": 52.5026359, "lon": 13.4880448}, {"type": "node", "id": 5001530230, "lat": 52.5026261, "lon": 13.4880401}, {"type": "node", "id": 5001530231, "lat": 52.5026181, "lon": 13.4880361}, {"type": "node", "id": 5001530232, "lat": 52.5026087, "lon": 13.4880308}, {"type": "node", "id": 5001530233, "lat": 52.5025995, "lon": 13.488026}, {"type": "node", "id": 5001530234, "lat": 52.5025916, "lon": 13.4880221}, {"type": "node", "id": 5001530236, "lat": 52.5025831, "lon": 13.4880109}, {"type": "node", "id": 5001530238, "lat": 52.5025805, "lon": 13.4879988}, {"type": "node", "id": 5001530240, "lat": 52.50258, "lon": 13.4879859}, {"type": "node", "id": 5001530243, "lat": 52.502584, "lon": 13.4879629}, {"type": "node", "id": 5001530244, "lat": 52.5025936, "lon": 13.4879387}, {"type": "node", "id": 5001530245, "lat": 52.5025972, "lon": 13.4879359}, {"type": "node", "id": 5001530247, "lat": 52.5026054, "lon": 13.4879331}, {"type": "node", "id": 5001530248, "lat": 52.5026191, "lon": 13.4879421}, {"type": "node", "id": 5001530249, "lat": 52.5026329, "lon": 13.4879508}, {"type": "node", "id": 5001530250, "lat": 52.50265, "lon": 13.4879626}, {"type": "node", "id": 5001530251, "lat": 52.5026599, "lon": 13.4879696}, {"type": "node", "id": 5001530252, "lat": 52.5026635, "lon": 13.4879738}, {"type": "node", "id": 5001530253, "lat": 52.5026666, "lon": 13.4879775}, {"type": "node", "id": 5001530254, "lat": 52.5026693, "lon": 13.4879828}, {"type": "node", "id": 5001530255, "lat": 52.5026721, "lon": 13.487991}, {"type": "node", "id": 5001530256, "lat": 52.5026741, "lon": 13.4879983}, {"type": "node", "id": 5001539601, "lat": 52.5026454, "lon": 13.4878847}, {"type": "node", "id": 5001539602, "lat": 52.5026881, "lon": 13.4878925}, {"type": "node", "id": 5001539603, "lat": 52.5026925, "lon": 13.4877745}, {"type": "node", "id": 5001539604, "lat": 52.5026544, "lon": 13.4877424}, {"type": "node", "id": 5060755984, "lat": 52.5028093, "lon": 13.4838881, "tags": {"barrier": "gate"}}, {"type": "node", "id": 5060755987, "lat": 52.5025905, "lon": 13.4839712, "tags": {"barrier": "gate"}}, {"type": "node", "id": 5060755988, "lat": 52.5029351, "lon": 13.4838419}, {"type": "node", "id": 5067068741, "lat": 52.4935304, "lon": 13.4994279}, {"type": "node", "id": 5075249535, "lat": 52.5043438, "lon": 13.4971701, "tags": {"addr:housenumber": "69", "addr:street": "W\u00f6nnichstra\u00dfe", "amenity": "restaurant", "contact:email": "info@holi-berlin.de", "contact:phone": "+49 30 51062660", "contact:website": "https://restaurant-holis.de", "cuisine": "german", "diet:vegetarian": "yes", "indoor_seating": "yes", "name": "Restaurant HOLI's", "opening_hours": "Tu,We 17:00-21:00; Th-Sa 12:00-21:00; Su,Mo off", "outdoor_seating": "yes", "smoking": "outside", "wheelchair": "yes"}}, {"type": "node", "id": 5079804203, "lat": 52.4902153, "lon": 13.4913623}, {"type": "node", "id": 5079804204, "lat": 52.4903061, "lon": 13.4916008}, {"type": "node", "id": 5079804205, "lat": 52.4902291, "lon": 13.4916799}, {"type": "node", "id": 5079804206, "lat": 52.4901383, "lon": 13.4914414}, {"type": "node", "id": 5082327736, "lat": 52.5106829, "lon": 13.5023589, "tags": {"amenity": "bar", "indoor_seating": "yes", "name": "Fantasy & Cocktail Bar", "opening_hours": "Mo-Th 20:00-04:00, Fr,Sa 20:00-05:00", "outdoor_seating": "no"}}, {"type": "node", "id": 5095860592, "lat": 52.5038226, "lon": 13.4770679, "tags": {"addr:city": "Berlin", "addr:housenumber": "12", "addr:postcode": "10317", "addr:street": "Kernhofer Stra\u00dfe", "amenity": "restaurant", "cuisine": "italian;pizza", "delivery": "yes", "diet:vegan": "yes", "diet:vegetarian": "yes", "indoor_seating": "yes", "internet_access": "wlan", "name": "Pizzeria Casa Mia", "name:en": "Pizzeria Casa Mia", "opening_hours": "Th-Su 16:30-22:00", "outdoor_seating": "yes", "payment:credit_cards": "yes", "payment:debit_cards": "yes", "phone": "+49 30 23360297", "smoking": "outside", "takeaway": "yes", "wheelchair": "no"}}, {"type": "node", "id": 5096167854, "lat": 52.4998645, "lon": 13.4764253}, {"type": "node", "id": 5111541616, "lat": 52.5076346, "lon": 13.4990703, "tags": {"addr:city": "Berlin", "addr:housenumber": "22", "addr:postcode": "10317", "addr:street": "Margaretenstra\u00dfe", "air_conditioning": "no", "amenity": "bar", "brewery": "various", "contact:email": "info@zumschwalbenschwanz.de", "contact:website": "https://zumschwalbenschwanz.de", "indoor_seating": "yes", "internet_access": "no", "microbrewery": "no", "name": "Zum Schwalbenschwanz", "opening_hours": "Mo-Th 17:00-24:00+; Fr,Sa 17:00-02:00,14:00-24:00", "outdoor_seating": "yes", "smoking": "separated", "toilets": "yes", "toilets:wheelchair": "no", "website": "https://zumschwalbenschwanz.de", "wheelchair": "no"}}, {"type": "node", "id": 5291447009, "lat": 52.498048, "lon": 13.4781761, "tags": {"access": "yes", "leisure": "playground"}}, {"type": "node", "id": 5301216739, "lat": 52.4992147, "lon": 13.4694292}, {"type": "node", "id": 5301216742, "lat": 52.4995609, "lon": 13.4698677}, {"type": "node", "id": 5301216743, "lat": 52.4995151, "lon": 13.469838}, {"type": "node", "id": 5301216744, "lat": 52.499766, "lon": 13.4701989}, {"type": "node", "id": 5301216745, "lat": 52.4998564, "lon": 13.4701018}, {"type": "node", "id": 5301216746, "lat": 52.4999086, "lon": 13.4701681}, {"type": "node", "id": 5301216747, "lat": 52.5000386, "lon": 13.4702035}, {"type": "node", "id": 5301216748, "lat": 52.500081, "lon": 13.4701829}, {"type": "node", "id": 5301216749, "lat": 52.5001457, "lon": 13.470891}, {"type": "node", "id": 5308698871, "lat": 52.5111656, "lon": 13.5026446, "tags": {"addr:city": "Berlin", "addr:country": "DE", "addr:housenumber": "267", "addr:postcode": "10317", "addr:street": "Frankfurter Allee", "addr:suburb": "Rummelsburg", "contact:website": "https://mayamarket-berlin.com/", "name": "Maya d\u2018 Afrique", "origin": "african", "shop": "supermarket"}}, {"type": "node", "id": 5308981017, "lat": 52.5078757, "lon": 13.4978308, "tags": {"amenity": "dentist", "check_date:opening_hours": "2024-04-29", "contact:phone": "+49 30 64083792", "contact:website": "https://www.dentallabor-roedel.de/", "healthcare": "dentist", "name": "Dentallabor Daniel R\u00f6del", "opening_hours": "Mo-Fr 08:00-17:30", "wheelchair": "no"}}, {"type": "node", "id": 5309005813, "lat": 52.5078863, "lon": 13.4977822, "tags": {"amenity": "dentist", "check_date:opening_hours": "2024-04-29", "healthcare": "dentist", "name": "Zahnarzt Dr. med. Hans-Christian Rapp", "opening_hours": "Mo,Tu,Th 08:00-11:00,14:00-17:30; Fr 08:00-14:00", "wheelchair": "no"}}, {"type": "node", "id": 5405885452, "lat": 52.5102156, "lon": 13.5013705, "tags": {"addr:city": "Berlin", "addr:country": "DE", "addr:housenumber": "18", "addr:postcode": "10317", "addr:street": "Einbecker Stra\u00dfe", "addr:suburb": "Rummelsburg", "amenity": "cafe", "check_date:opening_hours": "2025-01-26", "contact:email": "info@ormado.de", "contact:mobile": "+49 1768 5589190", "contact:website": "http://ormado.de/", "cuisine": "coffee_shop", "diet:vegetarian": "yes", "indoor_seating": "yes", "internet_access": "wlan", "name": "Ormado Kaffeehaus", "opening_hours": "Mo-Fr 08:00-18:00; Sa 08:00-18:00; Su 08:00-18:00", "outdoor_seating": "yes", "payment:visa": "yes", "phone": "+49 176 85589190", "smoking": "outside", "wheelchair": "limited"}}, {"type": "node", "id": 5443598519, "lat": 52.4997451, "lon": 13.4761296}, {"type": "node", "id": 5443598520, "lat": 52.4999645, "lon": 13.476704}, {"type": "node", "id": 5443601321, "lat": 52.5003093, "lon": 13.4771222}, {"type": "node", "id": 5443601322, "lat": 52.5003999, "lon": 13.4769206}, {"type": "node", "id": 5443601323, "lat": 52.5000551, "lon": 13.4765024}, {"type": "node", "id": 5443601328, "lat": 52.4996425, "lon": 13.476319}, {"type": "node", "id": 5443601331, "lat": 52.4998181, "lon": 13.4765239}, {"type": "node", "id": 5443601332, "lat": 52.4999085, "lon": 13.4763265}, {"type": "node", "id": 5448875071, "lat": 52.5029707, "lon": 13.4840206}, {"type": "node", "id": 5473483410, "lat": 52.5005418, "lon": 13.4904759}, {"type": "node", "id": 5473485724, "lat": 52.5012902, "lon": 13.490419}, {"type": "node", "id": 5473518475, "lat": 52.4946735, "lon": 13.5011369}, {"type": "node", "id": 5473518476, "lat": 52.4948281, "lon": 13.5012784}, {"type": "node", "id": 5473518477, "lat": 52.494934, "lon": 13.5013755}, {"type": "node", "id": 5473518478, "lat": 52.4950355, "lon": 13.5013878}, {"type": "node", "id": 5484787982, "lat": 52.501376, "lon": 13.4914925, "tags": {"addr:housenumber": "53", "addr:postcode": "10317", "addr:street": "L\u00fcckstra\u00dfe", "check_date:opening_hours": "2023-10-29", "contact:phone": "+49 30 526 0261", "contact:website": "https://www.novotergum.de/standorte/berlin-lichtenberg-physio/", "email": "lichtenberg-physio@novotergum.de", "healthcare": "physiotherapist", "healthcare:speciality": "occupational", "name": "NOVOTERGUM Lichtenberg Physio", "office": "therapist", "opening_hours": "Mo, We 07:00-20:00; Tu, Th 08:00-20:00; Fr 07:00-16:30", "opening_hours:signed": "no", "wheelchair": "yes"}}, {"type": "node", "id": 5501649787, "lat": 52.4945228, "lon": 13.5009092}, {"type": "node", "id": 5501649789, "lat": 52.4945764, "lon": 13.5003022}, {"type": "node", "id": 5585055943, "lat": 52.5028783, "lon": 13.4751088, "tags": {"air_conditioning": "no", "amenity": "fast_food", "brand": "burgerme", "brand:wikidata": "Q108866856", "check_date": "2024-11-07", "check_date:opening_hours": "2024-11-07", "cuisine": "burger", "delivery": "yes", "diet:vegetarian": "only", "indoor_seating": "yes", "name": "burgerme", "opening_hours:signed": "no", "outdoor_seating": "no", "takeaway": "yes", "website": "https://www.burgerme.de", "wheelchair": "no"}}, {"type": "node", "id": 5696998187, "lat": 52.4952412, "lon": 13.4993807}, {"type": "node", "id": 5696998188, "lat": 52.4952498, "lon": 13.4991582}, {"type": "node", "id": 5776716413, "lat": 52.5047247, "lon": 13.4834592, "tags": {"addr:city": "Berlin", "addr:housenumber": "55", "addr:postcode": "10317", "addr:street": "Kaskelstra\u00dfe", "amenity": "bar", "name": "BLO Kantine", "opening_hours": "\"nur bei Veranstaltungen\"", "website": "https://blo-ateliers.de"}}, {"type": "node", "id": 5784137480, "lat": 52.499015, "lon": 13.4857442, "tags": {"access": "private", "leisure": "playground"}}, {"type": "node", "id": 5809494329, "lat": 52.5011848, "lon": 13.4751769}, {"type": "node", "id": 5809494330, "lat": 52.5009782, "lon": 13.4756375}, {"type": "node", "id": 5829633761, "lat": 52.5040033, "lon": 13.4919789, "tags": {"access": "private", "leisure": "playground"}}, {"type": "node", "id": 5844658003, "lat": 52.4938071, "lon": 13.4854549}, {"type": "node", "id": 5844658004, "lat": 52.4938556, "lon": 13.485719}, {"type": "node", "id": 5844658005, "lat": 52.4937569, "lon": 13.4859355}, {"type": "node", "id": 5844658006, "lat": 52.4935936, "lon": 13.4859174}, {"type": "node", "id": 5846255431, "lat": 52.4949251, "lon": 13.5017116}, {"type": "node", "id": 5875655611, "lat": 52.5090294, "lon": 13.502728, "tags": {"amenity": "bar", "check_date:opening_hours": "2023-10-28", "indoor_seating": "yes", "name": "Kosova Bar", "opening_hours:signed": "no", "outdoor_seating": "no", "smoking": "yes", "wheelchair": "limited"}}, {"type": "node", "id": 5878935485, "lat": 52.5009679, "lon": 13.4749315}, {"type": "node", "id": 5878935487, "lat": 52.5006713, "lon": 13.4721515}, {"type": "node", "id": 5878935492, "lat": 52.5007721, "lon": 13.4749764}, {"type": "node", "id": 5912285697, "lat": 52.4978493, "lon": 13.4781968}, {"type": "node", "id": 5912285699, "lat": 52.4978372, "lon": 13.4781645}, {"type": "node", "id": 5912285701, "lat": 52.4937713, "lon": 13.4855324}, {"type": "node", "id": 5912285703, "lat": 52.4977192, "lon": 13.4783316}, {"type": "node", "id": 5912285709, "lat": 52.4977353, "lon": 13.4782672}, {"type": "node", "id": 5912285712, "lat": 52.4978513, "lon": 13.4783985}, {"type": "node", "id": 5912285715, "lat": 52.4936305, "lon": 13.4858375}, {"type": "node", "id": 5912285717, "lat": 52.4977536, "lon": 13.478235}, {"type": "node", "id": 5912285719, "lat": 52.4977158, "lon": 13.4783771}, {"type": "node", "id": 5999874211, "lat": 52.5110965, "lon": 13.5030313, "tags": {"amenity": "fast_food", "cuisine": "pizza", "delivery": "yes", "diet:vegetarian": "yes", "drive_through": "no", "indoor_seating": "yes", "name": "C\u00e4sar\u2018s", "opening_hours:signed": "no", "outdoor_seating": "yes", "smoking": "no", "takeaway": "yes"}}, {"type": "node", "id": 6002853719, "lat": 52.5099138, "lon": 13.5023727, "tags": {"check_date:opening_hours": "2022-08-14", "email": "physio@n\u00fchrig.de", "healthcare": "physiotherapist", "name": "Physiotherapie N\u00fchrig", "opening_hours": "Mo-Th 07:00-19:00, Fr 07:00-15:30", "phone": "+493064462853"}}, {"type": "node", "id": 6036691438, "lat": 52.4992727, "lon": 13.4794097, "tags": {"addr:city": "Berlin", "addr:country": "DE", "addr:housenumber": "6C", "addr:postcode": "10317", "addr:street": "Hauptstra\u00dfe", "addr:suburb": "Rummelsburg", "amenity": "doctors", "check_date": "2025-06-09", "contact:email": "info@osteopathie-spreekind.de", "contact:phone": "+49 173 3129154", "contact:website": "https://osteopathie-spreekind.de/", "healthcare": "doctor", "healthcare:speciality": "osteopathy", "name": "Spreekind", "opening_hours": "\"Termine nach vereinbarung\"", "operator": "Sophie Meusel", "wheelchair": "yes"}}, {"type": "node", "id": 6036691443, "lat": 52.4997159, "lon": 13.4784243, "tags": {"check_date:opening_hours": "2025-06-09", "contact:phone": "+49 30 54818380", "healthcare": "physiotherapist", "name": "Physio an der Bucht", "opening_hours": "Mo-We 08:00-16:30; Th 08:00-15:30; Fr 08:00-14:30", "operator": "Claudia Basalla", "wheelchair": "yes"}}, {"type": "node", "id": 6036959109, "lat": 52.4960528, "lon": 13.4807353}, {"type": "node", "id": 6050917525, "lat": 52.5011711, "lon": 13.495294, "tags": {"healthcare": "psychotherapist", "name": "Grit Harre", "opening_hours": "\"nach Vereinbarung\""}}, {"type": "node", "id": 6051508131, "lat": 52.5078675, "lon": 13.4991686, "tags": {"check_date:opening_hours": "2025-04-06", "contact:phone": "+49 30 55251744", "healthcare": "physiotherapist", "name": "Physiotherapie S. Westphal", "opening_hours": "Mo-Th 08:00-19:00; Fr 07:00-13:00", "operator": "Simone Westphal", "wheelchair": "no"}}, {"type": "node", "id": 6052485139, "lat": 52.5061316, "lon": 13.4981836, "tags": {"contact:mobile": "+49 1525 1459053", "healthcare": "psychotherapist", "level": "1", "name": "Praxis f\u00fcr Psychotherapie", "opening_hours": "Mo-Th 07:30-19:00; Fr 07:30-13:00; PH off", "operator": "Dipl.-Psych. Charlotte Neumann"}}, {"type": "node", "id": 6070390014, "lat": 52.5097019, "lon": 13.4984766, "tags": {"addr:city": "Berlin", "addr:housenumber": "25", "addr:postcode": "10317", "addr:street": "Irenenstra\u00dfe", "amenity": "cafe", "check_date:opening_hours": "2025-02-03", "indoor_seating": "yes", "name": "Cafe Lounge", "opening_hours:signed": "no", "outdoor_seating": "no", "wheelchair": "no"}}, {"type": "node", "id": 6071477227, "lat": 52.5101866, "lon": 13.4989564}, {"type": "node", "id": 6071477228, "lat": 52.5101726, "lon": 13.4990376}, {"type": "node", "id": 6089715325, "lat": 52.5056926, "lon": 13.4963547}, {"type": "node", "id": 6089741649, "lat": 52.5070765, "lon": 13.4963314, "tags": {"amenity": "pub", "check_date": "2025-01-06", "indoor_seating": "yes", "name": "Cafe White", "opening_hours:signed": "no", "outdoor_seating": "yes", "wheelchair": "no"}}, {"type": "node", "id": 6090707216, "lat": 52.5050893, "lon": 13.495173, "tags": {"check_date": "2025-01-06", "check_date:opening_hours": "2023-03-28", "contact:phone": "+49 30 51589900", "healthcare": "physiotherapist", "name": "Physiotherapie", "opening_hours": "Mo-Th 08:00-18:00; Fr 08:00-13:00", "operator": "Annette Sgaislik", "wheelchair": "no"}}, {"type": "node", "id": 6124727196, "lat": 52.5014426, "lon": 13.4911172, "tags": {"addr:city": "Berlin", "addr:country": "DE", "addr:floor": "0", "addr:housenumber": "56", "addr:postcode": "10317", "addr:street": "L\u00fcckstra\u00dfe", "addr:suburb": "Rummelsburg", "air_conditioning": "no", "amenity": "cafe", "check_date": "2024-09-22", "contact:email": "coffea.berlin@gmail.com", "contact:facebook": "coffeaberlin", "cuisine": "coffee_shop", "diet:vegan": "yes", "diet:vegetarian": "yes", "indoor_seating": "yes", "internet_access": "wlan", "internet_access:fee": "customers", "internet_access:ssid": "Coffea", "name": "Coffea", "opening_hours": "Tu-Fr 09:00-17:00; Sa-Su 10:00-17:00", "outdoor_seating": "yes", "payment:credit_cards": "yes", "payment:debit_cards": "yes", "smoking": "outside", "source": "survey", "toilets": "yes", "toilets:wheelchair": "no", "wheelchair": "no"}}, {"type": "node", "id": 6125079220, "lat": 52.5009133, "lon": 13.4914545, "tags": {"healthcare": "occupational_therapist", "name": "NOVOTERGUM Lichtenberg Ergo", "opening_hours": "Mo-Fr 08:30-18:00"}}, {"type": "node", "id": 6125079221, "lat": 52.5022951, "lon": 13.4883085, "tags": {"check_date": "2024-09-05", "check_date:opening_hours": "2024-05-03", "contact:phone": "+49 30 64162812", "contact:website": "http://www.physiotherapiewienert.de/", "healthcare": "speech_therapist", "name": "Therapiezentrum Berit Wienert Logop\u00e4die", "office": "therapist", "opening_hours:signed": "no", "wheelchair": "yes"}}, {"type": "node", "id": 6132638173, "lat": 52.5052531, "lon": 13.4952684, "tags": {"amenity": "cafe", "contact:email": "cafejohann@rbo-inmitten.berlin", "contact:phone": "+49 30 28422616", "indoor_seating": "yes", "name": "Cafe Johann", "opening_hours": "Mo-Fr 14:00-18:00", "outdoor_seating": "no", "wheelchair": "yes"}}, {"type": "node", "id": 6153849324, "lat": 52.5012719, "lon": 13.4790791}, {"type": "node", "id": 6153849327, "lat": 52.501492, "lon": 13.4782841}, {"type": "node", "id": 6153849328, "lat": 52.5015887, "lon": 13.4777695}, {"type": "node", "id": 6153849331, "lat": 52.5016301, "lon": 13.4777667}, {"type": "node", "id": 6153849332, "lat": 52.5016548, "lon": 13.47815}, {"type": "node", "id": 6153849333, "lat": 52.5017126, "lon": 13.4790022}, {"type": "node", "id": 6155449225, "lat": 52.4992017, "lon": 13.4692078}, {"type": "node", "id": 6272298191, "lat": 52.4916959, "lon": 13.4874444}, {"type": "node", "id": 6301879864, "lat": 52.5045098, "lon": 13.4721286, "tags": {"addr:housenumber": "7", "addr:street": "Marktstra\u00dfe", "amenity": "bar", "check_date": "2024-02-09", "description": "Bar", "name": "[B]", "opening_hours": "\"nach Vereinbarung\"", "wheelchair": "no"}}, {"type": "node", "id": 6417426554, "lat": 52.5083591, "lon": 13.5037409}, {"type": "node", "id": 6417426555, "lat": 52.5080788, "lon": 13.5035284}, {"type": "node", "id": 6450633585, "lat": 52.5043364, "lon": 13.4891896, "tags": {"access": "private", "leisure": "playground"}}, {"type": "node", "id": 6470289816, "lat": 52.5056447, "lon": 13.497045, "tags": {"entrance": "yes"}}, {"type": "node", "id": 6470289817, "lat": 52.5052679, "lon": 13.49735, "tags": {"entrance": "yes"}}, {"type": "node", "id": 6502227362, "lat": 52.5093242, "lon": 13.500655, "tags": {"amenity": "doctors", "check_date:opening_hours": "2022-08-06", "contact:phone": "+49 30 5229340", "healthcare": "doctor", "healthcare:speciality": "orthopaedics", "name": "Zentrum f\u00fcr Orthop\u00e4die", "opening_hours": "Mo,Tu,Th 08:00-12:00,13:00-18:00; We 08:00-12:00,13:00-16:00; Fr 08:00-12:00", "operator": "Dipl.-Med. Ralf Gr\u00e4ser; Dr. med. Hansj\u00fcrgen Teichm\u00fcller; Dr. med. Ralf Br\u00e4utigam", "wheelchair": "yes"}}, {"type": "node", "id": 6575842026, "lat": 52.5021737, "lon": 13.4847701}, {"type": "node", "id": 6575842027, "lat": 52.5022802, "lon": 13.4863151}, {"type": "node", "id": 6575842028, "lat": 52.5020735, "lon": 13.4863363}, {"type": "node", "id": 6575842029, "lat": 52.5015292, "lon": 13.4851494}, {"type": "node", "id": 6612950487, "lat": 52.4995568, "lon": 13.4925834}, {"type": "node", "id": 6612950488, "lat": 52.4995799, "lon": 13.4925306}, {"type": "node", "id": 6612950489, "lat": 52.4994927, "lon": 13.4924269}, {"type": "node", "id": 6612950490, "lat": 52.4992134, "lon": 13.4932782}, {"type": "node", "id": 6612950491, "lat": 52.4992698, "lon": 13.4931507}, {"type": "node", "id": 6612950492, "lat": 52.4994495, "lon": 13.4928317}, {"type": "node", "id": 6612950493, "lat": 52.4994726, "lon": 13.4927477}, {"type": "node", "id": 6612950494, "lat": 52.4993314, "lon": 13.4927217}, {"type": "node", "id": 6724739401, "lat": 52.5037509, "lon": 13.4859372, "tags": {"addr:housenumber": "38A", "addr:street": "Leopoldstra\u00dfe", "amenity": "fast_food", "check_date": "2024-08-29", "cuisine": "kebab", "delivery": "no", "description": "D\u00f6ner und mehr", "diet:vegan": "yes", "diet:vegetarian": "yes", "drive_through": "no", "indoor_seating": "yes", "name": "AVCI Bistro", "opening_hours:signed": "no", "outdoor_seating": "yes", "smoking": "outside", "takeaway": "yes", "wheelchair": "no"}}, {"type": "node", "id": 6724790486, "lat": 52.5051486, "lon": 13.4934898, "tags": {"addr:housenumber": "18", "addr:street": "Eduardstra\u00dfe", "amenity": "dentist", "healthcare": "dentist", "name": "Dr. med. A. Uebel", "opening_hours": "Mo 08:00-16:00; Tu 08:00-15:00; Th 12:00-20:00; Fr 08:00-14:00", "phone": "+49305104117", "wheelchair": "no"}}, {"type": "node", "id": 7003760686, "lat": 52.5008213, "lon": 13.4890779}, {"type": "node", "id": 7003760692, "lat": 52.5007969, "lon": 13.4891056}, {"type": "node", "id": 7003760694, "lat": 52.5007129, "lon": 13.4892011}, {"type": "node", "id": 7003760697, "lat": 52.5006288, "lon": 13.4892967}, {"type": "node", "id": 7003760700, "lat": 52.5005836, "lon": 13.4893482}, {"type": "node", "id": 7003760701, "lat": 52.5005138, "lon": 13.4894249}, {"type": "node", "id": 7003760704, "lat": 52.5005791, "lon": 13.4893507}, {"type": "node", "id": 7034391073, "lat": 52.5093954, "lon": 13.5025217}, {"type": "node", "id": 7034391074, "lat": 52.5095638, "lon": 13.5026366}, {"type": "node", "id": 7034391075, "lat": 52.509609, "lon": 13.5024522}, {"type": "node", "id": 7034391076, "lat": 52.5096091, "lon": 13.5024051}, {"type": "node", "id": 7034391077, "lat": 52.5095279, "lon": 13.5021418}, {"type": "node", "id": 7034391078, "lat": 52.5094901, "lon": 13.5021063}, {"type": "node", "id": 7034396835, "lat": 52.5094114, "lon": 13.5023676}, {"type": "node", "id": 7034396836, "lat": 52.5094294, "lon": 13.5022852}, {"type": "node", "id": 7034396837, "lat": 52.5094462, "lon": 13.502224}, {"type": "node", "id": 7034396838, "lat": 52.5094614, "lon": 13.5021752}, {"type": "node", "id": 7034467906, "lat": 52.5010834, "lon": 13.4803595}, {"type": "node", "id": 7034467907, "lat": 52.501072, "lon": 13.480361}, {"type": "node", "id": 7034467908, "lat": 52.5010544, "lon": 13.4800886}, {"type": "node", "id": 7034467909, "lat": 52.5009359, "lon": 13.4801034}, {"type": "node", "id": 7034467910, "lat": 52.5008022, "lon": 13.4804687}, {"type": "node", "id": 7034467914, "lat": 52.5010876, "lon": 13.4805887}, {"type": "node", "id": 7034467915, "lat": 52.5010992, "lon": 13.4805858}, {"type": "node", "id": 7687716674, "lat": 52.501907, "lon": 13.4763286, "tags": {"addr:city": "Berlin", "addr:country": "DE", "addr:housenumber": "3", "addr:postcode": "10317", "addr:street": "N\u00f6ldnerstra\u00dfe", "addr:suburb": "Rummelsburg", "contact:phone": "+49 30 55796500", "contact:website": "https://www.praxis-janowski.de/", "healthcare": "psychotherapist", "name": "Psychotherapie Janowski"}}, {"type": "node", "id": 7687743648, "lat": 52.5019024, "lon": 13.4763489, "tags": {"addr:city": "Berlin", "addr:country": "DE", "addr:housenumber": "3", "addr:postcode": "10317", "addr:street": "N\u00f6ldnerstra\u00dfe", "addr:suburb": "Rummelsburg", "check_date": "2025-06-10", "contact:mobile": "+49 1717074036", "healthcare": "psychotherapist", "name": "Psychotherapie Nicole Derda"}}, {"type": "node", "id": 7701978905, "lat": 52.5063285, "lon": 13.4767489}, {"type": "node", "id": 7701978906, "lat": 52.5062954, "lon": 13.4767219}, {"type": "node", "id": 7701978907, "lat": 52.5060273, "lon": 13.4765602}, {"type": "node", "id": 7701978908, "lat": 52.5061176, "lon": 13.4766341}, {"type": "node", "id": 7701978909, "lat": 52.5060345, "lon": 13.4765366}, {"type": "node", "id": 7701978910, "lat": 52.5060016, "lon": 13.4765097}, {"type": "node", "id": 7701978911, "lat": 52.5061365, "lon": 13.4765718}, {"type": "node", "id": 7701978912, "lat": 52.5060133, "lon": 13.4764709}, {"type": "node", "id": 7701978914, "lat": 52.5062799, "lon": 13.476773}, {"type": "node", "id": 7701978915, "lat": 52.506313, "lon": 13.4768001}, {"type": "node", "id": 7705024138, "lat": 52.5012287, "lon": 13.492081}, {"type": "node", "id": 7705024139, "lat": 52.5012378, "lon": 13.4920367}, {"type": "node", "id": 7705024140, "lat": 52.5012991, "lon": 13.4917392}, {"type": "node", "id": 7705024141, "lat": 52.5012912, "lon": 13.4917775}, {"type": "node", "id": 7800972465, "lat": 52.5092877, "lon": 13.4980065, "tags": {"addr:city": "Berlin", "addr:country": "DE", "addr:housenumber": "15", "addr:postcode": "10317", "addr:street": "Weitlingstra\u00dfe", "addr:suburb": "Rummelsburg", "air_conditioning": "no", "amenity": "fast_food", "capacity:covid19": "3", "check_date:opening_hours": "2024-03-17", "contact:mobile": "+49 177 3306126", "cuisine": "sudanese", "delivery": "yes", "diet:vegan": "yes", "diet:vegetarian": "yes", "drive_through": "no", "indoor_seating": "yes", "level": "0", "name": "Sahara", "opening_hours": "Mo-Su 12:00-22:00", "outdoor_seating": "yes", "payment:cash": "yes", "payment:contactless": "yes", "payment:credit_cards": "yes", "smoking": "outside", "takeaway": "yes", "toilets": "yes", "toilets:wheelchair": "no", "wheelchair": "limited"}}, {"type": "node", "id": 8009527458, "lat": 52.5047476, "lon": 13.4964519, "tags": {"addr:housenumber": "68-70", "addr:postcode": "10317", "addr:street": "W\u00f6nnichstra\u00dfe", "amenity": "bar", "check_date:opening_hours": "2022-07-09", "contact:facebook": "100057538118102", "contact:instagram": "poolinnde", "email": "info@pool-in.de", "indoor_seating": "yes", "name": "Pool-Inn", "opening_hours": "Su-Fr 16:00-02:00; Sa 12:00-02:00", "outdoor_seating": "no", "phone": "03051588422", "website": "https://www.pool-inn.de/", "wheelchair": "no"}}, {"type": "node", "id": 8237740647, "lat": 52.4999601, "lon": 13.4754252, "tags": {"amenity": "cafe", "indoor_seating": "yes", "name": "soulbay Berlin", "opening_hours": "Th-Su 14:00-21:30", "outdoor_seating": "yes", "smoking": "outside", "wheelchair": "yes"}}, {"type": "node", "id": 8280630698, "lat": 52.4973254, "lon": 13.4946936}, {"type": "node", "id": 8280630699, "lat": 52.4978231, "lon": 13.4939649}, {"type": "node", "id": 8421107809, "lat": 52.5027669, "lon": 13.4879607}, {"type": "node", "id": 8421107810, "lat": 52.5028163, "lon": 13.4878606}, {"type": "node", "id": 8421107811, "lat": 52.5027103, "lon": 13.4877556}, {"type": "node", "id": 8421122122, "lat": 52.5026972, "lon": 13.4879095}, {"type": "node", "id": 8586932429, "lat": 52.5015158, "lon": 13.4902621}, {"type": "node", "id": 8586932431, "lat": 52.5014177, "lon": 13.4896659}, {"type": "node", "id": 8639490097, "lat": 52.4979606, "lon": 13.4933656}, {"type": "node", "id": 8761423606, "lat": 52.5092356, "lon": 13.4998585, "tags": {"amenity": "doctors", "contact:phone": "+49 30 51482333", "healthcare": "doctor", "healthcare:speciality": "general", "level": "0", "name": "Curiates Medicare MVZ Berlin Lichtenberg", "opening_hours": "Mo,Fr 08:00-12:30; Tu,Th 09:00-17:00", "operator": "Dr. med. univ. Michael Grabowski", "wheelchair": "yes"}}, {"type": "node", "id": 8775871683, "lat": 52.505645, "lon": 13.4967204}, {"type": "node", "id": 8775871684, "lat": 52.5055389, "lon": 13.4968092}, {"type": "node", "id": 8775871685, "lat": 52.505558, "lon": 13.4967196}, {"type": "node", "id": 8775871689, "lat": 52.5054295, "lon": 13.4974427}, {"type": "node", "id": 8775871698, "lat": 52.5055977, "lon": 13.4972811}, {"type": "node", "id": 8848328982, "lat": 52.5085468, "lon": 13.5015801, "tags": {"access": "yes", "leisure": "playground"}}, {"type": "node", "id": 8848368494, "lat": 52.5086585, "lon": 13.500467, "tags": {"access": "yes", "leisure": "playground"}}, {"type": "node", "id": 9060922090, "lat": 52.5012961, "lon": 13.4805495}, {"type": "node", "id": 9060922091, "lat": 52.5013116, "lon": 13.4807547}, {"type": "node", "id": 9060922092, "lat": 52.5012112, "lon": 13.4807788}, {"type": "node", "id": 9060922093, "lat": 52.5011385, "lon": 13.4805844}, {"type": "node", "id": 9141503709, "lat": 52.5006892, "lon": 13.4808036, "tags": {"door": "hinged", "entrance": "yes", "wheelchair": "yes"}}, {"type": "node", "id": 9144488184, "lat": 52.5009773, "lon": 13.4800985, "tags": {"amenity": "waste_basket"}}, {"type": "node", "id": 9148115781, "lat": 52.50069, "lon": 13.4806898}, {"type": "node", "id": 9160222580, "lat": 52.4937871, "lon": 13.4854983}, {"type": "node", "id": 9212646293, "lat": 52.5010452, "lon": 13.477113, "tags": {"air_conditioning": "no", "amenity": "fast_food", "cuisine": "kebab;burger", "diet:vegan": "yes", "diet:vegetarian": "yes", "indoor_seating": "yes", "name": "Box 84 by Murat", "opening_hours": "Mo-Fr 10:00-21:00; Sa,Su 10:00-24:00", "outdoor_seating": "yes", "smoking": "outside", "wheelchair": "yes"}}, {"type": "node", "id": 9312570741, "lat": 52.500713, "lon": 13.4807124}, {"type": "node", "id": 9882755764, "lat": 52.5010928, "lon": 13.4807318}, {"type": "node", "id": 9955231858, "lat": 52.4932756, "lon": 13.4880316}, {"type": "node", "id": 9955231859, "lat": 52.4938958, "lon": 13.4871571}, {"type": "node", "id": 9963502137, "lat": 52.5038235, "lon": 13.4852805, "tags": {"addr:city": "Berlin", "addr:housenumber": "21", "addr:postcode": "10317", "addr:street": "Archibaldweg", "addr:suburb": "Rummelsburg", "amenity": "fast_food", "check_date": "2024-08-29", "cuisine": "coffee_shop;pancake;sandwich;pasta", "diet:vegetarian": "yes", "indoor_seating": "no", "name": "Back Baron", "opening_hours": "Mo-Fr 05:00-19:00; PH,Sa,Su 06:00-20:00", "outdoor_seating": "no", "phone": "+49 176 24910198", "takeaway": "only", "wheelchair": "no"}}, {"type": "node", "id": 9968095797, "lat": 52.509168, "lon": 13.5003191, "tags": {"addr:city": "Berlin", "addr:country": "DE", "addr:housenumber": "5A", "addr:postcode": "10317", "addr:street": "Irenenstra\u00dfe", "addr:suburb": "Rummelsburg", "amenity": "fast_food", "check_date": "2025-02-03", "cuisine": "arab;kebab;turkish", "diet:vegetarian": "yes", "drive_through": "no", "indoor_seating": "yes", "name": "Bistro Irene", "opening_hours": "24/7", "outdoor_seating": "yes"}}, {"type": "node", "id": 9972363420, "lat": 52.5013191, "lon": 13.4894401}, {"type": "node", "id": 9972363421, "lat": 52.5011857, "lon": 13.4892125}, {"type": "node", "id": 9972363425, "lat": 52.5009883, "lon": 13.490398}, {"type": "node", "id": 9977125017, "lat": 52.5001119, "lon": 13.4913382}, {"type": "node", "id": 9995445816, "lat": 52.5040632, "lon": 13.4823932}, {"type": "node", "id": 9995460830, "lat": 52.5042319, "lon": 13.4823049}, {"type": "node", "id": 10012140241, "lat": 52.5002804, "lon": 13.4896899}, {"type": "node", "id": 10118716350, "lat": 52.5056574, "lon": 13.4965179}, {"type": "node", "id": 10185484893, "lat": 52.5016838, "lon": 13.4854814}, {"type": "node", "id": 10185484894, "lat": 52.5021, "lon": 13.4863585}, {"type": "node", "id": 10185484895, "lat": 52.5021247, "lon": 13.4863686}, {"type": "node", "id": 10185484896, "lat": 52.5022649, "lon": 13.4863415}, {"type": "node", "id": 10276097613, "lat": 52.5040187, "lon": 13.4727307, "tags": {"addr:housenumber": "1", "addr:postcode": "10317", "addr:street": "Krummh\u00fcbler Stra\u00dfe", "amenity": "fast_food", "check_date": "2024-09-05", "cuisine": "asian", "name": "Asia Phung"}}, {"type": "node", "id": 10316962209, "lat": 52.5039834, "lon": 13.4772119, "tags": {"barrier": "gate"}}, {"type": "node", "id": 10316962211, "lat": 52.5041278, "lon": 13.4773054, "tags": {"barrier": "gate"}}, {"type": "node", "id": 10316962302, "lat": 52.5028292, "lon": 13.4815075}, {"type": "node", "id": 10316962303, "lat": 52.5028187, "lon": 13.4815139}, {"type": "node", "id": 10317038418, "lat": 52.5023801, "lon": 13.4849071}, {"type": "node", "id": 10317038419, "lat": 52.5023309, "lon": 13.4843656}, {"type": "node", "id": 10317038420, "lat": 52.5023386, "lon": 13.4843632}, {"type": "node", "id": 10317038421, "lat": 52.5023344, "lon": 13.4842892}, {"type": "node", "id": 10317038422, "lat": 52.5023182, "lon": 13.4842911}, {"type": "node", "id": 10317038423, "lat": 52.5023046, "lon": 13.4840745}, {"type": "node", "id": 10317038429, "lat": 52.5030532, "lon": 13.483793}, {"type": "node", "id": 10317038431, "lat": 52.5030641, "lon": 13.4838352}, {"type": "node", "id": 10317038432, "lat": 52.5030364, "lon": 13.4839569}, {"type": "node", "id": 10317038433, "lat": 52.5030011, "lon": 13.4839365}, {"type": "node", "id": 10317038434, "lat": 52.5029859, "lon": 13.4839972}, {"type": "node", "id": 10317038435, "lat": 52.5030015, "lon": 13.4840075}, {"type": "node", "id": 10317038436, "lat": 52.5029394, "lon": 13.4842788}, {"type": "node", "id": 10317038437, "lat": 52.502959, "lon": 13.4842904}, {"type": "node", "id": 10317038438, "lat": 52.5028841, "lon": 13.4846149}, {"type": "node", "id": 10538858410, "lat": 52.5046556, "lon": 13.4816789}, {"type": "node", "id": 10538858412, "lat": 52.5047154, "lon": 13.4820157}, {"type": "node", "id": 10538972933, "lat": 52.4996387, "lon": 13.4762869}, {"type": "node", "id": 10538972934, "lat": 52.4996391, "lon": 13.4762489}, {"type": "node", "id": 10538972935, "lat": 52.4997241, "lon": 13.4761126}, {"type": "node", "id": 10538972936, "lat": 52.4996966, "lon": 13.4761209}, {"type": "node", "id": 10540028091, "lat": 52.4919046, "lon": 13.4875717}, {"type": "node", "id": 10540028092, "lat": 52.4919067, "lon": 13.487557}, {"type": "node", "id": 10540028093, "lat": 52.4917285, "lon": 13.4872292}, {"type": "node", "id": 10540028094, "lat": 52.4913962, "lon": 13.4876729}, {"type": "node", "id": 10540028095, "lat": 52.4911036, "lon": 13.4880909}, {"type": "node", "id": 10540028096, "lat": 52.4911592, "lon": 13.4881894}, {"type": "node", "id": 10540028097, "lat": 52.4912156, "lon": 13.488824}, {"type": "node", "id": 10580925568, "lat": 52.4972248, "lon": 13.4961559}, {"type": "node", "id": 10580925569, "lat": 52.4972386, "lon": 13.4961904}, {"type": "node", "id": 10580925570, "lat": 52.4972423, "lon": 13.4962292}, {"type": "node", "id": 10580925572, "lat": 52.4972255, "lon": 13.4963436}, {"type": "node", "id": 10580925573, "lat": 52.4974934, "lon": 13.494932}, {"type": "node", "id": 10580925574, "lat": 52.4976883, "lon": 13.4950272}, {"type": "node", "id": 10580925575, "lat": 52.4977154, "lon": 13.4948865}, {"type": "node", "id": 10580925576, "lat": 52.4972333, "lon": 13.4963538}, {"type": "node", "id": 10580925577, "lat": 52.4964541, "lon": 13.4967864}, {"type": "node", "id": 10580925578, "lat": 52.4960625, "lon": 13.496598}, {"type": "node", "id": 10580925579, "lat": 52.4966187, "lon": 13.4959202}, {"type": "node", "id": 10580925580, "lat": 52.4965583, "lon": 13.495922}, {"type": "node", "id": 10580925581, "lat": 52.4965145, "lon": 13.4959439}, {"type": "node", "id": 10580925582, "lat": 52.4956016, "lon": 13.4974267}, {"type": "node", "id": 10683129772, "lat": 52.5040416, "lon": 13.4962787, "tags": {"barrier": "gate"}}, {"type": "node", "id": 10877217500, "lat": 52.5006865, "lon": 13.4736876}, {"type": "node", "id": 10877666927, "lat": 52.4979379, "lon": 13.4839797}, {"type": "node", "id": 10877666928, "lat": 52.4978161, "lon": 13.4842582}, {"type": "node", "id": 10877666929, "lat": 52.4979527, "lon": 13.4844473}, {"type": "node", "id": 10877666930, "lat": 52.4980098, "lon": 13.4843061}, {"type": "node", "id": 10877666931, "lat": 52.4979896, "lon": 13.4841464}, {"type": "node", "id": 10877666932, "lat": 52.4979958, "lon": 13.4840934}, {"type": "node", "id": 10877666933, "lat": 52.4979472, "lon": 13.4840276}, {"type": "node", "id": 11001891694, "lat": 52.5043907, "lon": 13.4956747}, {"type": "node", "id": 11001891695, "lat": 52.5041805, "lon": 13.4961728}, {"type": "node", "id": 11001891696, "lat": 52.5042032, "lon": 13.4961221}, {"type": "node", "id": 11001891697, "lat": 52.5042475, "lon": 13.4960494}, {"type": "node", "id": 11001891698, "lat": 52.504344, "lon": 13.4959309}, {"type": "node", "id": 11001891699, "lat": 52.5043384, "lon": 13.4956434}, {"type": "node", "id": 11001891700, "lat": 52.5034031, "lon": 13.496062}, {"type": "node", "id": 11001891701, "lat": 52.5033646, "lon": 13.4962441}, {"type": "node", "id": 11001891702, "lat": 52.5033952, "lon": 13.4962616}, {"type": "node", "id": 11001891703, "lat": 52.5034337, "lon": 13.4960795}, {"type": "node", "id": 11001891704, "lat": 52.5034401, "lon": 13.4960414}, {"type": "node", "id": 11001919364, "lat": 52.5095493, "lon": 13.5036117}, {"type": "node", "id": 11001919365, "lat": 52.5095604, "lon": 13.5036199}, {"type": "node", "id": 11001919366, "lat": 52.5090486, "lon": 13.5034962}, {"type": "node", "id": 11001964005, "lat": 52.5034098, "lon": 13.4960249}, {"type": "node", "id": 11001964006, "lat": 52.5034821, "lon": 13.4956674}, {"type": "node", "id": 11001964007, "lat": 52.5035124, "lon": 13.495684}, {"type": "node", "id": 11001964008, "lat": 52.5035523, "lon": 13.4954799}, {"type": "node", "id": 11001964009, "lat": 52.5036079, "lon": 13.495217}, {"type": "node", "id": 11001964010, "lat": 52.5035091, "lon": 13.4955384}, {"type": "node", "id": 11001964011, "lat": 52.5034891, "lon": 13.4956314}, {"type": "node", "id": 11001964012, "lat": 52.5035194, "lon": 13.4956489}, {"type": "node", "id": 11001964013, "lat": 52.5035394, "lon": 13.4955559}, {"type": "node", "id": 11002552336, "lat": 52.5011772, "lon": 13.4751163}, {"type": "node", "id": 11002552337, "lat": 52.5008346, "lon": 13.4748327}, {"type": "node", "id": 11002552340, "lat": 52.5003712, "lon": 13.4756018}, {"type": "node", "id": 11002552341, "lat": 52.5004929, "lon": 13.4753369}, {"type": "node", "id": 11002552342, "lat": 52.5000918, "lon": 13.4750275}, {"type": "node", "id": 11002552343, "lat": 52.5000229, "lon": 13.47518}, {"type": "node", "id": 11002552344, "lat": 52.4998177, "lon": 13.4765247}, {"type": "node", "id": 11002552345, "lat": 52.499908, "lon": 13.4763268}, {"type": "node", "id": 11002552346, "lat": 52.499745, "lon": 13.4761304}, {"type": "node", "id": 11002552347, "lat": 52.4996551, "lon": 13.4763295}, {"type": "node", "id": 11021391904, "lat": 52.5093177, "lon": 13.5006735, "tags": {"addr:housenumber": "20", "addr:postcode": "10317", "addr:street": "Irenenstra\u00dfe", "amenity": "clinic", "healthcare": "clinic", "level": "2", "name": "open.med Berlin-Lichtenberg", "opening_hours": "Mo 11:00-15:00; We 14:00-18:00", "operator": "\u00c4rzte der Welt e.V.", "phone": "+49 30 20 60 696 00", "social_facility:for": "homeless;refugee;underprivileged", "website": "https://www.aerztederwelt.org/wem-wir-beistehen/hilfe-fuer-patientinnen"}}, {"type": "node", "id": 11078130099, "lat": 52.5000391, "lon": 13.4914153}, {"type": "node", "id": 11078191548, "lat": 52.5001353, "lon": 13.4914304}, {"type": "node", "id": 11078191549, "lat": 52.5001405, "lon": 13.4913544}, {"type": "node", "id": 11078191550, "lat": 52.5000866, "lon": 13.4913264}, {"type": "node", "id": 11111776842, "lat": 52.5063327, "lon": 13.4962585, "tags": {"addr:city": "Berlin", "addr:housenumber": "55", "addr:street": "Weitlingstra\u00dfe", "amenity": "fast_food", "cuisine": "burger", "diet:vegan": "yes", "name": "Clouds", "outdoor_seating": "yes", "source": "survey", "wheelchair": "no"}}, {"type": "node", "id": 11123997383, "lat": 52.4910705, "lon": 13.4883271}, {"type": "node", "id": 11123997384, "lat": 52.4917896, "lon": 13.489712}, {"type": "node", "id": 11123997385, "lat": 52.4910637, "lon": 13.4883207}, {"type": "node", "id": 11177705938, "lat": 52.4937525, "lon": 13.4991275}, {"type": "node", "id": 11177705939, "lat": 52.4936749, "lon": 13.4994084}, {"type": "node", "id": 11177705940, "lat": 52.4936104, "lon": 13.4994996}, {"type": "node", "id": 11177705941, "lat": 52.4935843, "lon": 13.4994514}, {"type": "node", "id": 11177705942, "lat": 52.4935602, "lon": 13.4994802}, {"type": "node", "id": 11177705943, "lat": 52.4934871, "lon": 13.4994782}, {"type": "node", "id": 11177705944, "lat": 52.4928049, "lon": 13.502727}, {"type": "node", "id": 11177705946, "lat": 52.4949507, "lon": 13.5013229}, {"type": "node", "id": 11177705947, "lat": 52.4946396, "lon": 13.5010191}, {"type": "node", "id": 11177705948, "lat": 52.4944738, "lon": 13.5008555}, {"type": "node", "id": 11177705949, "lat": 52.4944843, "lon": 13.5008696}, {"type": "node", "id": 11177705950, "lat": 52.4944677, "lon": 13.5008364}, {"type": "node", "id": 11177705951, "lat": 52.4944677, "lon": 13.5008112}, {"type": "node", "id": 11177705952, "lat": 52.4944863, "lon": 13.5007422}, {"type": "node", "id": 11177705953, "lat": 52.4937299, "lon": 13.4984488}, {"type": "node", "id": 11177705954, "lat": 52.4934777, "lon": 13.4995171}, {"type": "node", "id": 11177705955, "lat": 52.4934638, "lon": 13.4995962}, {"type": "node", "id": 11177705956, "lat": 52.4934575, "lon": 13.4996539}, {"type": "node", "id": 11177705957, "lat": 52.4934585, "lon": 13.4998309}, {"type": "node", "id": 11177705958, "lat": 52.4934589, "lon": 13.5000709}, {"type": "node", "id": 11177705959, "lat": 52.4931417, "lon": 13.5013685}, {"type": "node", "id": 11177705960, "lat": 52.4929506, "lon": 13.5021262}, {"type": "node", "id": 11177705961, "lat": 52.492655, "lon": 13.5033828}, {"type": "node", "id": 11177705962, "lat": 52.4921063, "lon": 13.5060415}, {"type": "node", "id": 11177705963, "lat": 52.4925632, "lon": 13.5062648}, {"type": "node", "id": 11177705964, "lat": 52.4933765, "lon": 13.5045516}, {"type": "node", "id": 11177705965, "lat": 52.4933965, "lon": 13.504514}, {"type": "node", "id": 11177705966, "lat": 52.4934365, "lon": 13.5044617}, {"type": "node", "id": 11177705967, "lat": 52.4934953, "lon": 13.5044074}, {"type": "node", "id": 11177705968, "lat": 52.4935508, "lon": 13.5043786}, {"type": "node", "id": 11177705969, "lat": 52.4936108, "lon": 13.5043719}, {"type": "node", "id": 11177705970, "lat": 52.4936774, "lon": 13.5043913}, {"type": "node", "id": 11177705971, "lat": 52.4937288, "lon": 13.5044262}, {"type": "node", "id": 11177705972, "lat": 52.4936275, "lon": 13.5042673}, {"type": "node", "id": 11177705973, "lat": 52.4936145, "lon": 13.5043108}, {"type": "node", "id": 11177705974, "lat": 52.4939533, "lon": 13.5039025}, {"type": "node", "id": 11177705975, "lat": 52.4955299, "lon": 13.4983637}, {"type": "node", "id": 11177705976, "lat": 52.4955496, "lon": 13.4982598}, {"type": "node", "id": 11177705991, "lat": 52.4977508, "lon": 13.4937014}, {"type": "node", "id": 11177705992, "lat": 52.4957337, "lon": 13.4966518}, {"type": "node", "id": 11177705993, "lat": 52.495043, "lon": 13.4979795}, {"type": "node", "id": 11177705994, "lat": 52.4949127, "lon": 13.497948}, {"type": "node", "id": 11177705995, "lat": 52.4948029, "lon": 13.4980016}, {"type": "node", "id": 11177705996, "lat": 52.4946368, "lon": 13.4981418}, {"type": "node", "id": 11177705997, "lat": 52.4941399, "lon": 13.4977877}, {"type": "node", "id": 11179448100, "lat": 52.497926, "lon": 13.4933198}, {"type": "node", "id": 11179448101, "lat": 52.4980382, "lon": 13.493462}, {"type": "node", "id": 11204542037, "lat": 52.5035239, "lon": 13.4903004, "tags": {"addr:housenumber": "31", "addr:street": "Rupprechtstra\u00dfe", "amenity": "bar", "check_date": "2024-10-03", "name": "Das Weinlokal", "opening_hours": "Tu-Sa 17:00-00:00", "website": "https://dasweinlokal.berlin/"}}, {"type": "node", "id": 11240947425, "lat": 52.4834967, "lon": 13.5013668, "tags": {"addr:housenumber": "1", "addr:postcode": "10317", "addr:street": "Blockdammweg", "amenity": "cafe", "contact:facebook": "muschkebart", "contact:instagram": "muschkebart", "description": "Tgl. wechselnde Mittagsgerichte & Kaffee", "email": "post@muschkebart.de", "name": "Muschkebart", "opening_hours": "Mo-Fr 12:00-17:00", "phone": "030 65707317", "website": "https://muschkebart.de/"}}, {"type": "node", "id": 11246991682, "lat": 52.5112667, "lon": 13.5010722}, {"type": "node", "id": 11246991683, "lat": 52.5113007, "lon": 13.500801}, {"type": "node", "id": 11307463712, "lat": 52.5017399, "lon": 13.4856043}, {"type": "node", "id": 11307463713, "lat": 52.5017456, "lon": 13.4856693}, {"type": "node", "id": 11324761833, "lat": 52.5017041, "lon": 13.4788626, "tags": {"barrier": "gate", "foot": "yes"}}, {"type": "node", "id": 11327633479, "lat": 52.5013615, "lon": 13.4787986}, {"type": "node", "id": 11399790685, "lat": 52.5023687, "lon": 13.4848994}, {"type": "node", "id": 11528328608, "lat": 52.5004721, "lon": 13.4698388}, {"type": "node", "id": 11572265331, "lat": 52.493745, "lon": 13.4984244}, {"type": "node", "id": 11584196666, "lat": 52.5082196, "lon": 13.4970097, "tags": {"addr:city": "Berlin", "addr:housenumber": "32", "addr:postcode": "10317", "addr:street": "Weitlingstra\u00dfe", "amenity": "restaurant", "cuisine": "arab;manakish", "level": "0", "name": "Ham Ham Manakish", "opening_hours": "Mo-Su 10:00-20:00", "phone": "01758626654", "wheelchair": "no"}}, {"type": "node", "id": 11598157313, "lat": 52.5052807, "lon": 13.4959202, "tags": {"addr:city": "Berlin", "addr:housenumber": "59-60", "addr:postcode": "10317", "addr:street": "Weitlingstra\u00dfe", "amenity": "cafe", "cuisine": "regional;german", "indoor_seating": "yes", "internet_access": "wlan", "name": "deli am Markt", "operator": "REWE Markt GmbH", "outdoor_seating": "no", "takeaway": "yes", "wheelchair": "yes"}}, {"type": "node", "id": 11684877512, "lat": 52.500147, "lon": 13.4889958}, {"type": "node", "id": 11684877513, "lat": 52.5002078, "lon": 13.488925}, {"type": "node", "id": 11684877514, "lat": 52.5002189, "lon": 13.489774}, {"type": "node", "id": 11684877515, "lat": 52.500213, "lon": 13.4897844}, {"type": "node", "id": 11702112326, "lat": 52.4964928, "lon": 13.4866699}, {"type": "node", "id": 11702114887, "lat": 52.4964669, "lon": 13.487296}, {"type": "node", "id": 11773247739, "lat": 52.4926539, "lon": 13.4859497}, {"type": "node", "id": 11773247740, "lat": 52.4927418, "lon": 13.4858359}, {"type": "node", "id": 11773247741, "lat": 52.4927155, "lon": 13.48577}, {"type": "node", "id": 11773247742, "lat": 52.4930674, "lon": 13.4849477}, {"type": "node", "id": 11774969774, "lat": 52.4925119, "lon": 13.4865689}, {"type": "node", "id": 11774969775, "lat": 52.4924994, "lon": 13.4865439, "tags": {"access": "private", "barrier": "gate"}}, {"type": "node", "id": 11774976738, "lat": 52.4952071, "lon": 13.4844212}, {"type": "node", "id": 11774976739, "lat": 52.4951699, "lon": 13.4843821}, {"type": "node", "id": 11774976740, "lat": 52.4950518, "lon": 13.4846235}, {"type": "node", "id": 11774976741, "lat": 52.4950929, "lon": 13.4846713}, {"type": "node", "id": 11774993435, "lat": 52.4947879, "lon": 13.4876399}, {"type": "node", "id": 11774993436, "lat": 52.4946531, "lon": 13.4874647}, {"type": "node", "id": 11774993437, "lat": 52.494628, "lon": 13.4875167}, {"type": "node", "id": 11774993438, "lat": 52.4947628, "lon": 13.487692}, {"type": "node", "id": 11774998373, "lat": 52.49556, "lon": 13.4848169}, {"type": "node", "id": 11774998374, "lat": 52.4955131, "lon": 13.4847509}, {"type": "node", "id": 11774998375, "lat": 52.4954239, "lon": 13.4849132}, {"type": "node", "id": 11774998376, "lat": 52.4954776, "lon": 13.4849961}, {"type": "node", "id": 11808212032, "lat": 52.5023702, "lon": 13.4778665, "tags": {"addr:city": "Berlin", "addr:housenumber": "10-11", "addr:postcode": "10317", "addr:street": "T\u00fcrrschmidtstra\u00dfe", "healthcare": "physiotherapist", "name": "Omnia Influit", "phone": "+49 30 55494201", "website": "https://www.omnia-influit.de"}}, {"type": "node", "id": 11920383298, "lat": 52.5035737, "lon": 13.4863176, "tags": {"amenity": "cafe", "check_date": "2024-08-29", "name": "Eisfred", "opening_hours": "Tu-Fr 12:00-19:00; Sa,Su 13:00-19:00"}}, {"type": "node", "id": 11930398042, "lat": 52.5057394, "lon": 13.4772305, "tags": {"addr:housenumber": "104", "addr:street": "Pfarrstra\u00dfe", "check_date": "2025-07-27", "check_date:opening_hours": "2025-07-27", "email": "praxis-serret@posteo.de", "healthcare": "alternative", "healthcare:speciality": "osteopathy", "name": "PRAXIS SERRET", "opening_hours": "\"By appointment. https://praxis-serret.de\"", "phone": "+49 30 23958638", "website": "https://www.praxis-serret.de/", "wheelchair": "no"}}, {"type": "node", "id": 11993640021, "lat": 52.5021082, "lon": 13.4872757, "tags": {"access": "private", "leisure": "playground"}}, {"type": "node", "id": 12079538677, "lat": 52.4838453, "lon": 13.501479, "tags": {"addr:city": "Berlin", "addr:housenumber": "1", "addr:postcode": "10317", "addr:street": "Blockdammweg", "addr:suburb": "Rummelsburg", "amenity": "bar", "brand": "gART.n", "contact:email": "info@gartn.xyz", "contact:instagram": "https://www.instagram.com/gartn.berlin", "contact:ra": "https://de.ra.co/clubs/187654", "contact:website": "https://gartn.xyz", "name": "Gartn", "operator": "gART.n Gbr", "start_date": "2021-07"}}, {"type": "node", "id": 12103906891, "lat": 52.4949481, "lon": 13.5016441}, {"type": "node", "id": 12103932211, "lat": 52.494629, "lon": 13.5013622}, {"type": "node", "id": 12103932212, "lat": 52.4948243, "lon": 13.5015665}, {"type": "node", "id": 12103932213, "lat": 52.4949185, "lon": 13.5016898}, {"type": "node", "id": 12514230423, "lat": 52.5012817, "lon": 13.4739759, "tags": {"amenity": "cafe", "check_date": "2025-06-15", "cuisine": "coffee_shop", "internet_access": "wlan", "internet_access:fee": "customers", "name": "Caf\u00e9 am Wasser", "opening_hours": "Mo-Su,PH 07:00-17:00", "outdoor_seating": "no", "payment:cards": "no", "payment:cash": "yes", "payment:credit_cards": "no", "payment:debit_cards": "no", "wheelchair": "limited"}}, {"type": "node", "id": 12864438795, "lat": 52.5001744, "lon": 13.4889639}, {"type": "node", "id": 12871175322, "lat": 52.5052719, "lon": 13.4973523}, {"type": "node", "id": 12871175371, "lat": 52.5029248, "lon": 13.4844387}, {"type": "node", "id": 12930860683, "lat": 52.5005159, "lon": 13.4740374}, {"type": "way", "id": 31735538, "nodes": [1716403198, 304338108, 304338110, 2168885889, 2168885886, 304338111, 2168885884, 304338112, 304338115, 304338116, 304338119, 2168885877, 304338122, 2168885875, 304338123, 304338402, 2168885865, 2168885861, 2168885855, 29786549, 2168885853, 2168885859, 2168885860, 29786550, 351682431, 304338403, 11773247742, 2168885847, 2168885845, 304338404, 2168885842, 2168885839, 2168885840, 558610616, 11773247741, 11773247740, 558610627, 558611199, 558610645, 11773247739, 2168885841, 2168885837, 2168885836, 304338405, 2168885832, 2168885827, 2168885825, 2168885828, 29786551, 11774969775, 11774969774, 355124181, 355125892, 581287707, 581287711, 581287708, 4110034674, 355124197, 355124200, 4110034687, 4110028312, 355124204, 4381833723, 4135342186, 4135342187, 4135342188, 4135344289, 1716403198], "tags": {"leisure": "park", "protection_title": "Gesch\u00fctzte Gr\u00fcnanlage"}}, {"type": "way", "id": 34341533, "nodes": [3869448438, 3869448455, 3869448445, 3869448425, 3869448438], "tags": {"leisure": "park", "name": "M\u00fcnsterlandplatz", "name:etymology:wikidata": "Q1700", "protection_title": "Gesch\u00fctzte Gr\u00fcnanlage", "source": "Geoportal Berlin / Gr\u00fcnanlagenbestand Berlin (einschlie\u00dflich der \u00f6ffentlichen Spielpl\u00e4tze)"}}, {"type": "way", "id": 34418406, "nodes": [3743762575, 3743762391, 2159932177, 3743762341, 3743762338, 3743762333, 3743762339, 3743762325, 3743762210, 3743762184, 638679189, 3743762483, 4530380969, 3743762494, 8775871685, 3743762518, 3743762520, 8775871683, 3743762544, 3743762547, 3743762534, 10118716350, 6089715325, 3743762575], "tags": {"addr:city": "Berlin", "addr:country": "DE", "addr:housenumber": "59", "addr:postcode": "10317", "addr:street": "Weitlingstra\u00dfe", "addr:suburb": "Rummelsburg", "branch": "im Weitlingkiez", "brand": "Rewe", "brand:wikidata": "Q16968817", "building": "retail", "building:levels": "1", "check_date": "2024-09-05", "check_date:opening_hours": "2024-08-23", "contact:phone": "+49 30 52279324", "internet_access": "yes", "internet_access:ssid": "-REWE gratis WLAN-", "name": "REWE", "opening_hours": "Mo-Sa 06:00-23:30", "operator": "REWE Markt GmbH (Filiale Weitlingkiez)", "phone": "+49 30 52279324", "roof:levels": "0", "roof:shape": "flat", "self_checkout": "yes", "shop": "supermarket", "toilets": "yes", "toilets:wheelchair": "yes", "website": "https://www.rewe.de/", "wheelchair": "yes"}}, {"type": "way", "id": 35200832, "nodes": [412729127, 6417426554, 6417426555, 506698064, 412729128, 3887494542, 412729127], "tags": {"access": "yes", "leisure": "playground", "name": "Spielplatz Marie-Curie-Allee 12-14", "source": "Geoportal Berlin / Gr\u00fcnanlagenbestand Berlin (einschlie\u00dflich der \u00f6ffentlichen Spielpl\u00e4tze)"}}, {"type": "way", "id": 36678753, "nodes": [550476314, 426425007, 4110028355, 550476315, 426425005, 1393203711, 4110028340, 426425004, 4110028338, 4110028339, 550476314], "tags": {"leisure": "park", "name": "Medaillonplatz", "name:etymology:wikidata": "Q115488", "name:etymology:wikipedia": "de:Medaillon (Ornament)", "protection_title": "Gesch\u00fctzte Gr\u00fcnanlage", "wikidata": "Q32127905"}}, {"type": "way", "id": 36932531, "nodes": [656902586, 10538858410, 262511595, 10538858412, 262511596, 9995460830, 9995445816, 3887620625, 3887620655, 656902586], "tags": {"access": "yes", "addr:city": "Berlin", "addr:country": "DE", "addr:housenumber": "21-25", "addr:postcode": "10317", "addr:street": "Hauffstra\u00dfe", "leisure": "playground", "name": "Im Schilf", "protection_title": "Gesch\u00fctzte Gr\u00fcnanlage", "source": "Geoportal Berlin / Gr\u00fcnanlagenbestand Berlin (einschlie\u00dflich der \u00f6ffentlichen Spielpl\u00e4tze)", "wheelchair": "yes"}}, {"type": "way", "id": 41665566, "nodes": [422747552, 5473483410, 512101160, 595969066, 11684877515, 11684877514, 422747548, 10012140241, 422747545, 1465195700, 1465195692, 11684877512, 12864438795, 11684877513, 422747533, 7003760701, 7003760704, 7003760700, 7003760697, 7003760694, 7003760692, 7003760686, 422747532, 9972363421, 9972363420, 422747569, 8586932431, 422747566, 8586932429, 3868399949, 3868399934, 5473485724, 3868399880, 4807140263, 9972363425, 422747555, 422747552], "tags": {"leisure": "park", "name": "Blockpark", "protection_title": "Gesch\u00fctzte Gr\u00fcnanlage", "source": "Geoportal Berlin / Gr\u00fcnanlagenbestand Berlin (einschlie\u00dflich der \u00f6ffentlichen Spielpl\u00e4tze)"}}, {"type": "way", "id": 45588295, "nodes": [581287730, 581287728, 581287721, 581287725, 581287730], "tags": {"landuse": "grass", "leisure": "park", "protection_title": "Gesch\u00fctzte Gr\u00fcnanlage"}}, {"type": "way", "id": 50239695, "nodes": [3887494563, 3887494567, 3887494559, 3887494561, 3887494575, 3887494616, 11001919365, 11001919364, 29806172, 11001919366, 3887494563], "tags": {"esperanto": "yes", "leisure": "park", "name": "Zamenhofpark", "name:etymology:wikidata": "Q11758", "name:etymology:wikipedia": "de:Ludwik Lejzer Zamenhof", "protection_title": "Gesch\u00fctzte Gr\u00fcnanlage", "source": "Geoportal Berlin / Gr\u00fcnanlagenbestand Berlin (einschlie\u00dflich der \u00f6ffentlichen Spielpl\u00e4tze)", "wikidata": "Q145747", "wikipedia": "de:Zamenhofpark"}}, {"type": "way", "id": 50249122, "nodes": [638679189, 4639964143, 3481251418, 6470289817, 12871175322, 8775871689, 3481251429, 8775871698, 6470289816, 3481251438, 8775871684, 3593174868, 638679189], "tags": {"access": "yes", "leisure": "playground", "name": "Spielplatz W\u00f6nnich/Sophien", "operator": "Bezirksamt Lichtenberg von Berlin Amt f\u00fcr Umwelt und Natur", "source": "Geoportal Berlin / Gr\u00fcnanlagenbestand Berlin (einschlie\u00dflich der \u00f6ffentlichen Spielpl\u00e4tze)"}}, {"type": "way", "id": 50249315, "nodes": [638682651, 638682653, 10683129772, 638682655, 638682657, 11001891695, 11001891696, 11001891697, 11001891698, 11001891694, 11001891699, 638682651], "tags": {"access": "yes", "fixme": "please add opening hours", "leisure": "playground", "operator": "Bezirksamt Lichtenberg von Berlin Jugendamt", "source": "Geoportal Berlin / Gr\u00fcnanlagenbestand Berlin (einschlie\u00dflich der \u00f6ffentlichen Spielpl\u00e4tze)", "wheelchair": "yes"}}, {"type": "way", "id": 51459554, "nodes": [656901778, 3887620708, 3887620676, 10316962211, 10316962209, 3887620544, 3887620566, 656901785, 656901778], "tags": {"access": "yes", "leisure": "playground", "name": "Spielplatz Bahnhof", "wheelchair": "limited"}}, {"type": "way", "id": 68283529, "nodes": [4110034841, 4110034852, 4110034845, 4110034839, 4110034841], "tags": {"landuse": "grass", "leisure": "park", "protection_title": "Gesch\u00fctzte Gr\u00fcnanlage", "source": "Geoportal Berlin / Gr\u00fcnanlagenbestand Berlin (einschlie\u00dflich der \u00f6ffentlichen Spielpl\u00e4tze)"}}, {"type": "way", "id": 69724811, "nodes": [833910409, 833911309, 833910843, 833910846, 833910848, 5060755987, 5060755984, 5060755988, 5448875071, 833910409], "tags": {"access": "yes", "barrier": "fence", "fence_type": "metal", "height": "0.8", "leisure": "playground", "name": "Spielplatz N\u00f6ldnerplatz", "protection_title": "Gesch\u00fctzte Gr\u00fcnanlage"}}, {"type": "way", "id": 125437095, "nodes": [1393203718, 1393203708, 1393203710, 1393203707, 11702114887, 1393203705, 1393203709, 1393203706, 11702112326, 1393203712, 1393203713, 1393203715, 1469522916, 1393203718], "tags": {"addr:city": "Berlin", "addr:housenumber": "36", "addr:postcode": "10317", "addr:street": "Hauptstra\u00dfe", "brand": "ALDI Nord", "brand:wikidata": "Q41171373", "brand:wikipedia": "en:Aldi", "building": "retail", "building:levels": "1", "check_date:opening_hours": "2025-05-23", "height": "6", "name": "Aldi", "opening_hours": "Mo-Sa 07:00-21:00", "operator": "ALDI Nord", "roof:levels": "0", "roof:shape": "flat", "shop": "supermarket", "wheelchair": "yes"}}, {"type": "way", "id": 166030614, "nodes": [1775174624, 7705024138, 7705024139, 7705024141, 7705024140, 768669370, 768669371, 638463015, 3868389440, 1775174624], "tags": {"leisure": "park", "protection_title": "Gesch\u00fctzte Gr\u00fcnanlage", "source": "Geoportal Berlin / Gr\u00fcnanlagenbestand Berlin (einschlie\u00dflich der \u00f6ffentlichen Spielpl\u00e4tze)"}}, {"type": "way", "id": 168854677, "nodes": [3887620132, 1800422986, 3836099114, 1800422987, 3887620161, 3887620180, 1800422989, 1800422978, 3887620112, 3887620132], "tags": {"leisure": "park", "name": "T\u00fcrrschmidtpark", "protection_title": "Gesch\u00fctzte Gr\u00fcnanlage", "wikidata": "Q115185399"}}, {"type": "way", "id": 232454574, "nodes": [297766270, 297766273, 2408062586, 2408062578, 11246991682, 11246991683, 297766270], "tags": {"leisure": "park", "name": "Monimbo-Platz", "name:etymology:wikidata": "Q101244812"}}, {"type": "way", "id": 302026953, "nodes": [3062599043, 3062599045, 3062599044, 3062599042, 3062599043], "tags": {"amenity": "fast_food", "building": "kiosk", "cuisine": "kebab", "diet:vegetarian": "yes", "internet_access": "no", "name": "AVCI", "opening_hours:signed": "no", "surveillance": "yes", "takeaway": "only", "wheelchair": "yes"}}, {"type": "way", "id": 312103058, "nodes": [3179301546, 6071477227, 6071477228, 3179301541, 3179301537, 3177981430, 3177981425, 3177981424, 3177981422, 3177981423, 3177981420, 3177981421, 3177981426, 3177981429, 3179301534, 2557011341, 3179301546], "tags": {"addr:city": "Berlin", "addr:housenumber": "9", "addr:postcode": "10317", "addr:street": "Weitlingstra\u00dfe", "brand": "Penny", "brand:wikidata": "Q284688", "brand:wikipedia": "en:Penny (supermarket)", "building": "retail", "building:levels": "1", "check_date:opening_hours": "2022-01-08", "height": "4", "name": "PENNY", "opening_hours": "Mo-Sa 07:00-22:00", "operator": "Penny Markt GmbH, K\u00f6ln", "payment:cash": "yes", "payment:coins": "yes", "payment:credit_cards": "yes", "payment:maestro": "yes", "payment:mastercard": "yes", "payment:notes": "yes", "payment:visa": "yes", "roof:levels": "0", "roof:shape": "flat", "shop": "supermarket", "surveillance": "indoor", "wheelchair": "yes"}}, {"type": "way", "id": 316738106, "nodes": [3228925964, 3228949955, 3228949956, 3228949954, 3228949953, 3228925985, 3228925981, 3228925966, 3228925964], "tags": {"access": "private", "leisure": "playground"}}, {"type": "way", "id": 339298149, "nodes": [3464843960, 3464843952, 3464843945, 10316962302, 10316962303, 3464843948, 3464843960], "tags": {"leisure": "park", "protection_title": "Gesch\u00fctzte Gr\u00fcnanlage", "wikimedia_commons": "File:Gr\u00fcnanlage T\u00fcrrschmidtstra\u00dfe Stadthausstra\u00dfe Berlin-Rummelsburg 01.jpg"}}, {"type": "way", "id": 384657927, "nodes": [3880035204, 3887620060, 544774509, 544774503, 4012848704, 3887620012, 3880035206, 3880035204], "tags": {"leisure": "park", "protection_title": "Gesch\u00fctzte Gr\u00fcnanlage"}}, {"type": "way", "id": 409110214, "nodes": [2168885896, 6036959109, 355124213, 355124215, 4110034809, 3342923868, 355124222, 822185327, 355124225, 304338099, 2168885909, 2168885908, 257380544, 2168885907, 304338102, 2168885904, 304338103, 2168885901, 304338104, 2168885896], "tags": {"leisure": "park", "protection_title": "Gesch\u00fctzte Gr\u00fcnanlage"}}, {"type": "way", "id": 409110215, "nodes": [4110034838, 4110034837, 4110034833, 4840232748, 4840232749, 4840232750, 4840232751, 4840232752, 4840232753, 4110034834, 4110034838], "tags": {"landuse": "grass", "leisure": "park", "protection_title": "Gesch\u00fctzte Gr\u00fcnanlage", "source": "Geoportal Berlin / Gr\u00fcnanlagenbestand Berlin (einschlie\u00dflich der \u00f6ffentlichen Spielpl\u00e4tze)"}}, {"type": "way", "id": 409110216, "nodes": [355125892, 9955231859, 9955231858, 355124181, 355125892], "tags": {"leisure": "park", "protection_title": "Gesch\u00fctzte Gr\u00fcnanlage"}}, {"type": "way", "id": 430955091, "nodes": [4302092165, 4302092178, 4302092170, 4302092159, 4302092165], "tags": {"amenity": "fast_food", "brand": "Ditsch", "brand:wikidata": "Q911573", "indoor": "room", "layer": "-1", "level": "-1", "name": "Ditsch", "shop": "bakery"}}, {"type": "way", "id": 430955092, "nodes": [4302091882, 4302091877, 4302091872, 4302091864, 4302091854, 4302091802, 4302091851, 4302091903, 4302091882], "tags": {"addr:city": "Berlin", "addr:housenumber": "22", "addr:postcode": "10317", "addr:street": "Weitlingstra\u00dfe", "brand": "Edeka", "brand:wikidata": "Q701755", "brand:wikipedia": "de:Edeka", "check_date:opening_hours": "2025-02-03", "contact:phone": "+49 30 51061133", "contact:website": "http://www.edeka.de", "level": "0", "name": "EDEKA", "opening_hours": "Mo-Fr 06:00-22:00; Sa-Su 08:00-22:00; PH 08:00-22:00", "room": "shop", "self_checkout": "no", "shop": "supermarket", "wheelchair": "yes"}}, {"type": "way", "id": 430955094, "nodes": [4302091951, 4302091924, 4302091934, 4302091964, 4302091951], "tags": {"addr:city": "Berlin", "addr:country": "DE", "addr:housenumber": "22", "addr:street": "Weitlingstra\u00dfe", "amenity": "pharmacy", "check_date:opening_hours": "2025-02-03", "dispensing": "yes", "fax": "+493051068801", "healthcare": "pharmacy", "internet_access": "no", "level": "0", "name": "Lichtenberg Apotheke", "opening_hours": "Mo-Sa 08:00-20:00, Su,PH 10:00-16:00", "opening_hours:url": "https://www.lichtenberg-apotheke.de/", "operator": "Lukas & Maria Zoschke oHG", "phone": "+493051068800", "room": "office", "website": "https://www.lichtenberg-apotheke.de/", "wheelchair": "yes"}}, {"type": "way", "id": 452942254, "nodes": [4497557425, 4497557423, 4497557422, 4497557420, 4497557413, 4497557410, 4497557409, 4497557419, 4497557421, 4497557425], "tags": {"access": "yes", "leisure": "playground", "name": "Spielplatz Emma-Ihrer-Stra\u00dfe"}}, {"type": "way", "id": 469681566, "nodes": [4639806230, 4639806231, 4639806232, 4639806233, 4639806230], "tags": {"access": "yes", "leisure": "playground"}}, {"type": "way", "id": 511269205, "nodes": [5001529718, 5001529719, 5001529720, 5001529700, 5001529718], "tags": {"access": "private", "leisure": "playground", "playground": "sandpit"}}, {"type": "way", "id": 511269206, "nodes": [5001530221, 5001530222, 5001530224, 5001530226, 5001530228, 5001530229, 5001530230, 5001530231, 5001530232, 5001530233, 5001530234, 5001530236, 5001530238, 5001530240, 5001530243, 5001530244, 5001530245, 5001530247, 5001530248, 5001530249, 5001530250, 5001530251, 5001530252, 5001530253, 5001530254, 5001530255, 5001530256, 5001530221], "tags": {"access": "private", "leisure": "playground", "playground": "sandpit"}}, {"type": "way", "id": 511271726, "nodes": [5001539601, 5001539602, 5001539603, 5001539604, 5001539601], "tags": {"access": "private", "leisure": "playground", "playground": "sandpit"}}, {"type": "way", "id": 521354417, "nodes": [5079804203, 5079804204, 5079804205, 5079804206, 5079804203], "tags": {"addr:city": "Berlin", "addr:housenumber": "4", "addr:postcode": "10317", "addr:street": "K\u00f6penicker Chaussee", "amenity": "restaurant", "building": "yes", "name": "KIN"}}, {"type": "way", "id": 565132331, "nodes": [5443601323, 5443601322, 5443601321, 5443598520, 5443601323], "tags": {"leisure": "park", "protection_title": "Gesch\u00fctzte Gr\u00fcnanlage", "source": "Geoportal Berlin / Gr\u00fcnanlagenbestand Berlin (einschlie\u00dflich der \u00f6ffentlichen Spielpl\u00e4tze)"}}, {"type": "way", "id": 565132332, "nodes": [5443601332, 5096167854, 5443601331, 5443601328, 10538972933, 10538972934, 10538972936, 10538972935, 5443598519, 5443601332], "tags": {"landuse": "grass", "leisure": "park", "protection_title": "Gesch\u00fctzte Gr\u00fcnanlage"}}, {"type": "way", "id": 618345156, "nodes": [5844658003, 5844658004, 5844658005, 5844658006, 5912285715, 5912285701, 9160222580, 5844658003], "tags": {"access": "private", "leisure": "playground"}}, {"type": "way", "id": 622369426, "nodes": [1371452462, 1371452459, 1371452450, 1371452441, 1371452438, 1371452442, 1371452444, 1395765678, 1395765683, 1395765685, 1395765688, 5878935487, 1395765695, 1395765699, 1395765701, 1395765702, 1395765703, 10877217500, 12930860683, 1395765676, 2789821402, 2789821399, 2789821401, 1371452454, 2902791122, 2902791123, 1371452460, 1371452464, 2902791142, 2902791135, 721661007, 29786545, 721661017, 309749173, 2389572564, 2389572566, 2389572558, 309749171, 309749168, 29786544, 721661057, 721661027, 721661039, 1371452435, 5301216749, 309749158, 411636600, 309749159, 721661032, 5301216748, 5301216747, 309749164, 5301216746, 5301216745, 5301216744, 721672476, 721672420, 721672429, 5301216742, 309749163, 5301216743, 309749161, 411636590, 646797476, 2902791156, 5301216739, 721661065, 411612513, 6155449225, 2319475202, 3622434200, 11528328608, 3622434206, 1371452462], "tags": {"leisure": "park"}}, {"type": "way", "id": 622369427, "nodes": [11002552337, 5878935492, 1430090827, 5809494330, 5809494329, 11002552336, 666062591, 5878935485, 11002552337], "tags": {"access": "yes", "leisure": "playground", "source": "Geoportal Berlin / Gr\u00fcnanlagenbestand Berlin (einschlie\u00dflich der \u00f6ffentlichen Spielpl\u00e4tze)"}}, {"type": "way", "id": 626247039, "nodes": [5912285697, 5912285712, 5912285719, 5912285703, 5912285709, 5912285717, 5912285699, 5912285697], "tags": {"access": "yes", "leisure": "playground"}}, {"type": "way", "id": 657017262, "nodes": [6153849333, 11324761833, 6153849332, 6153849331, 435172125, 6153849328, 6153849327, 11327633479, 6153849324, 6153849333], "tags": {"access": "yes", "barrier": "fence", "leisure": "playground"}}, {"type": "way", "id": 700248923, "nodes": [6575842029, 10185484893, 11307463712, 11307463713, 6575842028, 10185484894, 10185484895, 10185484896, 6575842027, 6575842026, 6575842029], "tags": {"leisure": "park", "name": "N\u00f6ldnerplatz", "name:etymology:wikidata": "Q1363302", "protection_title": "Gesch\u00fctzte Gr\u00fcnanlage", "wikidata": "Q1284120", "wikipedia": "de:N\u00f6ldnerplatz"}}, {"type": "way", "id": 704288532, "nodes": [6612950493, 6612950492, 6612950491, 6612950490, 4097945375, 4097945378, 6612950494, 6612950489, 6612950488, 6612950487, 6612950493], "tags": {"access": "private", "leisure": "playground"}}, {"type": "way", "id": 752820845, "nodes": [7034391073, 7034391074, 7034391075, 7034391076, 7034391077, 7034391078, 7034396838, 7034396837, 7034396836, 7034396835, 7034391073], "tags": {"access": "private", "leisure": "playground", "playground": "sandpit"}}, {"type": "way", "id": 752833134, "nodes": [7034467906, 7034467907, 7034467908, 9144488184, 7034467909, 7034467910, 9312570741, 9148115781, 654261389, 9141503709, 9882755764, 7034467914, 7034467915, 7034467906], "tags": {"access": "private", "leisure": "playground", "surface": "sand"}}, {"type": "way", "id": 824826183, "nodes": [7701978906, 7701978905, 7701978915, 7701978914, 7701978906], "tags": {"access": "private", "leisure": "playground"}}, {"type": "way", "id": 824826184, "nodes": [7701978907, 7701978909, 7701978910, 7701978912, 7701978911, 7701978908, 7701978907], "tags": {"access": "private", "leisure": "playground"}}, {"type": "way", "id": 906884899, "nodes": [8421107811, 8421107810, 8421107809, 8421122122, 8421107811], "tags": {"access": "private", "leisure": "playground", "surface": "gravel"}}, {"type": "way", "id": 979394560, "nodes": [9060922090, 9060922091, 9060922092, 9060922093, 9060922090], "tags": {"access": "private", "leisure": "playground", "surface": "sand"}}, {"type": "way", "id": 1128474867, "nodes": [10317038418, 11399790685, 10317038419, 10317038420, 10317038421, 10317038422, 10317038423, 10317038429, 10317038431, 10317038432, 10317038433, 10317038434, 10317038435, 10317038436, 10317038437, 12871175371, 10317038438, 10317038418], "tags": {"leisure": "park", "protection_title": "Gesch\u00fctzte Gr\u00fcnanlage"}}, {"type": "way", "id": 1130950245, "nodes": [10540028091, 10540028092, 10540028093, 10540028094, 530786774, 10540028095, 10540028096, 11123997385, 10540028097, 1681011114, 1681011116, 11123997384, 11123997383, 6272298191, 10540028091], "tags": {"leisure": "park", "protection_title": "Gesch\u00fctzte Gr\u00fcnanlage"}}, {"type": "way", "id": 1169864731, "nodes": [10877666927, 10877666928, 10877666929, 10877666930, 10877666931, 10877666932, 10877666933, 10877666927], "tags": {"access": "permit", "leisure": "playground"}}, {"type": "way", "id": 1184494753, "nodes": [3887494575, 11001919366, 3887494563, 3887494567, 3887494559, 3887494561, 3887494575], "tags": {"access": "yes", "leisure": "playground"}}, {"type": "way", "id": 1184497731, "nodes": [11001891700, 11001891701, 11001891702, 11001891703, 11001891700], "tags": {"access": "yes", "leisure": "playground", "source": "Geoportal Berlin / Gr\u00fcnanlagenbestand Berlin (einschlie\u00dflich der \u00f6ffentlichen Spielpl\u00e4tze)"}}, {"type": "way", "id": 1184497732, "nodes": [11001891704, 11001964005, 11001964006, 11001964007, 11001891704], "tags": {"access": "yes", "leisure": "playground", "source": "Geoportal Berlin / Gr\u00fcnanlagenbestand Berlin (einschlie\u00dflich der \u00f6ffentlichen Spielpl\u00e4tze)"}}, {"type": "way", "id": 1184497733, "nodes": [11001964008, 3869448422, 3869448428, 11001964009, 11001964008], "tags": {"access": "private", "leisure": "playground", "source": "Geoportal Berlin / Gr\u00fcnanlagenbestand Berlin (einschlie\u00dflich der \u00f6ffentlichen Spielpl\u00e4tze)"}}, {"type": "way", "id": 1184497734, "nodes": [11001964010, 11001964011, 11001964012, 11001964013, 11001964010], "tags": {"access": "yes", "leisure": "playground", "source": "Geoportal Berlin / Gr\u00fcnanlagenbestand Berlin (einschlie\u00dflich der \u00f6ffentlichen Spielpl\u00e4tze)"}}, {"type": "way", "id": 1184571565, "nodes": [11002552340, 11002552341, 11002552342, 11002552343, 11002552340], "tags": {"leisure": "park", "source": "Geoportal Berlin / Gr\u00fcnanlagenbestand Berlin (einschlie\u00dflich der \u00f6ffentlichen Spielpl\u00e4tze)"}}, {"type": "way", "id": 1184571566, "nodes": [11002552344, 11002552345, 11002552346, 11002552347, 11002552344], "tags": {"leisure": "park", "protection_title": "Gesch\u00fctzte Gr\u00fcnanlage", "source": "Geoportal Berlin / Gr\u00fcnanlagenbestand Berlin (einschlie\u00dflich der \u00f6ffentlichen Spielpl\u00e4tze)"}}, {"type": "way", "id": 1193489022, "nodes": [11078191548, 11078191549, 9977125017, 11078191550, 11078130099, 11078191548], "tags": {"access": "private", "leisure": "playground"}}, {"type": "way", "id": 1206253684, "nodes": [11177705997, 11177705996, 11177705995, 11177705994, 11177705993, 11177705992, 421622894, 421622890, 421622885, 421622883, 2844016801, 422759789, 11177705991, 11179448100, 8639490097, 11179448101, 512101162, 8280630699, 8280630698, 10580925575, 10580925574, 10580925573, 10580925576, 10580925572, 10580925570, 10580925569, 10580925568, 3662858526, 3653030828, 3653030827, 10580925579, 10580925580, 10580925581, 422759802, 10580925578, 10580925577, 520275499, 520275504, 10580925582, 281386144, 11177705976, 11177705975, 2844000693, 2806467200, 5696998188, 5696998187, 523972921, 523972919, 5501649789, 2806467180, 11177705952, 11177705951, 11177705950, 11177705948, 11177705949, 5501649787, 11177705947, 4031251227, 5473518475, 5473518476, 5473518477, 11177705946, 5473518478, 12103906891, 5846255431, 12103932213, 12103932212, 12103932211, 296331744, 641217953, 11177705974, 1984032076, 1984032074, 1984032068, 11177705973, 11177705972, 1984032064, 11177705971, 11177705970, 11177705969, 11177705968, 11177705967, 11177705966, 11177705965, 11177705964, 2714266806, 4802157418, 641791092, 4802157721, 2995518393, 11177705963, 4528376828, 2995518386, 11177705962, 11177705961, 11177705944, 11177705960, 11177705959, 11177705958, 11177705957, 11177705956, 11177705955, 11177705954, 11177705943, 5067068741, 11177705942, 11177705941, 11177705940, 653830514, 11177705939, 523977211, 11177705938, 653830510, 11177705953, 11572265331, 11177705997], "tags": {"leisure": "park", "protection_title": "Gesch\u00fctzte Gr\u00fcnanlage"}}, {"type": "way", "id": 1267856317, "nodes": [11774976738, 11774976739, 11774976740, 11774976741, 11774976738], "tags": {"access": "private", "leisure": "playground", "surface": "sand"}}, {"type": "way", "id": 1267856527, "nodes": [11774998373, 11774998374, 11774998375, 11774998376, 11774998373], "tags": {"access": "private", "leisure": "playground", "surface": "paved"}}, {"type": "way", "id": 1267857641, "nodes": [11774993435, 11774993436, 11774993437, 11774993438, 11774993435], "tags": {"access": "private", "leisure": "playground", "surface": "sand"}}]}