{"version": 0.6, "generator": "Overpass API 0.7.62.7 375dc00a", "osm3s": {"timestamp_osm_base": "2025-08-05T14:19:00Z", "copyright": "The data included in this document is from www.openstreetmap.org. The data is made available under ODbL."}, "elements": [{"type": "node", "id": 32531345, "lat": 52.4966447, "lon": 13.3000244}, {"type": "node", "id": 32531346, "lat": 52.4965807, "lon": 13.3013751}, {"type": "node", "id": 32531347, "lat": 52.4950982, "lon": 13.3011833}, {"type": "node", "id": 32531348, "lat": 52.4952541, "lon": 13.2998457}, {"type": "node", "id": 63253646, "lat": 52.4983826, "lon": 13.2969979, "tags": {"addr:city": "Berlin", "addr:country": "DE", "addr:housenumber": "100", "addr:postcode": "10709", "addr:street": "Kurf\u00fcrstendamm", "addr:suburb": "Halensee", "amenity": "restaurant", "cuisine": "german", "indoor_seating": "yes", "name": "Haus der 100 Biere", "opening_hours": "Mo-Su 11:00-00:00", "outdoor_seating": "yes", "phone": "+49 30 25092901", "toilets:wheelchair": "yes", "website": "https://100biere.de/", "wheelchair": "yes"}}, {"type": "node", "id": 63253652, "lat": 52.4985867, "lon": 13.2982491, "tags": {"addr:city": "Berlin", "addr:country": "DE", "addr:housenumber": "97-98", "addr:postcode": "10709", "addr:street": "Kurf\u00fcrstendamm", "addr:suburb": "Halensee", "amenity": "restaurant", "cuisine": "greek", "indoor_seating": "yes", "internet_access": "wlan", "name": "Ach!NikO!Ach!", "opening_hours": "Mo-Su 12:00-24:00", "outdoor_seating": "yes", "wheelchair": "no"}}, {"type": "node", "id": 63253660, "lat": 52.5009791, "lon": 13.2976442, "tags": {"addr:city": "Berlin", "addr:country": "DE", "addr:housenumber": "31", "addr:postcode": "10711", "addr:street": "Damaschkestra\u00dfe", "addr:suburb": "Halensee", "amenity": "restaurant", "check_date:opening_hours": "2024-07-06", "contact:phone": "+49 30 31809777", "contact:website": "https://www.ristorantesalveberlin.de/", "cuisine": "pizza", "diet:vegan": "no", "diet:vegetarian": "yes", "name": "Ristorante Salve", "opening_hours": "Tu-Su 16:00-22:00; Mo off", "wheelchair": "limited"}}, {"type": "node", "id": 110497660, "lat": 52.4943679, "lon": 13.2891024}, {"type": "node", "id": 110497675, "lat": 52.4944873, "lon": 13.2897251}, {"type": "node", "id": 110497680, "lat": 52.4943302, "lon": 13.2899117}, {"type": "node", "id": 110497684, "lat": 52.4942977, "lon": 13.2899442}, {"type": "node", "id": 267287863, "lat": 52.494364, "lon": 13.2891449}, {"type": "node", "id": 268655910, "lat": 52.4972584, "lon": 13.2963223}, {"type": "node", "id": 268655912, "lat": 52.4973454, "lon": 13.2967919}, {"type": "node", "id": 268655922, "lat": 52.4972241, "lon": 13.29649}, {"type": "node", "id": 268655928, "lat": 52.4972476, "lon": 13.2966164}, {"type": "node", "id": 268977847, "lat": 52.4979888, "lon": 13.2944721, "tags": {"addr:city": "Berlin", "addr:country": "DE", "addr:housenumber": "105", "addr:postcode": "10711", "addr:street": "Kurf\u00fcrstendamm", "addr:suburb": "Halensee", "amenity": "restaurant", "contact:phone": "+49308911305", "contact:website": "http://www.eiffel-berlin.de/", "cuisine": "french;mediterranean", "name": "Eiffel", "opening_hours": "Mo-Su 09:00-23:00", "toilets:wheelchair": "yes", "wheelchair": "yes"}}, {"type": "node", "id": 269057091, "lat": 52.4972082, "lon": 13.2966722}, {"type": "node", "id": 269057092, "lat": 52.4972854, "lon": 13.2968356}, {"type": "node", "id": 269057093, "lat": 52.4971513, "lon": 13.2963306}, {"type": "node", "id": 269057094, "lat": 52.4971414, "lon": 13.2965227}, {"type": "node", "id": 270226575, "lat": 52.4983988, "lon": 13.2905907}, {"type": "node", "id": 270226576, "lat": 52.4983898, "lon": 13.2907764}, {"type": "node", "id": 270226857, "lat": 52.4987394, "lon": 13.2912103}, {"type": "node", "id": 270226862, "lat": 52.4987316, "lon": 13.291386}, {"type": "node", "id": 292454369, "lat": 52.4987676, "lon": 13.2906377}, {"type": "node", "id": 292454373, "lat": 52.4987543, "lon": 13.2909297}, {"type": "node", "id": 312382422, "lat": 52.4953833, "lon": 13.3010188}, {"type": "node", "id": 312382423, "lat": 52.4954306, "lon": 13.3000744}, {"type": "node", "id": 312382424, "lat": 52.495354, "lon": 13.3000344}, {"type": "node", "id": 312382426, "lat": 52.495189, "lon": 13.3001075}, {"type": "node", "id": 312382427, "lat": 52.4951463, "lon": 13.3002596}, {"type": "node", "id": 312382428, "lat": 52.4950934, "lon": 13.300447}, {"type": "node", "id": 312382429, "lat": 52.4950952, "lon": 13.3007531}, {"type": "node", "id": 312382430, "lat": 52.4951923, "lon": 13.3009946}, {"type": "node", "id": 312382431, "lat": 52.4952564, "lon": 13.3010471}, {"type": "node", "id": 316533474, "lat": 52.497907, "lon": 13.2973176, "tags": {"addr:city": "Berlin", "addr:country": "DE", "addr:housenumber": "142", "addr:postcode": "10709", "addr:street": "Kurf\u00fcrstendamm", "addr:suburb": "Halensee", "amenity": "pharmacy", "contact:website": "http://www.waage-apotheke.de", "dispensing": "yes", "healthcare": "pharmacy", "name": "Waage Apotheke", "opening_hours": "Mo-Fr 08:30-20:00; Sa 08:30-19:00", "source": "survey", "wheelchair": "yes"}}, {"type": "node", "id": 387842300, "lat": 52.4987072, "lon": 13.2987243, "tags": {"addr:city": "Berlin", "addr:country": "DE", "addr:housenumber": "96", "addr:postcode": "10709", "addr:street": "Kurf\u00fcrstendamm", "addr:suburb": "Halensee", "amenity": "restaurant", "name": "Tugra"}}, {"type": "node", "id": 393409421, "lat": 52.4977192, "lon": 13.2927797, "tags": {"addr:city": "Berlin", "addr:country": "DE", "addr:housenumber": "110", "addr:postcode": "10711", "addr:street": "Kurf\u00fcrstendamm", "addr:suburb": "Halensee", "amenity": "pharmacy", "brand": "easyApotheke", "brand:wikidata": "Q110987931", "check_date:opening_hours": "2024-07-05", "dispensing": "yes", "healthcare": "pharmacy", "name": "easyApotheke", "opening_hours": "Mo-Fr 08:30-19:00; Sa 09:00-16:00", "wheelchair": "yes"}}, {"type": "node", "id": 393409422, "lat": 52.4976209, "lon": 13.2956562, "tags": {"addr:city": "Berlin", "addr:country": "DE", "addr:housenumber": "139", "addr:postcode": "10711", "addr:street": "Kurf\u00fcrstendamm", "addr:suburb": "Halensee", "amenity": "pharmacy", "dispensing": "yes", "healthcare": "pharmacy", "name": "Sky Apotheke am Kudamm", "opening_hours": "Mo-Fr 08:00-19:00; Sa 08:00-13:00", "wheelchair": "yes"}}, {"type": "node", "id": 406678484, "lat": 52.4992112, "lon": 13.3016415, "tags": {"addr:city": "Berlin", "addr:country": "DE", "addr:housenumber": "90", "addr:postcode": "10709", "addr:street": "Kurf\u00fcrstendamm", "addr:suburb": "Halensee", "amenity": "restaurant", "contact:email": "info@francucci.com", "contact:fax": "+49 30 32764795", "contact:phone": "+49 30 3233318", "contact:website": "http://www.francucci.com/", "cuisine": "italian", "indoor_seating": "yes", "name": "Francucci\u2019s Ristorante", "note": "Gepr\u00fcft am 25./26. Dez 2015", "opening_hours": "Mo-Su 12:00-24:00", "operator": "Francucci\u2019s Ristorante GmbH", "outdoor_seating": "yes", "wheelchair": "limited"}}, {"type": "node", "id": 409760012, "lat": 52.4987137, "lon": 13.2917339}, {"type": "node", "id": 409760015, "lat": 52.4957099, "lon": 13.2976849, "tags": {"addr:city": "Berlin", "addr:country": "DE", "addr:postcode": "10709", "addr:street": "Westf\u00e4lische Stra\u00dfe", "amenity": "pharmacy", "check_date:opening_hours": "2024-06-02", "dispensing": "yes", "healthcare": "pharmacy", "name": "Apotheke am Hochmeisterplatz", "opening_hours": "Mo,Tu,Th,Fr 09:00-18:30; We 09:00-14:00; Sa 09:00-13:30", "wheelchair": "yes"}}, {"type": "node", "id": 444722765, "lat": 52.4988369, "lon": 13.2994295, "tags": {"addr:city": "Berlin", "addr:country": "DE", "addr:housenumber": "94-95", "addr:postcode": "10709", "addr:street": "Kurf\u00fcrstendamm", "addr:suburb": "Halensee", "amenity": "restaurant", "cuisine": "italian", "diet:vegetarian": "yes", "indoor_seating": "yes", "name": "Piazza Br\u00e0", "opening_hours": "Mo-Su,PH 12:00-24:00", "outdoor_seating": "yes", "toilets:wheelchair": "yes", "wheelchair": "yes"}}, {"type": "node", "id": 540029251, "lat": 52.4999877, "lon": 13.2885306}, {"type": "node", "id": 540029252, "lat": 52.5001953, "lon": 13.2882524}, {"type": "node", "id": 540029261, "lat": 52.5001679, "lon": 13.2889816}, {"type": "node", "id": 540029266, "lat": 52.500391, "lon": 13.2888892}, {"type": "node", "id": 540029268, "lat": 52.5003465, "lon": 13.2889285}, {"type": "node", "id": 540029269, "lat": 52.5003225, "lon": 13.2888541}, {"type": "node", "id": 540029270, "lat": 52.5009954, "lon": 13.2919865}, {"type": "node", "id": 540029271, "lat": 52.5012333, "lon": 13.2917919}, {"type": "node", "id": 540029274, "lat": 52.5010963, "lon": 13.2923182}, {"type": "node", "id": 540029275, "lat": 52.5011994, "lon": 13.2925069}, {"type": "node", "id": 540029277, "lat": 52.5011316, "lon": 13.2922904}, {"type": "node", "id": 540029279, "lat": 52.501422, "lon": 13.2923992}, {"type": "node", "id": 540029280, "lat": 52.5013496, "lon": 13.2924608}, {"type": "node", "id": 540029281, "lat": 52.5013306, "lon": 13.2924008}, {"type": "node", "id": 540049655, "lat": 52.5012076, "lon": 13.2918121}, {"type": "node", "id": 546652856, "lat": 52.4972726, "lon": 13.2964202}, {"type": "node", "id": 546652859, "lat": 52.4973435, "lon": 13.2966911, "tags": {"level": "-1"}}, {"type": "node", "id": 546652860, "lat": 52.497444, "lon": 13.2963273}, {"type": "node", "id": 546652865, "lat": 52.4974981, "lon": 13.2966149}, {"type": "node", "id": 617342493, "lat": 52.5006544, "lon": 13.2968487, "tags": {"addr:city": "Berlin", "addr:country": "DE", "addr:housenumber": "27", "addr:postcode": "10711", "addr:street": "Joachim-Friedrich-Stra\u00dfe", "addr:suburb": "Halensee", "amenity": "cafe", "name": "Was Gesundes", "opening_hours": "Mo-Fr 07:30-17:00; Sa 09:00-16:00", "wheelchair": "no"}}, {"type": "node", "id": 695831701, "lat": 52.4974558, "lon": 13.2959074, "tags": {"addr:city": "Berlin", "addr:country": "DE", "addr:housenumber": "45", "addr:postcode": "10711", "addr:street": "Joachim-Friedrich-Stra\u00dfe", "addr:suburb": "Halensee", "amenity": "cafe", "diet:vegetarian": "yes", "name": "Tre Terre", "opening_hours": "Mo-Fr 09:00-16:00", "shop": "deli", "wheelchair": "limited"}}, {"type": "node", "id": 718143864, "lat": 52.5006731, "lon": 13.2963304, "tags": {"addr:city": "Berlin", "addr:country": "DE", "addr:housenumber": "33", "addr:postcode": "10711", "addr:street": "Joachim-Friedrich-Stra\u00dfe", "addr:suburb": "Halensee", "air_conditioning": "yes", "amenity": "restaurant", "cuisine": "vietnamese;sushi", "diet:vegan": "yes", "diet:vegetarian": "yes", "name": "MiNa Restaurant", "opening_hours": "Sa-Su 12:00-23:00", "phone": "+49 30 99278686", "smoking": "outside", "website": "https://mina-kitchen.de/", "wheelchair": "no"}}, {"type": "node", "id": 967206073, "lat": 52.4981677, "lon": 13.2892154, "tags": {"addr:city": "Berlin", "addr:country": "DE", "addr:housenumber": "4", "addr:postcode": "10711", "addr:street": "Ringbahnstra\u00dfe", "addr:suburb": "Halensee", "amenity": "pub", "name": "Station Ringbahn", "name:ja": "\u30b7\u30e5\u30bf\u30c4\u30a3\u30aa\u30f3\u30fb\u30ea\u30f3\u30b0\u30d0\u30fc\u30f3", "opening_hours": "Mo-Th 16:00-24:00+, Fr,Sa 18:00-24:00+"}}, {"type": "node", "id": 967206093, "lat": 52.4978625, "lon": 13.2891596, "tags": {"addr:city": "Berlin", "addr:country": "DE", "addr:housenumber": "14", "addr:postcode": "10711", "addr:street": "Ringbahnstra\u00dfe", "addr:suburb": "Halensee", "amenity": "dentist", "check_date:opening_hours": "2022-03-18", "healthcare": "dentist", "name": "Andrea-Maria Sistori", "opening_hours": "Mo,Tu,Th 08:00-15:00; We,Fr 12:00-20:00", "website": "https://www.zahnarzt-sistori.de/", "wheelchair": "limited"}}, {"type": "node", "id": 971029221, "lat": 52.4971532, "lon": 13.2924327, "tags": {"addr:city": "Berlin", "addr:country": "DE", "addr:housenumber": "131", "addr:postcode": "10711", "addr:street": "Kurf\u00fcrstendamm", "addr:suburb": "Halensee", "amenity": "restaurant", "check_date:opening_hours": "2024-09-15", "contact:facebook": "NAM-KIO-370229806799629", "cuisine": "asian", "indoor_seating": "yes", "name": "Nam Kio", "opening_hours": "Mo-Fr 11:30-22:30; Sa,Su 12:00-22:30", "outdoor_seating": "yes", "phone": "+493086207809", "website": "https://namkio.site123.me", "wheelchair": "limited"}}, {"type": "node", "id": 988669519, "lat": 52.4968706, "lon": 13.2906348}, {"type": "node", "id": 988669524, "lat": 52.4968436, "lon": 13.2906328}, {"type": "node", "id": 988669535, "lat": 52.4969156, "lon": 13.2910297}, {"type": "node", "id": 988669537, "lat": 52.4968611, "lon": 13.2906356}, {"type": "node", "id": 988669541, "lat": 52.4968396, "lon": 13.2905728}, {"type": "node", "id": 988669545, "lat": 52.4969148, "lon": 13.2909592}, {"type": "node", "id": 988669551, "lat": 52.4968943, "lon": 13.2909864}, {"type": "node", "id": 988669561, "lat": 52.4969037, "lon": 13.2909745}, {"type": "node", "id": 988669567, "lat": 52.496921, "lon": 13.2909511}, {"type": "node", "id": 988669575, "lat": 52.496838, "lon": 13.2906308}, {"type": "node", "id": 988669585, "lat": 52.4969422, "lon": 13.2909944}, {"type": "node", "id": 988669607, "lat": 52.496867, "lon": 13.2905891}, {"type": "node", "id": 988671572, "lat": 52.4970684, "lon": 13.2894424}, {"type": "node", "id": 988671597, "lat": 52.4970214, "lon": 13.289504}, {"type": "node", "id": 1021936486, "lat": 52.4981647, "lon": 13.2916563}, {"type": "node", "id": 1027109965, "lat": 52.4983751, "lon": 13.2910711}, {"type": "node", "id": 1027109978, "lat": 52.4981882, "lon": 13.2910465}, {"type": "node", "id": 1072761515, "lat": 52.4970458, "lon": 13.2853278, "tags": {"addr:city": "Berlin", "addr:country": "DE", "addr:housenumber": "18", "addr:postcode": "10711", "addr:street": "Kronprinzendamm", "addr:suburb": "Halensee", "amenity": "restaurant", "cuisine": "german", "name": "Nordwind", "opening_hours": "Mo-Fr 12:00-23:00; Sa,Su off", "website": "http://www.nordwind-berlin.de/", "wheelchair": "limited"}}, {"type": "node", "id": 1271867424, "lat": 52.4944808, "lon": 13.3013483, "tags": {"amenity": "bar", "check_date": "2023-07-02", "name": "Amigo"}}, {"type": "node", "id": 1271993482, "lat": 52.4934472, "lon": 13.2992906, "tags": {"addr:city": "Berlin", "addr:country": "DE", "addr:housenumber": "22", "addr:postcode": "10709", "addr:street": "Nestorstra\u00dfe", "addr:suburb": "Halensee", "amenity": "pub", "contact:phone": "+493089093616", "contact:website": "http://www.diekleineweltlaterne.de/", "culture": "kleinkunst", "name": "Die kleine Weltlaterne"}}, {"type": "node", "id": 1366693664, "lat": 52.4979205, "lon": 13.2926578, "tags": {"addr:city": "Berlin", "addr:country": "DE", "addr:housenumber": "110", "addr:postcode": "10711", "addr:street": "Kurf\u00fcrstendamm", "amenity": "bar", "email": "info@bar-atelier.de", "name": "Atelier", "opening_hours": "Mo-Th 17:00-03:00, Fr,Sa 17:00-05:00, Su 18:00-03:00", "phone": "+49 30 8925946", "start_date": "2000", "website": "http://www.bar-atelier.de/"}}, {"type": "node", "id": 1374470369, "lat": 52.4952638, "lon": 13.2961164, "tags": {"addr:city": "Berlin", "addr:country": "DE", "addr:housenumber": "9", "addr:postcode": "10711", "addr:street": "Joachim-Friedrich-Stra\u00dfe", "addr:suburb": "Halensee", "contact:phone": "+49 30 58880708", "contact:website": "https://www.praxisherzog.de/", "healthcare": "psychotherapist", "name": "Dr. Thomas Herzog", "toilets:wheelchair": "no", "wheelchair": "yes", "wheelchair:description": "Die Praxis ist eingeschr\u00e4nkt barrierefrei. So l\u00e4sst sich der Sanit\u00e4rbereich nicht rollstuhlgerecht benutzen, w\u00e4hrend die \u00fcbrigen R\u00e4ume problemlos zug\u00e4nglich sind."}}, {"type": "node", "id": 1745694993, "lat": 52.4955834, "lon": 13.28734, "tags": {"addr:city": "Berlin", "addr:country": "DE", "addr:housenumber": "2", "addr:postcode": "10711", "addr:street": "Storkwinkel", "addr:suburb": "Halensee", "amenity": "pub", "check_date": "2023-06-28", "indoor_seating": "yes", "name": "Wolfs Inn", "outdoor_seating": "yes", "website": "http://www.wolfsinn.berlin/"}}, {"type": "node", "id": 1763688891, "lat": 52.4945009, "lon": 13.3012585, "tags": {"addr:city": "Berlin", "addr:country": "DE", "addr:housenumber": "72a", "addr:postcode": "10709", "addr:street": "Westf\u00e4lische Stra\u00dfe", "addr:suburb": "Halensee", "amenity": "restaurant", "name": "Aarna Devi"}}, {"type": "node", "id": 1852561674, "lat": 52.4968388, "lon": 13.2923924, "tags": {"addr:city": "Berlin", "addr:housenumber": "46", "addr:postcode": "10711", "addr:street": "Westf\u00e4lische Stra\u00dfe", "amenity": "fast_food", "cuisine": "chinese", "diet:vegetarian": "yes", "drive_through": "no", "name": "Panda Meister", "opening_hours": "Mo-Su 11:00-21:00"}}, {"type": "node", "id": 1862881461, "lat": 52.4955276, "lon": 13.2985304, "tags": {"addr:city": "Berlin", "addr:country": "DE", "addr:housenumber": "27a", "addr:postcode": "10709", "addr:street": "Westf\u00e4lische Stra\u00dfe", "addr:suburb": "Halensee", "amenity": "cafe", "contact:phone": "+49 30 8915560", "contact:website": "http://www.credo-cafe-bistro.de/", "diet:vegetarian": "yes", "name": "Credo", "opening_hours": "Mo-Fr 09:00-16:00; Sa 10:00-15:00", "outdoor_seating": "yes", "wheelchair": "limited"}}, {"type": "node", "id": 1888655264, "lat": 52.4941082, "lon": 13.300562, "tags": {"access": "private", "leisure": "playground"}}, {"type": "node", "id": 1985722129, "lat": 52.4980166, "lon": 13.2997936, "tags": {"addr:city": "Berlin", "addr:country": "DE", "addr:housenumber": "7", "addr:postcode": "10709", "addr:street": "Nestorstra\u00dfe", "addr:suburb": "Halensee", "amenity": "pub", "contact:phone": "+493080081854", "contact:website": "http://www.liquor-store-berlin.de/", "name": "Liquor Store", "opening_hours": "Mo-Sa 20:00-06:00"}}, {"type": "node", "id": 2172242128, "lat": 52.5003018, "lon": 13.2997066, "tags": {"addr:city": "Berlin", "addr:country": "DE", "addr:postcode": "10711", "addr:street": "Damaschkestra\u00dfe", "amenity": "restaurant", "check_date:opening_hours": "2023-04-10", "cuisine": "vietnamese", "diet:vegetarian": "yes", "name": "Sumi", "opening_hours": "Mo-Sa 12:00-22:30", "wheelchair": "yes"}}, {"type": "node", "id": 2325904324, "lat": 52.4996078, "lon": 13.3017208, "tags": {"addr:city": "Berlin", "addr:country": "DE", "addr:housenumber": "2", "addr:postcode": "10709", "addr:street": "Lehniner Platz", "addr:suburb": "Halensee", "amenity": "restaurant", "contact:phone": "+49 30 31806968", "cuisine": "italian", "name": "Locanda", "note": "Gepr\u00fcft am 25./26. Dez 2015", "opening_hours": "Mo-Sa 10:00-23:30"}}, {"type": "node", "id": 2325904327, "lat": 52.499495, "lon": 13.3017112, "tags": {"addr:city": "Berlin", "addr:country": "DE", "addr:housenumber": "2", "addr:postcode": "10709", "addr:street": "Lehniner Platz", "addr:suburb": "Halensee", "amenity": "fast_food", "contact:email": "bekensir@berlin.wienerwald.de", "contact:fax": "+49 30 31805669", "contact:phone": "+49 30 31805659", "cuisine": "chicken", "name": "H\u00fchnerwald", "note": "Gepr\u00fcft am 25./26. Dez 2015", "opening_hours": "Mo-Su 10:00-23:00", "wheelchair": "yes"}}, {"type": "node", "id": 2344650938, "lat": 52.5014543, "lon": 13.2944531}, {"type": "node", "id": 2344650939, "lat": 52.5015094, "lon": 13.2942747}, {"type": "node", "id": 2344650940, "lat": 52.5015531, "lon": 13.2944651}, {"type": "node", "id": 2344650941, "lat": 52.5015726, "lon": 13.2944291}, {"type": "node", "id": 2391234910, "lat": 52.496275, "lon": 13.2935112, "tags": {"addr:city": "Berlin", "addr:country": "DE", "addr:housenumber": "54", "addr:postcode": "10711", "addr:street": "Westf\u00e4lische Stra\u00dfe", "amenity": "cafe", "contact:email": "info.lou.cafe@gmail.com", "contact:phone": "+49 30 86397266", "contact:website": "http://www.lou-cafe.de", "indoor_seating": "yes", "name": "Lou", "opening_hours": "Mo-Fr 08:00-18:00; Sa,Su 08:00-16:00", "outdoor_seating": "no", "wheelchair": "limited"}}, {"type": "node", "id": 2391234911, "lat": 52.4967601, "lon": 13.2927713, "tags": {"addr:city": "Berlin", "addr:country": "DE", "addr:housenumber": "45", "addr:postcode": "10711", "addr:street": "Westf\u00e4lische Stra\u00dfe", "addr:suburb": "Halensee", "amenity": "restaurant", "contact:phone": "+49 30 66642549", "cuisine": "italian", "diet:vegan": "no", "diet:vegetarian": "yes", "name": "De Santi", "opening_hours": "Mo-Fr 12:00-15:00,17:00-22:00; Sa 17:00-22:00; Su off", "wheelchair": "no"}}, {"type": "node", "id": 2391234914, "lat": 52.497315, "lon": 13.2935687, "tags": {"addr:city": "Berlin", "addr:country": "DE", "addr:housenumber": "134", "addr:postcode": "10711", "addr:street": "Kurf\u00fcrstendamm", "addr:suburb": "Halensee", "amenity": "restaurant", "contact:phone": "+49 30 89541892", "contact:website": "https://moim.berlin/home/", "cuisine": "korean", "name": "[mo:im]", "opening_hours": "Mo-Th 12:00-22:00; Fr,Sa 12:00-22:30; Su 17:00-22:00", "toilets:wheelchair": "no", "wheelchair": "yes"}}, {"type": "node", "id": 2391234924, "lat": 52.496232, "lon": 13.295239, "tags": {"amenity": "restaurant", "cuisine": "italian", "name": "Osteria Mare", "opening_hours": "Tu-Sa 17:00+", "phone": "+49308911668", "shop": "deli", "wheelchair": "limited"}}, {"type": "node", "id": 2391234943, "lat": 52.4964841, "lon": 13.2925338, "tags": {"amenity": "restaurant", "contact:phone": "+49 30 89043786", "contact:website": "http://tavernetta-azara.de/", "cuisine": "italian", "indoor_seating": "yes", "name": "Tavernetta Azara", "opening_hours": "Tu-Su 12:00-23:00", "operator": "Antonio Azara", "outdoor_seating": "no", "wheelchair": "no"}}, {"type": "node", "id": 2637754155, "lat": 52.4974665, "lon": 13.2912767, "tags": {"addr:city": "Berlin", "addr:country": "DE", "addr:housenumber": "114", "addr:postcode": "10711", "addr:street": "Kurf\u00fcrstendamm", "addr:suburb": "Halensee", "amenity": "cafe", "name": "Su\u00df & Frei", "opening_hours": "Mo-Fr 07:30-18:00; Sa,Su 09:00-18:00", "website": "https://www.susundfrei.de"}}, {"type": "node", "id": 2977400134, "lat": 52.4966764, "lon": 13.2914114, "tags": {"addr:city": "Berlin", "addr:country": "DE", "addr:housenumber": "129b", "addr:postcode": "10711", "addr:street": "Kurf\u00fcrstendamm", "addr:suburb": "Halensee", "amenity": "restaurant", "cuisine": "moroccan", "level": "0", "name": "Malika's Garden", "website": "https://malikas-garden.de", "wheelchair": "limited"}}, {"type": "node", "id": 2985061530, "lat": 52.4915993, "lon": 13.2982267, "tags": {"addr:city": "Berlin", "addr:country": "DE", "addr:housenumber": "10-13", "addr:postcode": "10709", "addr:street": "Seesener Stra\u00dfe", "addr:suburb": "Halensee", "brand": "Lidl", "brand:wikidata": "Q151954", "brand:wikipedia": "en:Lidl", "check_date:opening_hours": "2025-01-12", "name": "Lidl", "opening_hours": "Mo-Sa 08:00-22:00", "payment:cash": "yes", "payment:credit_cards": "yes", "payment:debit_cards": "yes", "shop": "supermarket", "website": "https://www.lidl.de/", "wheelchair": "yes"}}, {"type": "node", "id": 2993095981, "lat": 52.4972154, "lon": 13.2963392, "tags": {"entrance": "main"}}, {"type": "node", "id": 3007865137, "lat": 52.498468, "lon": 13.2973978, "tags": {"addr:city": "Berlin", "addr:country": "DE", "addr:housenumber": "100", "addr:postcode": "10709", "addr:street": "Kurf\u00fcrstendamm", "addr:suburb": "Halensee", "amenity": "pub", "check_date": "2024-07-26", "indoor_seating": "yes", "name": "Zeitlos", "opening_hours": "PH,Su-Fr 16:00-01:00, Fr,Sa 16:00-03:00", "outdoor_seating": "yes", "wheelchair": "yes"}}, {"type": "node", "id": 3013557312, "lat": 52.4981925, "lon": 13.3003248, "tags": {"addr:city": "Berlin", "addr:country": "DE", "addr:housenumber": "55a", "addr:postcode": "10709", "addr:street": "Nestorstra\u00dfe", "addr:suburb": "Halensee", "amenity": "restaurant", "cuisine": "korean", "email": "kimchimama.berlin@gmail.com", "name": "Kimchi Mama", "opening_hours": "Tu-Su 17:00-22:00", "phone": "+49 30 64080154", "website": "https://www.kimchimama.de/", "wheelchair": "yes"}}, {"type": "node", "id": 3021558153, "lat": 52.4894207, "lon": 13.3000721, "tags": {"access": "private", "leisure": "playground"}}, {"type": "node", "id": 3021558157, "lat": 52.4898792, "lon": 13.3004246}, {"type": "node", "id": 3021558158, "lat": 52.4896863, "lon": 13.3006612}, {"type": "node", "id": 3021558159, "lat": 52.4897007, "lon": 13.3006986}, {"type": "node", "id": 3021558160, "lat": 52.4899317, "lon": 13.3007164}, {"type": "node", "id": 3021558161, "lat": 52.4898878, "lon": 13.3005851}, {"type": "node", "id": 3051910417, "lat": 52.4986354, "lon": 13.2965708, "tags": {"addr:city": "Berlin", "addr:housenumber": "17", "addr:postcode": "10711", "addr:street": "Joachim-Friedrich-Stra\u00dfe", "brand": "Denns BioMarkt", "brand:wikidata": "Q48883773", "name": "Denns BioMarkt", "opening_hours": "Mo-Sa 08:00-21:00", "operator": "Dennree GmbH", "operator:wikidata": "Q1189641", "organic": "only", "shop": "supermarket", "wheelchair": "yes"}}, {"type": "node", "id": 3391907755, "lat": 52.4958282, "lon": 13.2954571}, {"type": "node", "id": 3391907763, "lat": 52.4958417, "lon": 13.2953936}, {"type": "node", "id": 3391907782, "lat": 52.4958744, "lon": 13.2954836}, {"type": "node", "id": 3391907805, "lat": 52.4958879, "lon": 13.2954201}, {"type": "node", "id": 3391909179, "lat": 52.4975539, "lon": 13.2952936, "tags": {"addr:city": "Berlin", "addr:country": "DE", "addr:postcode": "10711", "addr:street": "Kurf\u00fcrstendamm", "amenity": "restaurant", "check_date:opening_hours": "2024-09-15", "cuisine": "japanese", "diet:vegan": "yes", "diet:vegetarian": "yes", "name": "sayuri", "opening_hours": "Mo-Sa 12:00-22:00", "wheelchair": "no"}}, {"type": "node", "id": 3391940094, "lat": 52.497418, "lon": 13.2908931, "tags": {"amenity": "dentist", "check_date:opening_hours": "2024-07-25", "healthcare": "dentist", "name": "Zahnteam-Halensee", "opening_hours": "Mo 12:00-19:00; Tu 12:00-19:00; Fr 09:00-13:30; We 09:00-15:00; Th 12:00-19:00", "website": "http://www.zahnteam-halensee.de/"}}, {"type": "node", "id": 3391940822, "lat": 52.4994591, "lon": 13.289, "tags": {"addr:city": "Berlin", "addr:country": "DE", "addr:housenumber": "6", "addr:postcode": "10711", "addr:street": "L\u00fctzenstra\u00dfe", "addr:suburb": "Halensee", "description": "Physiomobilisation", "healthcare": "physiotherapist", "name": "Boris Steglich", "opening_hours": "\"nach Vereinbarung\""}}, {"type": "node", "id": 3391944412, "lat": 52.4974275, "lon": 13.2908099, "tags": {"addr:city": "Berlin", "addr:country": "DE", "addr:housenumber": "115", "addr:postcode": "10711", "addr:street": "Kurf\u00fcrstendamm", "addr:suburb": "Halensee", "amenity": "fast_food", "cuisine": "burger", "name": "The Mood Burger", "website": "https://themoodburger.com"}}, {"type": "node", "id": 3481018752, "lat": 52.4947504, "lon": 13.3004872}, {"type": "node", "id": 3481018754, "lat": 52.4947834, "lon": 13.300466}, {"type": "node", "id": 3716552551, "lat": 52.494399, "lon": 13.2997998}, {"type": "node", "id": 3716552552, "lat": 52.4944059, "lon": 13.2997573}, {"type": "node", "id": 3716552563, "lat": 52.4947684, "lon": 13.3004857}, {"type": "node", "id": 3716552567, "lat": 52.4949274, "lon": 13.3007332}, {"type": "node", "id": 3716552568, "lat": 52.4949305, "lon": 13.3008191}, {"type": "node", "id": 3716552569, "lat": 52.4949345, "lon": 13.2998246}, {"type": "node", "id": 3716552570, "lat": 52.4949524, "lon": 13.2998417}, {"type": "node", "id": 3716552571, "lat": 52.4949537, "lon": 13.2998871}, {"type": "node", "id": 3716552572, "lat": 52.4949569, "lon": 13.2998693}, {"type": "node", "id": 3716552573, "lat": 52.495074, "lon": 13.3006292}, {"type": "node", "id": 3716552574, "lat": 52.4951227, "lon": 13.3007533}, {"type": "node", "id": 3716552575, "lat": 52.4951356, "lon": 13.2999541}, {"type": "node", "id": 3716552581, "lat": 52.4951886, "lon": 13.2998569}, {"type": "node", "id": 3716552588, "lat": 52.4952678, "lon": 13.3000197}, {"type": "node", "id": 4327011110, "lat": 52.4967837, "lon": 13.2958432}, {"type": "node", "id": 4327011116, "lat": 52.4968186, "lon": 13.2951237}, {"type": "node", "id": 4327011117, "lat": 52.4969402, "lon": 13.2951882}, {"type": "node", "id": 4327011118, "lat": 52.4970156, "lon": 13.2958747}, {"type": "node", "id": 4327011119, "lat": 52.4970453, "lon": 13.2952569}, {"type": "node", "id": 4341306547, "lat": 52.4952327, "lon": 13.298363, "tags": {"addr:city": "Berlin", "addr:country": "DE", "addr:housenumber": "66", "addr:postcode": "10709", "addr:street": "Westf\u00e4lische Stra\u00dfe", "addr:suburb": "Halensee", "amenity": "fast_food", "brand": "Pizza Max", "brand:wikidata": "Q114189329", "contact:phone": "+49 30 8932052", "contact:website": "https://www.pizzamax.de", "cuisine": "pizza", "delivery": "yes", "diet:vegan": "no", "diet:vegetarian": "yes", "name": "Pizza Max", "opening_hours": "Mo-Su 11:15-23:00; Fr,Sa 11:15-23:15", "takeaway": "yes"}}, {"type": "node", "id": 4900462126, "lat": 52.4963325, "lon": 13.294772, "tags": {"addr:housenumber": "39", "addr:street": "Westf\u00e4lische Stra\u00dfe", "amenity": "cafe", "cuisine": "soup;salad;pasta", "name": "Sa Jour", "wheelchair": "no"}}, {"type": "node", "id": 4913807585, "lat": 52.4953112, "lon": 13.3000126}, {"type": "node", "id": 4913807586, "lat": 52.4952261, "lon": 13.3000509}, {"type": "node", "id": 4913807587, "lat": 52.495151, "lon": 13.3008741}, {"type": "node", "id": 4936936801, "lat": 52.5007688, "lon": 13.2963409, "tags": {"addr:city": "Berlin", "addr:country": "DE", "addr:housenumber": "32", "addr:postcode": "10711", "addr:street": "Joachim-Friedrich-Stra\u00dfe", "addr:suburb": "Halensee", "amenity": "restaurant", "cuisine": "vietnamese", "diet:vegan": "yes", "diet:vegetarian": "yes", "name": "DuftReis", "opening_hours": "Mo-Fr 11:00-22:00; PH,Sa,Su 12:00-22:00", "phone": "+49 30 3129042", "website": "http://www.duftreis-restaurant.de/"}}, {"type": "node", "id": 5012404710, "lat": 52.4980587, "lon": 13.2893891, "tags": {"addr:city": "Berlin", "addr:country": "DE", "addr:housenumber": "4", "addr:postcode": "10711", "addr:street": "Ringbahnstra\u00dfe", "addr:suburb": "Halensee", "amenity": "cafe", "cuisine": "italian", "description": "Salumeria & Bistrot", "name": "Modi", "origin": "italian", "shop": "deli"}}, {"type": "node", "id": 5054068386, "lat": 52.4979652, "lon": 13.2901141, "tags": {"addr:city": "Berlin", "addr:country": "DE", "addr:housenumber": "23", "addr:postcode": "10711", "addr:street": "Georg-Wilhelm-Stra\u00dfe", "addr:suburb": "Halensee", "amenity": "dentist", "healthcare": "dentist", "name": "Zahnarztpraxis Udo Schulwitz", "opening_hours": "Mo,We,Fr 08:00-15:00; Tu,Th 12:00-19:00"}}, {"type": "node", "id": 5151283976, "lat": 52.4965964, "lon": 13.2920059, "tags": {"amenity": "cafe", "cuisine": "italian", "indoor_seating": "yes", "name": "Piccolina", "opening_hours": "Mo-Fr 11:00-20:00; Sa 11:00-18:00", "outdoor_seating": "yes", "wheelchair": "no"}}, {"type": "node", "id": 5375785497, "lat": 52.4968561, "lon": 13.2905895}, {"type": "node", "id": 5375785498, "lat": 52.4968493, "lon": 13.2905737}, {"type": "node", "id": 5375785499, "lat": 52.4968711, "lon": 13.2906179}, {"type": "node", "id": 5375785500, "lat": 52.4968667, "lon": 13.2906102}, {"type": "node", "id": 5375789957, "lat": 52.4969829, "lon": 13.2894282}, {"type": "node", "id": 5375789959, "lat": 52.4970291, "lon": 13.289365}, {"type": "node", "id": 5591267658, "lat": 52.5002816, "lon": 13.2968016, "tags": {"addr:city": "Berlin", "addr:housenumber": "25", "addr:postcode": "10711", "addr:street": "Joachim-Friedrich-Stra\u00dfe", "amenity": "restaurant", "cuisine": "italian", "diet:vegan": "no", "diet:vegetarian": "yes", "indoor_seating": "yes", "name": "Il Castello", "opening_hours": "Mo-Fr 17:00-23:00", "outdoor_seating": "yes", "website": "https://www.ilcastello-berlin.de/", "website:menu": "https://www.ilcastello-berlin.de/speisekarte", "wheelchair": "limited"}}, {"type": "node", "id": 5757375410, "lat": 52.4973441, "lon": 13.2967608}, {"type": "node", "id": 5757375411, "lat": 52.4973314, "lon": 13.2966912}, {"type": "node", "id": 5757375412, "lat": 52.4973429, "lon": 13.2966856}, {"type": "node", "id": 5757375525, "lat": 52.4972914, "lon": 13.2964063}, {"type": "node", "id": 5757375526, "lat": 52.4972923, "lon": 13.2964115}, {"type": "node", "id": 5757375527, "lat": 52.4972061, "lon": 13.296668}, {"type": "node", "id": 5757375528, "lat": 52.4971597, "lon": 13.2965233}, {"type": "node", "id": 5757375529, "lat": 52.4973021, "lon": 13.2968133}, {"type": "node", "id": 5757375530, "lat": 52.4973407, "lon": 13.2967632}, {"type": "node", "id": 5861697570, "lat": 52.4954924, "lon": 13.2986938, "tags": {"addr:city": "Berlin", "addr:country": "DE", "addr:housenumber": "27", "addr:postcode": "10709", "addr:street": "Westf\u00e4lische Stra\u00dfe", "addr:suburb": "Halensee", "amenity": "cafe", "contact:website": "http://www.marktpur.de/", "name": "Markt Pur", "opening_hours": "Tu-Fr 09:30-16:00", "wheelchair": "limited"}}, {"type": "node", "id": 6213513092, "lat": 52.4958955, "lon": 13.2953026, "tags": {"amenity": "fast_food", "cuisine": "asian", "name": "Asia-Imbiss", "opening_hours": "Mo-Fr 11:00-21:00; Su 12:00-21:00", "wheelchair": "limited"}}, {"type": "node", "id": 6314775723, "lat": 52.5001424, "lon": 13.2881758}, {"type": "node", "id": 6314775749, "lat": 52.5000223, "lon": 13.2885036}, {"type": "node", "id": 6314775765, "lat": 52.500172, "lon": 13.2882721}, {"type": "node", "id": 6314775777, "lat": 52.4999364, "lon": 13.2883543}, {"type": "node", "id": 6362759639, "lat": 52.4987, "lon": 13.3014126, "tags": {"addr:city": "Berlin", "addr:housenumber": "152", "addr:postcode": "10709", "addr:street": "Kurf\u00fcrstendamm", "name": "Sheriffs Beef nah & frisch", "opening_hours": "Mo-Sa 08:00-20:00", "shop": "supermarket", "website": "https://sheriffs-beef.de/", "wheelchair": "yes"}}, {"type": "node", "id": 6388933464, "lat": 52.4972488, "lon": 13.2895799, "tags": {"amenity": "dentist", "check_date:opening_hours": "2024-09-15", "healthcare": "dentist", "name": "Zahnarztpraxis Q117", "opening_hours": "Mo-Fr 09:00-19:00"}}, {"type": "node", "id": 6913471110, "lat": 52.493345, "lon": 13.2958838, "tags": {"addr:city": "Berlin", "addr:country": "DE", "addr:housenumber": "1", "addr:postcode": "10711", "addr:street": "Joachim-Friedrich-Stra\u00dfe", "addr:suburb": "Halensee", "amenity": "fast_food", "contact:mobile": "+49 177 4666173", "contact:website": "https://www.sorae-berlin.de/", "cuisine": "sushi;asian", "diet:vegan": "yes", "diet:vegetarian": "yes", "indoor_seating": "yes", "name": "Sorae", "opening_hours": "Mo-Fr 11:00-21:00; PH,Su 15:00-21:00", "outdoor_seating": "yes", "takeaway": "yes"}}, {"type": "node", "id": 7003905051, "lat": 52.4979323, "lon": 13.2890589, "tags": {"addr:city": "Berlin", "addr:country": "DE", "addr:housenumber": "14", "addr:postcode": "10711", "addr:street": "Ringbahnstra\u00dfe", "addr:suburb": "Halensee", "contact:website": "https://abstinenz-at.de/", "description": "Medizinisch-Psychologischen Untersuchung", "healthcare": "sample_collection", "name": "Abnahmestelle f\u00fcr medizinische Tests", "opening_hours": "Mo 14:00-18:00; We 10:00-15:00; Th 14:00-20:00", "operator": "Abnahmestelle f\u00fcr medizinische Tests AT GmbH", "sample_collection": "hair;urine"}}, {"type": "node", "id": 7027141484, "lat": 52.5021374, "lon": 13.2955465, "tags": {"addr:city": "Berlin", "addr:country": "DE", "addr:housenumber": "12", "addr:postcode": "10711", "addr:street": "Heilbronner Stra\u00dfe", "addr:suburb": "Halensee", "brand": "Bio Company", "brand:wikidata": "Q864179", "brand:wikipedia": "de:Bio Company", "check_date:opening_hours": "2024-03-30", "fax": "+49 30 5210760641", "name": "Bio Company", "opening_hours": "Mo-Sa 08:00-21:00", "operator": "BIO COMPANY GmbH", "organic": "only", "payment:coins": "yes", "payment:ep_geldkarte": "yes", "payment:girocard": "yes", "payment:notes": "yes", "phone": "+49 30 5210760640", "shop": "supermarket", "website": "https://www.biocompany.de/bio-company-markt-finden/l/berlin/heilbronner-strasse-12/1826195", "wheelchair": "yes"}}, {"type": "node", "id": 7255812894, "lat": 52.5005259, "lon": 13.2989784, "tags": {"addr:city": "Berlin", "addr:country": "DE", "addr:housenumber": "8", "addr:postcode": "10711", "addr:street": "Markgraf-Albrecht-Stra\u00dfe", "addr:suburb": "Halensee", "amenity": "cafe", "cuisine": "coffee_shop", "name": "Quartier 1907"}}, {"type": "node", "id": 7255812895, "lat": 52.5003863, "lon": 13.299378, "tags": {"addr:city": "Berlin", "addr:country": "DE", "addr:housenumber": "17", "addr:postcode": "10711", "addr:street": "Damaschkestra\u00dfe", "addr:suburb": "Halensee", "amenity": "restaurant", "cuisine": "barbecue", "name": "The Meat", "website": "https://themeat.de/", "website:menu": "https://qr.menufay.com/main#633", "wheelchair": "limited"}}, {"type": "node", "id": 7330043786, "lat": 52.4959253, "lon": 13.295164, "tags": {"amenity": "bar", "name": "Casablanca"}}, {"type": "node", "id": 7330043802, "lat": 52.4958497, "lon": 13.2954694}, {"type": "node", "id": 7332938458, "lat": 52.4952875, "lon": 13.2980785, "tags": {"addr:city": "Berlin", "addr:country": "DE", "addr:housenumber": "66", "addr:postcode": "10709", "addr:street": "Westf\u00e4lische Stra\u00dfe", "addr:suburb": "Halensee", "amenity": "pub", "name": "Westfaleneck", "opening_hours": "Mo-Su 09:00-03:00", "outdoor_seating": "yes", "smoking": "yes", "wheelchair": "yes"}}, {"type": "node", "id": 7335401290, "lat": 52.4959329, "lon": 13.2966509, "tags": {"amenity": "dentist", "check_date:opening_hours": "2024-06-02", "contact:phone": "+49 30 8927501", "contact:website": "https://www.zahnarztpraxis-kreller.de", "healthcare": "dentist", "name": "Dr. Kreller & Dr. Joos", "opening_hours": "Mo-Fr 09:00-13:00; Mo,Tu,Th 15:00-18:00", "opening_hours:signed": "no", "wheelchair": "no"}}, {"type": "node", "id": 7335401294, "lat": 52.4964028, "lon": 13.2957517, "tags": {"amenity": "restaurant", "contact:website": "http://www.big-window.de", "cuisine": "armenian", "diet:vegetarian": "no", "indoor_seating": "yes", "name": "Big Window", "opening_hours": "Su,Mo off", "outdoor_seating": "yes"}}, {"type": "node", "id": 7342719568, "lat": 52.4960399, "lon": 13.2946313, "tags": {"contact:phone": "+49 30 8934894", "healthcare": "physiotherapist", "name": "Praxis f\u00fcr Physiotherapie Gabriele Temme & Michael Begitt", "opening_hours": "\"nach telefonischer Vereinbarung\"", "operator": "Gabriele Temme;Michael Begitt", "wheelchair": "limited"}}, {"type": "node", "id": 7549698913, "lat": 52.5002582, "lon": 13.2929725, "tags": {"addr:city": "Berlin", "addr:country": "DE", "addr:housenumber": "12", "addr:postcode": "10711", "addr:street": "Katharinenstra\u00dfe", "addr:suburb": "Halensee", "healthcare": "physiotherapist", "name": "DaVinci PhysioMed", "opening_hours": "\"Termine nach Vereinbarung\"", "website": "https://www.davinciphysiomed.de/"}}, {"type": "node", "id": 7549698919, "lat": 52.4990796, "lon": 13.2902387, "tags": {"healthcare": "yes", "healthcare:speciality": "qigong", "name": "Licht QI Gong", "operator": "R\u00fcdiger Detels"}}, {"type": "node", "id": 7549698922, "lat": 52.4990243, "lon": 13.2901861, "tags": {"addr:city": "Berlin", "addr:country": "DE", "addr:housenumber": "18", "addr:postcode": "10711", "addr:street": "Georg-Wilhelm-Stra\u00dfe", "addr:suburb": "Halensee", "amenity": "doctors", "check_date:opening_hours": "2024-07-25", "contact:phone": "+49 30 8925435", "healthcare": "doctor", "healthcare:speciality": "general", "name": "Ute Buchheister", "opening_hours": "Mo 08:30-13:00,16:00-18:30; Tu 08:30-13:30; We 08:30-13:30; Th 15:00-19:00; Fr 08:30-13:00", "website": "http://praxis-buchheister.de/"}}, {"type": "node", "id": 7549698923, "lat": 52.498424, "lon": 13.2901792, "tags": {"addr:city": "Berlin", "addr:country": "DE", "addr:housenumber": "21", "addr:postcode": "10711", "addr:street": "Georg-Wilhelm-Stra\u00dfe", "addr:suburb": "Halensee", "amenity": "doctors", "check_date:opening_hours": "2024-03-08", "healthcare": "doctor", "healthcare:speciality": "orthopaedics;trauma", "name": "Bernd H\u00fcske", "opening_hours": "Mo,Tu 08:00-12:00,15:00-18:00; Th 08:00-12:00,14:00-16:00; Fr 08:00-12:00"}}, {"type": "node", "id": 7551371871, "lat": 52.4943702, "lon": 13.2890658}, {"type": "node", "id": 7551371874, "lat": 52.494644, "lon": 13.2895405}, {"type": "node", "id": 7613394448, "lat": 52.488605, "lon": 13.3012964, "tags": {"addr:city": "Berlin", "addr:country": "DE", "addr:housenumber": "47a", "addr:postcode": "10713", "addr:street": "Hohenzollerndamm", "addr:suburb": "Halensee", "amenity": "clinic", "check_date": "2024-11-06", "healthcare": "clinic", "name": "\u00c4rztehaus Hohenzollerndamm"}}, {"type": "node", "id": 7616134547, "lat": 52.4980288, "lon": 13.2950912, "tags": {"addr:city": "Berlin", "addr:country": "DE", "addr:housenumber": "104", "addr:postcode": "10711", "addr:street": "Kurf\u00fcrstendamm", "addr:suburb": "Halensee", "amenity": "cafe", "check_date": "2024-07-26", "name": "Cafe Kudamm 1\u26614", "website": "https://1love4.com/"}}, {"type": "node", "id": 7633128465, "lat": 52.498115, "lon": 13.2906433, "tags": {"addr:city": "Berlin", "addr:country": "DE", "addr:housenumber": "3", "addr:postcode": "10711", "addr:street": "Georg-Wilhelm-Stra\u00dfe", "addr:suburb": "Halensee", "amenity": "dentist", "check_date": "2024-07-05", "healthcare": "dentist", "name": "Stefan G\u00fcnter, J.P.Reister", "opening_hours": "\"Sprechstunden nach Vereinbarung\"", "website": "https://www.prophylaxepraxis-berlin.de/"}}, {"type": "node", "id": 7633128467, "lat": 52.4976439, "lon": 13.2905964, "tags": {"addr:city": "Berlin", "addr:country": "DE", "addr:housenumber": "115b", "addr:postcode": "10711", "addr:street": "Kurf\u00fcrstendamm", "addr:suburb": "Halensee", "amenity": "doctors", "healthcare": "doctor", "healthcare:speciality": "ophthalmology", "name": "Sanoculus Augen\u00e4rzte", "opening_hours": "Mo,Tu,Th,Fr 08:30-12:00, Mo,Th 15:30-18:00", "website": "https://sanoculus.de/augenarzt-kudamm"}}, {"type": "node", "id": 7707711190, "lat": 52.4959062, "lon": 13.2967747, "tags": {"addr:city": "Berlin", "addr:country": "DE", "addr:housenumber": "34", "addr:postcode": "10709", "addr:street": "Westf\u00e4lische Stra\u00dfe", "addr:suburb": "Halensee", "amenity": "doctors", "healthcare": "doctor", "healthcare:speciality": "psychiatry", "name": "Fach\u00e4rztliche Gemeinschaftspraxis", "opening_hours": "Mo 10:00-15:00; Tu 10:00-18:00; We 09:00-14:00; Th 10:00-16:00; Fr 15:00-18:00", "operator": "Magdalena Manker;Christiane Witthinrich;Andrea Viertler"}}, {"type": "node", "id": 7707711191, "lat": 52.4958528, "lon": 13.2972179, "tags": {"addr:city": "Berlin", "addr:country": "DE", "addr:housenumber": "32", "addr:postcode": "10709", "addr:street": "Westf\u00e4lische Stra\u00dfe", "addr:suburb": "Halensee", "amenity": "doctors", "healthcare": "doctor", "healthcare:speciality": "internal", "name": "Praxis Dr. Machens", "opening_hours": "Mo-Fr 08:30-12:00, Th 08:30-12:00,15:00-18:00", "website": "https://dieinternistin.de/"}}, {"type": "node", "id": 7707711192, "lat": 52.4957412, "lon": 13.2976289, "tags": {"addr:city": "Berlin", "addr:country": "DE", "addr:housenumber": "31", "addr:postcode": "10709", "addr:street": "Westf\u00e4lische Stra\u00dfe", "addr:suburb": "Halensee", "amenity": "dentist", "healthcare": "dentist", "name": "Dr. G\u00fcnter Matthies", "opening_hours": "We,Fr 09:00-13:00, Tu 14:00-18:30, Th 14:00-17:00, Tu,Th 09:00-12:00"}}, {"type": "node", "id": 7744838940, "lat": 52.4991193, "lon": 13.2893812, "tags": {"addr:city": "Berlin", "addr:country": "DE", "addr:housenumber": "11", "addr:postcode": "10711", "addr:street": "L\u00fctzenstra\u00dfe", "addr:suburb": "Halensee", "healthcare": "psychotherapist", "name": "Psychologische Praxis", "operator": "G. Nigge;B. Raabe"}}, {"type": "node", "id": 7744838941, "lat": 52.4990776, "lon": 13.2897597, "tags": {"addr:city": "Berlin", "addr:country": "DE", "addr:housenumber": "12", "addr:postcode": "10711", "addr:street": "L\u00fctzenstra\u00dfe", "addr:suburb": "Halensee", "description": "Kinder- und Jugendlichenpsychotherapeuten", "healthcare": "psychotherapist", "operator": "Karin Klette-Damm;Johannes Buchholz;Joachim Diestel-Hug"}}, {"type": "node", "id": 7744838942, "lat": 52.4990806, "lon": 13.2897091, "tags": {"addr:city": "Berlin", "addr:country": "DE", "addr:housenumber": "12", "addr:postcode": "10711", "addr:street": "L\u00fctzenstra\u00dfe", "addr:suburb": "Halensee", "healthcare": "psychotherapist", "operator": "Nicole Schuh"}}, {"type": "node", "id": 7744838943, "lat": 52.4993627, "lon": 13.2895166, "tags": {"addr:city": "Berlin", "addr:country": "DE", "addr:housenumber": "3-4", "addr:postcode": "10711", "addr:street": "L\u00fctzenstra\u00dfe", "addr:suburb": "Halensee", "contact:phone": "+49 30 89542800", "healthcare": "speech_therapist", "name": "Logop\u00e4dische Praxis", "opening_hours": "\"nach Vereinbarung\"", "operator": "Helga H\u00fcllenkr\u00e4mer", "website": "https://www.sprachschritte.de/"}}, {"type": "node", "id": 7744838944, "lat": 52.4995375, "lon": 13.2890532, "tags": {"addr:city": "Berlin", "addr:country": "DE", "addr:housenumber": "6", "addr:postcode": "10711", "addr:street": "L\u00fctzenstra\u00dfe", "addr:suburb": "Halensee", "description": "Physiotherapie f\u00fcr Kinder", "healthcare": "physiotherapist", "name": "Miriam Gehring", "opening_hours": "\"nach Vereinbarung\""}}, {"type": "node", "id": 7744838947, "lat": 52.4979572, "lon": 13.2895786, "tags": {"addr:city": "Berlin", "addr:country": "DE", "addr:housenumber": "3", "addr:postcode": "10711", "addr:street": "Ringbahnstra\u00dfe", "addr:suburb": "Halensee", "amenity": "doctors", "healthcare": "doctor", "healthcare:speciality": "gynaecology", "name": "Bogdan Myndiuk", "opening_hours": "Mo,We 12:30-19:00; Tu,Th 08:00-14:00; Fr 10:00-14:00", "website": "https://mein-frauenarzt-in-berlin.de/"}}, {"type": "node", "id": 7744838948, "lat": 52.4982423, "lon": 13.2891593, "tags": {"addr:city": "Berlin", "addr:country": "DE", "addr:housenumber": "5", "addr:postcode": "10711", "addr:street": "Ringbahnstra\u00dfe", "addr:suburb": "Halensee", "beauty": "cosmetics", "healthcare": "podiatrist", "massage": "yes", "name": "mg cosmetics", "operator": "Miroslawa Gizewski", "shop": "beauty", "website": "https://mg-cosmetics.de/"}}, {"type": "node", "id": 7767814950, "lat": 52.4990123, "lon": 13.2902221, "tags": {"addr:city": "Berlin", "addr:country": "DE", "addr:housenumber": "18", "addr:postcode": "10711", "addr:street": "Georg-Wilhelm-Stra\u00dfe", "addr:suburb": "Halensee", "healthcare": "occupational_therapist", "name": "Praxis f\u00fcr Ergotherapie & Neurofeedback", "opening_hours": "\"Nach telefonischer Vereinbarung\"", "operator": "Bettina Peters"}}, {"type": "node", "id": 7767814954, "lat": 52.4931414, "lon": 13.2961519, "tags": {"addr:city": "Berlin", "addr:country": "DE", "addr:housenumber": "16", "addr:postcode": "10711", "addr:street": "Seesener Stra\u00dfe", "addr:suburb": "Halensee", "healthcare": "physiotherapist", "operator": "Annette Lembke;Michael Lembke", "website": "http://www.physio-lembke.de"}}, {"type": "node", "id": 7773947818, "lat": 52.4959444, "lon": 13.2932731, "tags": {"addr:city": "Berlin", "addr:country": "DE", "addr:housenumber": "7", "addr:postcode": "10711", "addr:street": "Johann-Sigismund-Stra\u00dfe", "addr:suburb": "Halensee", "healthcare": "physiotherapist", "name": "Praxis f\u00fcr Physiotherapie", "operator": "Arsen Berezetsky"}}, {"type": "node", "id": 7774087527, "lat": 52.4960358, "lon": 13.2938511, "tags": {"addr:city": "Berlin", "addr:country": "DE", "addr:housenumber": "14", "addr:postcode": "10711", "addr:street": "Johann-Sigismund-Stra\u00dfe", "addr:suburb": "Halensee", "healthcare": "psychotherapist", "name": "Lothar Kittel", "opening_hours": "\"Nach telefonischer Vereinbarung\""}}, {"type": "node", "id": 7792325231, "lat": 52.4973006, "lon": 13.2894189, "tags": {"addr:city": "Berlin", "addr:country": "DE", "addr:housenumber": "117", "addr:postcode": "10711", "addr:street": "Kurf\u00fcrstendamm", "addr:suburb": "Halensee", "healthcare": "optometrist", "level": "3", "name": "Augenoptik Peschlow - Praxis f\u00fcr Winkelfehlsichtigkeit", "opening_hours": "Mo,Tu,Th 10:00-14:00, Mo,Tu,Th,Fr 15:00-18:00", "website": "https://richtig-sehen.de/"}}, {"type": "node", "id": 7792325234, "lat": 52.4945497, "lon": 13.2960931, "tags": {"addr:city": "Berlin", "addr:country": "DE", "addr:housenumber": "6", "addr:postcode": "10711", "addr:street": "Joachim-Friedrich-Stra\u00dfe", "addr:suburb": "Halensee", "healthcare": "physiotherapist", "name": "Wirbels\u00e4ulen Physiotherapiepraxis", "opening_hours": "\"Termine nach Vereinbarung\"", "operator": "Sabine Bianca Hasselberg", "website": "https://www.physiopraxis-hasselberg-berlin.de/"}}, {"type": "node", "id": 7811030879, "lat": 52.4954947, "lon": 13.2882179, "tags": {"addr:city": "Berlin", "addr:country": "DE", "addr:housenumber": "3", "addr:postcode": "10711", "addr:street": "Schwarzbacher Stra\u00dfe", "addr:suburb": "Halensee", "check_date:opening_hours": "2023-06-05", "healthcare": "alternative", "name": "ChiSaNatura", "opening_hours:signed": "no", "operator": "Martina Merl\u00e4nder;Susanne Pauls", "website": "https://www.chisanatura.com", "wheelchair": "yes"}}, {"type": "node", "id": 7844479113, "lat": 52.4953293, "lon": 13.2873191, "tags": {"addr:city": "Berlin", "addr:country": "DE", "addr:housenumber": "4", "addr:postcode": "10711", "addr:street": "Storkwinkel", "addr:suburb": "Halensee", "amenity": "doctors", "healthcare": "doctor", "name": "PD Dr. med. W. E. Platz", "opening_hours:signed": "no"}}, {"type": "node", "id": 7844479115, "lat": 52.4954415, "lon": 13.2873297, "tags": {"addr:city": "Berlin", "addr:country": "DE", "addr:housenumber": "4", "addr:postcode": "10711", "addr:street": "Storkwinkel", "addr:suburb": "Halensee", "check_date": "2023-06-28", "healthcare": "podiatrist", "name": "Podologie-Praxis", "opening_hours": "Mo-We 08:00-17:00; Fr 08:00-13:00"}}, {"type": "node", "id": 7994883598, "lat": 52.4961723, "lon": 13.29804, "tags": {"addr:city": "Berlin", "addr:country": "DE", "addr:housenumber": "21/22", "addr:postcode": "10709", "addr:street": "Johann-Georg-Stra\u00dfe", "addr:suburb": "Halensee", "amenity": "dentist", "check_date:opening_hours": "2024-09-15", "contact:phone": "+49 30 8911007", "healthcare": "dentist", "name": "Rajka \u017divkovic;Karin-Biesel-\u017divkovic", "opening_hours": "Mo-Fr 08:30-18:30; Sa 09:00-14:30"}}, {"type": "node", "id": 7994883599, "lat": 52.4961892, "lon": 13.2980743, "tags": {"addr:city": "Berlin", "addr:country": "DE", "addr:housenumber": "21/22", "addr:postcode": "10709", "addr:street": "Johann-Georg-Stra\u00dfe", "addr:suburb": "Halensee", "amenity": "doctors", "check_date": "2024-09-15", "contact:phone": "+49 30 8927041", "healthcare": "doctor", "healthcare:speciality": "general", "name": "Dr. med. Jens Ferchland", "opening_hours": "Mo,Tu,Th 08:00-12:00, 15:00-18:00, Fr 08:00-13:00, We \"nach Vereinbarung\""}}, {"type": "node", "id": 7994883600, "lat": 52.497613, "lon": 13.2958406, "tags": {"amenity": "clinic", "healthcare": "clinic", "name": "\u00c4rztehaus", "opening_hours": "\"verschieden \u00c4rzte\""}}, {"type": "node", "id": 7994883601, "lat": 52.497507, "lon": 13.295826, "tags": {"addr:city": "Berlin", "addr:country": "DE", "addr:housenumber": "45", "addr:postcode": "10711", "addr:street": "Joachim-Friedrich-Stra\u00dfe", "addr:suburb": "Halensee", "amenity": "doctors", "healthcare": "doctor", "healthcare:speciality": "pulmonology", "name": "Dr. med. Matthias Urban"}}, {"type": "node", "id": 7994883602, "lat": 52.4974816, "lon": 13.2958316, "tags": {"addr:city": "Berlin", "addr:country": "DE", "addr:housenumber": "45", "addr:postcode": "10711", "addr:street": "Joachim-Friedrich-Stra\u00dfe", "addr:suburb": "Halensee", "amenity": "doctors", "healthcare": "doctor", "healthcare:speciality": "gynaecology", "name": "Friedrich Schmidt-Bleek;Prof. Dr. E. Kastendieck", "website": "https://www.schmidt-bleek.de/"}}, {"type": "node", "id": 7994883603, "lat": 52.4975104, "lon": 13.2958675, "tags": {"addr:city": "Berlin", "addr:country": "DE", "addr:housenumber": "45", "addr:postcode": "10711", "addr:street": "Joachim-Friedrich-Stra\u00dfe", "addr:suburb": "Halensee", "healthcare": "psychotherapist", "name": "K.-S. Steiniger"}}, {"type": "node", "id": 7994883604, "lat": 52.4975432, "lon": 13.2958563, "tags": {"addr:city": "Berlin", "addr:country": "DE", "addr:housenumber": "45", "addr:postcode": "10711", "addr:street": "Joachim-Friedrich-Stra\u00dfe", "addr:suburb": "Halensee", "healthcare": "midwife", "name": "Manuela Wenzel", "website": "https://www.schmidt-bleek.de/"}}, {"type": "node", "id": 7994883605, "lat": 52.4976, "lon": 13.295763, "tags": {"addr:city": "Berlin", "addr:country": "DE", "addr:housenumber": "139", "addr:postcode": "10711", "addr:street": "Kurf\u00fcrstendamm", "addr:suburb": "Halensee", "amenity": "doctors", "healthcare": "doctor", "healthcare:speciality": "urology", "name": "Thomas Bartelheimer;Dr. Peter K\u00fchne;Catarina Wei\u00df", "opening_hours": "Mo,Th 14:30-20:00; Tu 07:30-13:30; Fr 07:30-12:30; Sa 09:00-11:00"}}, {"type": "node", "id": 7994883606, "lat": 52.4975863, "lon": 13.2957046, "tags": {"addr:city": "Berlin", "addr:country": "DE", "addr:housenumber": "139", "addr:postcode": "10711", "addr:street": "Kurf\u00fcrstendamm", "addr:suburb": "Halensee", "check_date:opening_hours": "2024-09-15", "healthcare": "physiotherapist", "name": "O. Svitlychenko", "opening_hours": "Mo-Fr 09:00-19:00"}}, {"type": "node", "id": 7994883607, "lat": 52.497585, "lon": 13.2956405, "tags": {"addr:city": "Berlin", "addr:country": "DE", "addr:housenumber": "139", "addr:postcode": "10711", "addr:street": "Kurf\u00fcrstendamm", "addr:suburb": "Halensee", "amenity": "doctors", "healthcare": "doctor", "healthcare:speciality": "internal;sports_medicine", "name": "Dr. med. Edgar Lotz", "opening_hours": "Mo 08:00-14:00; Tu,Th 09:00-19:00; We 09:00-12:00; Fr 09:00-13:00"}}, {"type": "node", "id": 7994883608, "lat": 52.497561, "lon": 13.2956742, "tags": {"addr:city": "Berlin", "addr:country": "DE", "addr:housenumber": "139", "addr:postcode": "10711", "addr:street": "Kurf\u00fcrstendamm", "addr:suburb": "Halensee", "amenity": "doctors", "check_date:opening_hours": "2024-09-15", "healthcare": "doctor", "healthcare:speciality": "ophthalmology", "name": "J. Kobligk", "opening_hours": "Mo 09:00-13:00,15:00-19:00; Tu 09:00-13:00,15:00-18:00; We 09:00-13:00; Th 09:00-12:00; Fr 09:00-13:00"}}, {"type": "node", "id": 7994883609, "lat": 52.4975569, "lon": 13.2956046, "tags": {"addr:city": "Berlin", "addr:country": "DE", "addr:housenumber": "139", "addr:postcode": "10711", "addr:street": "Kurf\u00fcrstendamm", "addr:suburb": "Halensee", "amenity": "doctors", "check_date": "2024-09-15", "healthcare": "doctor", "healthcare:speciality": "otolaryngology", "name": "Dr. R. Kuhnke", "opening_hours": "\"Termin nach Vereinbarung\""}}, {"type": "node", "id": 7994883610, "lat": 52.497561, "lon": 13.2957136, "tags": {"addr:city": "Berlin", "addr:country": "DE", "addr:housenumber": "139", "addr:postcode": "10711", "addr:street": "Kurf\u00fcrstendamm", "addr:suburb": "Halensee", "amenity": "dentist", "check_date:opening_hours": "2024-09-15", "healthcare": "dentist", "name": "Dr. Birgit Guizetti", "opening_hours": "Mo,We 09:00-16:00; Tu,Th 09:00-18:00; Fr 09:00-12:00"}}, {"type": "node", "id": 7994883611, "lat": 52.4975377, "lon": 13.2956338, "tags": {"addr:city": "Berlin", "addr:country": "DE", "addr:housenumber": "139", "addr:postcode": "10711", "addr:street": "Kurf\u00fcrstendamm", "addr:suburb": "Halensee", "healthcare": "psychotherapist", "name": "Dipl.-Psych. Denise Prejawa", "opening_hours": "\"nach Vereinbarung\""}}, {"type": "node", "id": 7994883612, "lat": 52.4975343, "lon": 13.2956675, "tags": {"addr:city": "Berlin", "addr:country": "DE", "addr:housenumber": "139", "addr:postcode": "10711", "addr:street": "Kurf\u00fcrstendamm", "addr:suburb": "Halensee", "amenity": "doctors", "check_date:opening_hours": "2024-09-15", "healthcare": "doctor", "healthcare:speciality": "dermatovenereology", "name": "Dr. med. Tilmann Brauns", "opening_hours": "Mo,Tu,Th 09:00-13:00,14:00-18:00; We,Fr 09:00-13:00"}}, {"type": "node", "id": 7994883613, "lat": 52.4975884, "lon": 13.2955866, "tags": {"addr:city": "Berlin", "addr:country": "DE", "addr:housenumber": "139", "addr:postcode": "10711", "addr:street": "Kurf\u00fcrstendamm", "addr:suburb": "Halensee", "amenity": "doctors", "check_date": "2024-09-15", "healthcare": "doctor", "healthcare:speciality": "orthopaedics", "name": "Dr. med. Uta Stiegler", "opening_hours": "\"Termine nach Vereinbarung\""}}, {"type": "node", "id": 7994883614, "lat": 52.4975651, "lon": 13.2957698, "tags": {"addr:city": "Berlin", "addr:country": "DE", "addr:housenumber": "139", "addr:postcode": "10711", "addr:street": "Kurf\u00fcrstendamm", "addr:suburb": "Halensee", "healthcare": "psychotherapist", "name": "Dipl.-Psych. O. Becker", "opening_hours": "\"nach Vereinbarung\""}}, {"type": "node", "id": 8068506283, "lat": 52.4958741, "lon": 13.2856267, "tags": {"addr:city": "Berlin", "addr:country": "DE", "addr:housenumber": "19", "addr:postcode": "10711", "addr:street": "Bornimer Stra\u00dfe", "addr:suburb": "Halensee", "contact:phone": "+49 30 8912922", "healthcare": "physiotherapist", "name": "City Kurbad Halensee"}}, {"type": "node", "id": 8068506284, "lat": 52.4962019, "lon": 13.2853232, "tags": {"addr:city": "Berlin", "addr:country": "DE", "addr:housenumber": "6", "addr:postcode": "10711", "addr:street": "Bornimer Stra\u00dfe", "addr:suburb": "Halensee", "check_date": "2024-08-23", "healthcare": "alternative", "name": "Heilpraxis f\u00fcr die Seele", "operator": "Petra Clausius"}}, {"type": "node", "id": 8375854290, "lat": 52.4993612, "lon": 13.2896179, "tags": {"addr:city": "Berlin", "addr:country": "DE", "addr:housenumber": "3-4", "addr:postcode": "10711", "addr:street": "L\u00fctzenstra\u00dfe", "addr:suburb": "Halensee", "healthcare": "psychotherapist", "name": "Privatpraxis Dr. Scheib", "opening_hours": "\"nach Vereinbarung\"", "operator": "Dr. med. Mario Scheib", "website": "https://ketaminplus.com"}}, {"type": "node", "id": 8589182867, "lat": 52.4886706, "lon": 13.3013352, "tags": {"addr:city": "Berlin", "addr:country": "DE", "addr:housenumber": "47a", "addr:postcode": "10713", "addr:street": "Hohenzollerndamm", "addr:suburb": "Halensee", "amenity": "doctors", "check_date": "2024-08-21", "check_date:opening_hours": "2024-08-21", "healthcare": "doctor", "healthcare:speciality": "gynaecology", "name": "Dr. med. Mathias Gehlhoff", "opening_hours": "Mo 09:00-15:00; Tu,Th 13:00-18:00; Fr 09:00-12:00"}}, {"type": "node", "id": 8589182868, "lat": 52.4886453, "lon": 13.3012678, "tags": {"addr:city": "Berlin", "addr:country": "DE", "addr:housenumber": "47a", "addr:postcode": "10713", "addr:street": "Hohenzollerndamm", "addr:suburb": "Halensee", "amenity": "doctors", "healthcare": "doctor", "healthcare:speciality": "child_psychiatry", "name": "Praxis Asklepiion", "opening_hours": "Tu,Th 09:00-12:00,12:30-19:00, Mo,We 13:00-19:00, We,Fr 08:00-12:00, Fr 12:30-17:00, Mo 09:00-12:00", "operator": "Salah Bsat", "website": "http://www.asklepiion.de/"}}, {"type": "node", "id": 8589182870, "lat": 52.4885783, "lon": 13.3011812, "tags": {"addr:city": "Berlin", "addr:country": "DE", "addr:housenumber": "47a", "addr:postcode": "10713", "addr:street": "Hohenzollerndamm", "addr:suburb": "Halensee", "amenity": "doctors", "check_date:opening_hours": "2024-08-21", "healthcare": "doctor", "healthcare:speciality": "dermatology;allergology;dermatovenereology", "name": "Dr. med. Bernd Hegemann", "opening_hours": "Mo 12:00-18:00; Tu,Th 09:00-12:00,15:00-18:00; Fr 09:00-13:00", "website": "https://hautarztberlin.de/"}}, {"type": "node", "id": 8589182871, "lat": 52.4886823, "lon": 13.3012183, "tags": {"addr:city": "Berlin", "addr:country": "DE", "addr:housenumber": "47a", "addr:postcode": "10713", "addr:street": "Hohenzollerndamm", "addr:suburb": "Halensee", "amenity": "doctors", "healthcare": "doctor", "healthcare:speciality": "internal;gastroenterology", "name": "Gemeinschaftspraxis Hohenzollerndamm", "opening_hours": "Mo,Tu,Th 08:00-18:30; Fr 08:00-13:00; We 08:00-13:30", "operator": "Dr. med. Andreas Schr\u00f6der;Dr. med. Klaus Nehm;Dr. med. Anreas Scheding;Dr. med. Franziska Ehni", "website": "https://www.praxis-hohenzollerndamm.de"}}, {"type": "node", "id": 8589182872, "lat": 52.4886344, "lon": 13.3012026, "tags": {"addr:city": "Berlin", "addr:country": "DE", "addr:housenumber": "47a", "addr:postcode": "10713", "addr:street": "Hohenzollerndamm", "addr:suburb": "Halensee", "amenity": "doctors", "check_date:opening_hours": "2024-08-21", "healthcare": "doctor", "healthcare:speciality": "gynaecology", "name": "Dr. med. Mathias Gehlhoff", "opening_hours": "Mo 09:00-15:00; Tu,Th 13:00-18:00; Fr 09:00-12:00"}}, {"type": "node", "id": 8728140155, "lat": 52.498569, "lon": 13.3008379, "tags": {"addr:city": "Berlin", "addr:country": "DE", "addr:housenumber": "151", "addr:postcode": "10709", "addr:street": "Kurf\u00fcrstendamm", "addr:suburb": "Halensee", "amenity": "doctors", "healthcare": "doctor", "healthcare:speciality": "plastic_surgery", "name": "Medicalthree"}}, {"type": "node", "id": 8839649636, "lat": 52.4995776, "lon": 13.2967202, "tags": {"addr:city": "Berlin", "addr:country": "DE", "addr:housenumber": "21", "addr:postcode": "10711", "addr:street": "Joachim-Friedrich-Stra\u00dfe", "addr:suburb": "Halensee", "amenity": "arts_centre", "check_date": "2024-07-06", "contact:phone": "+49 30 64319295", "contact:website": "https://www.bunt-kurse.de/", "description": "Kunstkurse", "education": "courses", "name": "Bunt", "training": "art"}}, {"type": "node", "id": 8839649642, "lat": 52.4988108, "lon": 13.2960555, "tags": {"addr:city": "Berlin", "addr:country": "DE", "addr:housenumber": "42", "addr:postcode": "10711", "addr:street": "Joachim-Friedrich-Stra\u00dfe", "addr:suburb": "Halensee", "amenity": "cafe", "diet:vegan": "yes", "diet:vegetarian": "yes", "name": "One piece Of cake", "opening_hours": "Tu-Sa 09:00-18:00; Su 09:00-17:00"}}, {"type": "node", "id": 8839649652, "lat": 52.5000332, "lon": 13.296873, "tags": {"addr:city": "Berlin", "addr:country": "DE", "addr:housenumber": "24", "addr:postcode": "10711", "addr:street": "Joachim-Friedrich-Stra\u00dfe", "addr:suburb": "Halensee", "healthcare": "psychotherapist", "name": "Hans-Georg Hannemann", "opening_hours": "\"nach Vereinbarung\"", "website": "https://www.psychotherapie-hannemann.de/"}}, {"type": "node", "id": 8839649653, "lat": 52.4999713, "lon": 13.2968527, "tags": {"addr:city": "Berlin", "addr:country": "DE", "addr:housenumber": "24", "addr:postcode": "10711", "addr:street": "Joachim-Friedrich-Stra\u00dfe", "addr:suburb": "Halensee", "healthcare": "alternative", "name": "Naturheilpraxis Beate Ellen Hahn", "opening_hours": "\"nach Vereinbarung\""}}, {"type": "node", "id": 9268122917, "lat": 52.4967809, "lon": 13.2903425, "tags": {"addr:city": "Berlin", "addr:housenumber": "31", "addr:postcode": "10711", "addr:street": "Seesener Stra\u00dfe", "brand": "Edeka", "brand:wikidata": "Q701755", "brand:wikipedia": "de:Edeka", "name": "EDEKA Schmitt", "opening_hours": "Mo-Sa 06:00-23:00", "operator": "Schmitt", "phone": "+49 30 88667641", "shop": "supermarket", "website": "https://www.edeka.de/eh/minden-hannover/edeka-schmitt-seesener-str.-31/index.jsp", "wheelchair": "yes"}}, {"type": "node", "id": 9429184184, "lat": 52.4965191, "lon": 13.2922148, "tags": {"addr:city": "Berlin", "addr:country": "DE", "addr:housenumber": "50a", "addr:postcode": "10711", "addr:street": "Westf\u00e4lische Stra\u00dfe", "addr:suburb": "Halensee", "healthcare": "physiotherapist", "name": "Physiotherapie & Massagepraxis Riesebeck", "opening_hours": "Mo-Fr 09:00-19:00", "website": "http://massagepraxis-riesebeck.de/"}}, {"type": "node", "id": 9429184185, "lat": 52.4979914, "lon": 13.2946912, "tags": {"addr:city": "Berlin", "addr:housenumber": "105", "addr:postcode": "10711", "addr:street": "Kurf\u00fcrstendamm", "amenity": "cafe", "cuisine": "coffee_shop", "name": "Dong Nam Coffee Lab", "website": "https://dong-nam.de/"}}, {"type": "node", "id": 9429184190, "lat": 52.4972224, "lon": 13.293313, "tags": {"addr:city": "Berlin", "addr:country": "DE", "addr:housenumber": "133", "addr:postcode": "10711", "addr:street": "Kurf\u00fcrstendamm", "addr:suburb": "Halensee", "amenity": "doctors", "healthcare": "doctor", "healthcare:speciality": "neurology;psychiatry", "name": "Dr. med. M. Wagner-Greese"}}, {"type": "node", "id": 9429184192, "lat": 52.4970431, "lon": 13.2920592, "tags": {"addr:city": "Berlin", "addr:housenumber": "130", "addr:postcode": "10711", "addr:street": "Kurf\u00fcrstendamm", "amenity": "dentist", "healthcare": "dentist", "name": "Romina Sj\u00f8lund"}}, {"type": "node", "id": 9506115526, "lat": 52.4961385, "lon": 13.2860068, "tags": {"addr:city": "Berlin", "addr:housenumber": "4", "addr:postcode": "10711", "addr:street": "Bornimer Stra\u00dfe", "amenity": "restaurant", "check_date": "2024-09-04", "contact:phone": "+49 30 54892448", "cuisine": "indian", "level": "0", "name": "Tandoori N\u00e4chte", "opening_hours": "Tu-Su 12:00-23:00", "operator": "Rusheel Basav Gastfreundschaft GmbH", "outdoor_seating": "yes", "takeaway": "yes", "toilets": "yes"}}, {"type": "node", "id": 9587817327, "lat": 52.5013483, "lon": 13.296384, "tags": {"addr:city": "Berlin", "addr:country": "DE", "addr:housenumber": "30", "addr:postcode": "10711", "addr:street": "Joachim-Friedrich-Stra\u00dfe", "addr:suburb": "Halensee", "healthcare": "physiotherapist", "name": "physi.on", "opening_hours": "Mo-Fr 09:00-19:00", "phone": "+49 30 89068922", "website": "http://www.physi-on.de/"}}, {"type": "node", "id": 9587817331, "lat": 52.501052, "lon": 13.2972664, "tags": {"addr:city": "Berlin", "addr:country": "DE", "addr:housenumber": "33", "addr:postcode": "10711", "addr:street": "Damaschkestra\u00dfe", "addr:suburb": "Halensee", "amenity": "doctors", "check_date:opening_hours": "2023-04-10", "healthcare": "doctor", "healthcare:speciality": "physiatry", "name": "Schmerzpunkt Berlin", "opening_hours:signed": "no", "operator": "Wenke Kotira-Kraus", "website": "http://schmerzpunkt.berlin"}}, {"type": "node", "id": 9587997321, "lat": 52.5002016, "lon": 13.2999432, "tags": {"addr:city": "Berlin", "addr:country": "DE", "addr:housenumber": "15", "addr:postcode": "10711", "addr:street": "Damaschkestra\u00dfe", "addr:suburb": "Halensee", "amenity": "doctors", "healthcare": "doctor", "healthcare:speciality": "psychiatry", "name": "Christian Siebert", "opening_hours": "\"nach Vereinbarung\"", "website": "https://siebert-praxis.de/"}}, {"type": "node", "id": 9587997323, "lat": 52.4998586, "lon": 13.3001045, "tags": {"addr:city": "Berlin", "addr:country": "DE", "addr:housenumber": "2", "addr:postcode": "10711", "addr:street": "Nestorstra\u00dfe", "addr:suburb": "Halensee", "check_date:opening_hours": "2025-04-29", "healthcare": "psychotherapist", "name": "Fereshteh Rahn", "opening_hours:signed": "no"}}, {"type": "node", "id": 9587997324, "lat": 52.4996629, "lon": 13.3000675, "tags": {"addr:city": "Berlin", "addr:country": "DE", "addr:housenumber": "3", "addr:postcode": "10711", "addr:street": "Nestorstra\u00dfe", "addr:suburb": "Halensee", "healthcare": "psychotherapist", "name": "Margarete T\u00f6nnessen", "website": "https://margarete-toennessen.berlin/"}}, {"type": "node", "id": 9587997325, "lat": 52.4994761, "lon": 13.3000569, "tags": {"addr:city": "Berlin", "addr:country": "DE", "addr:housenumber": "4", "addr:postcode": "10711", "addr:street": "Nestorstra\u00dfe", "addr:suburb": "Halensee", "amenity": "dentist", "check_date:opening_hours": "2024-09-14", "healthcare": "dentist", "name": "Dirk Scheve", "opening_hours": "Mo,Tu,Th 08:00-12:00,14:00-18:00; We,Fr 08:00-12:00", "website": "https://drscheve.de/"}}, {"type": "node", "id": 9587997326, "lat": 52.49896, "lon": 13.2999048, "tags": {"addr:city": "Berlin", "addr:country": "DE", "addr:housenumber": "93", "addr:postcode": "10709", "addr:street": "Kurf\u00fcrstendamm", "addr:suburb": "Halensee", "amenity": "doctors", "fax": "+49 30 66666-122", "healthcare": "doctor", "healthcare:speciality": "radiology", "level": "1;2", "medical_system:western": "yes", "name": "diagnostikum berlin", "opening_hours": "Mo,Tu,Th 08:00-18:00; We 08:00-15:00; Fr 08:00-13:00", "operator": "Dr. Engels & Kollegen", "phone": "+49 30 66666-0", "website": "https://www.diagnostikum-berlin.de/kurfuerstendamm-93/"}}, {"type": "node", "id": 9587997327, "lat": 52.4989382, "lon": 13.2998109, "tags": {"addr:city": "Berlin", "addr:country": "DE", "addr:housenumber": "93", "addr:postcode": "10709", "addr:street": "Kurf\u00fcrstendamm", "addr:suburb": "Halensee", "amenity": "doctors", "healthcare": "doctor", "healthcare:speciality": "cardiology", "level": "2", "name": "Kardiologische Privatpraxis Ku'damm 93", "opening_hours": "\"Sprechstunde nach Vereinbarung\"", "website": "https://www.kardio-kudamm93.de/"}}, {"type": "node", "id": 9587997328, "lat": 52.4990139, "lon": 13.2999511, "tags": {"addr:city": "Berlin", "addr:country": "DE", "addr:housenumber": "93", "addr:postcode": "10709", "addr:street": "Kurf\u00fcrstendamm", "addr:suburb": "Halensee", "amenity": "doctors", "check_date:opening_hours": "2024-09-14", "healthcare": "doctor", "healthcare:speciality": "orthopaedics", "level": "3", "name": "Dr. med. Christian Meuer", "opening_hours": "Mo,Tu,Th 08:00-13:00,15:00-18:00; We,Fr 08:00-13:00", "website": "https://www.orthopaedie-kurfuerstendamm.de/"}}, {"type": "node", "id": 9587997329, "lat": 52.4990051, "lon": 13.2998955, "tags": {"addr:city": "Berlin", "addr:country": "DE", "addr:housenumber": "93", "addr:postcode": "10709", "addr:street": "Kurf\u00fcrstendamm", "addr:suburb": "Halensee", "healthcare": "physiotherapist", "name": "Physiotherapie kudamm 93", "opening_hours": "Mo-Th 08:00-19:00; Fr 08:00-14:00", "website": "https://physio-kudamm93.de"}}, {"type": "node", "id": 9587997333, "lat": 52.4978642, "lon": 13.3003128, "tags": {"addr:city": "Berlin", "addr:country": "DE", "addr:housenumber": "54", "addr:postcode": "10709", "addr:street": "Nestorstra\u00dfe", "addr:suburb": "Halensee", "contact:phone": "+49 30 3233531", "contact:website": "http://www.osteo-physio.de/", "healthcare": "physiotherapist", "level": "1", "name": "Praxis Hirthe", "opening_hours": "Mo-Fr 08:00-20:00"}}, {"type": "node", "id": 9587997334, "lat": 52.4978051, "lon": 13.2997485, "tags": {"addr:city": "Berlin", "addr:country": "DE", "addr:housenumber": "7", "addr:postcode": "10709", "addr:street": "Nestorstra\u00dfe", "addr:suburb": "Halensee", "amenity": "dentist", "healthcare": "dentist", "name": "Herbert Burdich", "opening_hours": "Mo,Th 12:00-19:00; Tu 09:00-15:00; Fr 09:00-14:00"}}, {"type": "node", "id": 9587997335, "lat": 52.4977019, "lon": 13.2997249, "tags": {"addr:city": "Berlin", "addr:country": "DE", "addr:housenumber": "8-9", "addr:postcode": "10709", "addr:street": "Nestorstra\u00dfe", "addr:suburb": "Halensee", "amenity": "doctors", "healthcare": "doctor", "healthcare:speciality": "general", "name": "Praxis Dr. Birkner", "opening_hours": "Mo 09:00-16:30; Tu,Th 09:00-13:00,15:00-18:00; Fr 09:00-13:30", "operator": "Hans-Christian Birkner", "website": "https://praxisbirkner.de/"}}, {"type": "node", "id": 9886013625, "lat": 52.4966274, "lon": 13.2933783, "tags": {"addr:city": "Berlin", "addr:country": "DE", "addr:housenumber": "42", "addr:postcode": "10711", "addr:street": "Westf\u00e4lische Stra\u00dfe", "addr:suburb": "Halensee", "description": "Praxis f\u00fcr \u00e4sthetische Medizin", "healthcare": "alternative", "name": "Mesoderm", "opening_hours": "Mo-Fr 10:00-18:00", "operator": "Mascha Deml", "website": "https://mesoderm.de/"}}, {"type": "node", "id": 9886013626, "lat": 52.4952629, "lon": 13.2982291, "tags": {"addr:city": "Berlin", "addr:country": "DE", "addr:housenumber": "66", "addr:postcode": "10709", "addr:street": "Westf\u00e4lische Stra\u00dfe", "addr:suburb": "Halensee", "check_date": "2025-06-15", "healthcare": "podiatrist", "healthcare:speciality": "podiatry", "name": "Podologische Fachpraxis", "opening_hours": "\"nach Vereinbarung\"", "operator": "Katrin Dienewald-Lopez", "website": "https://podologie-dienewald-lopez.de/"}}, {"type": "node", "id": 10061714033, "lat": 52.4947329, "lon": 13.3004754}, {"type": "node", "id": 10147139030, "lat": 52.4947349, "lon": 13.2955441, "tags": {"addr:city": "Berlin", "addr:housenumber": "53", "addr:postcode": "10711", "addr:street": "Joachim-Friedrich-Stra\u00dfe", "amenity": "doctors", "email": "info@praxis-dreysse.de", "healthcare": "doctor", "healthcare:speciality": "general", "level": "1", "name": "Praxis Dr. med. Nadja Dreysse", "opening_hours": "Mo 12:00-17:00; Tu 8:30-13:00; We 8:30-13:00; Th 14:00-19:00; Fr 8:30-13:00", "phone": "+49 30 89009000", "website": "https://praxis-dreysse.webflow.io/"}}, {"type": "node", "id": 10963565217, "lat": 52.4965851, "lon": 13.3012814}, {"type": "node", "id": 10963565220, "lat": 52.4953972, "lon": 13.301222}, {"type": "node", "id": 10963565223, "lat": 52.4954533, "lon": 13.2998708}, {"type": "node", "id": 10963565227, "lat": 52.49586, "lon": 13.2999236}, {"type": "node", "id": 10963565228, "lat": 52.4958843, "lon": 13.2999277}, {"type": "node", "id": 10963565232, "lat": 52.4966404, "lon": 13.300116}, {"type": "node", "id": 10963565233, "lat": 52.4953253, "lon": 13.3010317}, {"type": "node", "id": 10963565234, "lat": 52.4953319, "lon": 13.3012135}, {"type": "node", "id": 10963565235, "lat": 52.4954017, "lon": 13.2998647}, {"type": "node", "id": 10963565236, "lat": 52.4954066, "lon": 13.3000619}, {"type": "node", "id": 10979158423, "lat": 52.4983384, "lon": 13.2997798, "tags": {"addr:city": "Berlin", "addr:housenumber": "146-147", "addr:postcode": "10709", "addr:street": "Kurf\u00fcrstendamm", "brand": "Rewe", "brand:wikidata": "Q16968817", "name": "Rewe", "opening_hours": "Mo-Fr 06:00 - 00:00 Uhr; Sa 06:00 - 23:30 Uhr", "phone": "+4930519998970", "shop": "supermarket", "wheelchair": "yes"}}, {"type": "node", "id": 11381260439, "lat": 52.4970587, "lon": 13.289423}, {"type": "node", "id": 11454400879, "lat": 52.4970404, "lon": 13.2952552}, {"type": "node", "id": 11454400880, "lat": 52.4970463, "lon": 13.2951455}, {"type": "node", "id": 12264464958, "lat": 52.5023375, "lon": 13.2957874, "tags": {"addr:city": "Berlin", "addr:country": "DE", "addr:housenumber": "12", "addr:postcode": "10711", "addr:street": "Heilbronner Stra\u00dfe", "addr:suburb": "Halensee", "amenity": "cafe", "name": "Schell Bistro"}}, {"type": "node", "id": 12981819111, "lat": 52.4972018, "lon": 13.2930354, "tags": {"addr:city": "Berlin", "addr:country": "DE", "addr:housenumber": "132a", "addr:postcode": "10711", "addr:street": "Kurf\u00fcrstendamm", "addr:suburb": "Halensee", "amenity": "restaurant", "cuisine": "sushi", "name": "Koneko Sushi", "website": "https://www.konekosushi.com"}}, {"type": "way", "id": 4937326, "nodes": [32531345, 10963565232, 10963565217, 32531346, 10963565220, 10963565234, 32531347, 3716552568, 3716552567, 3716552575, 3716552581, 32531348, 10963565235, 10963565223, 10963565227, 10963565228, 32531345], "tags": {"leisure": "park", "name": "Hochmeisterplatz", "name:etymology:wikidata": "Q9373006", "protection_title": "Gesch\u00fctzte Gr\u00fcnanlage", "source": "Geoportal Berlin / Gr\u00fcnanlagenbestand Berlin (einschlie\u00dflich der \u00f6ffentlichen Spielpl\u00e4tze)", "wheelchair": "yes", "wikidata": "Q94989008"}}, {"type": "way", "id": 12196551, "nodes": [7551371871, 7551371874, 110497675, 110497680, 110497684, 267287863, 110497660, 7551371871], "tags": {"image": "https://commons.wikimedia.org/wiki/File:Halensee_Melli-Beese-Anlage.jpg", "leisure": "park", "name": "Melli-Beese-Anlage", "name:etymology:wikidata": "Q97003", "name:etymology:wikipedia": "de:Melli Beese", "wikidata": "Q110798262", "wikimedia_commons": "Category:Melli-Beese-Anlage (Berlin-Halensee)"}}, {"type": "way", "id": 24717907, "nodes": [269057092, 269057091, 5757375527, 268655928, 268655922, 5757375528, 269057094, 269057093, 2993095981, 268655910, 546652856, 5757375526, 5757375525, 546652860, 546652865, 546652859, 5757375412, 5757375411, 5757375410, 5757375530, 268655912, 5757375529, 269057092], "tags": {"building": "hospital", "building:levels": "6", "healthcare": "centre", "medical_system:western": "yes", "name": "Diagnostisches Zentrum", "roof:shape": "flat"}}, {"type": "way", "id": 28431781, "nodes": [312382422, 312382423, 10963565236, 312382424, 4913807585, 3716552588, 4913807586, 312382426, 312382427, 312382428, 3716552573, 312382429, 3716552574, 4913807587, 312382430, 312382431, 10963565233, 312382422], "tags": {"access": "yes", "leisure": "playground", "name": "Spielplatz Hochmeisterplatz - Tausendundeine Nacht", "playground:theme": "Tausenundundeine Nacht", "wheelchair": "yes"}}, {"type": "way", "id": 34923228, "nodes": [292454369, 270226575, 270226576, 1027109965, 1027109978, 1021936486, 409760012, 270226862, 270226857, 292454373, 292454369], "tags": {"access": "yes", "description": "Allgemeiner Spielplatz: Georg-Wilhelm-Str. 5-6", "leisure": "playground", "name": "Indiana Bones", "protection_title": "Gesch\u00fctzte Gr\u00fcnanlage", "source": "Geoportal Berlin / Gr\u00fcnanlagenbestand Berlin (einschlie\u00dflich der \u00f6ffentlichen Spielpl\u00e4tze)", "wheelchair": "yes"}}, {"type": "way", "id": 43104441, "nodes": [540029251, 6314775777, 6314775723, 6314775765, 540029252, 540029266, 540029268, 540029269, 540029261, 6314775749, 540029251], "tags": {"addr:city": "Berlin", "addr:country": "DE", "addr:housenumber": "26a", "addr:postcode": "10711", "addr:street": "Heilbronner Stra\u00dfe", "addr:suburb": "Halensee", "brand": "Aldi Nord", "brand:wikidata": "Q41171373", "brand:wikipedia": "de:Aldi", "building": "retail", "building:levels": "1", "name": "Aldi", "opening_hours": "Mo-Sa 07:00-22:00", "operator": "ALDI Nord", "operator:wikidata": "Q41171373", "roof:shape": "gabled", "shop": "supermarket", "wheelchair": "yes"}}, {"type": "way", "id": 43104445, "nodes": [540029274, 540029270, 540049655, 540029271, 540029279, 540029280, 540029281, 540029275, 540029277, 540029274], "tags": {"addr:city": "Berlin", "addr:country": "DE", "addr:housenumber": "19", "addr:postcode": "10711", "addr:street": "Heilbronner Stra\u00dfe", "addr:suburb": "Halensee", "brand": "Netto Marken-Discount", "brand:wikidata": "Q879858", "brand:wikipedia": "de:Netto Marken-Discount", "building": "warehouse", "building:levels": "1", "check_date:opening_hours": "2024-07-05", "name": "Netto Marken-Discount", "opening_hours": "Mo-Sa 07:00-22:00", "roof:shape": "flat", "shop": "supermarket", "website": "https://www.netto-online.de/filialen/Berlin-Wilmersdorf/Heilbronner-Str-19/7617/", "wheelchair": "yes"}}, {"type": "way", "id": 85258775, "nodes": [988669541, 5375785498, 5375785497, 988669607, 5375785500, 5375785499, 988669519, 988669537, 988669524, 988669575, 988669541], "tags": {"addr:city": "Berlin", "addr:country": "DE", "addr:housenumber": "129c", "addr:postcode": "10711", "addr:street": "Kurf\u00fcrstendamm", "addr:suburb": "Halensee", "amenity": "fast_food", "building": "yes", "cuisine": "kebab", "delivery": "no", "drive_through": "no", "indoor_seating": "no", "name": "Metropol", "outdoor_seating": "no", "smoking": "outside", "takeaway": "only", "toilets": "no", "wheelchair": "yes"}}, {"type": "way", "id": 85258780, "nodes": [988669567, 988669585, 988669535, 988669551, 988669561, 988669545, 988669567], "tags": {"addr:city": "Berlin", "addr:housenumber": "129", "addr:postcode": "10711", "addr:street": "Kurf\u00fcrstendamm", "amenity": "fast_food", "building": "kiosk", "name": "FoodBox", "wheelchair": "yes"}}, {"type": "way", "id": 85258922, "nodes": [988671572, 988671597, 5375789957, 5375789959, 11381260439, 988671572], "tags": {"addr:city": "Berlin", "addr:country": "DE", "addr:postcode": "10711", "addr:street": "Kurf\u00fcrstendamm", "amenity": "fast_food", "building": "yes", "cuisine": "kebab", "delivery": "no", "drive_through": "no", "indoor_seating": "yes", "name": "Oriental Snack", "outdoor_seating": "yes", "smoking": "outside", "takeaway": "yes", "wheelchair": "yes"}}, {"type": "way", "id": 225712730, "nodes": [2344650938, 2344650939, 2344650941, 2344650940, 2344650938], "tags": {"leisure": "park"}}, {"type": "way", "id": 298244415, "nodes": [3021558157, 3021558158, 3021558159, 3021558160, 3021558161, 3021558157], "tags": {"leisure": "park"}}, {"type": "way", "id": 332076816, "nodes": [3391907805, 3391907763, 3391907755, 7330043802, 3391907782, 3391907805], "tags": {"amenity": "fast_food", "building": "yes", "cuisine": "kebab", "diet:vegan": "no", "diet:vegetarian": "yes", "indoor_seating": "no", "name": "Westf\u00e4lische D\u00f6ner Eck", "opening_hours": "Mo-Fr 10:00-21:00, Sa-Su 12:00-21:00", "outdoor_seating": "yes", "takeaway": "yes", "wheelchair": "yes"}}, {"type": "way", "id": 367772933, "nodes": [3481018754, 3716552563, 3481018752, 10061714033, 3716552551, 3716552552, 3716552569, 3716552570, 3716552572, 3716552571, 3481018754], "tags": {"denomination": "protestant", "landuse": "religious", "leisure": "park", "religion": "christian"}}, {"type": "way", "id": 434770822, "nodes": [4327011118, 4327011110, 4327011116, 4327011117, 11454400880, 11454400879, 4327011119, 4327011118], "tags": {"access": "yes", "description": "Allgemeiner Spielplatz: Joachim-Friedrich-Str. 47", "leisure": "playground", "protection_title": "Gesch\u00fctzte Gr\u00fcnanlage", "source": "Geoportal Berlin / Gr\u00fcnanlagenbestand Berlin (einschlie\u00dflich der \u00f6ffentlichen Spielpl\u00e4tze)", "wheelchair": "limited"}}]}