{"version": 0.6, "generator": "Overpass API 0.7.62.7 375dc00a", "osm3s": {"timestamp_osm_base": "2025-08-05T15:02:00Z", "copyright": "The data included in this document is from www.openstreetmap.org. The data is made available under ODbL."}, "elements": [{"type": "node", "id": 27212795, "lat": 52.4441482, "lon": 13.6278296}, {"type": "node", "id": 27212800, "lat": 52.446924, "lon": 13.6382073}, {"type": "node", "id": 28341969, "lat": 52.444535, "lon": 13.6262927}, {"type": "node", "id": 86029986, "lat": 52.449193, "lon": 13.5940849}, {"type": "node", "id": 86032995, "lat": 52.4495069, "lon": 13.5961385}, {"type": "node", "id": 86032996, "lat": 52.4494899, "lon": 13.5964405}, {"type": "node", "id": 86033000, "lat": 52.4490777, "lon": 13.5985134}, {"type": "node", "id": 92616014, "lat": 52.4604797, "lon": 13.6248208}, {"type": "node", "id": 254100345, "lat": 52.4557083, "lon": 13.6325826}, {"type": "node", "id": 254100348, "lat": 52.455547, "lon": 13.6289405}, {"type": "node", "id": 254100350, "lat": 52.4555653, "lon": 13.6296732}, {"type": "node", "id": 254100352, "lat": 52.4553218, "lon": 13.6296927}, {"type": "node", "id": 254100355, "lat": 52.4554035, "lon": 13.6325549}, {"type": "node", "id": 282651988, "lat": 52.4522235, "lon": 13.6260133}, {"type": "node", "id": 282651989, "lat": 52.4517148, "lon": 13.6259836}, {"type": "node", "id": 290323910, "lat": 52.4443795, "lon": 13.6283219}, {"type": "node", "id": 290323915, "lat": 52.4446239, "lon": 13.6279276}, {"type": "node", "id": 290323919, "lat": 52.4454329, "lon": 13.6267061}, {"type": "node", "id": 290323920, "lat": 52.4453725, "lon": 13.6270077}, {"type": "node", "id": 290323921, "lat": 52.4456355, "lon": 13.6271548}, {"type": "node", "id": 290323923, "lat": 52.4453061, "lon": 13.6275595}, {"type": "node", "id": 290323924, "lat": 52.4453001, "lon": 13.6275885}, {"type": "node", "id": 290325187, "lat": 52.4538819, "lon": 13.6167123}, {"type": "node", "id": 292055278, "lat": 52.4486599, "lon": 13.6357135}, {"type": "node", "id": 292055327, "lat": 52.4487726, "lon": 13.6356548}, {"type": "node", "id": 292201291, "lat": 52.4514375, "lon": 13.6328651}, {"type": "node", "id": 298099669, "lat": 52.4534833, "lon": 13.6035886}, {"type": "node", "id": 298100325, "lat": 52.4510398, "lon": 13.6165098}, {"type": "node", "id": 298100644, "lat": 52.4475909, "lon": 13.6382595}, {"type": "node", "id": 345549447, "lat": 52.4576017, "lon": 13.6157007}, {"type": "node", "id": 345549448, "lat": 52.4585114, "lon": 13.6183887}, {"type": "node", "id": 345549449, "lat": 52.4592421, "lon": 13.6209792}, {"type": "node", "id": 345549450, "lat": 52.4587579, "lon": 13.6214616}, {"type": "node", "id": 345549451, "lat": 52.4592099, "lon": 13.6226561}, {"type": "node", "id": 345549452, "lat": 52.4592568, "lon": 13.6232613}, {"type": "node", "id": 345549453, "lat": 52.4596042, "lon": 13.6231747}, {"type": "node", "id": 345549454, "lat": 52.4606282, "lon": 13.6244757}, {"type": "node", "id": 345549455, "lat": 52.4597067, "lon": 13.6251569}, {"type": "node", "id": 345549456, "lat": 52.4594029, "lon": 13.6258989}, {"type": "node", "id": 345549457, "lat": 52.4577327, "lon": 13.6254133}, {"type": "node", "id": 438032755, "lat": 52.4559926, "lon": 13.6180631}, {"type": "node", "id": 438032757, "lat": 52.4554942, "lon": 13.6178239}, {"type": "node", "id": 438032758, "lat": 52.4559366, "lon": 13.617591}, {"type": "node", "id": 438222462, "lat": 52.4555868, "lon": 13.6182176}, {"type": "node", "id": 439234903, "lat": 52.4512997, "lon": 13.624489, "tags": {"amenity": "pharmacy", "check_date:opening_hours": "2023-11-25", "dispensing": "yes", "healthcare": "pharmacy", "name": "Kristinen-Apotheke", "opening_hours": "Mo-Fr 08:00-19:00; Sa 09:00-14:00", "phone": "+49 30 645 17 62", "website": "https://www.erezept-berlin-treptow-koepenick-kristinenapotheke.de/#", "wheelchair": "yes"}}, {"type": "node", "id": 439234905, "lat": 52.4503297, "lon": 13.6249106, "tags": {"amenity": "pharmacy", "check_date:opening_hours": "2023-02-21", "dispensing": "yes", "healthcare": "pharmacy", "name": "Anker-Apotheke", "opening_hours": "Mo-Fr 08:00-19:00; Sa 09:00-13:00", "phone": "+49306455274", "website": "https://brandt-apo.de", "wheelchair": "yes"}}, {"type": "node", "id": 439234906, "lat": 52.4559737, "lon": 13.6250449, "tags": {"addr:city": "Berlin", "addr:housenumber": "76", "addr:postcode": "12587", "addr:street": "B\u00f6lschestra\u00dfe", "amenity": "restaurant", "check_date:opening_hours": "2024-01-24", "contact:website": "https://lannam.de", "cuisine": "asian;indian", "diet:vegan": "yes", "diet:vegetarian": "yes", "indoor_seating": "yes", "name": "L'Annam", "opening_hours": "We-Fr,Su,Mo 11:30-22:00; Sa 16:00-22:00; Tu off", "outdoor_seating": "yes", "phone": "+493064328607", "wheelchair": "no"}}, {"type": "node", "id": 439356765, "lat": 52.4441973, "lon": 13.627556}, {"type": "node", "id": 439356767, "lat": 52.4441598, "lon": 13.627742}, {"type": "node", "id": 439356769, "lat": 52.4442141, "lon": 13.6281786}, {"type": "node", "id": 440047757, "lat": 52.4457287, "lon": 13.6219461}, {"type": "node", "id": 440047765, "lat": 52.4458234, "lon": 13.6221913}, {"type": "node", "id": 440047767, "lat": 52.4463298, "lon": 13.6219515}, {"type": "node", "id": 599735035, "lat": 52.4512408, "lon": 13.625589}, {"type": "node", "id": 616738851, "lat": 52.4444273, "lon": 13.626511}, {"type": "node", "id": 616738880, "lat": 52.444311, "lon": 13.6268965}, {"type": "node", "id": 616740024, "lat": 52.4451619, "lon": 13.6277841}, {"type": "node", "id": 616740026, "lat": 52.4450785, "lon": 13.62789}, {"type": "node", "id": 616740027, "lat": 52.4447472, "lon": 13.6281164}, {"type": "node", "id": 616740029, "lat": 52.4448111, "lon": 13.6258595}, {"type": "node", "id": 616740030, "lat": 52.4451274, "lon": 13.6263764}, {"type": "node", "id": 859989105, "lat": 52.4515726, "lon": 13.6252898}, {"type": "node", "id": 860022923, "lat": 52.4470689, "lon": 13.6245399, "tags": {"addr:city": "Berlin", "addr:country": "DE", "addr:housenumber": "2", "addr:postcode": "12587", "addr:street": "B\u00f6lschestra\u00dfe", "addr:suburb": "Friedrichshagen", "brand": "Bio Company", "brand:wikidata": "Q864179", "brand:wikipedia": "de:Bio Company", "check_date": "2024-08-29", "check_date:opening_hours": "2022-06-11", "name": "Bio Company", "opening_hours": "Mo-Sa 08:00-20:00", "operator": "Bio Company Betriebs GmbH & Co. KG", "organic": "only", "phone": "+493032590332", "shop": "supermarket", "toilets:wheelchair": "yes", "website": "https://www.biocompany.de/", "wheelchair": "yes"}}, {"type": "node", "id": 907791833, "lat": 52.4491634, "lon": 13.5976937}, {"type": "node", "id": 907791835, "lat": 52.4489562, "lon": 13.5949322}, {"type": "node", "id": 907791839, "lat": 52.448953, "lon": 13.5958492}, {"type": "node", "id": 907791842, "lat": 52.4490939, "lon": 13.5940946}, {"type": "node", "id": 907791843, "lat": 52.4490888, "lon": 13.5960662}, {"type": "node", "id": 907791846, "lat": 52.4491599, "lon": 13.5945265}, {"type": "node", "id": 907791849, "lat": 52.4492335, "lon": 13.5960698}, {"type": "node", "id": 907791851, "lat": 52.448928, "lon": 13.5946092}, {"type": "node", "id": 1257809830, "lat": 52.4474716, "lon": 13.6274483, "tags": {"addr:city": "Berlin", "addr:country": "DE", "addr:housenumber": "5", "addr:postcode": "12587", "addr:street": "Scharnweberstra\u00dfe", "addr:suburb": "Friedrichshagen", "amenity": "bar", "indoor_seating": "yes", "name": "RFT Bar", "opening_hours": "Tu-Sa 19:00-01:00", "outdoor_seating": "yes", "smoking": "yes", "wheelchair": "no"}}, {"type": "node", "id": 1275881583, "lat": 52.449376, "lon": 13.5951294}, {"type": "node", "id": 1388207981, "lat": 52.4456594, "lon": 13.6251591, "tags": {"addr:city": "Berlin", "addr:country": "DE", "addr:housenumber": "10", "addr:postcode": "12587", "addr:street": "Josef-Nawrocki-Stra\u00dfe", "addr:suburb": "Friedrichshagen", "healthcare": "physiotherapist", "name": "Villa Wohlbefinden", "opening_hours": "\"nach Vereinbarung\""}}, {"type": "node", "id": 1388209334, "lat": 52.4446006, "lon": 13.6278019}, {"type": "node", "id": 1388212365, "lat": 52.4513044, "lon": 13.622765}, {"type": "node", "id": 1408523008, "lat": 52.4481949, "lon": 13.6246694, "tags": {"addr:city": "Berlin", "addr:country": "DE", "addr:housenumber": "11", "addr:street": "B\u00f6lschestra\u00dfe", "addr:suburb": "Friedrichshagen", "amenity": "pub", "check_date:opening_hours": "2024-02-10", "name": "Josef Heinrich", "opening_hours": "Mo-Su 14:00+", "wheelchair": "no"}}, {"type": "node", "id": 1549046098, "lat": 52.4511592, "lon": 13.6167607}, {"type": "node", "id": 1549046509, "lat": 52.4534381, "lon": 13.6026113}, {"type": "node", "id": 1549047204, "lat": 52.4555749, "lon": 13.6177728}, {"type": "node", "id": 1549047207, "lat": 52.4555846, "lon": 13.6178138}, {"type": "node", "id": 1549047233, "lat": 52.4558357, "lon": 13.61806}, {"type": "node", "id": 1549047240, "lat": 52.4558567, "lon": 13.6181492}, {"type": "node", "id": 1559866469, "lat": 52.4540287, "lon": 13.6248219, "tags": {"amenity": "cafe", "check_date:opening_hours": "2023-12-16", "indoor_seating": "yes", "name": "Dresdner Caf\u00e9", "opening_hours": "Tu-Fr 09:00-17:00; Sa 11:00-18:00; Su,Mo off", "operator": "Dresdner Feinb\u00e4cker", "outdoor_seating": "yes", "website": "https://www.dresdner-feinbaeckerei.de/", "wheelchair": "yes"}}, {"type": "node", "id": 1559866482, "lat": 52.4511587, "lon": 13.6262228}, {"type": "node", "id": 1559866487, "lat": 52.4511856, "lon": 13.6255806}, {"type": "node", "id": 1559866492, "lat": 52.4515271, "lon": 13.626267}, {"type": "node", "id": 1673246146, "lat": 52.448514, "lon": 13.6087638, "tags": {"addr:city": "Berlin", "addr:country": "DE", "addr:housenumber": "70", "addr:postcode": "12587", "addr:street": "M\u00fcggelseedamm", "addr:suburb": "Friedrichshagen", "amenity": "restaurant", "cuisine": "breakfast;bistro", "indoor_seating": "yes", "name": "Komb\u00fcse", "opening_hours": "Mo 07:30-10:00,17:00-22:00;Di-Fr 06:30-10:00,17:00-22:00; Sa,Su,PH 07:30-10:00", "outdoor_seating": "yes", "website": "http://komb\u00fcse.berlin"}}, {"type": "node", "id": 1726837028, "lat": 52.4453424, "lon": 13.6269699, "tags": {"addr:housenumber": "22", "addr:street": "Josef-Nawrocki-Stra\u00dfe", "amenity": "restaurant", "check_date": "2025-04-07", "cuisine": "french", "diet:vegan": "no", "diet:vegetarian": "yes", "email": "info@domaines-berlin.de", "indoor_seating": "yes", "name": "Domaines", "opening_hours": "Mo-Su 12:00-22:00", "outdoor_seating": "yes", "phone": "+49 30 64091879", "smoking": "outside", "website": "http://www.domaines-berlin.de"}}, {"type": "node", "id": 1883476696, "lat": 52.447991, "lon": 13.6348993}, {"type": "node", "id": 1883476697, "lat": 52.447986, "lon": 13.6351676}, {"type": "node", "id": 1883476711, "lat": 52.4482051, "lon": 13.6348956}, {"type": "node", "id": 1883476713, "lat": 52.4482071, "lon": 13.6351588}, {"type": "node", "id": 1895843817, "lat": 52.448633, "lon": 13.6241801, "tags": {"addr:city": "Berlin", "addr:housenumber": "126", "addr:postcode": "12587", "addr:street": "B\u00f6lschestra\u00dfe", "addr:suburb": "Friedrichshagen", "amenity": "restaurant", "check_date:opening_hours": "2021-12-23", "cuisine": "asian", "indoor_seating": "yes", "name": "S\u00fcdOstAsien", "opening_hours": "Tu-Su 12:00-22:00", "outdoor_seating": "yes", "phone": "+49306412909", "website": "https://suedostasien-berlin.de", "wheelchair": "no"}}, {"type": "node", "id": 1917019358, "lat": 52.4477609, "lon": 13.6246356, "tags": {"addr:city": "Berlin", "addr:country": "DE", "addr:housenumber": "7", "addr:postcode": "12587", "addr:street": "B\u00f6lschestra\u00dfe", "addr:suburb": "Friedrichshagen", "amenity": "cafe", "contact:email": "friedrichshagen@mokkafee.de", "contact:facebook": "https://www.facebook.com/MokkafeeFriedrichshagen/", "contact:phone": "+49 30 64091377", "cuisine": "coffee_shop;cake", "diet:vegetarian": "yes", "name": "Mokkafee", "opening_hours": "We-Su 09:00-18:00", "operator": "Franka Ziegler", "outdoor_seating": "yes", "toilets:wheelchair": "yes", "website": "https://mokkafee.de", "wheelchair": "limited", "wheelchair:description": "Am Eingang befindet sich eine Stufe, es ist jedoch eine Rampe vorhanden! Das WC ist behindertengerecht, jedoch nur von vorn anfahrbar."}}, {"type": "node", "id": 2018272608, "lat": 52.4450063, "lon": 13.6262462}, {"type": "node", "id": 2018272609, "lat": 52.4455319, "lon": 13.6276961}, {"type": "node", "id": 2018272610, "lat": 52.4456739, "lon": 13.6268239}, {"type": "node", "id": 2018272611, "lat": 52.4457038, "lon": 13.6266694}, {"type": "node", "id": 2119662648, "lat": 52.4576744, "lon": 13.6248106}, {"type": "node", "id": 2119662649, "lat": 52.4577452, "lon": 13.6251054}, {"type": "node", "id": 2119662652, "lat": 52.4578458, "lon": 13.6166868}, {"type": "node", "id": 2119662658, "lat": 52.4582625, "lon": 13.6255921}, {"type": "node", "id": 2119662665, "lat": 52.4595663, "lon": 13.6255015}, {"type": "node", "id": 2119662683, "lat": 52.4602612, "lon": 13.6247816}, {"type": "node", "id": 2135687642, "lat": 52.4538097, "lon": 13.6021154}, {"type": "node", "id": 2168432533, "lat": 52.4559166, "lon": 13.6177399}, {"type": "node", "id": 2168432537, "lat": 52.4559645, "lon": 13.6177096}, {"type": "node", "id": 2438713179, "lat": 52.4516808, "lon": 13.6245174, "tags": {"addr:city": "Berlin", "addr:country": "DE", "addr:housenumber": "105", "addr:postcode": "12587", "addr:street": "B\u00f6lschestra\u00dfe", "addr:suburb": "Friedrichshagen", "amenity": "restaurant", "check_date": "2023-07-13", "cuisine": "italian", "diet:vegan": "no", "diet:vegetarian": "yes", "indoor_seating": "yes", "name": "Tresoli", "opening_hours": "Mo-Su 11:30-00:00", "outdoor_seating": "yes", "phone": "+49 30 64329915", "website": "http://www.tresoli-berlin.de/", "wheelchair": "no"}}, {"type": "node", "id": 2507707401, "lat": 52.4439129, "lon": 13.6189868}, {"type": "node", "id": 2507707403, "lat": 52.4438184, "lon": 13.6190248}, {"type": "node", "id": 2507707405, "lat": 52.4437788, "lon": 13.6187612}, {"type": "node", "id": 2507707408, "lat": 52.4438733, "lon": 13.6187232}, {"type": "node", "id": 2613470004, "lat": 52.4481113, "lon": 13.6246639, "tags": {"addr:city": "Berlin", "addr:country": "DE", "addr:housenumber": "11", "addr:postcode": "12587", "addr:street": "B\u00f6lschestra\u00dfe", "addr:suburb": "Friedrichshagen", "amenity": "cafe", "cuisine": "coffee_shop;cake", "internet_access": "no", "level": "0", "name": "Heinrichs Kitchen", "opening_hours": "Th-Mo 09:30-17:00", "outdoor_seating": "yes", "payment:cash": "yes", "phone": "+49 30 28031151", "reservation": "yes", "website": "https://heinrichskitchen.wordpress.com/", "wheelchair": "no"}}, {"type": "node", "id": 2613470005, "lat": 52.4480426, "lon": 13.6249968, "tags": {"amenity": "restaurant", "check_date": "2025-04-07", "email": "kid@creole.de", "name": "Kid Creole", "opening_hours": "Mo, We-Su 16:00-24:00", "phone": "+49 30 65 07 66 80", "website": "https://www.kidcreole.de", "wheelchair": "yes"}}, {"type": "node", "id": 2671139561, "lat": 52.4502045, "lon": 13.6249039, "tags": {"addr:city": "Berlin", "addr:country": "DE", "addr:housenumber": "27", "addr:postcode": "12587", "addr:street": "B\u00f6lschestra\u00dfe", "addr:suburb": "Friedrichshagen", "amenity": "doctors", "check_date": "2024-05-26", "healthcare": "doctor", "healthcare:speciality": "general", "name": "Praxis am Marktplatz", "opening_hours": "Mo 08:00-12:00,13:00-17:00; Tu-We,Fr 08:00-12:00; Th 12:00-18:00; Sa-Su off", "operator": "Carmen Blandow-Scholta, Frank Tastarczyk", "phone": "+49 30 6458947", "website": "https://www.praxis-friedrichshagen.de/", "wheelchair": "no"}}, {"type": "node", "id": 2770436286, "lat": 52.4490237, "lon": 13.5984954}, {"type": "node", "id": 2770436290, "lat": 52.4490676, "lon": 13.5981801}, {"type": "node", "id": 2770436291, "lat": 52.4490032, "lon": 13.5945564}, {"type": "node", "id": 2770436303, "lat": 52.4492506, "lon": 13.5972622}, {"type": "node", "id": 2770436305, "lat": 52.4492803, "lon": 13.596164}, {"type": "node", "id": 2788669423, "lat": 52.4465965, "lon": 13.6329022}, {"type": "node", "id": 2788669424, "lat": 52.4466849, "lon": 13.6331204}, {"type": "node", "id": 2788669425, "lat": 52.44697, "lon": 13.6325869}, {"type": "node", "id": 2788669426, "lat": 52.4470433, "lon": 13.6327868}, {"type": "node", "id": 2835415001, "lat": 52.4556777, "lon": 13.6255686, "tags": {"addr:city": "Berlin", "addr:country": "DE", "addr:housenumber": "66", "addr:postcode": "12587", "addr:street": "B\u00f6lschestra\u00dfe", "addr:suburb": "Friedrichshagen", "amenity": "restaurant", "check_date:opening_hours": "2023-11-25", "contact:email": "Veracruz-GmbH@web.de", "contact:mobile": "+49 175 4955701", "contact:phone": "+49 30 65497394", "contact:website": "https://veracruz-berlin.de/", "cuisine": "asian;meat;beef;tacos;curry;mexican", "diet:vegan": "no", "diet:vegetarian": "yes", "name": "Veracruz", "opening_hours": "Mo-Su,PH 11:00+", "toilets": "yes", "toilets:wheelchair": "no", "wheelchair": "limited"}}, {"type": "node", "id": 2835417401, "lat": 52.4561568, "lon": 13.6256296, "tags": {"addr:city": "Berlin", "addr:country": "DE", "addr:housenumber": "68", "addr:postcode": "12587", "addr:street": "B\u00f6lschestra\u00dfe", "addr:suburb": "Friedrichshagen", "amenity": "pub", "check_date:opening_hours": "2024-10-16", "contact:email": "info@friedrichskeller-2017.de", "contact:fax": "+49 30 23528646", "contact:phone": "+49 30 23528643", "contact:website": "https://www.friedrichskeller-2017.de/", "indoor_seating": "yes", "name": "Friedrichskeller", "opening_hours": "Tu-Sa 12:00+; Su 11:00+", "opening_hours:signed": "no", "outdoor_seating": "yes", "wheelchair": "yes"}}, {"type": "node", "id": 2836947133, "lat": 52.4562151, "lon": 13.6250668, "tags": {"addr:city": "Berlin", "addr:country": "DE", "addr:housenumber": "75", "addr:postcode": "12587", "addr:street": "B\u00f6lschestra\u00dfe", "addr:suburb": "Friedrichshagen", "amenity": "cafe", "check_date:opening_hours": "2024-06-09", "diet:vegan": "no", "diet:vegetarian": "yes", "indoor_seating": "no", "name": "Softeis und Kugeleis", "opening_hours:signed": "no", "outdoor_seating": "yes", "wheelchair": "yes"}}, {"type": "node", "id": 2836983901, "lat": 52.456794, "lon": 13.624964, "tags": {"addr:city": "Berlin", "addr:housenumber": "484", "addr:postcode": "12587", "addr:street": "F\u00fcrstenwalder Damm", "addr:suburb": "Friedrichshagen", "amenity": "restaurant", "check_date": "2025-05-09", "name": "UnfassBar", "source": "Dakota 20", "wheelchair": "yes"}}, {"type": "node", "id": 2836987701, "lat": 52.4566497, "lon": 13.6251513, "tags": {"addr:city": "Berlin", "addr:country": "DE", "addr:housenumber": "72", "addr:postcode": "12587", "addr:street": "B\u00f6lschestra\u00dfe", "addr:suburb": "Friedrichshagen", "amenity": "fast_food", "cuisine": "burger;kebab;oriental", "diet:vegan": "no", "diet:vegetarian": "yes", "drive_through": "no", "indoor_seating": "yes", "name": "B\u00f6lsche Imbiss", "name:ru": "\u0417\u0430\u043a\u0443\u0441\u043e\u0447\u043d\u0430\u044f B\u00f6lsche", "opening_hours": "24/7", "outdoor_seating": "sidewalk", "wheelchair": "yes"}}, {"type": "node", "id": 2836988901, "lat": 52.4564414, "lon": 13.6251105, "tags": {"addr:city": "Berlin", "addr:country": "DE", "addr:housenumber": "72", "addr:postcode": "12587", "addr:street": "B\u00f6lschestra\u00dfe", "addr:suburb": "Friedrichshagen", "amenity": "fast_food", "check_date": "2025-04-04", "check_date:opening_hours": "2025-04-04", "contact:website": "https://thueringer-ritter.de/", "cuisine": "german", "diet:vegetarian": "no", "drive_through": "no", "indoor_seating": "yes", "name": "Th\u00fcringer Ritter Rostbratwurst", "opening_hours": "Mo-Fr 09:00-18:30; Sa 09:00-16:00", "outdoor_seating": "sidewalk", "source": "Dakota 20", "wheelchair": "yes"}}, {"type": "node", "id": 2837536021, "lat": 52.4538748, "lon": 13.6253455, "tags": {"addr:city": "Berlin", "addr:country": "DE", "addr:housenumber": "54", "addr:postcode": "12587", "addr:street": "B\u00f6lschestra\u00dfe", "addr:suburb": "Friedrichshagen", "amenity": "cafe", "check_date": "2024-05-24", "cuisine": "german;italian", "name": "H\u00f6rnchen", "phone": "+49 30 76006626", "shop": "bakery", "website": "https://www.cafe-hoernchen-berlin.de/"}}, {"type": "node", "id": 2844631091, "lat": 52.4490866, "lon": 13.5945525}, {"type": "node", "id": 2844645400, "lat": 52.4493631, "lon": 13.6273073, "tags": {"addr:city": "Berlin", "addr:country": "DE", "addr:housenumber": "104", "addr:postcode": "12587", "addr:street": "Scharnweberstra\u00dfe", "addr:suburb": "Friedrichshagen", "contact:email": "praxis@pt-friedrichshagen.de", "contact:instagram": "https://www.instagram.com/pt_friedrichshagen/", "contact:mobile": "+49 170 3879652", "contact:phone": "+49 30 23618802", "contact:website": "https://pt-friedrichshagen.de/", "healthcare": "physiotherapist", "healthcare:speciality": "massage_therapy;occupational;osteopathy", "name": "p|t Friedrichshagen", "opening_hours": "\"nach Vereinbarung\"", "operator": "Manuela Fa\u00dfler"}}, {"type": "node", "id": 2844647260, "lat": 52.4463133, "lon": 13.6217226}, {"type": "node", "id": 2844654663, "lat": 52.4525491, "lon": 13.6251897, "tags": {"addr:city": "Berlin", "addr:country": "DE", "addr:housenumber": "43", "addr:postcode": "12587", "addr:street": "B\u00f6lschestra\u00dfe", "addr:suburb": "Friedrichshagen", "amenity": "restaurant", "check_date:opening_hours": "2023-11-25", "contact:website": "http://www.mauna-kea.de/", "craft": "caterer", "cuisine": "breakfast;international", "diet:vegan": "yes", "diet:vegetarian": "yes", "indoor_seating": "yes", "name": "Mauna Kea", "opening_hours": "Mo-Su 08:00-17:00", "outdoor_seating": "yes", "phone": "+493039202336", "toilets:wheelchair": "no", "wheelchair": "no"}}, {"type": "node", "id": 2844659327, "lat": 52.4532819, "lon": 13.6291935, "tags": {"addr:city": "Berlin", "addr:country": "DE", "addr:housenumber": "9", "addr:postcode": "12587", "addr:street": "Klutstra\u00dfe", "addr:suburb": "Friedrichshagen", "amenity": "dentist", "contact:email": "peterzahl@t-online.de", "contact:phone": "+49 30 645 1552", "contact:website": "http://www.zahnarztpraxis-friedrichshagen.de/", "healthcare": "dentist", "name": "Peter Zahl", "opening_hours": "Mo 14:00-19:00; Tu 08:00-13:00,14:00-19:00; We 08:00-13:00; Th 08:00-13:00,14:00-19:00; Fr 08:00-14:00"}}, {"type": "node", "id": 2869338978, "lat": 52.4447389, "lon": 13.6259437}, {"type": "node", "id": 2908241701, "lat": 52.4585979, "lon": 13.6246402, "tags": {"source": "Dakota 20"}}, {"type": "node", "id": 2974915280, "lat": 52.4558227, "lon": 13.6286805}, {"type": "node", "id": 2974915494, "lat": 52.4559193, "lon": 13.6286988}, {"type": "node", "id": 3014236357, "lat": 52.4458077, "lon": 13.6219085}, {"type": "node", "id": 3014236408, "lat": 52.446591, "lon": 13.6272818}, {"type": "node", "id": 3014236414, "lat": 52.4466755, "lon": 13.6272841}, {"type": "node", "id": 3014236429, "lat": 52.4466542, "lon": 13.6274021}, {"type": "node", "id": 3014236433, "lat": 52.4457926, "lon": 13.6220169}, {"type": "node", "id": 3014236459, "lat": 52.4457453, "lon": 13.6220394}, {"type": "node", "id": 3014236478, "lat": 52.446817, "lon": 13.6327144}, {"type": "node", "id": 3014236492, "lat": 52.4465854, "lon": 13.6274023}, {"type": "node", "id": 3014236505, "lat": 52.4461525, "lon": 13.6217443}, {"type": "node", "id": 3014236560, "lat": 52.446903, "lon": 13.6326424}, {"type": "node", "id": 3089231948, "lat": 52.4532091, "lon": 13.6360585}, {"type": "node", "id": 3089231949, "lat": 52.453241, "lon": 13.6358581}, {"type": "node", "id": 3089231950, "lat": 52.4534752, "lon": 13.6364061}, {"type": "node", "id": 3089231951, "lat": 52.4537488, "lon": 13.6349234}, {"type": "node", "id": 3089231952, "lat": 52.4539558, "lon": 13.6364079}, {"type": "node", "id": 3089231953, "lat": 52.4540008, "lon": 13.6361559}, {"type": "node", "id": 3089231954, "lat": 52.4539981, "lon": 13.634682}, {"type": "node", "id": 3089231956, "lat": 52.4540458, "lon": 13.634675}, {"type": "node", "id": 3089231957, "lat": 52.4541419, "lon": 13.6353657}, {"type": "node", "id": 3089231961, "lat": 52.4541737, "lon": 13.6351977}, {"type": "node", "id": 3089301637, "lat": 52.4515627, "lon": 13.6254676}, {"type": "node", "id": 3089301646, "lat": 52.451846, "lon": 13.6259998}, {"type": "node", "id": 3089301647, "lat": 52.4518473, "lon": 13.6259423}, {"type": "node", "id": 3107384641, "lat": 52.4477194, "lon": 13.6275202, "tags": {"addr:city": "Berlin", "addr:housenumber": "6", "addr:postcode": "12587", "addr:street": "Scharnweberstra\u00dfe", "disused:name": "Cafe zum Suppenteufel", "healthcare": "podiatrist", "name": "Barfu\u00df durch den Wald", "opening_hours": "Mo,Th 09:00-12:00,13:00-19:00; Tu 09:00-14:00", "wheelchair": "no", "wheelchair:description": "2 Stufen am Eingang"}}, {"type": "node", "id": 3129375377, "lat": 52.4469173, "lon": 13.6329049}, {"type": "node", "id": 3129375484, "lat": 52.4470192, "lon": 13.6328109}, {"type": "node", "id": 3129375657, "lat": 52.447172, "lon": 13.6387615}, {"type": "node", "id": 3135167477, "lat": 52.4561493, "lon": 13.6226267}, {"type": "node", "id": 3135167486, "lat": 52.4561712, "lon": 13.622723}, {"type": "node", "id": 3135167512, "lat": 52.4562606, "lon": 13.6225613}, {"type": "node", "id": 3135167517, "lat": 52.4562832, "lon": 13.622659}, {"type": "node", "id": 3294052227, "lat": 52.4551665, "lon": 13.6255086, "tags": {"addr:city": "Berlin", "addr:housenumber": "63", "addr:postcode": "12587", "addr:street": "B\u00f6lschestra\u00dfe", "addr:suburb": "Friedrichshagen", "brand": "Alnatura", "brand:wikidata": "Q876811", "brand:wikipedia": "de:Alnatura", "check_date": "2024-05-26", "check_date:opening_hours": "2023-11-25", "name": "Alnatura Super Natur Markt", "opening_hours": "Mo-Sa 08:00-20:00", "organic": "only", "payment:cash": "yes", "payment:credit_cards": "yes", "payment:debit_cards": "yes", "phone": "+493060033397", "shop": "supermarket", "short_name": "Alnatura", "wheelchair": "yes"}}, {"type": "node", "id": 3294052228, "lat": 52.4466024, "lon": 13.6239054, "tags": {"addr:postcode": "12587", "amenity": "restaurant", "contact:phone": "+49 30 37446769", "contact:website": "http://www.braeustuebl-mueggelsee.de/", "cuisine": "german", "delivery": "17:00-21:00", "indoor_seating": "yes", "name": "Braust\u00fcbl", "opening_hours": "12:00-21:00", "outdoor_seating": "yes"}}, {"type": "node", "id": 3294052232, "lat": 52.44919, "lon": 13.6242535, "tags": {"amenity": "restaurant", "check_date:opening_hours": "2023-02-21", "cuisine": "japanese", "diet:vegan": "no", "diet:vegetarian": "yes", "indoor_seating": "yes", "name": "Kodama", "opening_hours": "Mo-Su 12:00-22:00", "outdoor_seating": "yes", "payment:credit_cards": "yes", "payment:debit_cards": "yes", "phone": "+49 30 65482955", "wheelchair": "no"}}, {"type": "node", "id": 3294052245, "lat": 52.4517673, "lon": 13.6245364, "tags": {"addr:city": "Berlin", "addr:housenumber": "104", "addr:postcode": "12587", "addr:street": "B\u00f6lschestra\u00dfe", "amenity": "restaurant", "check_date:opening_hours": "2022-10-17", "cuisine": "asian", "diet:vegan": "yes", "diet:vegetarian": "yes", "indoor_seating": "yes", "name": "Vegan Dimo", "opening_hours": "24/7", "outdoor_seating": "yes", "phone": "+491741507397", "smoking": "no", "website": "https://www.vegan-dimo-berlin.de/", "wheelchair": "yes"}}, {"type": "node", "id": 3329162980, "lat": 52.457519, "lon": 13.6210088}, {"type": "node", "id": 3329162984, "lat": 52.4576928, "lon": 13.620997}, {"type": "node", "id": 3329162986, "lat": 52.4577258, "lon": 13.6228543}, {"type": "node", "id": 3329162987, "lat": 52.4577785, "lon": 13.6241779}, {"type": "node", "id": 3329162988, "lat": 52.4578084, "lon": 13.6230034}, {"type": "node", "id": 3329163002, "lat": 52.4590051, "lon": 13.6199853}, {"type": "node", "id": 3352133079, "lat": 52.4577906, "lon": 13.6249796}, {"type": "node", "id": 3352133081, "lat": 52.4578012, "lon": 13.6248277}, {"type": "node", "id": 3352133085, "lat": 52.4586986, "lon": 13.6251111}, {"type": "node", "id": 3352133996, "lat": 52.4588074, "lon": 13.6245267}, {"type": "node", "id": 3352134007, "lat": 52.4589111, "lon": 13.6249814}, {"type": "node", "id": 3352134052, "lat": 52.4598645, "lon": 13.6229731}, {"type": "node", "id": 3352221053, "lat": 52.4534493, "lon": 13.6029372}, {"type": "node", "id": 3352221054, "lat": 52.4534451, "lon": 13.6027909}, {"type": "node", "id": 3352221055, "lat": 52.4534591, "lon": 13.6033437}, {"type": "node", "id": 3352221056, "lat": 52.4534573, "lon": 13.6029366}, {"type": "node", "id": 3594321422, "lat": 52.4488367, "lon": 13.6218528}, {"type": "node", "id": 3594321424, "lat": 52.4488627, "lon": 13.6213026}, {"type": "node", "id": 3595164688, "lat": 52.4548458, "lon": 13.6208276}, {"type": "node", "id": 3595164689, "lat": 52.4548631, "lon": 13.6206059}, {"type": "node", "id": 3595164793, "lat": 52.4549111, "lon": 13.6206096}, {"type": "node", "id": 3596971545, "lat": 52.4537302, "lon": 13.616943}, {"type": "node", "id": 3597251045, "lat": 52.4517373, "lon": 13.616558}, {"type": "node", "id": 3597251051, "lat": 52.4535373, "lon": 13.6166867}, {"type": "node", "id": 3597337134, "lat": 52.4538781, "lon": 13.6169527}, {"type": "node", "id": 3609485590, "lat": 52.4510342, "lon": 13.6167549}, {"type": "node", "id": 3609599631, "lat": 52.4511777, "lon": 13.6229085}, {"type": "node", "id": 3609599632, "lat": 52.4511793, "lon": 13.6227825}, {"type": "node", "id": 3609599633, "lat": 52.4512038, "lon": 13.6227474}, {"type": "node", "id": 3609599634, "lat": 52.4512094, "lon": 13.622961}, {"type": "node", "id": 3609599635, "lat": 52.4512959, "lon": 13.622985}, {"type": "node", "id": 3609599666, "lat": 52.4551846, "lon": 13.6210515}, {"type": "node", "id": 3609599667, "lat": 52.4551994, "lon": 13.6206435}, {"type": "node", "id": 3609724220, "lat": 52.4545691, "lon": 13.6225272}, {"type": "node", "id": 3609724221, "lat": 52.4545933, "lon": 13.6219899}, {"type": "node", "id": 3609724223, "lat": 52.4547416, "lon": 13.6227527}, {"type": "node", "id": 3609724225, "lat": 52.4547845, "lon": 13.6219887}, {"type": "node", "id": 3609724231, "lat": 52.4548355, "lon": 13.6210124}, {"type": "node", "id": 3713580142, "lat": 52.4456823, "lon": 13.6303349}, {"type": "node", "id": 3713580143, "lat": 52.4456831, "lon": 13.6304083}, {"type": "node", "id": 3713580144, "lat": 52.4460535, "lon": 13.6303245}, {"type": "node", "id": 3713580145, "lat": 52.4460545, "lon": 13.6304256}, {"type": "node", "id": 3836098505, "lat": 52.4440882, "lon": 13.6273861}, {"type": "node", "id": 3836098506, "lat": 52.4441291, "lon": 13.6274752}, {"type": "node", "id": 3836098507, "lat": 52.4438657, "lon": 13.6276724}, {"type": "node", "id": 3836098508, "lat": 52.4438516, "lon": 13.6277188}, {"type": "node", "id": 3836098509, "lat": 52.4438469, "lon": 13.6277739}, {"type": "node", "id": 3836098510, "lat": 52.4439049, "lon": 13.627766}, {"type": "node", "id": 3836098511, "lat": 52.4438724, "lon": 13.6277745}, {"type": "node", "id": 3836098516, "lat": 52.4443175, "lon": 13.6280679}, {"type": "node", "id": 3879471138, "lat": 52.4528572, "lon": 13.6302097}, {"type": "node", "id": 3879471139, "lat": 52.4528621, "lon": 13.6305689}, {"type": "node", "id": 3890748434, "lat": 52.4475741, "lon": 13.6387882}, {"type": "node", "id": 4128423479, "lat": 52.4574939, "lon": 13.6192739}, {"type": "node", "id": 4303162854, "lat": 52.4442416, "lon": 13.6275765}, {"type": "node", "id": 4303162857, "lat": 52.4443424, "lon": 13.6269142}, {"type": "node", "id": 4345955659, "lat": 52.4468299, "lon": 13.6388763}, {"type": "node", "id": 4348856690, "lat": 52.4469419, "lon": 13.6274176, "tags": {"addr:housenumber": "2", "addr:street": "Scharnweberstra\u00dfe", "amenity": "restaurant", "diet:vegan": "yes", "diet:vegetarian": "yes", "indoor_seating": "yes", "name": "Friedrichshagener Hofk\u00fcche", "opening_hours": "\"nach Vereinbarung\"", "outdoor_seating": "yes", "smoking": "outside", "toilets:wheelchair": "no", "wheelchair": "no"}}, {"type": "node", "id": 4529160375, "lat": 52.4471661, "lon": 13.638899}, {"type": "node", "id": 4529160428, "lat": 52.4540556, "lon": 13.63489}, {"type": "node", "id": 4529160429, "lat": 52.4559515, "lon": 13.6287057}, {"type": "node", "id": 4529160431, "lat": 52.4557321, "lon": 13.6313646}, {"type": "node", "id": 4534465648, "lat": 52.4458163, "lon": 13.6288375}, {"type": "node", "id": 4534465649, "lat": 52.4458164, "lon": 13.6290654}, {"type": "node", "id": 4534465651, "lat": 52.4459014, "lon": 13.6288374}, {"type": "node", "id": 4534465652, "lat": 52.4459015, "lon": 13.6290653}, {"type": "node", "id": 4534550811, "lat": 52.4476917, "lon": 13.6396317, "tags": {"barrier": "bollard", "bollard": "fixed"}}, {"type": "node", "id": 4534550812, "lat": 52.4476928, "lon": 13.6390552}, {"type": "node", "id": 4534550818, "lat": 52.4485316, "lon": 13.6402328}, {"type": "node", "id": 4534550823, "lat": 52.4484004, "lon": 13.6391748}, {"type": "node", "id": 4534550855, "lat": 52.4484139, "lon": 13.6391782}, {"type": "node", "id": 4534550858, "lat": 52.4484575, "lon": 13.6392064}, {"type": "node", "id": 4534550868, "lat": 52.4485022, "lon": 13.6392554}, {"type": "node", "id": 4534550869, "lat": 52.4485299, "lon": 13.6392915}, {"type": "node", "id": 4534550870, "lat": 52.4485479, "lon": 13.6401968}, {"type": "node", "id": 4534550873, "lat": 52.4485686, "lon": 13.6401464}, {"type": "node", "id": 4534550877, "lat": 52.448549, "lon": 13.6393288}, {"type": "node", "id": 4534550879, "lat": 52.448563, "lon": 13.6393552}, {"type": "node", "id": 4534550883, "lat": 52.4485866, "lon": 13.6400889}, {"type": "node", "id": 4534550884, "lat": 52.448593, "lon": 13.6393905}, {"type": "node", "id": 4534550886, "lat": 52.4485988, "lon": 13.6394565}, {"type": "node", "id": 4534551089, "lat": 52.4486051, "lon": 13.6400205}, {"type": "node", "id": 4534551090, "lat": 52.448606, "lon": 13.6398153}, {"type": "node", "id": 4534551091, "lat": 52.4486076, "lon": 13.6399509}, {"type": "node", "id": 4552790894, "lat": 52.4534316, "lon": 13.6025376}, {"type": "node", "id": 4552790895, "lat": 52.4534209, "lon": 13.6021751}, {"type": "node", "id": 4552790896, "lat": 52.453434, "lon": 13.6021505}, {"type": "node", "id": 4552790897, "lat": 52.4534365, "lon": 13.6019309}, {"type": "node", "id": 4552790898, "lat": 52.453187, "lon": 13.6019453}, {"type": "node", "id": 4552790899, "lat": 52.4532146, "lon": 13.6025728}, {"type": "node", "id": 4552797041, "lat": 52.4538047, "lon": 13.6018982}, {"type": "node", "id": 4565324513, "lat": 52.4488854, "lon": 13.6293425}, {"type": "node", "id": 4565324514, "lat": 52.4485819, "lon": 13.6293477}, {"type": "node", "id": 4565324515, "lat": 52.4485787, "lon": 13.6290901}, {"type": "node", "id": 4565324516, "lat": 52.4487087, "lon": 13.6290896}, {"type": "node", "id": 4565324517, "lat": 52.4486831, "lon": 13.6282162}, {"type": "node", "id": 4565324518, "lat": 52.4488564, "lon": 13.6282039}, {"type": "node", "id": 4565332411, "lat": 52.4486174, "lon": 13.6351563}, {"type": "node", "id": 4565332413, "lat": 52.4487493, "lon": 13.6357121}, {"type": "node", "id": 4565332414, "lat": 52.4487338, "lon": 13.6357322}, {"type": "node", "id": 4565332415, "lat": 52.448763, "lon": 13.6356847}, {"type": "node", "id": 4579673297, "lat": 52.4442866, "lon": 13.6277778}, {"type": "node", "id": 4579673299, "lat": 52.4449267, "lon": 13.626112}, {"type": "node", "id": 4581843597, "lat": 52.4519376, "lon": 13.6259501}, {"type": "node", "id": 4581843598, "lat": 52.4519369, "lon": 13.6259651}, {"type": "node", "id": 4581843599, "lat": 52.4520624, "lon": 13.6259797}, {"type": "node", "id": 4581843600, "lat": 52.4520617, "lon": 13.6259945}, {"type": "node", "id": 4652740689, "lat": 52.455781, "lon": 13.6160802}, {"type": "node", "id": 4652740690, "lat": 52.4557616, "lon": 13.6161494}, {"type": "node", "id": 4652740691, "lat": 52.4557313, "lon": 13.6162088}, {"type": "node", "id": 4652740692, "lat": 52.4556852, "lon": 13.6162509}, {"type": "node", "id": 4652740693, "lat": 52.4556329, "lon": 13.6162881}, {"type": "node", "id": 4652740694, "lat": 52.4555877, "lon": 13.6162793}, {"type": "node", "id": 4652740695, "lat": 52.4555538, "lon": 13.616166}, {"type": "node", "id": 4652740696, "lat": 52.4555479, "lon": 13.616057}, {"type": "node", "id": 4652740697, "lat": 52.455592, "lon": 13.6159844}, {"type": "node", "id": 4652740698, "lat": 52.4557098, "lon": 13.6159655}, {"type": "node", "id": 4652740699, "lat": 52.4557772, "lon": 13.6160244}, {"type": "node", "id": 4715094290, "lat": 52.4546094, "lon": 13.6254347, "tags": {"addr:city": "Berlin", "addr:country": "DE", "addr:housenumber": "60", "addr:postcode": "12587", "addr:street": "B\u00f6lschestra\u00dfe", "addr:suburb": "Friedrichshagen", "amenity": "fast_food", "contact:facebook": "https://www.facebook.com/tanriverdi60/", "cuisine": "kebab;oriental", "name": "Tanriverdi's", "phone": "+493064095341", "website": "https://www.tanriverdis.de", "wheelchair": "no"}}, {"type": "node", "id": 4715153492, "lat": 52.4544602, "lon": 13.6254184, "tags": {"addr:city": "Berlin", "addr:country": "DE", "addr:housenumber": "59", "addr:inclusion": "actual", "addr:postcode": "12587", "addr:street": "B\u00f6lschestra\u00dfe", "addr:suburb": "Friedrichshagen", "amenity": "pharmacy", "check_date:opening_hours": "2023-11-25", "contact:email": "info@rathausapotheke.net", "contact:fax": "+49 30 64197854", "contact:phone": "+49 30 6455281", "contact:website": "https://www.rathausapotheke.net/", "healthcare": "pharmacy", "name": "Rathaus-Apotheke", "opening_hours": "Mo-Fr 08:00-19:00; Sa 09:00-14:00", "wheelchair": "yes"}}, {"type": "node", "id": 4715187589, "lat": 52.4561082, "lon": 13.6256211, "tags": {"addr:city": "Berlin", "addr:country": "DE", "addr:housenumber": "68", "addr:postcode": "12587", "addr:street": "B\u00f6lschestra\u00dfe", "addr:suburb": "Friedrichshagen", "amenity": "bar", "check_date:opening_hours": "2023-11-25", "indoor_seating": "yes", "name": "Sports Bar", "opening_hours:signed": "no", "outdoor_seating": "no", "toilets": "yes", "toilets:wheelchair": "no", "wheelchair": "limited"}}, {"type": "node", "id": 4715187590, "lat": 52.4554155, "lon": 13.6249716, "tags": {"amenity": "dentist", "check_date:opening_hours": "2024-01-24", "healthcare": "dentist", "name": "Sabine R\u00f6ser", "opening_hours": "Mo,Tu 13:00-19:00; We 08:00-14:00; Th 08:00-15:00", "phone": "+49 30 6455143", "website": "https://www.zahnarzt-friedrichshagen.berlin/", "wheelchair": "no"}}, {"type": "node", "id": 4738344272, "lat": 52.4462615, "lon": 13.621984}, {"type": "node", "id": 4738344273, "lat": 52.4462721, "lon": 13.6220439}, {"type": "node", "id": 4738344274, "lat": 52.4462018, "lon": 13.6220774}, {"type": "node", "id": 4738344275, "lat": 52.4461909, "lon": 13.6220162}, {"type": "node", "id": 4759383621, "lat": 52.4510639, "lon": 13.6255872, "tags": {"addr:city": "Berlin", "addr:housenumber": "31", "addr:postcode": "12587", "addr:street": "B\u00f6lschestra\u00dfe", "amenity": "restaurant", "cuisine": "regional", "delivery": "no", "name": "Zur Glocke", "opening_hours": "We-Fr 12:00-14:30, 17:00-21:00; Sa 12:00-21:00; Su 12:00-20:00", "outdoor_seating": "yes", "phone": "+49 (0)30 856 179 97", "source": "https://www.zur-glocke-friedrichshagen.de/", "toilets:wheelchair": "no", "website": "https://www.zur-glocke-friedrichshagen.de/", "wheelchair": "yes"}}, {"type": "node", "id": 4823213242, "lat": 52.4462907, "lon": 13.6294432, "tags": {"addr:city": "Berlin", "addr:country": "DE", "addr:housenumber": "208", "addr:postcode": "12587", "addr:street": "M\u00fcggelseedamm", "addr:suburb": "Friedrichshagen", "amenity": "dentist", "contact:website": "http://www.praxis-drboehme.de/", "healthcare": "dentist", "healthcare:speciality": "orthodontics", "name": "B\u00f6hme Andreas Dr. Fachpraxis f\u00fcr Kieferorthop\u00e4die", "opening_hours": "\"nach Vereinbarung\"", "phone": "+493064092028"}}, {"type": "node", "id": 4876409418, "lat": 52.4444242, "lon": 13.6278544}, {"type": "node", "id": 4894583122, "lat": 52.4465191, "lon": 13.6145858, "tags": {"addr:city": "Berlin", "addr:country": "DE", "addr:housenumber": "12", "addr:postcode": "12587", "addr:street": "Hahns M\u00fchle", "addr:suburb": "Friedrichshagen", "amenity": "restaurant", "contact:website": "http://www.hahnsmuehle.de", "cuisine": "regional", "diet:vegan": "yes", "diet:vegetarian": "yes", "name": "Gasthaus Hahn's M\u00fchle", "opening_hours": "We-Sa 11:30-21:00; Su,PH 11:30-20:00; Mo,Tu off", "outdoor_seating": "yes"}}, {"type": "node", "id": 4908859222, "lat": 52.4471161, "lon": 13.6254082, "tags": {"addr:housenumber": "171A", "addr:street": "M\u00fcggelseedamm", "amenity": "restaurant", "diet:vegetarian": "yes", "indoor_seating": "yes", "name": "Steak Schmiede", "opening_hours": "Mo,Tu 17:00-24:00; PH,We-Su 12:00-24:00", "outdoor_seating": "yes", "phone": "+49 30 92122992", "website": "http://steakschmiede.com/"}}, {"type": "node", "id": 4952843209, "lat": 52.445799, "lon": 13.622053}, {"type": "node", "id": 4952843211, "lat": 52.4462694, "lon": 13.6220285}, {"type": "node", "id": 4952843213, "lat": 52.4463182, "lon": 13.6217202}, {"type": "node", "id": 4952843215, "lat": 52.4463045, "lon": 13.6216794}, {"type": "node", "id": 4952843220, "lat": 52.4463029, "lon": 13.6216709}, {"type": "node", "id": 4952844721, "lat": 52.4463247, "lon": 13.6217873}, {"type": "node", "id": 4952844722, "lat": 52.4463026, "lon": 13.6217979}, {"type": "node", "id": 5003380585, "lat": 52.4555511, "lon": 13.6290917}, {"type": "node", "id": 5003380591, "lat": 52.4555629, "lon": 13.6295736}, {"type": "node", "id": 5003380596, "lat": 52.4555569, "lon": 13.629324}, {"type": "node", "id": 5003380597, "lat": 52.4556635, "lon": 13.631664}, {"type": "node", "id": 5003380598, "lat": 52.455664, "lon": 13.6317784}, {"type": "node", "id": 5003380599, "lat": 52.4556671, "lon": 13.6320052}, {"type": "node", "id": 5003380600, "lat": 52.4555059, "lon": 13.6319985}, {"type": "node", "id": 5003380601, "lat": 52.455505, "lon": 13.6322683}, {"type": "node", "id": 5003380602, "lat": 52.4556744, "lon": 13.6322624}, {"type": "node", "id": 5003380603, "lat": 52.4556807, "lon": 13.6325099}, {"type": "node", "id": 5003380604, "lat": 52.4554434, "lon": 13.632527}, {"type": "node", "id": 5003380605, "lat": 52.4554352, "lon": 13.6318238}, {"type": "node", "id": 5003380606, "lat": 52.4555154, "lon": 13.631826}, {"type": "node", "id": 5003380607, "lat": 52.4555643, "lon": 13.6318052}, {"type": "node", "id": 5003380608, "lat": 52.4556418, "lon": 13.6317182}, {"type": "node", "id": 5003380722, "lat": 52.4557591, "lon": 13.6286807}, {"type": "node", "id": 5003380723, "lat": 52.455731, "lon": 13.6289268}, {"type": "node", "id": 5037228530, "lat": 52.450855, "lon": 13.6238856, "tags": {"addr:city": "Berlin", "addr:housenumber": "113", "addr:postcode": "12587", "addr:street": "B\u00f6lschestra\u00dfe", "amenity": "clinic", "healthcare": "clinic", "name": "\u00c4rzte Zentrum am Markt"}}, {"type": "node", "id": 5582064996, "lat": 52.4599107, "lon": 13.6112426}, {"type": "node", "id": 5582064997, "lat": 52.4599811, "lon": 13.6115087}, {"type": "node", "id": 5582064998, "lat": 52.4601273, "lon": 13.6114045}, {"type": "node", "id": 5582064999, "lat": 52.4600569, "lon": 13.6111384}, {"type": "node", "id": 5595043862, "lat": 52.4597315, "lon": 13.6231159}, {"type": "node", "id": 5599915518, "lat": 52.4595641, "lon": 13.6113496, "tags": {"access": "yes", "leisure": "playground"}}, {"type": "node", "id": 5667325259, "lat": 52.4522143, "lon": 13.6263283}, {"type": "node", "id": 5667325260, "lat": 52.4516739, "lon": 13.6262803}, {"type": "node", "id": 5739245980, "lat": 52.4466691, "lon": 13.6274036}, {"type": "node", "id": 5918944907, "lat": 52.4576843, "lon": 13.6247049}, {"type": "node", "id": 6257475168, "lat": 52.4492921, "lon": 13.6242468, "tags": {"addr:city": "Berlin", "addr:country": "DE", "addr:housenumber": "121", "addr:inclusion": "actual", "addr:postcode": "12587", "addr:street": "B\u00f6lschestra\u00dfe", "addr:suburb": "Friedrichshagen", "amenity": "restaurant", "check_date": "2025-05-01", "contact:website": "http://www.simplyasia.de", "cuisine": "asian", "diet:vegan": "yes", "diet:vegetarian": "yes", "indoor_seating": "yes", "name": "Simply Asia", "opening_hours": "Mo-Su 12:00-22:00", "outdoor_seating": "yes", "payment:credit_cards": "yes", "payment:debit_cards": "yes", "phone": "+493043059908", "wheelchair": "no"}}, {"type": "node", "id": 6282334840, "lat": 52.4603403, "lon": 13.6239093}, {"type": "node", "id": 6282334841, "lat": 52.460654, "lon": 13.6247771}, {"type": "node", "id": 6322426329, "lat": 52.4548251, "lon": 13.6280042, "tags": {"amenity": "cafe", "name": "Rabu", "opening_hours": "PH,Mo-Su 18:00-03:00", "outdoor_seating": "yes"}}, {"type": "node", "id": 6363089904, "lat": 52.4500559, "lon": 13.6249023, "tags": {"addr:city": "Berlin", "addr:country": "DE", "addr:housenumber": "26", "addr:postcode": "12587", "addr:street": "B\u00f6lschestra\u00dfe", "addr:suburb": "Friedrichshagen", "amenity": "restaurant", "indoor_seating": "yes", "name": "Pane Vino", "opening_hours": "Mo-Su 12:00-23:00", "outdoor_seating": "yes", "phone": "+493064093555", "smoking": "outside", "toilets:wheelchair": "yes", "website": "https://www.restaurant-panevino.de", "wheelchair": "limited"}}, {"type": "node", "id": 6388113806, "lat": 52.4536238, "lon": 13.6253093, "tags": {"addr:city": "Berlin", "addr:country": "DE", "addr:housenumber": "51", "addr:postcode": "12587", "addr:street": "B\u00f6lschestra\u00dfe", "addr:suburb": "Friedrichshagen", "alt_name": "Casa Italiana (Die Spindel)", "amenity": "restaurant", "cuisine": "italian", "description": "Trattoria, Pizzeria", "indoor_seating": "yes", "name": "Casa Italiana", "opening_hours": "Mo-Su,PH 12:00-23:00", "outdoor_seating": "yes", "phone": "+49 65666040", "smoking": "outside", "website": "https://www.casa-italiana-berlin.de/", "wheelchair": "limited"}}, {"type": "node", "id": 6709089906, "lat": 52.4459197, "lon": 13.6304294}, {"type": "node", "id": 6709089907, "lat": 52.4459194, "lon": 13.6304033}, {"type": "node", "id": 6709089908, "lat": 52.4458673, "lon": 13.6304047}, {"type": "node", "id": 6709089909, "lat": 52.4458674, "lon": 13.6304133}, {"type": "node", "id": 6709089910, "lat": 52.4458133, "lon": 13.6304148}, {"type": "node", "id": 6709089911, "lat": 52.4458132, "lon": 13.6304069}, {"type": "node", "id": 6709089912, "lat": 52.4457588, "lon": 13.6304085}, {"type": "node", "id": 6709089913, "lat": 52.445759, "lon": 13.630423}, {"type": "node", "id": 6709089914, "lat": 52.445715, "lon": 13.6304242}, {"type": "node", "id": 6709089915, "lat": 52.4457148, "lon": 13.6304074}, {"type": "node", "id": 6774844201, "lat": 52.4489566, "lon": 13.5945471}, {"type": "node", "id": 6787970771, "lat": 52.4455739, "lon": 13.6274531}, {"type": "node", "id": 7098138245, "lat": 52.4499521, "lon": 13.6249254, "tags": {"addr:housenumber": "25", "addr:street": "B\u00f6lschestra\u00dfe", "amenity": "cafe", "check_date:opening_hours": "2022-10-19", "contact:phone": "+49 30 645 37 57", "indoor_seating": "yes", "last_check": "2019-12-31", "name": "Eiscafe Klatsch", "opening_hours": "Mo-Su 10:00-18:00", "outdoor_seating": "yes", "wheelchair": "no"}}, {"type": "node", "id": 7508709233, "lat": 52.453131, "lon": 13.6305697}, {"type": "node", "id": 7509222020, "lat": 52.4531202, "lon": 13.6302324}, {"type": "node", "id": 7509222021, "lat": 52.4528679, "lon": 13.6305374}, {"type": "node", "id": 7509222022, "lat": 52.4528597, "lon": 13.6302134}, {"type": "node", "id": 7509222023, "lat": 52.4531202, "lon": 13.6301967}, {"type": "node", "id": 7509222025, "lat": 52.4531398, "lon": 13.6301891}, {"type": "node", "id": 7873148673, "lat": 52.4568266, "lon": 13.6147709}, {"type": "node", "id": 7873148674, "lat": 52.4568078, "lon": 13.6147803}, {"type": "node", "id": 7873148675, "lat": 52.4567874, "lon": 13.6147575}, {"type": "node", "id": 7873148676, "lat": 52.4568119, "lon": 13.6142398}, {"type": "node", "id": 7873148677, "lat": 52.4569304, "lon": 13.6142023}, {"type": "node", "id": 7954983980, "lat": 52.4492603, "lon": 13.5960916}, {"type": "node", "id": 7954983981, "lat": 52.449273, "lon": 13.5961157}, {"type": "node", "id": 8146240364, "lat": 52.4541755, "lon": 13.6327189, "tags": {"addr:city": "Berlin", "addr:country": "DE", "addr:housenumber": "33", "addr:postcode": "12587", "addr:street": "Breestpromenade", "addr:suburb": "Friedrichshagen", "amenity": "restaurant", "check_date:opening_hours": "2022-04-19", "contact:facebook": "https://de-de.facebook.com/Lange-Kerls-558255267902496/", "name": "Lange Kerls", "opening_hours": "15:00-24:00", "phone": "+49 30 28612482"}}, {"type": "node", "id": 8261376022, "lat": 52.4449674, "lon": 13.6261605, "tags": {"amenity": "fast_food", "diet:vegan": "yes", "diet:vegetarian": "yes", "name": "Restaurant Ehrlich", "phone": "+491636379231", "website": "https://www.restaurant-ehrlich.de/Startseite/"}}, {"type": "node", "id": 8913626619, "lat": 52.4521833, "lon": 13.6022591, "tags": {"check_date:opening_hours": "2023-12-27", "name": "Einkaufsmarkt", "opening_hours": "Mo-Fr 08:00-18:00; Sa 08:00-12:30", "shop": "supermarket", "wheelchair": "yes"}}, {"type": "node", "id": 8946286603, "lat": 52.4514415, "lon": 13.6326382}, {"type": "node", "id": 9362866627, "lat": 52.4527347, "lon": 13.6282771, "tags": {"addr:city": "Berlin", "addr:housenumber": "44", "addr:postcode": "12587", "addr:street": "Scharnweberstra\u00dfe", "amenity": "dentist", "email": "zahnarztpraxislechler-ulrike@freenet.de", "healthcare": "dentist", "level": "0", "name": "Ulrike Ariane Lechler", "opening_hours": "Mo 13:00-18:00; Tu,Th 08:00-12:00; We 13:00-19:00", "phone": "+49306455563", "website": "http://zahnarzt-friedrichshagen.de/"}}, {"type": "node", "id": 9492080592, "lat": 52.4507255, "lon": 13.6321032, "tags": {"addr:city": "Berlin", "addr:country": "DE", "addr:housenumber": "33", "addr:postcode": "12587", "addr:street": "Rahnsdorfer Stra\u00dfe", "addr:suburb": "Friedrichshagen", "amenity": "doctors", "check_date": "2024-08-19", "healthcare": "doctor", "name": "Dr. Wulf Vehmeyer", "opening_hours": "Mo-Sa 08:00-10:30, 11:30-12:30, Mo,Th 15:00-16:30 \"Akutsprechstunde\"", "phone": "+49306455047"}}, {"type": "node", "id": 9665480882, "lat": 52.4540803, "lon": 13.6349543}, {"type": "node", "id": 9665480901, "lat": 52.4536022, "lon": 13.6364066}, {"type": "node", "id": 9665480902, "lat": 52.4540618, "lon": 13.6349061}, {"type": "node", "id": 9665480906, "lat": 52.4536226, "lon": 13.6364067}, {"type": "node", "id": 9665485718, "lat": 52.4541277, "lon": 13.635445}, {"type": "node", "id": 9665485735, "lat": 52.4537472, "lon": 13.6348841}, {"type": "node", "id": 9665485736, "lat": 52.4537628, "lon": 13.6348412}, {"type": "node", "id": 9665485737, "lat": 52.4537971, "lon": 13.634801}, {"type": "node", "id": 9665485738, "lat": 52.4539622, "lon": 13.6346917}, {"type": "node", "id": 9665485739, "lat": 52.4539213, "lon": 13.6347044}, {"type": "node", "id": 9665485740, "lat": 52.4538666, "lon": 13.6347366}, {"type": "node", "id": 9665485741, "lat": 52.4533758, "lon": 13.6361743}, {"type": "node", "id": 9665485742, "lat": 52.4533537, "lon": 13.6361884}, {"type": "node", "id": 9665485743, "lat": 52.4533239, "lon": 13.6361944}, {"type": "node", "id": 9665485744, "lat": 52.4533901, "lon": 13.6361589}, {"type": "node", "id": 9665485745, "lat": 52.4534481, "lon": 13.6362373}, {"type": "node", "id": 9665485746, "lat": 52.4534477, "lon": 13.6363748}, {"type": "node", "id": 9665485747, "lat": 52.453299, "lon": 13.6361864}, {"type": "node", "id": 9665485841, "lat": 52.4538458, "lon": 13.6167096}, {"type": "node", "id": 9665485882, "lat": 52.4537396, "lon": 13.6171341}, {"type": "node", "id": 9665485883, "lat": 52.4536622, "lon": 13.6171319}, {"type": "node", "id": 9665485884, "lat": 52.4536485, "lon": 13.6169681}, {"type": "node", "id": 9665485899, "lat": 52.4537148, "lon": 13.616973}, {"type": "node", "id": 9665485900, "lat": 52.4537358, "lon": 13.6169884}, {"type": "node", "id": 9665485901, "lat": 52.4537395, "lon": 13.6170159}, {"type": "node", "id": 9665485902, "lat": 52.4537407, "lon": 13.6170816}, {"type": "node", "id": 9937613702, "lat": 52.4477453, "lon": 13.6403226}, {"type": "node", "id": 9937613704, "lat": 52.4485044, "lon": 13.6402699}, {"type": "node", "id": 9937613705, "lat": 52.4484689, "lon": 13.6403187}, {"type": "node", "id": 10146995209, "lat": 52.4514346, "lon": 13.6326386}, {"type": "node", "id": 10147555149, "lat": 52.4466337, "lon": 13.6329241}, {"type": "node", "id": 10147555150, "lat": 52.4466283, "lon": 13.6329807}, {"type": "node", "id": 10147555151, "lat": 52.4466482, "lon": 13.63296}, {"type": "node", "id": 10147555152, "lat": 52.4466138, "lon": 13.632945}, {"type": "node", "id": 10154377141, "lat": 52.4487765, "lon": 13.6351184}, {"type": "node", "id": 10213524863, "lat": 52.4531489, "lon": 13.6305418}, {"type": "node", "id": 10213524905, "lat": 52.4452212, "lon": 13.6277177}, {"type": "node", "id": 10213524906, "lat": 52.4451614, "lon": 13.6277972}, {"type": "node", "id": 10213524907, "lat": 52.4449451, "lon": 13.6279897}, {"type": "node", "id": 10213524908, "lat": 52.4448091, "lon": 13.6280815}, {"type": "node", "id": 10213524909, "lat": 52.4442703, "lon": 13.6281519}, {"type": "node", "id": 10305072562, "lat": 52.4504449, "lon": 13.5962778}, {"type": "node", "id": 10305072563, "lat": 52.4504602, "lon": 13.5961173}, {"type": "node", "id": 10305072564, "lat": 52.4503852, "lon": 13.5960501}, {"type": "node", "id": 10305072565, "lat": 52.450355, "lon": 13.5963252}, {"type": "node", "id": 10305072566, "lat": 52.4503645, "lon": 13.5963314}, {"type": "node", "id": 10305072567, "lat": 52.4503378, "lon": 13.5969118}, {"type": "node", "id": 10305072568, "lat": 52.4502575, "lon": 13.5977859}, {"type": "node", "id": 10305072569, "lat": 52.4502252, "lon": 13.5980194}, {"type": "node", "id": 10305072570, "lat": 52.4501266, "lon": 13.5985346}, {"type": "node", "id": 10305072571, "lat": 52.4500897, "lon": 13.598796}, {"type": "node", "id": 10305072572, "lat": 52.4500814, "lon": 13.5989534}, {"type": "node", "id": 10305072573, "lat": 52.4501275, "lon": 13.5992368}, {"type": "node", "id": 10305072574, "lat": 52.4501689, "lon": 13.5993435}, {"type": "node", "id": 10305072575, "lat": 52.4502296, "lon": 13.5992871}, {"type": "node", "id": 10305072576, "lat": 52.450174, "lon": 13.5991244}, {"type": "node", "id": 10305072577, "lat": 52.450154, "lon": 13.5990219}, {"type": "node", "id": 10305072578, "lat": 52.4501414, "lon": 13.5989005}, {"type": "node", "id": 10305072579, "lat": 52.4501431, "lon": 13.598846}, {"type": "node", "id": 10305072580, "lat": 52.4501551, "lon": 13.5987143}, {"type": "node", "id": 10305072581, "lat": 52.4501746, "lon": 13.5986005}, {"type": "node", "id": 10305072582, "lat": 52.4503219, "lon": 13.5977692}, {"type": "node", "id": 10557007709, "lat": 52.4467076, "lon": 13.6235084, "tags": {"addr:housenumber": "162", "addr:postcode": "12587", "addr:street": "M\u00fcggelseedamm", "amenity": "restaurant", "cuisine": "italian", "diet:vegan": "no", "diet:vegetarian": "yes", "email": "lamanifatturadelgusto.berlin@gmail.com", "name": "La Manifattura del Gusto", "name:de": "La Manifattura del Gusto", "name:en": "La Manifattura del Gusto", "opening_hours": "We-Su 16:00-22:00", "phone": "+493065002580", "website": "https://lamanifatturadelgusto.eatbu.com/"}}, {"type": "node", "id": 10681924757, "lat": 52.4481237, "lon": 13.6391757}, {"type": "node", "id": 10681929919, "lat": 52.4482479, "lon": 13.6391726}, {"type": "node", "id": 10682045658, "lat": 52.4466139, "lon": 13.6329449}, {"type": "node", "id": 10682056026, "lat": 52.4514364, "lon": 13.6328006, "tags": {"access": "private", "barrier": "gate"}}, {"type": "node", "id": 10683774791, "lat": 52.4449659, "lon": 13.6258033}, {"type": "node", "id": 10683774792, "lat": 52.4448842, "lon": 13.6258811}, {"type": "node", "id": 10683774793, "lat": 52.4449561, "lon": 13.6260313}, {"type": "node", "id": 10683774794, "lat": 52.4449888, "lon": 13.6260044}, {"type": "node", "id": 10683774795, "lat": 52.4449741, "lon": 13.6258971}, {"type": "node", "id": 10683781242, "lat": 52.4448367, "lon": 13.6259154}, {"type": "node", "id": 10683781243, "lat": 52.4448198, "lon": 13.6258785}, {"type": "node", "id": 10689354451, "lat": 52.4478684, "lon": 13.639192}, {"type": "node", "id": 10689354462, "lat": 52.4478373, "lon": 13.6391879}, {"type": "node", "id": 10689354472, "lat": 52.4476829, "lon": 13.6402602}, {"type": "node", "id": 10689354474, "lat": 52.4478912, "lon": 13.6391943}, {"type": "node", "id": 10689354478, "lat": 52.4476953, "lon": 13.6402726}, {"type": "node", "id": 10689354490, "lat": 52.448549, "lon": 13.640194}, {"type": "node", "id": 10689359207, "lat": 52.4476912, "lon": 13.6396669}, {"type": "node", "id": 10689359211, "lat": 52.4479079, "lon": 13.6391909}, {"type": "node", "id": 10689359218, "lat": 52.4477844, "lon": 13.6391668}, {"type": "node", "id": 10689359225, "lat": 52.4477482, "lon": 13.6403466}, {"type": "node", "id": 10689359238, "lat": 52.4485581, "lon": 13.6401701}, {"type": "node", "id": 10689359240, "lat": 52.4477135, "lon": 13.6390895}, {"type": "node", "id": 10689359243, "lat": 52.4478032, "lon": 13.639176}, {"type": "node", "id": 10689359245, "lat": 52.4477654, "lon": 13.6391547}, {"type": "node", "id": 10689359255, "lat": 52.4485426, "lon": 13.6402085}, {"type": "node", "id": 10689359260, "lat": 52.4476925, "lon": 13.6395979}, {"type": "node", "id": 10689359268, "lat": 52.447935, "lon": 13.6391822}, {"type": "node", "id": 10689359275, "lat": 52.4477116, "lon": 13.6402889}, {"type": "node", "id": 10689359289, "lat": 52.4479154, "lon": 13.6391885}, {"type": "node", "id": 10689359291, "lat": 52.4478187, "lon": 13.6391809}, {"type": "node", "id": 10689359292, "lat": 52.447738, "lon": 13.6391257}, {"type": "node", "id": 10689369508, "lat": 52.4485661, "lon": 13.6393589}, {"type": "node", "id": 10696502327, "lat": 52.4505045, "lon": 13.6221534, "tags": {"addr:city": "Berlin", "addr:housenumber": "28", "addr:postcode": "12587", "addr:street": "A\u00dfmannstra\u00dfe", "amenity": "pub", "name": "Zum Sattel", "opening_hours": "Mo-Fr 17:00+, Sa 18:00+"}}, {"type": "node", "id": 10717566232, "lat": 52.4515463, "lon": 13.6326348}, {"type": "node", "id": 10717566233, "lat": 52.4514589, "lon": 13.6328649}, {"type": "node", "id": 10717566236, "lat": 52.4514585, "lon": 13.6328175}, {"type": "node", "id": 10717566237, "lat": 52.4515493, "lon": 13.6328159}, {"type": "node", "id": 10721868128, "lat": 52.4486791, "lon": 13.6357403}, {"type": "node", "id": 10721868129, "lat": 52.4487004, "lon": 13.635742}, {"type": "node", "id": 10721868130, "lat": 52.4486188, "lon": 13.6355789}, {"type": "node", "id": 10725060256, "lat": 52.4516836, "lon": 13.6259797}, {"type": "node", "id": 10727127550, "lat": 52.4465878, "lon": 13.6273505}, {"type": "node", "id": 10727174110, "lat": 52.4562534, "lon": 13.6225655}, {"type": "node", "id": 10727174113, "lat": 52.4561559, "lon": 13.6226228}, {"type": "node", "id": 10727294369, "lat": 52.4450847, "lon": 13.6263305}, {"type": "node", "id": 10733082500, "lat": 52.4528036, "lon": 13.6315253}, {"type": "node", "id": 10733082501, "lat": 52.4528026, "lon": 13.6316397}, {"type": "node", "id": 10733082502, "lat": 52.4527256, "lon": 13.6316404}, {"type": "node", "id": 10733082503, "lat": 52.4526912, "lon": 13.6316082}, {"type": "node", "id": 10733082504, "lat": 52.4526555, "lon": 13.6316068}, {"type": "node", "id": 10733088105, "lat": 52.4526563, "lon": 13.6315271}, {"type": "node", "id": 10733156333, "lat": 52.4487793, "lon": 13.6356112}, {"type": "node", "id": 10733156334, "lat": 52.4486447, "lon": 13.6348454}, {"type": "node", "id": 10733156335, "lat": 52.4486269, "lon": 13.6348729}, {"type": "node", "id": 10733156336, "lat": 52.4486168, "lon": 13.6349062}, {"type": "node", "id": 10733156337, "lat": 52.4487758, "lon": 13.6349319}, {"type": "node", "id": 10733156338, "lat": 52.4487679, "lon": 13.6348799}, {"type": "node", "id": 10733156339, "lat": 52.4487335, "lon": 13.6348412}, {"type": "node", "id": 10733156340, "lat": 52.4487148, "lon": 13.6348337}, {"type": "node", "id": 10733156341, "lat": 52.4486523, "lon": 13.6348366}, {"type": "node", "id": 10734127986, "lat": 52.4479832, "lon": 13.6350768}, {"type": "node", "id": 10734127987, "lat": 52.4479902, "lon": 13.6350759}, {"type": "node", "id": 10734127990, "lat": 52.4480312, "lon": 13.6348986, "tags": {"barrier": "gate"}}, {"type": "node", "id": 10734165881, "lat": 52.4484658, "lon": 13.6209886}, {"type": "node", "id": 10734165882, "lat": 52.4487001, "lon": 13.62129}, {"type": "node", "id": 10734165883, "lat": 52.4485292, "lon": 13.6218208}, {"type": "node", "id": 10734165884, "lat": 52.4484996, "lon": 13.6218649}, {"type": "node", "id": 10734165885, "lat": 52.4484443, "lon": 13.6218585}, {"type": "node", "id": 10734168022, "lat": 52.4494192, "lon": 13.623455}, {"type": "node", "id": 10734168023, "lat": 52.4493377, "lon": 13.623448}, {"type": "node", "id": 10734168024, "lat": 52.4492792, "lon": 13.6233137}, {"type": "node", "id": 10734168025, "lat": 52.4492724, "lon": 13.6232478}, {"type": "node", "id": 10734168026, "lat": 52.4494263, "lon": 13.6232632}, {"type": "node", "id": 10734546981, "lat": 52.4532002, "lon": 13.602294}, {"type": "node", "id": 10734546982, "lat": 52.4534727, "lon": 13.6019035}, {"type": "node", "id": 10734564062, "lat": 52.4525371, "lon": 13.6005147}, {"type": "node", "id": 10734564063, "lat": 52.4525019, "lon": 13.6007835}, {"type": "node", "id": 10734564064, "lat": 52.4525811, "lon": 13.6008198}, {"type": "node", "id": 10734564065, "lat": 52.4526479, "lon": 13.600796}, {"type": "node", "id": 10734564066, "lat": 52.45271, "lon": 13.6007304}, {"type": "node", "id": 10734564067, "lat": 52.4527816, "lon": 13.6005957}, {"type": "node", "id": 10737124985, "lat": 52.4486439, "lon": 13.6356785}, {"type": "node", "id": 10737124986, "lat": 52.4487214, "lon": 13.6357386}, {"type": "node", "id": 10737124987, "lat": 52.448632, "lon": 13.6356468}, {"type": "node", "id": 10737124988, "lat": 52.4487511, "lon": 13.6348555}, {"type": "node", "id": 10826720424, "lat": 52.4557283, "lon": 13.6318559}, {"type": "node", "id": 10875934210, "lat": 52.4544261, "lon": 13.6248558, "tags": {"addr:city": "Berlin", "addr:housenumber": "87", "addr:postcode": "12587", "addr:street": "B\u00f6lschestra\u00dfe", "amenity": "restaurant", "cuisine": "german", "email": "bestellung@brauerei-friedrichshagen.de", "microbrewery": "yes", "name": "Ratskeller", "opening_hours": "Mo,Th,Fr 17:00-00:00; Sa 12:00-00:00; Su 10:00-22:00", "outdoor_seating": "yes", "phone": "+49 (0)162 \u2013 45 33 204", "reservation": "yes", "website": "https://www.brauerei-friedrichshagen.de/locations/raatskeller-menue.php"}}, {"type": "node", "id": 10911321156, "lat": 52.4595024, "lon": 13.6222882, "tags": {"amenity": "restaurant", "cuisine": "chinese;vietnamese", "diet:vegan": "no", "diet:vegetarian": "yes", "indoor_seating": "yes", "name": "Vietfood-TCOW", "opening_hours": "Tu-Su 12:00-22:00", "outdoor_seating": "yes", "smoking": "outside", "wheelchair": "no"}}, {"type": "node", "id": 11003074153, "lat": 52.4473852, "lon": 13.6198137}, {"type": "node", "id": 11003074154, "lat": 52.4473771, "lon": 13.6196011}, {"type": "node", "id": 11003074155, "lat": 52.447183, "lon": 13.619621}, {"type": "node", "id": 11003074156, "lat": 52.4471911, "lon": 13.6198337}, {"type": "node", "id": 11006726239, "lat": 52.4532399, "lon": 13.6028745}, {"type": "node", "id": 11006726240, "lat": 52.4532796, "lon": 13.6032761}, {"type": "node", "id": 11006726241, "lat": 52.4533008, "lon": 13.6034381}, {"type": "node", "id": 11006726244, "lat": 52.4534529, "lon": 13.6027911}, {"type": "node", "id": 11006726248, "lat": 52.4534684, "lon": 13.6034644}, {"type": "node", "id": 11006726250, "lat": 52.4532722, "lon": 13.6036015}, {"type": "node", "id": 11006726251, "lat": 52.4532543, "lon": 13.6034523}, {"type": "node", "id": 11006848418, "lat": 52.4509155, "lon": 13.6111822}, {"type": "node", "id": 11006848419, "lat": 52.4507354, "lon": 13.6111747}, {"type": "node", "id": 11006848420, "lat": 52.4507361, "lon": 13.6108345}, {"type": "node", "id": 11006848421, "lat": 52.4509626, "lon": 13.6109299}, {"type": "node", "id": 11114496851, "lat": 52.4473516, "lon": 13.6172111, "tags": {"name": "Sparfood Gutes Gern G\u00fcnstig", "shop": "supermarket"}}, {"type": "node", "id": 11149552796, "lat": 52.454651, "lon": 13.6227314}, {"type": "node", "id": 11149552797, "lat": 52.4546613, "lon": 13.6225488}, {"type": "node", "id": 11149650570, "lat": 52.4543325, "lon": 13.6242507}, {"type": "node", "id": 11149650571, "lat": 52.4543773, "lon": 13.6242581}, {"type": "node", "id": 11149650572, "lat": 52.4543718, "lon": 13.6244258}, {"type": "node", "id": 11149650573, "lat": 52.4543392, "lon": 13.6244218}, {"type": "node", "id": 11149650574, "lat": 52.4543388, "lon": 13.624446}, {"type": "node", "id": 11149650575, "lat": 52.4542428, "lon": 13.6244375}, {"type": "node", "id": 11149650576, "lat": 52.4542603, "lon": 13.6240997}, {"type": "node", "id": 11149650577, "lat": 52.4542809, "lon": 13.6240831}, {"type": "node", "id": 11149650578, "lat": 52.4543361, "lon": 13.6241242}, {"type": "node", "id": 11413921920, "lat": 52.4528891, "lon": 13.6051263}, {"type": "node", "id": 11413921921, "lat": 52.4528307, "lon": 13.6048892}, {"type": "node", "id": 11413921922, "lat": 52.4528602, "lon": 13.6047868}, {"type": "node", "id": 11413921923, "lat": 52.452896, "lon": 13.6047309}, {"type": "node", "id": 11413921924, "lat": 52.4529267, "lon": 13.6047375}, {"type": "node", "id": 11413921925, "lat": 52.4529561, "lon": 13.6047508}, {"type": "node", "id": 11413921926, "lat": 52.4529769, "lon": 13.6048001}, {"type": "node", "id": 11413921927, "lat": 52.4529758, "lon": 13.6048617}, {"type": "node", "id": 11413921928, "lat": 52.4529596, "lon": 13.6049689}, {"type": "node", "id": 11413921929, "lat": 52.4529394, "lon": 13.6050666}, {"type": "node", "id": 11413921938, "lat": 52.4535645, "lon": 13.6064377}, {"type": "node", "id": 11413921939, "lat": 52.4534696, "lon": 13.6065087}, {"type": "node", "id": 11413921940, "lat": 52.4534359, "lon": 13.6063633}, {"type": "node", "id": 11413921941, "lat": 52.4535301, "lon": 13.6062967}, {"type": "node", "id": 11413921942, "lat": 52.452556, "lon": 13.6022069}, {"type": "node", "id": 11413921943, "lat": 52.4524151, "lon": 13.6022148}, {"type": "node", "id": 11413921944, "lat": 52.4524151, "lon": 13.6023806}, {"type": "node", "id": 11413921945, "lat": 52.4525869, "lon": 13.6023704}, {"type": "node", "id": 11486225604, "lat": 52.4559771, "lon": 13.6180729, "tags": {"door": "sliding1", "entrance": "main", "level": "0", "wheelchair": "yes"}}, {"type": "node", "id": 11486225605, "lat": 52.4559509, "lon": 13.6176519, "tags": {"door": "hinged", "entrance": "service", "level": "0"}}, {"type": "node", "id": 11860411054, "lat": 52.4514022, "lon": 13.6252702}, {"type": "node", "id": 11860411055, "lat": 52.4513899, "lon": 13.6256034}, {"type": "node", "id": 12037612750, "lat": 52.4557832, "lon": 13.6261088, "tags": {"addr:housenumber": "4", "addr:street": "Am Goldmannpark", "amenity": "restaurant", "check_date": "2024-07-06", "contact:phone": "+49 30 20095560", "email": "reservierung@pavao-berlin.de", "name": "pav\u00e3o", "opening_hours": "Mo-Tu off; We-Su 08:00-21:00", "source": "survey", "website": "https://pavao-berlin.de"}}, {"type": "node", "id": 12090104328, "lat": 52.4535132, "lon": 13.6019036}, {"type": "node", "id": 12090160262, "lat": 52.4466453, "lon": 13.6264242, "tags": {"addr:city": "Berlin", "addr:country": "DE", "addr:housenumber": "182", "addr:postcode": "12587", "addr:street": "M\u00fcggelseedamm", "addr:suburb": "Friedrichshagen", "amenity": "restaurant", "check_date": "2022-09-11", "cuisine": "asian", "diet:vegan": "no", "diet:vegetarian": "yes", "indoor_seating": "yes", "name": "House of Vegan 182", "opening_hours": "Tu-Su 12:00-22:00", "outdoor_seating": "no", "payment:credit_cards": "yes", "payment:debit_cards": "yes", "phone": "+49 30 49915888", "website": "https://vegan182.de/"}}, {"type": "node", "id": 12090160263, "lat": 52.4463103, "lon": 13.6216765}, {"type": "node", "id": 12090190436, "lat": 52.4488765, "lon": 13.6293427}, {"type": "node", "id": 12090340148, "lat": 52.4526849, "lon": 13.5958756, "tags": {"addr:city": "Berlin", "addr:country": "DE", "addr:housenumber": "260", "addr:postcode": "12587", "addr:street": "F\u00fcrstenwalder Damm", "addr:suburb": "Friedrichshagen", "amenity": "restaurant", "cuisine": "mexican", "name": "Veracruz", "opening_hours": "Mo-Su 12:00+", "outdoor_seating": "yes", "website": "https://veracruz-berlin.de/", "wheelchair": "limited"}}, {"type": "node", "id": 12196836020, "lat": 52.4550305, "lon": 13.6333906, "tags": {"amenity": "doctors", "healthcare": "doctor", "healthcare:speciality": "ophthalmology", "name": "Patrick Schwarz", "phone": "+49306455968", "website": "https://www.augenarztpraxis-friedrichshagen.de"}}, {"type": "way", "id": 23463722, "nodes": [254100345, 10826720424, 4529160431, 4529160429, 2974915494, 2974915280, 5003380722, 5003380723, 254100348, 5003380585, 5003380596, 5003380591, 254100350, 254100352, 254100355, 254100345], "tags": {"leisure": "park", "name": "Goldmannpark", "name:etymology:wikidata": "Q33133202", "protection_title": "Gesch\u00fctzte Gr\u00fcnanlage"}}, {"type": "way", "id": 26489530, "nodes": [290323921, 6787970771, 2018272609, 290323923, 290323924, 10213524905, 616740024, 10213524906, 616740026, 10213524907, 10213524908, 616740027, 290323910, 10213524909, 439356769, 27212795, 439356767, 439356765, 4303162854, 4303162857, 616738880, 616738851, 28341969, 2869338978, 616740029, 10683781243, 10683781242, 4579673299, 2018272608, 10727294369, 616740030, 2018272611, 2018272610, 290323919, 290323920, 290323921], "tags": {"leisure": "park", "name": "M\u00fcggelpark", "name:etymology:wikidata": "Q694789", "name:etymology:wikipedia": "de:M\u00fcggelsee", "protection_title": "Gesch\u00fctzte Gr\u00fcnanlage", "wikidata": "Q81742348", "wikimedia_commons": "Category:M\u00fcggelpark"}}, {"type": "way", "id": 26627001, "nodes": [10733156334, 10733156335, 10733156336, 4565332411, 10721868130, 10737124987, 10737124985, 292055278, 10721868128, 10721868129, 10737124986, 4565332414, 4565332413, 4565332415, 292055327, 10733156333, 10154377141, 10733156337, 10733156338, 10737124988, 10733156339, 10733156340, 10733156341, 10733156334], "tags": {"access": "yes", "leisure": "playground", "name": "Spielplatz L\u00f6cknitzstra\u00dfe", "protection_title": "Gesch\u00fctzte Gr\u00fcnanlage"}}, {"type": "way", "id": 31094576, "nodes": [345549454, 6282334841, 92616014, 2119662683, 345549455, 2119662665, 345549456, 2119662658, 345549457, 2119662649, 3352133079, 3352133081, 2119662648, 5918944907, 3329162987, 3329162988, 3329162986, 3329162984, 3329162980, 4128423479, 345549447, 2119662652, 345549448, 3329163002, 345549449, 345549450, 345549451, 345549452, 345549453, 5595043862, 3352134052, 6282334840, 345549454], "tags": {"leisure": "park", "name": "Kurpark Friedrichshagen", "name:etymology:wikidata": "Q1793170; Q563528", "name:etymology:wikipedia": "de:Kurpark", "wikidata": "Q22936439", "wikimedia_commons": "Category:Kurpark Friedrichshagen"}}, {"type": "way", "id": 37448249, "nodes": [438032758, 11486225605, 2168432537, 2168432533, 438032755, 11486225604, 1549047240, 1549047233, 438222462, 438032757, 1549047204, 1549047207, 438032758], "tags": {"brand": "Lidl", "brand:wikidata": "Q151954", "brand:wikipedia": "en:Lidl", "building": "retail", "building:colour": "white", "building:levels": "1", "check_date:opening_hours": "2023-12-19", "name": "Lidl", "opening_hours": "Mo-Sa 07:00-21:00", "roof:shape": "flat", "shop": "supermarket", "website": "https://www.lidl.de/", "wheelchair": "yes"}}, {"type": "way", "id": 37556442, "nodes": [4952843220, 3014236505, 3014236357, 440047757, 3014236459, 3014236433, 4952843209, 440047765, 4738344275, 4738344274, 4738344273, 4952843211, 4738344272, 440047767, 4952844722, 4952844721, 2844647260, 4952843213, 12090160263, 4952843215, 4952843220], "tags": {"addr:city": "Berlin", "addr:country": "DE", "addr:housenumber": "150", "addr:postcode": "12587", "addr:street": "M\u00fcggelseedamm", "addr:suburb": "Friedrichshagen", "brand": "ALDI Nord", "brand:wikidata": "Q41171373", "brand:wikipedia": "en:Aldi", "building": "retail", "name": "Aldi", "opening_hours": "Mo-Sa 07:00-21:00; PH,Su off", "payment:cash": "yes", "payment:debit_cards": "yes", "payment:girocard": "yes", "payment:mastercard": "yes", "payment:visa": "yes", "shop": "supermarket", "source": "Geoportal Berlin / Hauskoordinaten", "website": "https://www.aldi-nord.de/filialen-und-oeffnungszeiten.html/l/berlin/muggelseedamm-150/3181632", "wheelchair": "yes"}}, {"type": "way", "id": 77089338, "nodes": [2770436286, 2770436290, 907791833, 2770436303, 2770436305, 7954983981, 7954983980, 907791849, 907791843, 907791839, 907791835, 907791851, 6774844201, 2770436291, 2844631091, 907791846, 907791842, 86029986, 1275881583, 86032995, 86032996, 86033000, 2770436286], "tags": {"leisure": "park", "protection_title": "Gesch\u00fctzte Gr\u00fcnanlage"}}, {"type": "way", "id": 177947764, "nodes": [1883476711, 1883476713, 1883476697, 10734127986, 10734127987, 1883476696, 10734127990, 1883476711], "tags": {"access": "yes", "leisure": "playground"}}, {"type": "way", "id": 243347328, "nodes": [2507707405, 2507707403, 2507707401, 2507707408, 2507707405], "tags": {"addr:city": "Berlin", "addr:country": "DE", "addr:housenumber": "42", "addr:postcode": "12559", "addr:street": "M\u00fcggelschl\u00f6\u00dfchenweg", "addr:suburb": "Friedrichshagen", "amenity": "restaurant", "building": "retail", "cuisine": "seafood", "email": "info@spreearche.de", "indoor_seating": "yes", "name": "SpreeArche", "opening_hours": "Apr-Oct Mo-Su 12:00-24:00; Nov-Mar Sa,Su 12:00-24:00", "operator": "Frank Cotte", "outdoor_seating": "yes", "phone": "+49 172 3042111", "website": "https://spreearche.de/"}}, {"type": "way", "id": 274094376, "nodes": [2788669423, 10147555152, 10682045658, 10147555149, 10147555151, 10147555150, 2788669424, 3129375377, 3129375484, 2788669426, 2788669425, 3014236560, 3014236478, 2788669423], "tags": {"leisure": "park", "name": "Kaisersteg", "protection_title": "Gesch\u00fctzte Gr\u00fcnanlage"}}, {"type": "way", "id": 297530572, "nodes": [3014236408, 10727127550, 3014236492, 3014236429, 5739245980, 3014236414, 3014236408], "tags": {"addr:city": "Berlin", "addr:country": "DE", "addr:housenumber": "188", "addr:postcode": "12587", "addr:street": "M\u00fcggelseedamm", "addr:suburb": "Friedrichshagen", "amenity": "restaurant", "building": "yes", "cuisine": "greek", "diet:vegan": "no", "diet:vegetarian": "yes", "indoor_seating": "yes", "name": "Taverna Der Grieche", "opening_hours": "Mo-Su 12:00-23:00", "outdoor_seating": "yes", "payment:cash": "yes", "payment:credit_cards": "yes", "payment:debit_cards": "yes", "phone": "+49 30 65486889", "reservation": "yes", "smoking": "outside", "website": "https://dergrieche-berlin.com/", "wheelchair": "limited"}}, {"type": "way", "id": 304392879, "nodes": [3089231954, 9665485738, 9665485739, 9665485740, 9665485737, 9665485736, 9665485735, 3089231951, 3089231949, 3089231948, 9665485747, 9665485743, 9665485742, 9665485741, 9665485744, 9665485745, 9665485746, 3089231950, 9665480901, 9665480906, 3089231952, 3089231953, 9665485718, 3089231957, 3089231961, 9665480882, 9665480902, 4529160428, 3089231956, 3089231954], "tags": {"check_date": "2024-07-07", "leisure": "park", "opening_hours": "24/7", "protection_title": "Gesch\u00fctzte Gr\u00fcnanlage"}}, {"type": "way", "id": 308228582, "nodes": [3135167512, 10727174110, 10727174113, 3135167477, 3135167486, 3135167517, 3135167512], "tags": {"addr:city": "Berlin", "addr:housenumber": "462", "addr:postcode": "12587", "addr:street": "F\u00fcrstenwalder Damm", "amenity": "bar", "building": "yes", "name": "Frieda Hagen", "opening_hours": "Tu-Th 18:00-23:30; Fr,Sa 18:00+", "wheelchair": "no"}}, {"type": "way", "id": 328395742, "nodes": [2908241701, 3352133996, 3352134007, 3352133085, 2908241701], "tags": {"access": "yes", "leisure": "playground"}}, {"type": "way", "id": 355340620, "nodes": [298100325, 3609485590, 1549046098, 3596971545, 3597337134, 290325187, 9665485841, 3597251051, 3597251045, 298100325], "tags": {"leisure": "park", "operator": "Bezirksamt Treptow-K\u00f6penick", "protection_title": "Gesch\u00fctzte Gr\u00fcnanlage"}}, {"type": "way", "id": 355345456, "nodes": [1388212365, 3609599635, 3609599634, 3609599631, 3609599632, 3609599633, 1388212365], "tags": {"access": "yes", "leisure": "playground"}}, {"type": "way", "id": 355345467, "nodes": [3609599667, 3609599666, 3609724231, 3595164688, 3595164689, 3595164793, 3609599667], "tags": {"leisure": "park", "protection_title": "Gesch\u00fctzte Gr\u00fcnanlage"}}, {"type": "way", "id": 355358375, "nodes": [3609724225, 3609724223, 11149552796, 11149552797, 3609724220, 3609724221, 3609724225], "tags": {"access": "private", "leisure": "playground"}}, {"type": "way", "id": 367433527, "nodes": [3713580142, 3713580143, 6709089915, 6709089914, 6709089913, 6709089912, 6709089911, 6709089910, 6709089909, 6709089908, 6709089907, 6709089906, 3713580145, 3713580144, 3713580142], "tags": {"amenity": "fast_food", "building": "yes", "building:levels": "1", "name": "Imbiss am see"}}, {"type": "way", "id": 380267145, "nodes": [3836098505, 3836098507, 3836098508, 3836098509, 3836098511, 3836098510, 3836098506, 3836098505], "tags": {"amenity": "restaurant", "check_date": "2025-06-05", "check_date:opening_hours": "2023-02-11", "contact:email": "info@windfluechter.berlin", "contact:phone": "+49 179 2313732", "contact:website": "http://strandhaus-berlin.de/de/windfluechter-berlin/", "indoor_seating": "yes", "name": "Windfl\u00fcchter- Restaurantschiff", "opening_hours:signed": "no", "outdoor_seating": "yes", "phone": "+491792313732"}}, {"type": "way", "id": 436716024, "nodes": [298100644, 27212800, 4345955659, 4529160375, 3129375657, 3890748434, 298100644], "tags": {"check_date": "2025-04-07", "dog": "leashed", "leisure": "park", "name": "See-Terrasse", "protection_title": "Gesch\u00fctzte Gr\u00fcnanlage"}}, {"type": "way", "id": 457267708, "nodes": [4534465651, 4534465648, 4534465649, 4534465652, 4534465651], "tags": {"leisure": "playground"}}, {"type": "way", "id": 457284532, "nodes": [4534550879, 4534550877, 4534550869, 4534550868, 4534550858, 4534550855, 4534550823, 10681929919, 10681924757, 10689359268, 10689359289, 10689359211, 10689354474, 10689354451, 10689354462, 10689359291, 10689359243, 10689359218, 10689359245, 10689359292, 10689359240, 4534550812, 10689359260, 4534550811, 10689359207, 10689354472, 10689354478, 10689359275, 9937613702, 10689359225, 9937613705, 9937613704, 4534550818, 10689359255, 4534550870, 10689354490, 10689359238, 4534550873, 4534550883, 4534551089, 4534551091, 4534551090, 4534550886, 4534550884, 10689369508, 4534550879], "tags": {"dog": "leashed", "leisure": "park", "protection_title": "Gesch\u00fctzte Gr\u00fcnanlage"}}, {"type": "way", "id": 459427672, "nodes": [4552790894, 4552790895, 4552790896, 4552790897, 4552790898, 10734546981, 4552790899, 11006726239, 11006726240, 11006726241, 11006726251, 11006726250, 298099669, 11006726248, 3352221055, 3352221053, 3352221056, 11006726244, 3352221054, 1549046509, 4552790894], "tags": {"leisure": "park", "protection_title": "Gesch\u00fctzte Gr\u00fcnanlage", "source": "Geoportal Berlin / Gr\u00fcnanlagenbestand Berlin (einschlie\u00dflich der \u00f6ffentlichen Spielpl\u00e4tze)"}}, {"type": "way", "id": 459427922, "nodes": [4552797041, 12090104328, 10734546982, 4552790897, 4552790896, 2135687642, 4552797041], "tags": {"access": "yes", "leisure": "playground", "protection_title": "Gesch\u00fctzte Gr\u00fcnanlage", "source": "Geoportal Berlin / Gr\u00fcnanlagenbestand Berlin (einschlie\u00dflich der \u00f6ffentlichen Spielpl\u00e4tze)"}}, {"type": "way", "id": 460960148, "nodes": [4565324518, 4565324517, 4565324516, 4565324515, 4565324514, 12090190436, 4565324513, 4565324518], "tags": {"access": "yes", "leisure": "playground", "protection_title": "Gesch\u00fctzte Gr\u00fcnanlage"}}, {"type": "way", "id": 462585889, "nodes": [1388209334, 290323915, 3836098516, 4579673297, 4876409418, 1388209334], "tags": {"access": "yes", "leisure": "playground"}}, {"type": "way", "id": 471108757, "nodes": [4652740699, 4652740698, 4652740697, 4652740696, 4652740695, 4652740694, 4652740693, 4652740692, 4652740691, 4652740690, 4652740689, 4652740699], "tags": {"access": "private", "leisure": "playground"}}, {"type": "way", "id": 511526420, "nodes": [5003380608, 5003380607, 5003380606, 5003380605, 5003380604, 5003380603, 5003380602, 5003380601, 5003380600, 5003380599, 5003380598, 5003380597, 5003380608], "tags": {"access": "yes", "leisure": "playground"}}, {"type": "way", "id": 583902511, "nodes": [5582064999, 5582064998, 5582064997, 5582064996, 5582064999], "tags": {"amenity": "restaurant", "building": "retail", "building:levels": "1", "indoor_seating": "yes", "name": "Vereinsheim Erpetal", "opening_hours": "We-Fr 17:00-21:00; Sa 12:00-20:00; Su 11:00-20:00", "outdoor_seating": "yes", "smoking": "outside", "wheelchair": "yes"}}, {"type": "way", "id": 594296852, "nodes": [282651988, 5667325259, 5667325260, 10725060256, 282651989, 3089301646, 3089301647, 4581843597, 4581843598, 4581843599, 4581843600, 282651988], "tags": {"access": "private", "leisure": "park"}}, {"type": "way", "id": 802710321, "nodes": [3879471138, 7509222025, 10213524863, 7508709233, 3879471139, 3879471138], "tags": {"leisure": "park", "protection_title": "Gesch\u00fctzte Gr\u00fcnanlage"}}, {"type": "way", "id": 802769540, "nodes": [7509222023, 7509222022, 7509222021, 7509222020, 7509222023], "tags": {"access": "yes", "leisure": "playground"}}, {"type": "way", "id": 844008784, "nodes": [7873148677, 7873148676, 7873148675, 7873148674, 7873148673, 7873148677], "tags": {"leisure": "playground"}}, {"type": "way", "id": 1051785926, "nodes": [9665485882, 9665485902, 9665485901, 9665485900, 9665485899, 9665485884, 9665485883, 9665485882], "tags": {"access": "yes", "leisure": "playground"}}, {"type": "way", "id": 1126985606, "nodes": [10305072562, 10305072563, 10305072564, 10305072565, 10305072566, 10305072567, 10305072568, 10305072569, 10305072570, 10305072571, 10305072572, 10305072573, 10305072574, 10305072575, 10305072576, 10305072577, 10305072578, 10305072579, 10305072580, 10305072581, 10305072582, 10305072562], "tags": {"leisure": "park"}}, {"type": "way", "id": 1148281512, "nodes": [10683774791, 10683774792, 10683774793, 10683774794, 10683774795, 10683774791], "tags": {"addr:city": "Berlin", "addr:housenumber": "16", "addr:postcode": "12587", "addr:street": "Josef-Nawrocki-Stra\u00dfe", "amenity": "restaurant", "building": "retail", "cuisine": "regional", "diet:vegetarian": "yes", "indoor_seating": "yes", "name": "Ehrlich", "opening_hours": "Tu-Fr 12:30-22:00,  Sa-So 12:30-21:00", "outdoor_seating": "yes", "phone": "+49 30 43727634", "toilets": "yes", "website": "https://restaurant-ehrlich.com/"}}, {"type": "way", "id": 1152244192, "nodes": [10717566236, 10717566237, 10717566232, 8946286603, 10146995209, 10682056026, 292201291, 10717566233, 10717566236], "tags": {"access": "customers", "indoor": "no", "leisure": "playground", "playground:theme": "spiderweb", "surface": "sand", "wheelchair": "no"}}, {"type": "way", "id": 1154061389, "nodes": [10733082500, 10733082501, 10733082502, 10733082503, 10733082504, 10733088105, 10733082500], "tags": {"access": "private", "leisure": "playground"}}, {"type": "way", "id": 1154179878, "nodes": [3594321424, 3594321422, 10734165883, 10734165884, 10734165885, 10734165881, 10734165882, 3594321424], "tags": {"leisure": "park", "protection_title": "Gesch\u00fctzte Gr\u00fcnanlage"}}, {"type": "way", "id": 1154179882, "nodes": [10734168022, 10734168023, 10734168024, 10734168025, 10734168026, 10734168022], "tags": {"access": "private", "leisure": "playground"}}, {"type": "way", "id": 1154228593, "nodes": [10734564062, 10734564063, 10734564064, 10734564065, 10734564066, 10734564067, 10734564062], "tags": {"access": "private", "leisure": "playground"}}, {"type": "way", "id": 1184631277, "nodes": [11003074153, 11003074154, 11003074155, 11003074156, 11003074153], "tags": {"leisure": "playground", "surface": "sand"}}, {"type": "way", "id": 1184924763, "nodes": [11006848418, 11006848419, 11006848420, 11006848421, 11006848418], "tags": {"access": "yes", "leisure": "playground", "name": "Waldspielplatz Hirschgartendreieck", "operator": "Berliner Forsten", "website": "https://www.stadtentwicklung.berlin.de/forsten/freizeit/waldspielplaetze/de/hirschgarten.shtml"}}, {"type": "way", "id": 1202714108, "nodes": [11149650578, 11149650577, 11149650576, 11149650575, 11149650574, 11149650573, 11149650572, 11149650571, 11149650570, 11149650578], "tags": {"access": "customers", "leisure": "playground"}}, {"type": "way", "id": 1230751326, "nodes": [11413921920, 11413921921, 11413921922, 11413921923, 11413921924, 11413921925, 11413921926, 11413921927, 11413921928, 11413921929, 11413921920], "tags": {"access": "yes", "leisure": "playground"}}, {"type": "way", "id": 1230751330, "nodes": [11413921938, 11413921939, 11413921940, 11413921941, 11413921938], "tags": {"access": "yes", "leisure": "playground"}}, {"type": "way", "id": 1230751331, "nodes": [11413921942, 11413921943, 11413921944, 11413921945, 11413921942], "tags": {"leisure": "playground"}}, {"type": "way", "id": 1277627034, "nodes": [859989105, 3089301637, 1559866492, 1559866482, 1559866487, 599735035, 11860411055, 11860411054, 859989105], "tags": {"addr:city": "Berlin", "addr:country": "DE", "addr:housenumber": "36", "addr:postcode": "12587", "addr:street": "B\u00f6lschestra\u00dfe", "addr:suburb": "Friedrichshagen", "brand": "EDEKA", "brand:wikidata": "Q701755", "check_date:opening_hours": "2022-10-27", "contact:website": "https://www.edeka.de/eh/minden-hannover/edeka-voigt-b%C3%B6lschestr.-36/index.jsp", "name": "EDEKA Voigt", "opening_hours": "Mo-Fr 07:00-24:00; Sa 07:00-23:30", "operator": "Edeka", "shop": "supermarket", "toilets:wheelchair": "no", "wheelchair": "yes"}}]}