{"version": 0.6, "generator": "Overpass API 0.7.62.7 375dc00a", "osm3s": {"timestamp_osm_base": "2025-08-05T14:40:35Z", "copyright": "The data included in this document is from www.openstreetmap.org. The data is made available under ODbL."}, "elements": [{"type": "node", "id": 31051352, "lat": 52.4061176, "lon": 13.3719613}, {"type": "node", "id": 31052994, "lat": 52.3962235, "lon": 13.3766059}, {"type": "node", "id": 31056594, "lat": 52.3998045, "lon": 13.3753168}, {"type": "node", "id": 31056598, "lat": 52.4081841, "lon": 13.3768553}, {"type": "node", "id": 32348071, "lat": 52.4148622, "lon": 13.3701712}, {"type": "node", "id": 32348072, "lat": 52.413966, "lon": 13.3694294}, {"type": "node", "id": 32348073, "lat": 52.4143786, "lon": 13.3680689}, {"type": "node", "id": 32348074, "lat": 52.415339, "lon": 13.3689106}, {"type": "node", "id": 268915456, "lat": 52.4126456, "lon": 13.349899}, {"type": "node", "id": 297489806, "lat": 52.4125676, "lon": 13.359647, "tags": {"amenity": "pharmacy", "check_date:opening_hours": "2024-05-29", "contact:fax": "030 7227133", "contact:phone": "030 7214076", "contact:website": "http://helgoland-apotheke-berlin.de/", "dispensing": "yes", "healthcare": "pharmacy", "name": "Helgoland Apotheke", "opening_hours": "Mo-Fr 08:30-18:30; Sa 08:30-13:00", "wheelchair": "yes"}}, {"type": "node", "id": 297701953, "lat": 52.4140005, "lon": 13.3511973}, {"type": "node", "id": 297701954, "lat": 52.4136373, "lon": 13.3509858}, {"type": "node", "id": 297701957, "lat": 52.4126341, "lon": 13.3508473}, {"type": "node", "id": 297701958, "lat": 52.4123765, "lon": 13.3498938}, {"type": "node", "id": 297701960, "lat": 52.4123691, "lon": 13.350483}, {"type": "node", "id": 297701962, "lat": 52.4112865, "lon": 13.3504523}, {"type": "node", "id": 297701963, "lat": 52.4112807, "lon": 13.3507954}, {"type": "node", "id": 297701964, "lat": 52.4110078, "lon": 13.3509597}, {"type": "node", "id": 297701967, "lat": 52.4101634, "lon": 13.3509257}, {"type": "node", "id": 297701968, "lat": 52.4101542, "lon": 13.351721}, {"type": "node", "id": 297701971, "lat": 52.4089372, "lon": 13.3530933}, {"type": "node", "id": 297701975, "lat": 52.4084297, "lon": 13.3534307}, {"type": "node", "id": 297701980, "lat": 52.4090204, "lon": 13.3533848}, {"type": "node", "id": 297701981, "lat": 52.4092979, "lon": 13.3533935}, {"type": "node", "id": 297701985, "lat": 52.4105055, "lon": 13.3520347}, {"type": "node", "id": 297701986, "lat": 52.4113582, "lon": 13.3515608}, {"type": "node", "id": 297701989, "lat": 52.4125602, "lon": 13.3514361}, {"type": "node", "id": 297701991, "lat": 52.4128669, "lon": 13.3520858}, {"type": "node", "id": 297701992, "lat": 52.4128519, "lon": 13.3524104}, {"type": "node", "id": 297701993, "lat": 52.4128219, "lon": 13.3524497}, {"type": "node", "id": 301675225, "lat": 52.4044503, "lon": 13.366086}, {"type": "node", "id": 301676434, "lat": 52.419575, "lon": 13.3601164}, {"type": "node", "id": 301676437, "lat": 52.4190859, "lon": 13.3600689}, {"type": "node", "id": 301817319, "lat": 52.4163448, "lon": 13.3580698}, {"type": "node", "id": 301817320, "lat": 52.4158865, "lon": 13.35783}, {"type": "node", "id": 301817321, "lat": 52.4156738, "lon": 13.3586275}, {"type": "node", "id": 301817323, "lat": 52.414757, "lon": 13.3591844}, {"type": "node", "id": 301817324, "lat": 52.4144667, "lon": 13.3590265}, {"type": "node", "id": 301817338, "lat": 52.4185187, "lon": 13.3551831}, {"type": "node", "id": 301845927, "lat": 52.4173898, "lon": 13.3620284, "tags": {"addr:city": "Berlin", "addr:country": "DE", "addr:housenumber": "162/164", "addr:postcode": "12277", "addr:street": "Malteserstra\u00dfe", "addr:suburb": "Marienfelde", "brand": "Lidl", "brand:wikidata": "Q151954", "brand:wikipedia": "en:Lidl", "name": "Lidl", "opening_hours": "Mo-Sa 07:00-21:00", "shop": "supermarket", "wheelchair": "yes"}}, {"type": "node", "id": 301845954, "lat": 52.4191873, "lon": 13.3604584}, {"type": "node", "id": 306017958, "lat": 52.4069274, "lon": 13.3749264}, {"type": "node", "id": 306473575, "lat": 52.4018409, "lon": 13.3744034}, {"type": "node", "id": 306473577, "lat": 52.4011532, "lon": 13.3743279}, {"type": "node", "id": 308858101, "lat": 52.4105368, "lon": 13.3818276, "tags": {"addr:city": "Berlin", "addr:country": "DE", "addr:housenumber": "100-102", "addr:postcode": "12277", "addr:street": "Buckower Chaussee", "addr:suburb": "Marienfelde", "amenity": "fast_food", "cuisine": "burger", "diet:vegan": "yes", "diet:vegetarian": "yes", "drive_through": "yes", "outdoor_seating": "yes", "payment:contactless": "yes", "payment:credit_cards": "no", "payment:girocard": "yes", "payment:girocard_contactless": "yes", "takeaway": "yes", "wheelchair": "yes"}}, {"type": "node", "id": 310192862, "lat": 52.4070715, "lon": 13.3579931}, {"type": "node", "id": 310192863, "lat": 52.4068938, "lon": 13.3585779}, {"type": "node", "id": 310192864, "lat": 52.4067027, "lon": 13.3584438}, {"type": "node", "id": 310192865, "lat": 52.4065952, "lon": 13.3589891}, {"type": "node", "id": 310192866, "lat": 52.4054956, "lon": 13.3601894}, {"type": "node", "id": 310193663, "lat": 52.4040824, "lon": 13.3732929}, {"type": "node", "id": 310193664, "lat": 52.4045513, "lon": 13.3733352}, {"type": "node", "id": 310193665, "lat": 52.4089336, "lon": 13.375073}, {"type": "node", "id": 310193666, "lat": 52.408963, "lon": 13.3755145}, {"type": "node", "id": 310193667, "lat": 52.4087643, "lon": 13.3761806}, {"type": "node", "id": 310193668, "lat": 52.3963268, "lon": 13.3771683}, {"type": "node", "id": 310193670, "lat": 52.3992578, "lon": 13.3744159}, {"type": "node", "id": 310193671, "lat": 52.3987278, "lon": 13.3645427}, {"type": "node", "id": 310193834, "lat": 52.3985966, "lon": 13.3655985}, {"type": "node", "id": 310193970, "lat": 52.3988184, "lon": 13.3685223}, {"type": "node", "id": 310193972, "lat": 52.3990532, "lon": 13.3711934}, {"type": "node", "id": 310195588, "lat": 52.4098827, "lon": 13.3697984}, {"type": "node", "id": 310195589, "lat": 52.4110189, "lon": 13.3704428}, {"type": "node", "id": 310195592, "lat": 52.4111682, "lon": 13.3703444}, {"type": "node", "id": 310195594, "lat": 52.4112677, "lon": 13.3704438}, {"type": "node", "id": 310196560, "lat": 52.4139306, "lon": 13.368533}, {"type": "node", "id": 310196562, "lat": 52.4139062, "lon": 13.3691688}, {"type": "node", "id": 310196564, "lat": 52.4142713, "lon": 13.3679839}, {"type": "node", "id": 310196567, "lat": 52.41387, "lon": 13.3688809}, {"type": "node", "id": 310196569, "lat": 52.4153265, "lon": 13.3697948}, {"type": "node", "id": 310196571, "lat": 52.4153448, "lon": 13.3692094}, {"type": "node", "id": 310196573, "lat": 52.4153802, "lon": 13.3694497}, {"type": "node", "id": 310196590, "lat": 52.4151978, "lon": 13.3700082}, {"type": "node", "id": 310196595, "lat": 52.4150562, "lon": 13.3700932}, {"type": "node", "id": 310566723, "lat": 52.409711, "lon": 13.3696994}, {"type": "node", "id": 310566747, "lat": 52.411337, "lon": 13.3701236}, {"type": "node", "id": 312714268, "lat": 52.4188932, "lon": 13.3903595}, {"type": "node", "id": 312714269, "lat": 52.4195244, "lon": 13.3908847}, {"type": "node", "id": 312714270, "lat": 52.4192894, "lon": 13.3912746}, {"type": "node", "id": 312714271, "lat": 52.41881, "lon": 13.3904975}, {"type": "node", "id": 312714272, "lat": 52.4184783, "lon": 13.3903737}, {"type": "node", "id": 312714275, "lat": 52.4187938, "lon": 13.3908856}, {"type": "node", "id": 312714276, "lat": 52.4186128, "lon": 13.3911855}, {"type": "node", "id": 312714277, "lat": 52.4182642, "lon": 13.3907328}, {"type": "node", "id": 313442287, "lat": 52.4018212, "lon": 13.3873688}, {"type": "node", "id": 324789478, "lat": 52.4130862, "lon": 13.3638844, "tags": {"addr:city": "Berlin", "addr:country": "DE", "addr:housenumber": "55", "addr:postcode": "12277", "addr:street": "Alt-Marienfelde", "addr:suburb": "Marienfelde", "amenity": "pharmacy", "dispensing": "yes", "healthcare": "pharmacy", "name": "Anker Apotheke", "opening_hours": "Sa 08:30-13:00; We 08:30-13:00; Mo,Tu,Th,Fr 08:00-18:30", "wheelchair": "yes"}}, {"type": "node", "id": 324792568, "lat": 52.4137071, "lon": 13.3637958, "tags": {"addr:housenumber": "145", "addr:postcode": "12279", "addr:street": "Marienfelder Allee", "amenity": "restaurant", "cuisine": "chinese", "diet:vegetarian": "yes", "indoor_seating": "yes", "name": "Happy Buddha", "opening_hours": "We-Su 12:00-22:00; Mo,Tu off", "outdoor_seating": "no", "wheelchair": "limited"}}, {"type": "node", "id": 324792570, "lat": 52.4133977, "lon": 13.3630022, "tags": {"addr:city": "Berlin", "addr:housenumber": "146", "addr:postcode": "12279", "addr:street": "Marienfelder Allee", "amenity": "fast_food", "cuisine": "pizza", "email": "info@mini-pizza-ciao.de", "name": "Pizza Ciao", "opening_hours": "Tu-Su 11:00-22:00", "phone": "+49 30 722 53 60", "website": "https://mini-pizza-ciao.de/", "wheelchair": "yes"}}, {"type": "node", "id": 324792572, "lat": 52.4134914, "lon": 13.3624551, "tags": {"addr:housenumber": "146", "addr:postcode": "12279", "addr:street": "Marienfelder Allee", "amenity": "restaurant", "cuisine": "italian;pasta;pizza", "diet:vegetarian": "yes", "name": "Colombina", "opening_hours": "Su 13:00-21:00; Tu-Sa 16:00-23:00", "phone": "+49307216016", "toilets:wheelchair": "no", "website": "https://colombina.eatbu.com/?lang=de", "wheelchair": "yes"}}, {"type": "node", "id": 324792574, "lat": 52.4131836, "lon": 13.3634937, "tags": {"amenity": "restaurant", "cuisine": "croatian", "indoor_seating": "yes", "name": "Adrijana Grill", "opening_hours": "Mo-Su 12:00-21:00", "outdoor_seating": "yes", "toilets:wheelchair": "no", "wheelchair": "limited"}}, {"type": "node", "id": 324792576, "lat": 52.4133405, "lon": 13.3629671, "tags": {"addr:city": "Berlin", "addr:housenumber": "146", "addr:postcode": "12279", "addr:street": "Marienfelder Allee", "amenity": "cafe", "cuisine": "ice_cream;coffee_shop", "name": "Eiscafe Europa", "outdoor_seating": "yes", "phone": "+49 30 721 74 95", "toilets:wheelchair": "yes", "website": "https://www.ital-eis-europa.de/", "wheelchair": "yes"}}, {"type": "node", "id": 324792579, "lat": 52.4141666, "lon": 13.3635792, "tags": {"amenity": "restaurant", "cuisine": "italian", "name": "La Luna"}}, {"type": "node", "id": 324792581, "lat": 52.4143333, "lon": 13.3643082, "tags": {"amenity": "fast_food", "cuisine": "kebab", "indoor_seating": "yes", "name": "Seven Grill", "outdoor_seating": "yes", "wheelchair": "limited"}}, {"type": "node", "id": 329605839, "lat": 52.4143006, "lon": 13.3637108, "tags": {"addr:city": "Berlin", "addr:country": "DE", "addr:housenumber": "136", "addr:postcode": "12277", "addr:street": "Marienfelder Allee", "addr:suburb": "Marienfelde", "amenity": "pub", "check_date:opening_hours": "2024-02-06", "indoor_seating": "yes", "name": "Bierkiste 136", "opening_hours:signed": "no", "outdoor_seating": "yes"}}, {"type": "node", "id": 330242770, "lat": 52.4158729, "lon": 13.36867}, {"type": "node", "id": 330242773, "lat": 52.4154776, "lon": 13.3700329}, {"type": "node", "id": 330242774, "lat": 52.4162275, "lon": 13.370621}, {"type": "node", "id": 330242777, "lat": 52.4164327, "lon": 13.3700101}, {"type": "node", "id": 330242778, "lat": 52.4165296, "lon": 13.3700897}, {"type": "node", "id": 330242783, "lat": 52.4149761, "lon": 13.374156}, {"type": "node", "id": 330242789, "lat": 52.4151219, "lon": 13.3722347}, {"type": "node", "id": 330242791, "lat": 52.4159132, "lon": 13.3712044}, {"type": "node", "id": 330242792, "lat": 52.4147437, "lon": 13.3703776}, {"type": "node", "id": 330242793, "lat": 52.4141323, "lon": 13.3682518}, {"type": "node", "id": 330243371, "lat": 52.413746, "lon": 13.367992}, {"type": "node", "id": 330243373, "lat": 52.4134711, "lon": 13.3690458}, {"type": "node", "id": 331395210, "lat": 52.4139434, "lon": 13.3681199}, {"type": "node", "id": 331395739, "lat": 52.4162917, "lon": 13.3708118}, {"type": "node", "id": 331397150, "lat": 52.4156659, "lon": 13.3685076}, {"type": "node", "id": 331397398, "lat": 52.4143906, "lon": 13.3674867, "tags": {"barrier": "gate", "foot": "yes"}}, {"type": "node", "id": 331397656, "lat": 52.4139362, "lon": 13.3671222}, {"type": "node", "id": 331397742, "lat": 52.4133671, "lon": 13.3690739}, {"type": "node", "id": 331397743, "lat": 52.4135242, "lon": 13.3689888}, {"type": "node", "id": 331397744, "lat": 52.4137355, "lon": 13.3682967}, {"type": "node", "id": 333718827, "lat": 52.4180046, "lon": 13.3560965}, {"type": "node", "id": 333718828, "lat": 52.4180253, "lon": 13.3559984}, {"type": "node", "id": 333718829, "lat": 52.4180979, "lon": 13.3559219}, {"type": "node", "id": 333718830, "lat": 52.4181783, "lon": 13.3558837}, {"type": "node", "id": 333718831, "lat": 52.4182146, "lon": 13.3557391}, {"type": "node", "id": 333718832, "lat": 52.418256, "lon": 13.3556499}, {"type": "node", "id": 333718833, "lat": 52.4183492, "lon": 13.3556076}, {"type": "node", "id": 333718834, "lat": 52.4184194, "lon": 13.3556456}, {"type": "node", "id": 333718835, "lat": 52.4185909, "lon": 13.3562367}, {"type": "node", "id": 333718836, "lat": 52.4183157, "lon": 13.3564788}, {"type": "node", "id": 333718837, "lat": 52.4182613, "lon": 13.3564278}, {"type": "node", "id": 333718838, "lat": 52.4182197, "lon": 13.3563853}, {"type": "node", "id": 333718839, "lat": 52.4181834, "lon": 13.356292}, {"type": "node", "id": 333718840, "lat": 52.4181083, "lon": 13.3563045}, {"type": "node", "id": 333718841, "lat": 52.418059, "lon": 13.3562747}, {"type": "node", "id": 333718842, "lat": 52.4180175, "lon": 13.356245}, {"type": "node", "id": 333718843, "lat": 52.4180097, "lon": 13.3561855}, {"type": "node", "id": 333718846, "lat": 52.4149664, "lon": 13.3588606}, {"type": "node", "id": 333765304, "lat": 52.4184347, "lon": 13.3557535}, {"type": "node", "id": 333765305, "lat": 52.4184685, "lon": 13.3558584}, {"type": "node", "id": 333765306, "lat": 52.4185306, "lon": 13.3559608}, {"type": "node", "id": 333765307, "lat": 52.4185603, "lon": 13.3561343}, {"type": "node", "id": 333765308, "lat": 52.41856, "lon": 13.3562922}, {"type": "node", "id": 333765309, "lat": 52.4184933, "lon": 13.3563427}, {"type": "node", "id": 333765310, "lat": 52.4184419, "lon": 13.356389}, {"type": "node", "id": 333765311, "lat": 52.418388, "lon": 13.3564227}, {"type": "node", "id": 339779495, "lat": 52.4157406, "lon": 13.358599}, {"type": "node", "id": 355490212, "lat": 52.4146171, "lon": 13.3747346}, {"type": "node", "id": 355497212, "lat": 52.4151861, "lon": 13.3743329}, {"type": "node", "id": 355497214, "lat": 52.4159537, "lon": 13.3718952}, {"type": "node", "id": 355499420, "lat": 52.4216726, "lon": 13.3675932}, {"type": "node", "id": 355499424, "lat": 52.4215671, "lon": 13.3671808, "tags": {"access": "yes", "leisure": "playground"}}, {"type": "node", "id": 444760897, "lat": 52.3998874, "lon": 13.3826482}, {"type": "node", "id": 444760912, "lat": 52.3999671, "lon": 13.3836534}, {"type": "node", "id": 444760955, "lat": 52.4001824, "lon": 13.382715}, {"type": "node", "id": 444760958, "lat": 52.4002408, "lon": 13.3835379}, {"type": "node", "id": 444760961, "lat": 52.400282, "lon": 13.3839373}, {"type": "node", "id": 444760963, "lat": 52.400334, "lon": 13.3842451}, {"type": "node", "id": 444760965, "lat": 52.400442, "lon": 13.3846951}, {"type": "node", "id": 444760972, "lat": 52.4005336, "lon": 13.3852623}, {"type": "node", "id": 444760974, "lat": 52.4007038, "lon": 13.385713}, {"type": "node", "id": 444760978, "lat": 52.4009579, "lon": 13.3862702}, {"type": "node", "id": 444760980, "lat": 52.4012106, "lon": 13.386624}, {"type": "node", "id": 444760983, "lat": 52.401424, "lon": 13.3868702}, {"type": "node", "id": 444760988, "lat": 52.4016691, "lon": 13.3871049}, {"type": "node", "id": 444770150, "lat": 52.3998728, "lon": 13.3824755}, {"type": "node", "id": 444770151, "lat": 52.4001691, "lon": 13.3824923}, {"type": "node", "id": 444770153, "lat": 52.4018696, "lon": 13.3873278}, {"type": "node", "id": 444822158, "lat": 52.4241682, "lon": 13.3773191}, {"type": "node", "id": 444822160, "lat": 52.4240157, "lon": 13.3778095}, {"type": "node", "id": 444822161, "lat": 52.4244074, "lon": 13.3781327}, {"type": "node", "id": 444822163, "lat": 52.4245583, "lon": 13.3776409}, {"type": "node", "id": 444825769, "lat": 52.4216766, "lon": 13.3842835}, {"type": "node", "id": 444825775, "lat": 52.4215178, "lon": 13.384586}, {"type": "node", "id": 444825782, "lat": 52.4217026, "lon": 13.3848444}, {"type": "node", "id": 444825791, "lat": 52.4218626, "lon": 13.3845322}, {"type": "node", "id": 444825793, "lat": 52.4217691, "lon": 13.384361}, {"type": "node", "id": 532438697, "lat": 52.4093176, "lon": 13.3810307, "tags": {"brand": "Kaufland", "brand:wikidata": "Q685967", "brand:wikipedia": "en:Kaufland", "level": "0", "name": "Kaufland", "opening_hours": "Mo-Sa 07:00-22:00", "organic": "yes", "shop": "supermarket", "website": "https://www.kaufland.de/Home/index.jsp", "wheelchair": "yes"}}, {"type": "node", "id": 540860988, "lat": 52.4002933, "lon": 13.3854743}, {"type": "node", "id": 540860996, "lat": 52.4006079, "lon": 13.3862475}, {"type": "node", "id": 540861022, "lat": 52.400456, "lon": 13.3880931}, {"type": "node", "id": 540861081, "lat": 52.4004288, "lon": 13.3879305}, {"type": "node", "id": 540861087, "lat": 52.4010576, "lon": 13.3875269}, {"type": "node", "id": 540861103, "lat": 52.4008381, "lon": 13.386654}, {"type": "node", "id": 571800623, "lat": 52.4215579, "lon": 13.3702571, "tags": {"addr:city": "Berlin", "addr:country": "DE", "addr:housenumber": "47", "addr:postcode": "12277", "addr:street": "Marienfelder Allee", "addr:suburb": "Marienfelde", "amenity": "pharmacy", "check_date": "2025-06-29", "check_date:opening_hours": "2025-06-29", "dispensing": "yes", "email": "sthub@t-online.de", "healthcare": "pharmacy", "name": "St. Hubertus", "opening_hours": "Mo,Tu,Th,Fr 08:30-18:30; We 08:30-18:00; Sa 08:30-13:00", "phone": "+493072320615", "website": "https://www.apotheke-marienfelde.de/", "wheelchair": "yes"}}, {"type": "node", "id": 582854281, "lat": 52.422213, "lon": 13.371144, "tags": {"addr:city": "Berlin", "addr:housenumber": "15", "addr:postcode": "12277", "addr:street": "Hranitzkystra\u00dfe", "amenity": "fast_food", "cuisine": "german", "internet_access": "no", "name": "J\u00f6rg's Curry Container", "opening_hours": "Mo-Sa 09:00-21:30", "website": "https://joergs-curry-container.eatbu.com/", "wheelchair": "yes"}}, {"type": "node", "id": 582854283, "lat": 52.4217236, "lon": 13.3704503, "tags": {"addr:city": "Berlin", "addr:housenumber": "43-45", "addr:postcode": "12277", "addr:street": "Marienfelder Allee", "amenity": "doctors", "healthcare": "doctor", "healthcare:speciality": "internal", "image": "https://www.repp-hausarzt.de/galerie#&gid=1710956311&pid=4", "level": "1", "name": "Kathrin Repp", "opening_hours": "Mo,Th 07:00-13:00; Tu 08:00-12:00,15:00-19:00; We 07:00-11:00; Fr 07:00-12:00", "operator": "Kathrin Repp", "website": "https://www.repp-hausarzt.de/"}}, {"type": "node", "id": 582854286, "lat": 52.4193408, "lon": 13.3684082, "tags": {"addr:city": "Berlin", "addr:country": "DE", "addr:housenumber": "75", "addr:postcode": "12277", "addr:street": "Marienfelder Allee", "addr:suburb": "Marienfelde", "amenity": "pharmacy", "check_date:opening_hours": "2025-06-29", "dispensing": "yes", "healthcare": "pharmacy", "name": "Ursus-Apotheke", "opening_hours": "Mo-Fr 08:30-18:00; Sa 08:30-13:00", "website": "https://www.ursus-apotheke-berlin.de/", "wheelchair": "yes"}}, {"type": "node", "id": 582854287, "lat": 52.4192555, "lon": 13.3684671, "tags": {"addr:city": "Berlin", "addr:housenumber": "75-79", "addr:postcode": "12277", "addr:street": "Marienfelder Allee", "amenity": "dentist", "check_date:opening_hours": "2025-06-29", "healthcare": "dentist", "name": "Dr. Jan-Hendrik Hollenstein & Kollegen", "opening_hours": "Mo-Th 09:00-13:00,14:00-19:00; Fr 09:00-15:00", "operator": "Dr. Jan-Hendrik Hollenstein", "wheelchair": "yes"}}, {"type": "node", "id": 582854288, "lat": 52.4191394, "lon": 13.3683653, "tags": {"name": "Eminem Supermarkt", "shop": "supermarket", "wheelchair": "yes"}}, {"type": "node", "id": 659034066, "lat": 52.4228277, "lon": 13.3707579, "tags": {"amenity": "fast_food", "check_date:opening_hours": "2025-03-09", "cuisine": "turkish", "name": "Marienfelder Bistro", "opening_hours:signed": "no", "wheelchair": "limited"}}, {"type": "node", "id": 659431996, "lat": 52.4189552, "lon": 13.3835454}, {"type": "node", "id": 659432005, "lat": 52.4191596, "lon": 13.3843198}, {"type": "node", "id": 659432011, "lat": 52.4188074, "lon": 13.3840525}, {"type": "node", "id": 693289397, "lat": 52.4133058, "lon": 13.3539303, "tags": {"amenity": "fast_food", "name": "Kebap Club", "wheelchair": "no"}}, {"type": "node", "id": 693289414, "lat": 52.413165, "lon": 13.3530162, "tags": {"addr:city": "Berlin", "addr:country": "DE", "addr:housenumber": "29", "addr:postcode": "12279", "addr:street": "Hildburghauser Stra\u00dfe", "addr:suburb": "Marienfelde", "amenity": "restaurant", "contact:phone": "+49 30 7216552", "contact:website": "http://www.restaurant-tai-lee.de/", "cuisine": "chinese", "name": "Tai-Lee", "opening_hours": "Th-Tu 11:30-22:00", "opening_hours:kitchen": "Th-Tu, PH 11:30-22:00", "wheelchair": "no"}}, {"type": "node", "id": 783980465, "lat": 52.4123875, "lon": 13.3685496, "tags": {"amenity": "restaurant", "cuisine": "german", "name": "Gasthof zur gr\u00fcnen Linde", "website": "http://gr\u00fcnelinde-berlin.de/", "wheelchair": "no"}}, {"type": "node", "id": 783980696, "lat": 52.4145054, "lon": 13.3650603, "tags": {"addr:city": "Berlin", "addr:housenumber": "133", "addr:postcode": "12277", "addr:street": "Marienfelder Allee", "amenity": "doctors", "healthcare": "doctor", "healthcare:speciality": "general", "name": "Dr. B\u00e4rbel Ennuschat", "opening_hours": "Mo,Th 08:30-12:30,15:30-17:30; Tu-We,Fr 08:30-12:00", "website": "https://dr-ennuschat.com", "wheelchair": "no"}}, {"type": "node", "id": 830073001, "lat": 52.3985326, "lon": 13.364522}, {"type": "node", "id": 850619776, "lat": 52.4204788, "lon": 13.369354, "tags": {"amenity": "fast_food", "brand": "Pizza Max", "brand:wikidata": "Q114189329", "check_date:opening_hours": "2024-02-06", "cuisine": "pizza", "name": "Pizza Max", "opening_hours:signed": "no", "takeaway": "yes", "wheelchair": "no"}}, {"type": "node", "id": 864374463, "lat": 52.4174984, "lon": 13.3678748}, {"type": "node", "id": 864374467, "lat": 52.4011405, "lon": 13.3648974}, {"type": "node", "id": 864374493, "lat": 52.417286, "lon": 13.3676993}, {"type": "node", "id": 864374506, "lat": 52.4176478, "lon": 13.3673139}, {"type": "node", "id": 864374522, "lat": 52.4018177, "lon": 13.364863}, {"type": "node", "id": 867826296, "lat": 52.417108, "lon": 13.3574937}, {"type": "node", "id": 1027998918, "lat": 52.4218343, "lon": 13.3846895}, {"type": "node", "id": 1027998923, "lat": 52.4216103, "lon": 13.3848182}, {"type": "node", "id": 1027998927, "lat": 52.4215329, "lon": 13.384538}, {"type": "node", "id": 1027998981, "lat": 52.421861, "lon": 13.3845378}, {"type": "node", "id": 1027999051, "lat": 52.4217726, "lon": 13.3848086}, {"type": "node", "id": 1027999053, "lat": 52.4215371, "lon": 13.3847092}, {"type": "node", "id": 1027999098, "lat": 52.421839, "lon": 13.3844197}, {"type": "node", "id": 1028152019, "lat": 52.4147726, "lon": 13.3528128}, {"type": "node", "id": 1028152037, "lat": 52.4157235, "lon": 13.3483139}, {"type": "node", "id": 1028152055, "lat": 52.4142228, "lon": 13.3513074}, {"type": "node", "id": 1028152091, "lat": 52.4159072, "lon": 13.3478201}, {"type": "node", "id": 1028152096, "lat": 52.4151291, "lon": 13.3531277}, {"type": "node", "id": 1028152107, "lat": 52.415572, "lon": 13.3525352}, {"type": "node", "id": 1028152151, "lat": 52.4140531, "lon": 13.3521437}, {"type": "node", "id": 1028152177, "lat": 52.4150269, "lon": 13.34734}, {"type": "node", "id": 1028152184, "lat": 52.4153907, "lon": 13.3533624}, {"type": "node", "id": 1028152200, "lat": 52.415021, "lon": 13.3520484}, {"type": "node", "id": 1029213660, "lat": 52.4078665, "lon": 13.3550362}, {"type": "node", "id": 1029675404, "lat": 52.4123187, "lon": 13.3606387, "tags": {"addr:housenumber": "3", "addr:postcode": "12279", "addr:street": "Hildburghauser Stra\u00dfe", "brand": "ALDI Nord", "brand:wikidata": "Q41171373", "brand:wikipedia": "en:Aldi", "check_date:opening_hours": "2024-10-18", "name": "Aldi", "opening_hours": "Mo-Sa 07:00-20:00", "operator": "Aldi Nord", "shop": "supermarket", "website": "https://www.aldi-nord.de/filialen-und-oeffnungszeiten.html/l/berlin/hildburghauser-strasse-3/3180755", "wheelchair": "yes"}}, {"type": "node", "id": 1145363054, "lat": 52.4043111, "lon": 13.3660722}, {"type": "node", "id": 1195413138, "lat": 52.408731, "lon": 13.3561793, "tags": {"addr:city": "Berlin", "addr:housenumber": "1", "addr:postcode": "12279", "addr:street": "Zernickstra\u00dfe", "amenity": "fast_food", "brand": "Domino's", "brand:wikidata": "Q839466", "cuisine": "pizza", "name": "Domino's", "name:en": "Domino's Pizza", "opening_hours": "So-Do 11:00 - 23:00, Fr-Sa 11:00 - 00:00", "phone": "030 235952688", "takeaway": "yes", "website": "https://www.dominos.de/filiale/de-berlinmarienfelde-34275", "wheelchair": "no"}}, {"type": "node", "id": 1195413143, "lat": 52.4087358, "lon": 13.355903, "tags": {"amenity": "pub", "name": "Treffpunkt", "wheelchair": "no"}}, {"type": "node", "id": 1195426382, "lat": 52.4079783, "lon": 13.3566942, "tags": {"leisure": "playground"}}, {"type": "node", "id": 1270299121, "lat": 52.3995338, "lon": 13.3776279}, {"type": "node", "id": 1314770036, "lat": 52.4059464, "lon": 13.3573989}, {"type": "node", "id": 1346788109, "lat": 52.4111088, "lon": 13.3777211, "tags": {"addr:city": "Berlin", "addr:country": "DE", "addr:housenumber": "9", "addr:postcode": "12277", "addr:street": "Zehrensdorfer Stra\u00dfe", "addr:suburb": "Marienfelde", "amenity": "restaurant", "cuisine": "burger", "diet:vegetarian": "yes", "email": "Info@Flame-Diner.de", "internet_access": "wlan", "internet_access:fee": "no", "name": "Flame Diner", "opening_hours": "Mo-Fr 02:00-16:00+, Sa,Su 10:00+", "operator": "Detlef \"Pauli\" Stahl", "phone": "+493028036023", "website": "https://www.flame-diner.com/"}}, {"type": "node", "id": 1426226684, "lat": 52.4267629, "lon": 13.3738584, "tags": {"amenity": "restaurant", "cuisine": "italian", "name": "Ariano"}}, {"type": "node", "id": 1572836471, "lat": 52.4145214, "lon": 13.3748499}, {"type": "node", "id": 1572836475, "lat": 52.4153447, "lon": 13.3732436}, {"type": "node", "id": 1572836477, "lat": 52.4154004, "lon": 13.3736605, "tags": {"barrier": "gate"}}, {"type": "node", "id": 1572836485, "lat": 52.4157423, "lon": 13.3721984}, {"type": "node", "id": 1572836486, "lat": 52.4157884, "lon": 13.3722418}, {"type": "node", "id": 1572836487, "lat": 52.415794, "lon": 13.3720509}, {"type": "node", "id": 1572836488, "lat": 52.4158401, "lon": 13.3720943}, {"type": "node", "id": 1613523896, "lat": 52.4211841, "lon": 13.3636139}, {"type": "node", "id": 1614099472, "lat": 52.4074855, "lon": 13.3617013}, {"type": "node", "id": 1614099483, "lat": 52.4075736, "lon": 13.3596356}, {"type": "node", "id": 1614125587, "lat": 52.4057356, "lon": 13.3579133}, {"type": "node", "id": 1654022882, "lat": 52.3956837, "lon": 13.375138}, {"type": "node", "id": 1654022902, "lat": 52.3958541, "lon": 13.3764045}, {"type": "node", "id": 1654049207, "lat": 52.3966247, "lon": 13.3760796}, {"type": "node", "id": 1654049218, "lat": 52.3993826, "lon": 13.3754959}, {"type": "node", "id": 1657670837, "lat": 52.4005436, "lon": 13.3742213}, {"type": "node", "id": 1657670919, "lat": 52.4060836, "lon": 13.3734912}, {"type": "node", "id": 1657670935, "lat": 52.4074585, "lon": 13.3755028}, {"type": "node", "id": 1657671039, "lat": 52.4089061, "lon": 13.3738603}, {"type": "node", "id": 1673091189, "lat": 52.4192894, "lon": 13.3838832}, {"type": "node", "id": 1699169696, "lat": 52.4123102, "lon": 13.3514247}, {"type": "node", "id": 2230038475, "lat": 52.4143786, "lon": 13.3518885}, {"type": "node", "id": 2230038477, "lat": 52.4143974, "lon": 13.3517962}, {"type": "node", "id": 2230038478, "lat": 52.4143898, "lon": 13.3520146}, {"type": "node", "id": 2230038479, "lat": 52.4144525, "lon": 13.3517556}, {"type": "node", "id": 2230038480, "lat": 52.4144616, "lon": 13.3519941}, {"type": "node", "id": 2230038481, "lat": 52.4145107, "lon": 13.3519475}, {"type": "node", "id": 2230038482, "lat": 52.4144952, "lon": 13.352051}, {"type": "node", "id": 2230038483, "lat": 52.414511, "lon": 13.3517998}, {"type": "node", "id": 2230038485, "lat": 52.4145582, "lon": 13.3520431}, {"type": "node", "id": 2230038487, "lat": 52.4145246, "lon": 13.3519039}, {"type": "node", "id": 2230038489, "lat": 52.4146324, "lon": 13.3520188}, {"type": "node", "id": 2230038491, "lat": 52.4147014, "lon": 13.3524201}, {"type": "node", "id": 2230038492, "lat": 52.4147171, "lon": 13.3520478}, {"type": "node", "id": 2230038493, "lat": 52.4148149, "lon": 13.3522245}, {"type": "node", "id": 2230038494, "lat": 52.4148872, "lon": 13.3523819}, {"type": "node", "id": 2249870041, "lat": 52.4164665, "lon": 13.3925166}, {"type": "node", "id": 2249870044, "lat": 52.4168718, "lon": 13.3920918}, {"type": "node", "id": 2249870045, "lat": 52.4164892, "lon": 13.3923092}, {"type": "node", "id": 2249870046, "lat": 52.4164923, "lon": 13.3919745}, {"type": "node", "id": 2249870047, "lat": 52.4164989, "lon": 13.3919118}, {"type": "node", "id": 2249870048, "lat": 52.4163536, "lon": 13.3924843}, {"type": "node", "id": 2249870049, "lat": 52.4168337, "lon": 13.3924164}, {"type": "node", "id": 2249870051, "lat": 52.4164173, "lon": 13.3918859}, {"type": "node", "id": 2281137269, "lat": 52.421333, "lon": 13.3674905}, {"type": "node", "id": 2281137273, "lat": 52.4215212, "lon": 13.3668399}, {"type": "node", "id": 2281137288, "lat": 52.421747, "lon": 13.3669389}, {"type": "node", "id": 2304393652, "lat": 52.4184018, "lon": 13.3909559}, {"type": "node", "id": 2304393656, "lat": 52.4184362, "lon": 13.3908989}, {"type": "node", "id": 2349886466, "lat": 52.4152915, "lon": 13.3690718}, {"type": "node", "id": 2377948952, "lat": 52.4152864, "lon": 13.3931573}, {"type": "node", "id": 2377948988, "lat": 52.4148911, "lon": 13.3930161}, {"type": "node", "id": 2377949005, "lat": 52.4148213, "lon": 13.3932321}, {"type": "node", "id": 2377949009, "lat": 52.4150534, "lon": 13.3931844}, {"type": "node", "id": 2377949015, "lat": 52.4149364, "lon": 13.393332}, {"type": "node", "id": 2377949017, "lat": 52.4149906, "lon": 13.393379}, {"type": "node", "id": 2377949066, "lat": 52.4149928, "lon": 13.3931044}, {"type": "node", "id": 2377949073, "lat": 52.4150437, "lon": 13.3929466}, {"type": "node", "id": 2377949081, "lat": 52.4152285, "lon": 13.3933364}, {"type": "node", "id": 2378082438, "lat": 52.4240255, "lon": 13.3776215}, {"type": "node", "id": 2378082444, "lat": 52.4240637, "lon": 13.377653}, {"type": "node", "id": 2378082445, "lat": 52.4240773, "lon": 13.3774527}, {"type": "node", "id": 2378082449, "lat": 52.4241172, "lon": 13.3774856}, {"type": "node", "id": 2402120116, "lat": 52.4176325, "lon": 13.3673596}, {"type": "node", "id": 2402120118, "lat": 52.4176782, "lon": 13.3673971}, {"type": "node", "id": 2402138924, "lat": 52.4195595, "lon": 13.3698427}, {"type": "node", "id": 2402138990, "lat": 52.4229663, "lon": 13.3708715, "tags": {"healthcare": "podiatrist", "name": "Fachpraxis f\u00fcr Podologie", "opening_hours": "Mo,Tu,Th 08:30-15:30; We 08:30-17:00; Fr 08:30-14:00; Sa,Su,PH off"}}, {"type": "node", "id": 2402213290, "lat": 52.4173972, "lon": 13.3673241}, {"type": "node", "id": 2402213291, "lat": 52.4174026, "lon": 13.3673281}, {"type": "node", "id": 2402213292, "lat": 52.417452, "lon": 13.3671497}, {"type": "node", "id": 2402213293, "lat": 52.4176018, "lon": 13.3675436}, {"type": "node", "id": 2402213294, "lat": 52.4176261, "lon": 13.3675626}, {"type": "node", "id": 2403073256, "lat": 52.4161218, "lon": 13.3713546}, {"type": "node", "id": 2414831396, "lat": 52.4138848, "lon": 13.3687076}, {"type": "node", "id": 2414831397, "lat": 52.413878, "lon": 13.3690236}, {"type": "node", "id": 2414831399, "lat": 52.4139861, "lon": 13.369364}, {"type": "node", "id": 2414831400, "lat": 52.4140038, "lon": 13.3683856}, {"type": "node", "id": 2414831403, "lat": 52.4142018, "lon": 13.3682169}, {"type": "node", "id": 2414831404, "lat": 52.4149342, "lon": 13.3700915}, {"type": "node", "id": 2414831406, "lat": 52.4149942, "lon": 13.3701004}, {"type": "node", "id": 2414831407, "lat": 52.4151406, "lon": 13.3700553}, {"type": "node", "id": 2414831409, "lat": 52.41525, "lon": 13.3699453}, {"type": "node", "id": 2414831410, "lat": 52.4152944, "lon": 13.36987}, {"type": "node", "id": 2414831411, "lat": 52.4153205, "lon": 13.3691367}, {"type": "node", "id": 2414831412, "lat": 52.415355, "lon": 13.3696987}, {"type": "node", "id": 2414831413, "lat": 52.4153678, "lon": 13.3693134}, {"type": "node", "id": 2414831415, "lat": 52.4153745, "lon": 13.3695846}, {"type": "node", "id": 2414956160, "lat": 52.4159074, "lon": 13.3677736}, {"type": "node", "id": 2414956171, "lat": 52.4161041, "lon": 13.3679384}, {"type": "node", "id": 2414956173, "lat": 52.4161115, "lon": 13.3671088}, {"type": "node", "id": 2414956175, "lat": 52.4161398, "lon": 13.3678212, "tags": {"barrier": "cycle_barrier", "cycle_barrier": "double"}}, {"type": "node", "id": 2414956177, "lat": 52.4162236, "lon": 13.3675578, "tags": {"barrier": "cycle_barrier", "cycle_barrier": "double"}}, {"type": "node", "id": 2414956180, "lat": 52.4163102, "lon": 13.3672811}, {"type": "node", "id": 2663930244, "lat": 52.4250091, "lon": 13.3694502}, {"type": "node", "id": 2663930248, "lat": 52.4251554, "lon": 13.3689892}, {"type": "node", "id": 2663930257, "lat": 52.4253203, "lon": 13.3697159}, {"type": "node", "id": 2663930260, "lat": 52.4254666, "lon": 13.3692548}, {"type": "node", "id": 2754778172, "lat": 52.4143379, "lon": 13.3607605, "tags": {"leisure": "playground", "playground": "sandpit"}}, {"type": "node", "id": 2823110590, "lat": 52.4149118, "lon": 13.3478986}, {"type": "node", "id": 2862174036, "lat": 52.4110529, "lon": 13.3702942}, {"type": "node", "id": 2908259801, "lat": 52.3960375, "lon": 13.3773727}, {"type": "node", "id": 2908307901, "lat": 52.3957329, "lon": 13.375074}, {"type": "node", "id": 2908307907, "lat": 52.3969046, "lon": 13.3748175}, {"type": "node", "id": 2908392157, "lat": 52.408396, "lon": 13.3581837}, {"type": "node", "id": 2908392169, "lat": 52.4084994, "lon": 13.3581775}, {"type": "node", "id": 2908392258, "lat": 52.4087897, "lon": 13.358234}, {"type": "node", "id": 2908393052, "lat": 52.4083904, "lon": 13.3579341}, {"type": "node", "id": 2908393527, "lat": 52.4083419, "lon": 13.3578252}, {"type": "node", "id": 2908393847, "lat": 52.40878, "lon": 13.3577989}, {"type": "node", "id": 2908394033, "lat": 52.4083444, "lon": 13.3579369}, {"type": "node", "id": 2908394434, "lat": 52.408501, "lon": 13.3582513}, {"type": "node", "id": 2908708108, "lat": 52.4127575, "lon": 13.3542718}, {"type": "node", "id": 2908708503, "lat": 52.4125799, "lon": 13.3550729}, {"type": "node", "id": 2908708703, "lat": 52.4129006, "lon": 13.3542755}, {"type": "node", "id": 2908708902, "lat": 52.4113615, "lon": 13.3513854}, {"type": "node", "id": 2908709107, "lat": 52.4126234, "lon": 13.3551695}, {"type": "node", "id": 2908709201, "lat": 52.4105151, "lon": 13.3515274}, {"type": "node", "id": 2908709202, "lat": 52.4125915, "lon": 13.3542642}, {"type": "node", "id": 2908709501, "lat": 52.4110104, "lon": 13.3507836}, {"type": "node", "id": 2908710005, "lat": 52.4128939, "lon": 13.3547872}, {"type": "node", "id": 2908710704, "lat": 52.412888, "lon": 13.3551804}, {"type": "node", "id": 3092552609, "lat": 52.4053421, "lon": 13.3588999}, {"type": "node", "id": 3098367334, "lat": 52.4188474, "lon": 13.3560942}, {"type": "node", "id": 3183053548, "lat": 52.4094935, "lon": 13.3559056}, {"type": "node", "id": 3183058164, "lat": 52.4094592, "lon": 13.3557017}, {"type": "node", "id": 3183058165, "lat": 52.4092743, "lon": 13.3561175}, {"type": "node", "id": 3183058168, "lat": 52.4091777, "lon": 13.3556991}, {"type": "node", "id": 3183058170, "lat": 52.4094248, "lon": 13.3559914}, {"type": "node", "id": 3183058179, "lat": 52.4093561, "lon": 13.3560826}, {"type": "node", "id": 3183058183, "lat": 52.4095001, "lon": 13.3557608}, {"type": "node", "id": 3183058185, "lat": 52.409505, "lon": 13.3558439}, {"type": "node", "id": 3183058186, "lat": 52.4091646, "lon": 13.3561175}, {"type": "node", "id": 3183085770, "lat": 52.4095027, "lon": 13.3558043}, {"type": "node", "id": 3183085774, "lat": 52.4093952, "lon": 13.3557011}, {"type": "node", "id": 3183085775, "lat": 52.4091758, "lon": 13.3557589}, {"type": "node", "id": 3183085779, "lat": 52.4091689, "lon": 13.3559814}, {"type": "node", "id": 3184522017, "lat": 52.4091677, "lon": 13.3560198}, {"type": "node", "id": 3274696153, "lat": 52.3960872, "lon": 13.3775883}, {"type": "node", "id": 3274696263, "lat": 52.396147, "lon": 13.377574}, {"type": "node", "id": 3274696350, "lat": 52.3962512, "lon": 13.3774073}, {"type": "node", "id": 3274696384, "lat": 52.3963279, "lon": 13.3773045}, {"type": "node", "id": 3274699130, "lat": 52.3996278, "lon": 13.3776007}, {"type": "node", "id": 3274699157, "lat": 52.3998198, "lon": 13.379989}, {"type": "node", "id": 3274699170, "lat": 52.3999656, "lon": 13.3820833}, {"type": "node", "id": 3274699171, "lat": 52.3998708, "lon": 13.3824542}, {"type": "node", "id": 3274699183, "lat": 52.3999331, "lon": 13.3814029}, {"type": "node", "id": 3274699206, "lat": 52.400187, "lon": 13.3821122}, {"type": "node", "id": 3274700205, "lat": 52.4045875, "lon": 13.3748172}, {"type": "node", "id": 3274700481, "lat": 52.4085711, "lon": 13.3763574}, {"type": "node", "id": 3274700503, "lat": 52.408893, "lon": 13.376084}, {"type": "node", "id": 3274700505, "lat": 52.4089916, "lon": 13.3757908}, {"type": "node", "id": 3327971582, "lat": 52.4238368, "lon": 13.3716306}, {"type": "node", "id": 3327971602, "lat": 52.4238607, "lon": 13.3715546}, {"type": "node", "id": 3327971615, "lat": 52.4238733, "lon": 13.3715652}, {"type": "node", "id": 3327971643, "lat": 52.4239023, "lon": 13.371473}, {"type": "node", "id": 3327971668, "lat": 52.4239348, "lon": 13.3715003}, {"type": "node", "id": 3327971693, "lat": 52.4239562, "lon": 13.3714326}, {"type": "node", "id": 3327971728, "lat": 52.4239861, "lon": 13.3717545}, {"type": "node", "id": 3327971761, "lat": 52.4240156, "lon": 13.3715704}, {"type": "node", "id": 3327971769, "lat": 52.4240249, "lon": 13.3716303}, {"type": "node", "id": 3327971781, "lat": 52.4240374, "lon": 13.3715013}, {"type": "node", "id": 3327971782, "lat": 52.4240376, "lon": 13.3715886}, {"type": "node", "id": 3544884098, "lat": 52.4194885, "lon": 13.3597863}, {"type": "node", "id": 3684330675, "lat": 52.4159103, "lon": 13.3923404}, {"type": "node", "id": 3684330676, "lat": 52.4159108, "lon": 13.3923346}, {"type": "node", "id": 3684330677, "lat": 52.4159374, "lon": 13.3923479}, {"type": "node", "id": 3684330678, "lat": 52.4159478, "lon": 13.3922476}, {"type": "node", "id": 3684330680, "lat": 52.4159661, "lon": 13.3923553}, {"type": "node", "id": 3684330681, "lat": 52.4159744, "lon": 13.3918022}, {"type": "node", "id": 3684330683, "lat": 52.4159766, "lon": 13.3922556}, {"type": "node", "id": 3684330687, "lat": 52.4160268, "lon": 13.391819}, {"type": "node", "id": 3684330688, "lat": 52.4160285, "lon": 13.3918056}, {"type": "node", "id": 3684330697, "lat": 52.4162053, "lon": 13.3924295}, {"type": "node", "id": 3684330702, "lat": 52.4162242, "lon": 13.3922557}, {"type": "node", "id": 3684330703, "lat": 52.4162091, "lon": 13.3918913}, {"type": "node", "id": 3684330704, "lat": 52.416212, "lon": 13.3918674}, {"type": "node", "id": 3684330706, "lat": 52.4162336, "lon": 13.392256}, {"type": "node", "id": 3684330708, "lat": 52.4162473, "lon": 13.3920526}, {"type": "node", "id": 3684330710, "lat": 52.4162573, "lon": 13.3920545}, {"type": "node", "id": 3684330711, "lat": 52.4162644, "lon": 13.3919089}, {"type": "node", "id": 3738309941, "lat": 52.4071037, "lon": 13.3575657}, {"type": "node", "id": 3738310586, "lat": 52.4081283, "lon": 13.354886}, {"type": "node", "id": 3738310592, "lat": 52.4081462, "lon": 13.3549123}, {"type": "node", "id": 3738310597, "lat": 52.408153, "lon": 13.3549477}, {"type": "node", "id": 3738310625, "lat": 52.4082091, "lon": 13.3548092}, {"type": "node", "id": 3738310629, "lat": 52.4082202, "lon": 13.3548517}, {"type": "node", "id": 3738310635, "lat": 52.4082288, "lon": 13.354695}, {"type": "node", "id": 3738310753, "lat": 52.4084331, "lon": 13.3539678}, {"type": "node", "id": 3738310779, "lat": 52.4084666, "lon": 13.3535684}, {"type": "node", "id": 3738310830, "lat": 52.4085132, "lon": 13.3541534}, {"type": "node", "id": 3738310837, "lat": 52.4085083, "lon": 13.3537073}, {"type": "node", "id": 3738310854, "lat": 52.4086013, "lon": 13.3543245}, {"type": "node", "id": 3738310885, "lat": 52.4085647, "lon": 13.3538601}, {"type": "node", "id": 3738310896, "lat": 52.4085684, "lon": 13.3555068}, {"type": "node", "id": 3738310922, "lat": 52.4085832, "lon": 13.3554178}, {"type": "node", "id": 3738311006, "lat": 52.4086365, "lon": 13.3552076}, {"type": "node", "id": 3738311106, "lat": 52.4087268, "lon": 13.3549246}, {"type": "node", "id": 3738311146, "lat": 52.408793, "lon": 13.3546194}, {"type": "node", "id": 3738865846, "lat": 52.4118232, "lon": 13.3615342}, {"type": "node", "id": 3738865858, "lat": 52.4118703, "lon": 13.36141}, {"type": "node", "id": 3738865871, "lat": 52.4119055, "lon": 13.3614448}, {"type": "node", "id": 3738865872, "lat": 52.4119129, "lon": 13.3614233}, {"type": "node", "id": 3738865877, "lat": 52.4119234, "lon": 13.3614363}, {"type": "node", "id": 3738865880, "lat": 52.4119266, "lon": 13.361428}, {"type": "node", "id": 3738865881, "lat": 52.4119292, "lon": 13.3616399}, {"type": "node", "id": 3738865883, "lat": 52.4119366, "lon": 13.361476}, {"type": "node", "id": 3738865886, "lat": 52.4119467, "lon": 13.3614502}, {"type": "node", "id": 3738865898, "lat": 52.4119762, "lon": 13.3615156}, {"type": "node", "id": 3738868342, "lat": 52.4137775, "lon": 13.3676415}, {"type": "node", "id": 3738868458, "lat": 52.413912, "lon": 13.3672035}, {"type": "node", "id": 3738869470, "lat": 52.4148094, "lon": 13.3590296}, {"type": "node", "id": 3738871007, "lat": 52.4158143, "lon": 13.3582119}, {"type": "node", "id": 3739956961, "lat": 52.4157099, "lon": 13.3938976}, {"type": "node", "id": 3739956963, "lat": 52.4157382, "lon": 13.3938087}, {"type": "node", "id": 3739956966, "lat": 52.4157627, "lon": 13.3939427}, {"type": "node", "id": 3739956967, "lat": 52.4157713, "lon": 13.3939157}, {"type": "node", "id": 3739956968, "lat": 52.4157857, "lon": 13.3936835}, {"type": "node", "id": 3739956969, "lat": 52.4158312, "lon": 13.3939667}, {"type": "node", "id": 3739956970, "lat": 52.4158449, "lon": 13.3935032}, {"type": "node", "id": 3739956971, "lat": 52.4158508, "lon": 13.3939049}, {"type": "node", "id": 3739956974, "lat": 52.416021, "lon": 13.393891}, {"type": "node", "id": 3739956979, "lat": 52.4160802, "lon": 13.3937107}, {"type": "node", "id": 3739957013, "lat": 52.4170883, "lon": 13.394855}, {"type": "node", "id": 3739957016, "lat": 52.4171326, "lon": 13.3948829}, {"type": "node", "id": 3739957018, "lat": 52.4172244, "lon": 13.3947955}, {"type": "node", "id": 3739957020, "lat": 52.417246, "lon": 13.3943139}, {"type": "node", "id": 3739957425, "lat": 52.4173027, "lon": 13.3948532}, {"type": "node", "id": 3739957426, "lat": 52.4173186, "lon": 13.3945073}, {"type": "node", "id": 3739957430, "lat": 52.4173481, "lon": 13.3943938}, {"type": "node", "id": 3739957431, "lat": 52.41739, "lon": 13.3945724}, {"type": "node", "id": 3874387857, "lat": 52.4131216, "lon": 13.3531764, "tags": {"addr:city": "Berlin", "addr:country": "DE", "addr:housenumber": "29", "addr:postcode": "12279", "addr:street": "Hildburghauser Stra\u00dfe", "addr:suburb": "Marienfelde", "healthcare": "counselling", "name": "MaLi Flexibles Beratungsteam", "opening_hours": "Mo 12:00-15:00; Tu 09:00-11:00; We 09:00-12:00; Th 12:00-16:00"}}, {"type": "node", "id": 3905713263, "lat": 52.4018508, "lon": 13.387231}, {"type": "node", "id": 4144845177, "lat": 52.4147028, "lon": 13.3754257}, {"type": "node", "id": 4149897202, "lat": 52.4093166, "lon": 13.3493101}, {"type": "node", "id": 4149897203, "lat": 52.4093413, "lon": 13.3489507}, {"type": "node", "id": 4149897204, "lat": 52.4095461, "lon": 13.3489581}, {"type": "node", "id": 4149897205, "lat": 52.4095412, "lon": 13.3493177}, {"type": "node", "id": 4149897206, "lat": 52.4098946, "lon": 13.3483917}, {"type": "node", "id": 4149897207, "lat": 52.4101106, "lon": 13.3484893}, {"type": "node", "id": 4149897208, "lat": 52.410106, "lon": 13.3487078}, {"type": "node", "id": 4149897209, "lat": 52.4098865, "lon": 13.3487038}, {"type": "node", "id": 4149897219, "lat": 52.412557, "lon": 13.3495825}, {"type": "node", "id": 4149897220, "lat": 52.4125556, "lon": 13.3494667}, {"type": "node", "id": 4149897221, "lat": 52.4126393, "lon": 13.3495053}, {"type": "node", "id": 4149897222, "lat": 52.4126136, "lon": 13.3496163}, {"type": "node", "id": 4233798080, "lat": 52.4079887, "lon": 13.3579506, "tags": {"addr:city": "Berlin", "addr:housenumber": "212 a", "addr:postcode": "12279", "addr:street": "Marienfelder Allee", "healthcare": "physiotherapist", "name": "Physiotherapeut Gero Schultz", "phone": "+49 30 723 1326"}}, {"type": "node", "id": 4247963482, "lat": 52.4076334, "lon": 13.3517908}, {"type": "node", "id": 4339135790, "lat": 52.4231184, "lon": 13.371017, "tags": {"amenity": "fast_food", "check_date:opening_hours": "2024-02-06", "name": "Sushi 4 you", "opening_hours:signed": "no"}}, {"type": "node", "id": 4511087485, "lat": 52.3997603, "lon": 13.3763059}, {"type": "node", "id": 4511088095, "lat": 52.407142, "lon": 13.3580404}, {"type": "node", "id": 4511088100, "lat": 52.4075049, "lon": 13.3583447}, {"type": "node", "id": 4511088101, "lat": 52.4078918, "lon": 13.3585815}, {"type": "node", "id": 4511088103, "lat": 52.4042662, "lon": 13.3618992}, {"type": "node", "id": 4511088104, "lat": 52.4045203, "lon": 13.3622451}, {"type": "node", "id": 4511088105, "lat": 52.4051585, "lon": 13.3599348}, {"type": "node", "id": 4511088108, "lat": 52.4018792, "lon": 13.3616316}, {"type": "node", "id": 4511088109, "lat": 52.4018041, "lon": 13.365135}, {"type": "node", "id": 4511088110, "lat": 52.4017184, "lon": 13.3652742}, {"type": "node", "id": 4511088111, "lat": 52.4014596, "lon": 13.365356}, {"type": "node", "id": 4511088112, "lat": 52.4011568, "lon": 13.3653492}, {"type": "node", "id": 4511088114, "lat": 52.4019179, "lon": 13.3627679}, {"type": "node", "id": 4511088115, "lat": 52.4019789, "lon": 13.3622533}, {"type": "node", "id": 4511088116, "lat": 52.4006109, "lon": 13.364836}, {"type": "node", "id": 4693755078, "lat": 52.3994731, "lon": 13.3768017}, {"type": "node", "id": 5006352523, "lat": 52.4076379, "lon": 13.3514776}, {"type": "node", "id": 5006352524, "lat": 52.4075099, "lon": 13.351872}, {"type": "node", "id": 5006352525, "lat": 52.40741, "lon": 13.351473}, {"type": "node", "id": 5067542415, "lat": 52.4017218, "lon": 13.3592922}, {"type": "node", "id": 5067542416, "lat": 52.40179, "lon": 13.3589936}, {"type": "node", "id": 5067542417, "lat": 52.4016347, "lon": 13.35982}, {"type": "node", "id": 5067542418, "lat": 52.4021113, "lon": 13.3600204}, {"type": "node", "id": 5067542419, "lat": 52.4023107, "lon": 13.3590476}, {"type": "node", "id": 5067542420, "lat": 52.4018644, "lon": 13.3587273}, {"type": "node", "id": 5094086544, "lat": 52.4136136, "lon": 13.3686933}, {"type": "node", "id": 5094086546, "lat": 52.4138595, "lon": 13.3683991}, {"type": "node", "id": 5094086563, "lat": 52.4142954, "lon": 13.3750058}, {"type": "node", "id": 5094086564, "lat": 52.4144098, "lon": 13.3745705}, {"type": "node", "id": 5094086565, "lat": 52.4143108, "lon": 13.3750994}, {"type": "node", "id": 5286262596, "lat": 52.3999623, "lon": 13.3834692}, {"type": "node", "id": 5286262598, "lat": 52.4007182, "lon": 13.3864597}, {"type": "node", "id": 5286262599, "lat": 52.4002169, "lon": 13.3852055}, {"type": "node", "id": 5286262600, "lat": 52.4001534, "lon": 13.384945}, {"type": "node", "id": 5286262601, "lat": 52.3999856, "lon": 13.3838304}, {"type": "node", "id": 5286262602, "lat": 52.4000462, "lon": 13.3843012}, {"type": "node", "id": 5286262609, "lat": 52.400447, "lon": 13.3858902}, {"type": "node", "id": 5286271114, "lat": 52.4088531, "lon": 13.370121}, {"type": "node", "id": 5286271115, "lat": 52.4089043, "lon": 13.3701283}, {"type": "node", "id": 5286271116, "lat": 52.4088985, "lon": 13.3702376}, {"type": "node", "id": 5286271117, "lat": 52.4089148, "lon": 13.3702399}, {"type": "node", "id": 5286271118, "lat": 52.4089099, "lon": 13.3703319}, {"type": "node", "id": 5286271119, "lat": 52.4088964, "lon": 13.3703299}, {"type": "node", "id": 5286271120, "lat": 52.408894, "lon": 13.3703761}, {"type": "node", "id": 5286275321, "lat": 52.4088834, "lon": 13.3703746}, {"type": "node", "id": 5286275322, "lat": 52.4088774, "lon": 13.3704856}, {"type": "node", "id": 5286275323, "lat": 52.4087611, "lon": 13.3704689}, {"type": "node", "id": 5286275324, "lat": 52.4087695, "lon": 13.370311}, {"type": "node", "id": 5286275325, "lat": 52.4087635, "lon": 13.3703101}, {"type": "node", "id": 5286275326, "lat": 52.4087781, "lon": 13.3700348}, {"type": "node", "id": 5286275327, "lat": 52.4088571, "lon": 13.3700461}, {"type": "node", "id": 5286350226, "lat": 52.4106439, "lon": 13.3737865}, {"type": "node", "id": 5286350227, "lat": 52.4097827, "lon": 13.3749852}, {"type": "node", "id": 5286350228, "lat": 52.4102245, "lon": 13.3758997}, {"type": "node", "id": 5286350229, "lat": 52.4098392, "lon": 13.3751539}, {"type": "node", "id": 5286350385, "lat": 52.4111871, "lon": 13.3709877}, {"type": "node", "id": 5286350386, "lat": 52.4110648, "lon": 13.371646}, {"type": "node", "id": 5286350387, "lat": 52.410842, "lon": 13.3728802}, {"type": "node", "id": 5286350388, "lat": 52.410777, "lon": 13.3732493}, {"type": "node", "id": 5286350389, "lat": 52.4106899, "lon": 13.3738842}, {"type": "node", "id": 5286350390, "lat": 52.4103595, "lon": 13.3760215}, {"type": "node", "id": 5286350391, "lat": 52.4102257, "lon": 13.375946}, {"type": "node", "id": 5286350392, "lat": 52.4101317, "lon": 13.3759067}, {"type": "node", "id": 5286350393, "lat": 52.4100353, "lon": 13.3758737}, {"type": "node", "id": 5286350394, "lat": 52.4099158, "lon": 13.3758496}, {"type": "node", "id": 5286350395, "lat": 52.4097974, "lon": 13.3758357}, {"type": "node", "id": 5286350396, "lat": 52.4096465, "lon": 13.375835}, {"type": "node", "id": 5286350397, "lat": 52.4095359, "lon": 13.3758426}, {"type": "node", "id": 5286350398, "lat": 52.409438, "lon": 13.3758604}, {"type": "node", "id": 5286350399, "lat": 52.4092724, "lon": 13.375679}, {"type": "node", "id": 5286350400, "lat": 52.4092407, "lon": 13.3753162}, {"type": "node", "id": 5286350401, "lat": 52.4092117, "lon": 13.3748875}, {"type": "node", "id": 5286350402, "lat": 52.4091985, "lon": 13.3744721}, {"type": "node", "id": 5286350403, "lat": 52.4091941, "lon": 13.3742634}, {"type": "node", "id": 5286350404, "lat": 52.4091929, "lon": 13.3739397}, {"type": "node", "id": 5286350405, "lat": 52.4091989, "lon": 13.3735125}, {"type": "node", "id": 5286350406, "lat": 52.4092128, "lon": 13.3731586}, {"type": "node", "id": 5286350407, "lat": 52.4092306, "lon": 13.3728314}, {"type": "node", "id": 5286350408, "lat": 52.4092548, "lon": 13.3725006}, {"type": "node", "id": 5286350409, "lat": 52.4092728, "lon": 13.3722888}, {"type": "node", "id": 5286350410, "lat": 52.4092979, "lon": 13.3720449}, {"type": "node", "id": 5286350411, "lat": 52.4093335, "lon": 13.3717399}, {"type": "node", "id": 5286350412, "lat": 52.4093745, "lon": 13.3714367}, {"type": "node", "id": 5286350413, "lat": 52.4094186, "lon": 13.3711412}, {"type": "node", "id": 5286350414, "lat": 52.4094598, "lon": 13.3708935}, {"type": "node", "id": 5286350415, "lat": 52.4095142, "lon": 13.3705894}, {"type": "node", "id": 5286350416, "lat": 52.4095641, "lon": 13.370337}, {"type": "node", "id": 5286350417, "lat": 52.4096467, "lon": 13.3699666}, {"type": "node", "id": 5286350420, "lat": 52.4107731, "lon": 13.3704315}, {"type": "node", "id": 5286350421, "lat": 52.4107414, "lon": 13.3704885}, {"type": "node", "id": 5286350422, "lat": 52.4106888, "lon": 13.3705}, {"type": "node", "id": 5286350423, "lat": 52.4106601, "lon": 13.3704556}, {"type": "node", "id": 5286350424, "lat": 52.4106098, "lon": 13.3703921}, {"type": "node", "id": 5286350425, "lat": 52.4105642, "lon": 13.3704023}, {"type": "node", "id": 5286350426, "lat": 52.4104953, "lon": 13.3704416}, {"type": "node", "id": 5286350427, "lat": 52.4104141, "lon": 13.3704239}, {"type": "node", "id": 5286350428, "lat": 52.4103429, "lon": 13.3703706}, {"type": "node", "id": 5286350429, "lat": 52.410339, "lon": 13.3703186}, {"type": "node", "id": 5286350430, "lat": 52.4103599, "lon": 13.3702336}, {"type": "node", "id": 5286350431, "lat": 52.4104187, "lon": 13.3701841}, {"type": "node", "id": 5286350432, "lat": 52.4105255, "lon": 13.3702158}, {"type": "node", "id": 5286350433, "lat": 52.4106129, "lon": 13.3702843}, {"type": "node", "id": 5286350434, "lat": 52.4106439, "lon": 13.3703757}, {"type": "node", "id": 5286350435, "lat": 52.4106834, "lon": 13.370368}, {"type": "node", "id": 5286350436, "lat": 52.4107437, "lon": 13.3703351}, {"type": "node", "id": 5286350437, "lat": 52.4107685, "lon": 13.3704036}, {"type": "node", "id": 5286350491, "lat": 52.4114557, "lon": 13.3692513}, {"type": "node", "id": 5286350492, "lat": 52.4114594, "lon": 13.3694332}, {"type": "node", "id": 5286350496, "lat": 52.4113463, "lon": 13.3701546}, {"type": "node", "id": 5286350497, "lat": 52.4113403, "lon": 13.3701898}, {"type": "node", "id": 5286350499, "lat": 52.4113248, "lon": 13.3702114}, {"type": "node", "id": 5286350500, "lat": 52.411283, "lon": 13.3704511}, {"type": "node", "id": 5286350502, "lat": 52.4112375, "lon": 13.3704302}, {"type": "node", "id": 5286350503, "lat": 52.411229, "lon": 13.3703963}, {"type": "node", "id": 5286350504, "lat": 52.4112172, "lon": 13.3704042}, {"type": "node", "id": 5286350505, "lat": 52.4111936, "lon": 13.3703934}, {"type": "node", "id": 5286350506, "lat": 52.4111755, "lon": 13.3703661}, {"type": "node", "id": 5286350507, "lat": 52.4111653, "lon": 13.3703617}, {"type": "node", "id": 5286364995, "lat": 52.4119591, "lon": 13.3693065}, {"type": "node", "id": 5286365001, "lat": 52.4115957, "lon": 13.3688329}, {"type": "node", "id": 5286365003, "lat": 52.4121233, "lon": 13.3670745}, {"type": "node", "id": 5286365004, "lat": 52.4123982, "lon": 13.3664337}, {"type": "node", "id": 5286365006, "lat": 52.412565, "lon": 13.3660516}, {"type": "node", "id": 5286365008, "lat": 52.4127566, "lon": 13.3656149}, {"type": "node", "id": 5286365009, "lat": 52.412771, "lon": 13.3656149}, {"type": "node", "id": 5286365010, "lat": 52.4127403, "lon": 13.3656454}, {"type": "node", "id": 5286365011, "lat": 52.4127809, "lon": 13.3656337}, {"type": "node", "id": 5286365012, "lat": 52.4127818, "lon": 13.3656474}, {"type": "node", "id": 5286365014, "lat": 52.4126249, "lon": 13.3670765}, {"type": "node", "id": 5286365015, "lat": 52.4126054, "lon": 13.3671801}, {"type": "node", "id": 5286365016, "lat": 52.4125893, "lon": 13.3672562}, {"type": "node", "id": 5286365020, "lat": 52.4120612, "lon": 13.3689844}, {"type": "node", "id": 5286365221, "lat": 52.4117707, "lon": 13.3698726}, {"type": "node", "id": 5286365223, "lat": 52.4115552, "lon": 13.3704947}, {"type": "node", "id": 5286365224, "lat": 52.4110535, "lon": 13.372007}, {"type": "node", "id": 5286365225, "lat": 52.4110949, "lon": 13.3718443}, {"type": "node", "id": 5286365226, "lat": 52.4109842, "lon": 13.3723657}, {"type": "node", "id": 5286365227, "lat": 52.4113492, "lon": 13.3710891}, {"type": "node", "id": 5286365228, "lat": 52.4109399, "lon": 13.3723418}, {"type": "node", "id": 5287098943, "lat": 52.4150961, "lon": 13.3705912}, {"type": "node", "id": 5287098944, "lat": 52.415012, "lon": 13.3705614}, {"type": "node", "id": 5287098945, "lat": 52.4148928, "lon": 13.3705019}, {"type": "node", "id": 5287098946, "lat": 52.4152007, "lon": 13.3706031}, {"type": "node", "id": 5287098947, "lat": 52.4154766, "lon": 13.3708382}, {"type": "node", "id": 5287098996, "lat": 52.4157096, "lon": 13.3718858}, {"type": "node", "id": 5287098997, "lat": 52.4156352, "lon": 13.372105}, {"type": "node", "id": 5287098998, "lat": 52.4154777, "lon": 13.3725369}, {"type": "node", "id": 5287099001, "lat": 52.4157737, "lon": 13.3716745}, {"type": "node", "id": 5287104406, "lat": 52.4161292, "lon": 13.3705439}, {"type": "node", "id": 5287104407, "lat": 52.4161786, "lon": 13.3705827}, {"type": "node", "id": 5287104414, "lat": 52.4143594, "lon": 13.3681339}, {"type": "node", "id": 5287104415, "lat": 52.4138743, "lon": 13.3687895}, {"type": "node", "id": 5287104416, "lat": 52.4138714, "lon": 13.3689473}, {"type": "node", "id": 5287104417, "lat": 52.4139268, "lon": 13.3692348}, {"type": "node", "id": 5287104418, "lat": 52.4139665, "lon": 13.369328}, {"type": "node", "id": 5287104419, "lat": 52.4139531, "lon": 13.3693}, {"type": "node", "id": 5287104420, "lat": 52.4148917, "lon": 13.3700755}, {"type": "node", "id": 5287104821, "lat": 52.415093, "lon": 13.3700808}, {"type": "node", "id": 5287189214, "lat": 52.4151285, "lon": 13.3724151}, {"type": "node", "id": 5287189215, "lat": 52.415176, "lon": 13.3724549}, {"type": "node", "id": 5287189414, "lat": 52.4150782, "lon": 13.3723724}, {"type": "node", "id": 5287189415, "lat": 52.4154278, "lon": 13.3726658}, {"type": "node", "id": 5287214924, "lat": 52.4136825, "lon": 13.3679441}, {"type": "node", "id": 5287214925, "lat": 52.4137441, "lon": 13.3677467}, {"type": "node", "id": 5287214927, "lat": 52.4137556, "lon": 13.3679643}, {"type": "node", "id": 5287214930, "lat": 52.4133229, "lon": 13.369047}, {"type": "node", "id": 5287214931, "lat": 52.4133349, "lon": 13.3690264}, {"type": "node", "id": 5287214932, "lat": 52.4136171, "lon": 13.3693122}, {"type": "node", "id": 5287214933, "lat": 52.4136751, "lon": 13.3693901}, {"type": "node", "id": 5287214934, "lat": 52.4139754, "lon": 13.3696808}, {"type": "node", "id": 5287214935, "lat": 52.4139109, "lon": 13.3696306}, {"type": "node", "id": 5287214936, "lat": 52.413788, "lon": 13.3695175}, {"type": "node", "id": 5287214937, "lat": 52.4148217, "lon": 13.3704487}, {"type": "node", "id": 5287214938, "lat": 52.4146394, "lon": 13.3702449}, {"type": "node", "id": 5287214939, "lat": 52.4144241, "lon": 13.3699812}, {"type": "node", "id": 5287214940, "lat": 52.4145334, "lon": 13.3700981}, {"type": "node", "id": 5287214941, "lat": 52.4143117, "lon": 13.3698823}, {"type": "node", "id": 5287214942, "lat": 52.4140394, "lon": 13.369722}, {"type": "node", "id": 5287214943, "lat": 52.4135719, "lon": 13.3692432}, {"type": "node", "id": 5287214944, "lat": 52.4134229, "lon": 13.3690102}, {"type": "node", "id": 5287883132, "lat": 52.4155025, "lon": 13.3476409}, {"type": "node", "id": 5287883133, "lat": 52.4154326, "lon": 13.3476023}, {"type": "node", "id": 5287883134, "lat": 52.415343, "lon": 13.3475691}, {"type": "node", "id": 5287883135, "lat": 52.4153487, "lon": 13.3475416}, {"type": "node", "id": 5287883136, "lat": 52.4154296, "lon": 13.347617}, {"type": "node", "id": 5287883137, "lat": 52.4153265, "lon": 13.3475639}, {"type": "node", "id": 5287883138, "lat": 52.4151344, "lon": 13.3474576}, {"type": "node", "id": 5287883139, "lat": 52.4153329, "lon": 13.3475329}, {"type": "node", "id": 5287883140, "lat": 52.4151452, "lon": 13.3474055}, {"type": "node", "id": 5287883141, "lat": 52.4158096, "lon": 13.347766}, {"type": "node", "id": 5287883142, "lat": 52.4157979, "lon": 13.3478227}, {"type": "node", "id": 5287883143, "lat": 52.4154991, "lon": 13.3476575}, {"type": "node", "id": 5287883144, "lat": 52.4154, "lon": 13.3481347}, {"type": "node", "id": 5287883145, "lat": 52.4153937, "lon": 13.3481654}, {"type": "node", "id": 5287883146, "lat": 52.4158206, "lon": 13.3478403}, {"type": "node", "id": 5287883147, "lat": 52.4158952, "lon": 13.3478814}, {"type": "node", "id": 5335079836, "lat": 52.400593, "lon": 13.3851349}, {"type": "node", "id": 5335079837, "lat": 52.4005516, "lon": 13.385025}, {"type": "node", "id": 5335079838, "lat": 52.4004944, "lon": 13.3848674}, {"type": "node", "id": 5335079839, "lat": 52.4004085, "lon": 13.3845737}, {"type": "node", "id": 5335079840, "lat": 52.4003557, "lon": 13.3843645}, {"type": "node", "id": 5335079841, "lat": 52.4003013, "lon": 13.3840654}, {"type": "node", "id": 5335080826, "lat": 52.4089184, "lon": 13.3748178}, {"type": "node", "id": 5335080827, "lat": 52.4089065, "lon": 13.3743431}, {"type": "node", "id": 5335080828, "lat": 52.4083197, "lon": 13.3766571}, {"type": "node", "id": 5335080829, "lat": 52.408466, "lon": 13.3764712}, {"type": "node", "id": 5335080830, "lat": 52.4084351, "lon": 13.3765051}, {"type": "node", "id": 5339583430, "lat": 52.4192513, "lon": 13.3603438}, {"type": "node", "id": 5339583431, "lat": 52.4192661, "lon": 13.3604017}, {"type": "node", "id": 5339588765, "lat": 52.4173304, "lon": 13.3675581}, {"type": "node", "id": 5339588789, "lat": 52.417629, "lon": 13.3675531}, {"type": "node", "id": 5414818644, "lat": 52.4127283, "lon": 13.3524468}, {"type": "node", "id": 5414818645, "lat": 52.4126036, "lon": 13.3509591}, {"type": "node", "id": 5414818646, "lat": 52.4124875, "lon": 13.3509599}, {"type": "node", "id": 5414818647, "lat": 52.412696, "lon": 13.3512068}, {"type": "node", "id": 5414818648, "lat": 52.4127852, "lon": 13.3516299}, {"type": "node", "id": 5414818649, "lat": 52.4128284, "lon": 13.3518089}, {"type": "node", "id": 5414818650, "lat": 52.4128566, "lon": 13.3519581}, {"type": "node", "id": 5414818651, "lat": 52.4128735, "lon": 13.3522409}, {"type": "node", "id": 5414818652, "lat": 52.4128639, "lon": 13.3523677}, {"type": "node", "id": 5414818660, "lat": 52.413461, "lon": 13.3508852}, {"type": "node", "id": 5506021840, "lat": 52.4218773, "lon": 13.3845574}, {"type": "node", "id": 5506021841, "lat": 52.4216433, "lon": 13.3847974}, {"type": "node", "id": 5506021842, "lat": 52.421632, "lon": 13.3848354}, {"type": "node", "id": 5506021843, "lat": 52.4216222, "lon": 13.3847793}, {"type": "node", "id": 5506021844, "lat": 52.4216029, "lon": 13.3843187}, {"type": "node", "id": 5506021845, "lat": 52.4215781, "lon": 13.3843978}, {"type": "node", "id": 5506021846, "lat": 52.4215694, "lon": 13.3843911}, {"type": "node", "id": 5506021847, "lat": 52.4216176, "lon": 13.3842431}, {"type": "node", "id": 5506021848, "lat": 52.4214983, "lon": 13.3841473}, {"type": "node", "id": 5506021849, "lat": 52.4214344, "lon": 13.3843487}, {"type": "node", "id": 5506021850, "lat": 52.4215008, "lon": 13.3844035}, {"type": "node", "id": 5506021851, "lat": 52.4214697, "lon": 13.3844837}, {"type": "node", "id": 5661529095, "lat": 52.4214952, "lon": 13.3844209}, {"type": "node", "id": 5661529096, "lat": 52.4214905, "lon": 13.3844182}, {"type": "node", "id": 5779323968, "lat": 52.4119608, "lon": 13.3669026, "tags": {"amenity": "cafe", "check_date:opening_hours": "2024-06-06", "name": "Cafe Erna & Else", "opening_hours": "Tu-Sa 12:00-17:00"}}, {"type": "node", "id": 5794424549, "lat": 52.4059782, "lon": 13.3720835}, {"type": "node", "id": 5794424763, "lat": 52.4045959, "lon": 13.373286}, {"type": "node", "id": 6068272976, "lat": 52.4114612, "lon": 13.3690553}, {"type": "node", "id": 6068272978, "lat": 52.4115328, "lon": 13.3688348}, {"type": "node", "id": 6068276908, "lat": 52.4114793, "lon": 13.3693546}, {"type": "node", "id": 6068276962, "lat": 52.4074666, "lon": 13.3620806}, {"type": "node", "id": 6069072652, "lat": 52.4133513, "lon": 13.3690643}, {"type": "node", "id": 6069072653, "lat": 52.4157701, "lon": 13.3716863}, {"type": "node", "id": 6069073935, "lat": 52.4156586, "lon": 13.3694087}, {"type": "node", "id": 6083315302, "lat": 52.4080416, "lon": 13.3550423}, {"type": "node", "id": 6083315303, "lat": 52.4072282, "lon": 13.3576603}, {"type": "node", "id": 6083366676, "lat": 52.4088018, "lon": 13.3547264}, {"type": "node", "id": 6083366682, "lat": 52.4138895, "lon": 13.3517515}, {"type": "node", "id": 6083366683, "lat": 52.4133965, "lon": 13.3514714}, {"type": "node", "id": 6083366684, "lat": 52.4130473, "lon": 13.3514552}, {"type": "node", "id": 6083366685, "lat": 52.4128399, "lon": 13.3514485}, {"type": "node", "id": 6083366686, "lat": 52.4129961, "lon": 13.3523958}, {"type": "node", "id": 6083366687, "lat": 52.4128336, "lon": 13.3525812}, {"type": "node", "id": 6083366689, "lat": 52.4126299, "lon": 13.3531399}, {"type": "node", "id": 6083366690, "lat": 52.4127244, "lon": 13.3526988}, {"type": "node", "id": 6083366694, "lat": 52.4128355, "lon": 13.3531419}, {"type": "node", "id": 6083366731, "lat": 52.4085752, "lon": 13.3538871}, {"type": "node", "id": 6083366736, "lat": 52.4147265, "lon": 13.3579352}, {"type": "node", "id": 6083366737, "lat": 52.415162, "lon": 13.358167}, {"type": "node", "id": 6083366738, "lat": 52.4156665, "lon": 13.3584286}, {"type": "node", "id": 6083366739, "lat": 52.4158355, "lon": 13.3575896}, {"type": "node", "id": 6083366740, "lat": 52.4160749, "lon": 13.3577231}, {"type": "node", "id": 6083366741, "lat": 52.4160982, "lon": 13.3576201}, {"type": "node", "id": 6083366742, "lat": 52.4162839, "lon": 13.3577163}, {"type": "node", "id": 6083366743, "lat": 52.417649, "lon": 13.3566182}, {"type": "node", "id": 6083366744, "lat": 52.4173936, "lon": 13.3557197}, {"type": "node", "id": 6083366745, "lat": 52.4185584, "lon": 13.3547699}, {"type": "node", "id": 6083366746, "lat": 52.4187217, "lon": 13.3548557}, {"type": "node", "id": 6083366750, "lat": 52.4148064, "lon": 13.3579727}, {"type": "node", "id": 6083366757, "lat": 52.41653, "lon": 13.3571497}, {"type": "node", "id": 6083366824, "lat": 52.4168075, "lon": 13.3572975}, {"type": "node", "id": 6083366842, "lat": 52.4186675, "lon": 13.3546819}, {"type": "node", "id": 6083461535, "lat": 52.4033928, "lon": 13.3531067}, {"type": "node", "id": 6083461536, "lat": 52.4038386, "lon": 13.3519949}, {"type": "node", "id": 6083461538, "lat": 52.4040939, "lon": 13.3522692}, {"type": "node", "id": 6083495180, "lat": 52.4036473, "lon": 13.3533808}, {"type": "node", "id": 6235139109, "lat": 52.4172845, "lon": 13.3948398}, {"type": "node", "id": 6252406780, "lat": 52.4046079, "lon": 13.3610258}, {"type": "node", "id": 6252406781, "lat": 52.4036238, "lon": 13.3609146}, {"type": "node", "id": 6252413747, "lat": 52.4019131, "lon": 13.3586999}, {"type": "node", "id": 6252413749, "lat": 52.4023337, "lon": 13.3591625}, {"type": "node", "id": 6252413754, "lat": 52.4021638, "lon": 13.3599646}, {"type": "node", "id": 6252413757, "lat": 52.4016693, "lon": 13.3599061}, {"type": "node", "id": 6268054923, "lat": 52.4166601, "lon": 13.3521352, "tags": {"access": "private", "leisure": "playground", "surface": "sand"}}, {"type": "node", "id": 6391968817, "lat": 52.4098045, "lon": 13.3815055, "tags": {"amenity": "restaurant", "cuisine": "thai;sushi", "level": "0", "name": "Thai-Nippon Sushi-Bar", "takeaway": "yes", "wheelchair": "yes"}}, {"type": "node", "id": 6481794565, "lat": 52.4132997, "lon": 13.3624869, "tags": {"access": "customers", "leisure": "playground"}}, {"type": "node", "id": 6551650638, "lat": 52.4253513, "lon": 13.3696182, "tags": {"amenity": "bench", "backrest": "yes", "material": "wood"}}, {"type": "node", "id": 6552257658, "lat": 52.4181776, "lon": 13.3615321}, {"type": "node", "id": 6552257659, "lat": 52.4180191, "lon": 13.3616355}, {"type": "node", "id": 6552257660, "lat": 52.4179121, "lon": 13.3612097}, {"type": "node", "id": 6552257661, "lat": 52.4181122, "lon": 13.3610864}, {"type": "node", "id": 6552257662, "lat": 52.4181429, "lon": 13.3612827}, {"type": "node", "id": 6769817143, "lat": 52.416989, "lon": 13.3686385}, {"type": "node", "id": 6769817144, "lat": 52.4169348, "lon": 13.368594}, {"type": "node", "id": 6769817145, "lat": 52.4169427, "lon": 13.3685699}, {"type": "node", "id": 6769817146, "lat": 52.4169094, "lon": 13.3685389}, {"type": "node", "id": 6769817147, "lat": 52.4167064, "lon": 13.3691497}, {"type": "node", "id": 6769817148, "lat": 52.4164766, "lon": 13.3698639}, {"type": "node", "id": 6769817149, "lat": 52.4165767, "lon": 13.3699426}, {"type": "node", "id": 7048626226, "lat": 52.4219593, "lon": 13.370589, "tags": {"addr:city": "Berlin", "addr:country": "DE", "addr:housenumber": "41", "addr:postcode": "12277", "addr:street": "Marienfelder Allee", "addr:suburb": "Marienfelde", "amenity": "pub", "check_date:opening_hours": "2025-03-09", "contact:website": "https://www.lorenz-bar.de/", "name": "Lorenz", "opening_hours": "Mo 12:00-22:00; Tu-Th 16:00-22:00; Fr 16:00-23:00; Su 11:00-18:00", "phone": "+49 30 75445848", "wheelchair": "no"}}, {"type": "node", "id": 7056283269, "lat": 52.4122585, "lon": 13.388768}, {"type": "node", "id": 7056283270, "lat": 52.4122733, "lon": 13.3888738}, {"type": "node", "id": 7056283271, "lat": 52.412233, "lon": 13.3888891}, {"type": "node", "id": 7056283272, "lat": 52.4122181, "lon": 13.3887832}, {"type": "node", "id": 7223008667, "lat": 52.4146728, "lon": 13.3473596, "tags": {"amenity": "pharmacy", "healthcare": "pharmacy", "name": "Burg-Apotheke", "opening_hours": "Mo-Fr 08:30-18:30; Sa 08:30-13:30", "wheelchair": "no"}}, {"type": "node", "id": 7232729799, "lat": 52.4149297, "lon": 13.3478119, "tags": {"entrance": "main"}}, {"type": "node", "id": 7232729802, "lat": 52.4150217, "lon": 13.3473649, "tags": {"access": "customers", "amenity": "parking_entrance", "maxheight": "2", "parking": "underground", "wheelchair": "yes"}}, {"type": "node", "id": 7232729805, "lat": 52.415126, "lon": 13.3468051, "tags": {"amenity": "restaurant", "cuisine": "croatian", "name": "Dalmaticija Grill", "toilets:wheelchair": "no", "wheelchair": "limited"}}, {"type": "node", "id": 8345822582, "lat": 52.41866, "lon": 13.3911073, "tags": {"entrance": "yes"}}, {"type": "node", "id": 8497802450, "lat": 52.4088278, "lon": 13.3594606, "tags": {"addr:city": "Berlin", "addr:housenumber": "197b", "addr:postcode": "12279", "addr:street": "Marienfelder Allee", "amenity": "restaurant", "cuisine": "indian", "diet:vegan": "yes", "diet:vegetarian": "yes", "name": "Delhi 1", "opening_hours": "Mo-Su 11:30-22:00", "website": "https://www.delhi-1-berlin.de/"}}, {"type": "node", "id": 8894484814, "lat": 52.4061148, "lon": 13.3575547}, {"type": "node", "id": 9026485319, "lat": 52.4083706, "lon": 13.3590954, "tags": {"addr:city": "Berlin", "addr:housenumber": "201", "addr:postcode": "12279", "addr:street": "Marienfelder Allee", "amenity": "restaurant", "cuisine": "croatian", "name": "Restaurant Split", "phone": "+49 30 7212971"}}, {"type": "node", "id": 9451199146, "lat": 52.4192679, "lon": 13.3837862}, {"type": "node", "id": 9494060501, "lat": 52.3959395, "lon": 13.3768898}, {"type": "node", "id": 9494060503, "lat": 52.3957596, "lon": 13.375777}, {"type": "node", "id": 9634801875, "lat": 52.4132561, "lon": 13.3448273}, {"type": "node", "id": 9634801876, "lat": 52.41321, "lon": 13.3444984}, {"type": "node", "id": 9634801877, "lat": 52.4133399, "lon": 13.3444461}, {"type": "node", "id": 9634801878, "lat": 52.4133493, "lon": 13.3445138}, {"type": "node", "id": 9634801879, "lat": 52.4132903, "lon": 13.3448215}, {"type": "node", "id": 10010903801, "lat": 52.4086984, "lon": 13.3544843}, {"type": "node", "id": 10131943219, "lat": 52.4078166, "lon": 13.3761769}, {"type": "node", "id": 10137261274, "lat": 52.4056663, "lon": 13.3748675}, {"type": "node", "id": 10137261275, "lat": 52.4065688, "lon": 13.3749097}, {"type": "node", "id": 10137261276, "lat": 52.4061989, "lon": 13.3748924}, {"type": "node", "id": 10139136056, "lat": 52.4170612, "lon": 13.357529}, {"type": "node", "id": 10139136058, "lat": 52.4180016, "lon": 13.3567747}, {"type": "node", "id": 10144668295, "lat": 52.4126351, "lon": 13.3496121}, {"type": "node", "id": 10144668296, "lat": 52.4125703, "lon": 13.3496028}, {"type": "node", "id": 10148320408, "lat": 52.4092506, "lon": 13.3754365}, {"type": "node", "id": 10148320409, "lat": 52.4092571, "lon": 13.375508}, {"type": "node", "id": 10148320410, "lat": 52.4092595, "lon": 13.3754344}, {"type": "node", "id": 10148320411, "lat": 52.4092657, "lon": 13.375506}, {"type": "node", "id": 10681325508, "lat": 52.4132696, "lon": 13.3431597}, {"type": "node", "id": 10681325509, "lat": 52.4132258, "lon": 13.343357}, {"type": "node", "id": 10681325510, "lat": 52.4131399, "lon": 13.3433124}, {"type": "node", "id": 10681325511, "lat": 52.4131612, "lon": 13.3432204}, {"type": "node", "id": 10681325512, "lat": 52.4131552, "lon": 13.3432016}, {"type": "node", "id": 10681325513, "lat": 52.4131705, "lon": 13.3431325}, {"type": "node", "id": 10745097831, "lat": 52.4065336, "lon": 13.358656, "tags": {"access": "yes", "leisure": "playground"}}, {"type": "node", "id": 10745134958, "lat": 52.399324, "lon": 13.3719525, "tags": {"access": "yes", "leisure": "playground"}}, {"type": "node", "id": 10763315776, "lat": 52.4121426, "lon": 13.3514174}, {"type": "node", "id": 10847082566, "lat": 52.4153018, "lon": 13.3733848}, {"type": "node", "id": 10847082567, "lat": 52.415247, "lon": 13.37334}, {"type": "node", "id": 10847082568, "lat": 52.4152899, "lon": 13.3731988}, {"type": "node", "id": 10847083881, "lat": 52.4210789, "lon": 13.3639444}, {"type": "node", "id": 10847083882, "lat": 52.4207795, "lon": 13.3636882}, {"type": "node", "id": 10847083883, "lat": 52.4208847, "lon": 13.3633577}, {"type": "node", "id": 10847104160, "lat": 52.4195947, "lon": 13.369853}, {"type": "node", "id": 10847104161, "lat": 52.419595, "lon": 13.3698632}, {"type": "node", "id": 10847104162, "lat": 52.4195934, "lon": 13.3698731}, {"type": "node", "id": 10847104163, "lat": 52.4195619, "lon": 13.369882}, {"type": "node", "id": 10847104164, "lat": 52.4195582, "lon": 13.3698732}, {"type": "node", "id": 10847104165, "lat": 52.4195565, "lon": 13.369863}, {"type": "node", "id": 10847104166, "lat": 52.419557, "lon": 13.3698525}, {"type": "node", "id": 10847104167, "lat": 52.4195899, "lon": 13.3698816}, {"type": "node", "id": 10847104168, "lat": 52.419585, "lon": 13.3698878}, {"type": "node", "id": 10847104169, "lat": 52.4195791, "lon": 13.3698912}, {"type": "node", "id": 10847104170, "lat": 52.4195728, "lon": 13.3698913}, {"type": "node", "id": 10847104171, "lat": 52.4195669, "lon": 13.3698881}, {"type": "node", "id": 10847104172, "lat": 52.4195639, "lon": 13.3698349}, {"type": "node", "id": 10847104173, "lat": 52.4195696, "lon": 13.3698299}, {"type": "node", "id": 10847104174, "lat": 52.419576, "lon": 13.3698282}, {"type": "node", "id": 10847104175, "lat": 52.4195823, "lon": 13.3698301}, {"type": "node", "id": 10847104176, "lat": 52.4195879, "lon": 13.3698352}, {"type": "node", "id": 10847104177, "lat": 52.4195922, "lon": 13.3698432}, {"type": "node", "id": 10970862939, "lat": 52.41407, "lon": 13.3683032}, {"type": "node", "id": 10970862941, "lat": 52.4135714, "lon": 13.3688306}, {"type": "node", "id": 11001163666, "lat": 52.4146655, "lon": 13.3603099}, {"type": "node", "id": 11001163667, "lat": 52.4146265, "lon": 13.3603235}, {"type": "node", "id": 11001163668, "lat": 52.414573, "lon": 13.3602811}, {"type": "node", "id": 11001163669, "lat": 52.4145509, "lon": 13.3602187}, {"type": "node", "id": 11001163670, "lat": 52.4145542, "lon": 13.3601517}, {"type": "node", "id": 11001163671, "lat": 52.4145796, "lon": 13.3601201}, {"type": "node", "id": 11001163672, "lat": 52.4146092, "lon": 13.3601109}, {"type": "node", "id": 11001163673, "lat": 52.4146435, "lon": 13.3601401}, {"type": "node", "id": 11040329679, "lat": 52.4084635, "lon": 13.3764655}, {"type": "node", "id": 11040329680, "lat": 52.4084332, "lon": 13.3765007}, {"type": "node", "id": 11040329690, "lat": 52.4086912, "lon": 13.376241}, {"type": "node", "id": 11042273194, "lat": 52.4076032, "lon": 13.3616597}, {"type": "node", "id": 11042273195, "lat": 52.4076815, "lon": 13.3616543}, {"type": "node", "id": 11042273196, "lat": 52.4076802, "lon": 13.3616043}, {"type": "node", "id": 11042273197, "lat": 52.4077469, "lon": 13.3615996}, {"type": "node", "id": 11042273198, "lat": 52.4077441, "lon": 13.361493}, {"type": "node", "id": 11042273199, "lat": 52.4076881, "lon": 13.3614969}, {"type": "node", "id": 11042273200, "lat": 52.4076851, "lon": 13.3613823}, {"type": "node", "id": 11042273201, "lat": 52.4075841, "lon": 13.3613893}, {"type": "node", "id": 11042273202, "lat": 52.4075911, "lon": 13.3616606}, {"type": "node", "id": 11042328605, "lat": 52.407484, "lon": 13.361732}, {"type": "node", "id": 11042328606, "lat": 52.4088636, "lon": 13.3609122}, {"type": "node", "id": 11042328607, "lat": 52.4089634, "lon": 13.3609137}, {"type": "node", "id": 11042328608, "lat": 52.4089773, "lon": 13.3607663}, {"type": "node", "id": 11042328609, "lat": 52.4088819, "lon": 13.3607653}, {"type": "node", "id": 11042328610, "lat": 52.4088654, "lon": 13.3608393}, {"type": "node", "id": 11042328626, "lat": 52.4074657, "lon": 13.3621039}, {"type": "node", "id": 11165906902, "lat": 52.416377, "lon": 13.3922767}, {"type": "node", "id": 11165906903, "lat": 52.4163729, "lon": 13.3922753}, {"type": "node", "id": 11165911039, "lat": 52.4190077, "lon": 13.3908179}, {"type": "node", "id": 11165911078, "lat": 52.4185627, "lon": 13.3911042}, {"type": "node", "id": 11165911089, "lat": 52.4183486, "lon": 13.3905885}, {"type": "node", "id": 11165911090, "lat": 52.4183095, "lon": 13.3905249}, {"type": "node", "id": 11165911091, "lat": 52.4182994, "lon": 13.3906745}, {"type": "node", "id": 11165911092, "lat": 52.4182589, "lon": 13.3906087}, {"type": "node", "id": 11173008660, "lat": 52.4065578, "lon": 13.3735532}, {"type": "node", "id": 11173215800, "lat": 52.414578, "lon": 13.3748709}, {"type": "node", "id": 11173215801, "lat": 52.4146051, "lon": 13.3749234}, {"type": "node", "id": 11173215802, "lat": 52.4146129, "lon": 13.3749871}, {"type": "node", "id": 11173215803, "lat": 52.4145869, "lon": 13.3750472}, {"type": "node", "id": 11173215804, "lat": 52.4145296, "lon": 13.3750542}, {"type": "node", "id": 11173215805, "lat": 52.4144837, "lon": 13.3750338}, {"type": "node", "id": 11173215806, "lat": 52.4144634, "lon": 13.3749521}, {"type": "node", "id": 11173215807, "lat": 52.4144844, "lon": 13.3748756}, {"type": "node", "id": 11379445471, "lat": 52.416101, "lon": 13.3633372}, {"type": "node", "id": 11379445472, "lat": 52.4160406, "lon": 13.3633065}, {"type": "node", "id": 11379445473, "lat": 52.4159947, "lon": 13.363549}, {"type": "node", "id": 11379445474, "lat": 52.4160551, "lon": 13.3635797}, {"type": "node", "id": 11476938770, "lat": 52.4126353, "lon": 13.3529242}, {"type": "node", "id": 11476938780, "lat": 52.4129383, "lon": 13.3508612}, {"type": "node", "id": 11476938782, "lat": 52.4133754, "lon": 13.3508813}, {"type": "node", "id": 11476938795, "lat": 52.4136004, "lon": 13.3452807}, {"type": "node", "id": 11476938796, "lat": 52.4133674, "lon": 13.3451494}, {"type": "node", "id": 11476938797, "lat": 52.4133475, "lon": 13.3452445}, {"type": "node", "id": 11476938798, "lat": 52.4134418, "lon": 13.3452977}, {"type": "node", "id": 11476938799, "lat": 52.4133805, "lon": 13.3455902}, {"type": "node", "id": 11476938800, "lat": 52.4135192, "lon": 13.3456683}, {"type": "node", "id": 11476938858, "lat": 52.4148196, "lon": 13.3449091}, {"type": "node", "id": 11476938859, "lat": 52.4148423, "lon": 13.3448012}, {"type": "node", "id": 11476938860, "lat": 52.4148148, "lon": 13.3445853}, {"type": "node", "id": 11476938861, "lat": 52.414723, "lon": 13.3445335}, {"type": "node", "id": 11476938862, "lat": 52.4146627, "lon": 13.3448205}, {"type": "node", "id": 11582438234, "lat": 52.4145255, "lon": 13.3590585}, {"type": "node", "id": 11582466284, "lat": 52.4150396, "lon": 13.3587816}, {"type": "node", "id": 11582466287, "lat": 52.415245, "lon": 13.3585547}, {"type": "node", "id": 11609888307, "lat": 52.408488, "lon": 13.3500697, "tags": {"addr:city": "Berlin", "addr:country": "DE", "addr:housenumber": "42A", "addr:postcode": "12279", "addr:street": "Waldsassener Stra\u00dfe", "addr:suburb": "Marienfelde", "brand": "EDEKA", "brand:wikidata": "Q701755", "brand:wikipedia": "en:Edeka", "check_date:opening_hours": "2022-01-18", "fax": "+49 30 71581731", "name": "nah und gut Janoschek", "opening_hours": "Mo-Fr 08:00-20:00; Sa 08:00-14:00", "phone": "+49 30 7115052", "shop": "supermarket", "website": "https://www.edeka.de/", "wheelchair": "yes"}}, {"type": "node", "id": 11659290556, "lat": 52.4188862, "lon": 13.3607841}, {"type": "node", "id": 11659290557, "lat": 52.4189746, "lon": 13.3607242}, {"type": "node", "id": 11659290558, "lat": 52.4190238, "lon": 13.3609058}, {"type": "node", "id": 11659290559, "lat": 52.4189373, "lon": 13.3609726}, {"type": "node", "id": 11659338355, "lat": 52.418998, "lon": 13.3608107}, {"type": "node", "id": 11771962692, "lat": 52.4167814, "lon": 13.3692953}, {"type": "node", "id": 11895205732, "lat": 52.4144218, "lon": 13.3517646}, {"type": "node", "id": 11895205733, "lat": 52.4144804, "lon": 13.3517627}, {"type": "node", "id": 11895205734, "lat": 52.4145233, "lon": 13.3518488}, {"type": "node", "id": 11895205735, "lat": 52.4144861, "lon": 13.3519798}, {"type": "node", "id": 11895205736, "lat": 52.4143821, "lon": 13.3518416}, {"type": "node", "id": 11895205737, "lat": 52.4144062, "lon": 13.351971}, {"type": "node", "id": 11895205738, "lat": 52.4143888, "lon": 13.3519373}, {"type": "node", "id": 11895205739, "lat": 52.4144423, "lon": 13.3519933}, {"type": "node", "id": 11895205740, "lat": 52.4144362, "lon": 13.3520139}, {"type": "node", "id": 11895205741, "lat": 52.4144351, "lon": 13.3520347}, {"type": "node", "id": 11895205742, "lat": 52.4144574, "lon": 13.3520466}, {"type": "node", "id": 11895205743, "lat": 52.4146021, "lon": 13.3520354}, {"type": "node", "id": 11895205744, "lat": 52.4146596, "lon": 13.3520138}, {"type": "node", "id": 11895205745, "lat": 52.4146888, "lon": 13.3520263}, {"type": "node", "id": 11895205746, "lat": 52.414739, "lon": 13.3520739}, {"type": "node", "id": 11895205747, "lat": 52.4147838, "lon": 13.3521589}, {"type": "node", "id": 11895205748, "lat": 52.4148593, "lon": 13.3523399}, {"type": "node", "id": 11895205749, "lat": 52.4148661, "lon": 13.3524152}, {"type": "node", "id": 11895205758, "lat": 52.4147897, "lon": 13.3524319}, {"type": "node", "id": 11895205759, "lat": 52.4147433, "lon": 13.3524328}, {"type": "node", "id": 11895205760, "lat": 52.4146628, "lon": 13.3524031}, {"type": "node", "id": 11895205761, "lat": 52.4146199, "lon": 13.3523682}, {"type": "node", "id": 11895205762, "lat": 52.4145662, "lon": 13.3523114}, {"type": "node", "id": 11895205763, "lat": 52.4144981, "lon": 13.352226}, {"type": "node", "id": 11895205764, "lat": 52.4144339, "lon": 13.3521248}, {"type": "node", "id": 11899055865, "lat": 52.4106296, "lon": 13.3457604}, {"type": "node", "id": 11899055866, "lat": 52.4106342, "lon": 13.3454363}, {"type": "node", "id": 11899055867, "lat": 52.4105022, "lon": 13.3454313}, {"type": "node", "id": 11899055868, "lat": 52.4104976, "lon": 13.3457553}, {"type": "node", "id": 11899095582, "lat": 52.4076283, "lon": 13.3490682}, {"type": "node", "id": 11899095583, "lat": 52.4076185, "lon": 13.3494525}, {"type": "node", "id": 11899095584, "lat": 52.4073292, "lon": 13.3494312}, {"type": "node", "id": 11899095585, "lat": 52.4073363, "lon": 13.3490584}, {"type": "node", "id": 11899095593, "lat": 52.4094976, "lon": 13.3493162}, {"type": "node", "id": 11899095594, "lat": 52.4093194, "lon": 13.3491088}, {"type": "node", "id": 11899095595, "lat": 52.4093391, "lon": 13.3491095}, {"type": "node", "id": 11899095596, "lat": 52.4093452, "lon": 13.3493112}, {"type": "node", "id": 11899095597, "lat": 52.409355, "lon": 13.3493671}, {"type": "node", "id": 11899095598, "lat": 52.4094934, "lon": 13.349341}, {"type": "node", "id": 11899095599, "lat": 52.4094711, "lon": 13.3493858}, {"type": "node", "id": 11899095600, "lat": 52.4093716, "lon": 13.349386}, {"type": "node", "id": 11899095601, "lat": 52.4093973, "lon": 13.3493966}, {"type": "node", "id": 11899095602, "lat": 52.4094434, "lon": 13.3493965}, {"type": "node", "id": 11899095603, "lat": 52.4094844, "lon": 13.3493669}, {"type": "node", "id": 11899095604, "lat": 52.409347, "lon": 13.3493414}, {"type": "node", "id": 11899095610, "lat": 52.4100436, "lon": 13.3484921}, {"type": "node", "id": 11899095611, "lat": 52.4100463, "lon": 13.3483925}, {"type": "node", "id": 11918313229, "lat": 52.4083848, "lon": 13.357206}, {"type": "node", "id": 11918313230, "lat": 52.4083485, "lon": 13.3574492}, {"type": "node", "id": 11918313231, "lat": 52.4082936, "lon": 13.357419}, {"type": "node", "id": 11918313232, "lat": 52.4082521, "lon": 13.3573036}, {"type": "node", "id": 11918313233, "lat": 52.4082903, "lon": 13.3571371}, {"type": "node", "id": 11918313250, "lat": 52.4078436, "lon": 13.355122}, {"type": "node", "id": 11920004587, "lat": 52.4061461, "lon": 13.3576478}, {"type": "node", "id": 11920004588, "lat": 52.4057966, "lon": 13.3583155}, {"type": "node", "id": 11920004589, "lat": 52.4057523, "lon": 13.3584718}, {"type": "node", "id": 11920004590, "lat": 52.4057653, "lon": 13.3585789}, {"type": "node", "id": 11920004591, "lat": 52.4056676, "lon": 13.3587034}, {"type": "node", "id": 11920004592, "lat": 52.4055637, "lon": 13.3589036}, {"type": "node", "id": 11920004606, "lat": 52.4052643, "lon": 13.3600502}, {"type": "node", "id": 11920004607, "lat": 52.4053931, "lon": 13.3599177}, {"type": "node", "id": 11920004608, "lat": 52.4053377, "lon": 13.3598597}, {"type": "node", "id": 11920004609, "lat": 52.4058778, "lon": 13.3575664}, {"type": "node", "id": 11920043954, "lat": 52.4022564, "lon": 13.3595554}, {"type": "node", "id": 11920043964, "lat": 52.4016826, "lon": 13.3595023}, {"type": "node", "id": 11961567469, "lat": 52.4265044, "lon": 13.3737895, "tags": {"addr:housenumber": "198", "addr:postcode": "12277", "addr:street": "Gro\u00dfbeerenstra\u00dfe", "amenity": "restaurant", "cuisine": "italian;italian_pizza", "email": "ilponte2016@gmx.de", "name": "Il Ponte", "opening_hours": "Th-Tu 12:00-23:00", "phone": "030 54623843", "website": "https://www.ilponte-berlin.de/"}}, {"type": "node", "id": 12098880625, "lat": 52.4126095, "lon": 13.3550745}, {"type": "node", "id": 12098880626, "lat": 52.4126082, "lon": 13.3551451}, {"type": "node", "id": 12103250592, "lat": 52.4035814, "lon": 13.3616304}, {"type": "node", "id": 12125377561, "lat": 52.4204031, "lon": 13.3653628, "tags": {"leisure": "playground"}}, {"type": "node", "id": 12153048050, "lat": 52.4087473, "lon": 13.3516339}, {"type": "node", "id": 12153048051, "lat": 52.4087423, "lon": 13.3518908}, {"type": "node", "id": 12153048052, "lat": 52.4089938, "lon": 13.351904}, {"type": "node", "id": 12153048053, "lat": 52.4089988, "lon": 13.3516471}, {"type": "node", "id": 12264598500, "lat": 52.4129987, "lon": 13.353046, "tags": {"healthcare": "physiotherapist", "name": "Mayer-Waldeck Physio GmbH", "opening_hours": "Mo-Fr 09:00-13:00"}}, {"type": "node", "id": 12314441299, "lat": 52.4130508, "lon": 13.352793, "tags": {"addr:housenumber": "29 b", "addr:street": "Hildburghauser Stra\u00dfe", "amenity": "dentist", "healthcare": "dentist", "name": "Dr. med. dent. Martin Kraemer\nGemeinschaftspraxis", "phone": "+49 30 7218420"}}, {"type": "node", "id": 12361953755, "lat": 52.4147281, "lon": 13.3471856, "tags": {"amenity": "fast_food", "cuisine": "curry", "name": "Curry Box"}}, {"type": "node", "id": 12367488211, "lat": 52.4191156, "lon": 13.3842861}, {"type": "node", "id": 12367488214, "lat": 52.4190728, "lon": 13.3842531}, {"type": "node", "id": 12650627950, "lat": 52.4228599, "lon": 13.3743713, "tags": {"addr:city": "Berlin", "addr:country": "DE", "addr:housenumber": "8", "addr:postcode": "12277", "addr:street": "Kiepertplatz", "addr:suburb": "Marienfelde", "amenity": "pub", "indoor_seating": "yes", "name": "Kleine Kneipe", "opening_hours": "Tu-Sa 13:05-20:05; Su,Mo off", "outdoor_seating": "yes", "wheelchair": "limited"}}, {"type": "node", "id": 12957639106, "lat": 52.4218784, "lon": 13.3845938, "tags": {"addr:city": "Berlin", "addr:housenumber": "91", "addr:postcode": "12277", "addr:street": "Daimlerstra\u00dfe", "amenity": "cafe", "cuisine": "coffee_shop;pastry;pasta;turkish;tea;cake;donut", "description": "Frisches Brot, Br\u00f6tchen und Qualitative Backwaren. Simit, B\u00f6rek & Tee, Leckere Kuchen und S\u00fc\u00dfes.", "internet_access": "wlan", "internet_access:fee": "customers", "name": "Kaffee Bohnenamt Bakery", "opening_hours": "Mo-Su 07:00-18:00", "outdoor_seating": "yes", "phone": "+493072015250", "website": "https://www.kaffee-bohnenamt.de/"}}, {"type": "node", "id": 13006512019, "lat": 52.4193842, "lon": 13.3906575}, {"type": "node", "id": 13006512022, "lat": 52.4193517, "lon": 13.3907113}, {"type": "node", "id": 13006512024, "lat": 52.4189261, "lon": 13.3904127}, {"type": "node", "id": 13006512026, "lat": 52.4190454, "lon": 13.3902148}, {"type": "node", "id": 13031355039, "lat": 52.4213617, "lon": 13.3673912}, {"type": "node", "id": 13034087016, "lat": 52.4167203, "lon": 13.357251}, {"type": "node", "id": 13034087017, "lat": 52.4164428, "lon": 13.3575843}, {"type": "node", "id": 13048558219, "lat": 52.4111276, "lon": 13.3717326}, {"type": "node", "id": 13048558228, "lat": 52.4127515, "lon": 13.36562}, {"type": "node", "id": 13048558229, "lat": 52.4127638, "lon": 13.3656126}, {"type": "node", "id": 13048558230, "lat": 52.4127769, "lon": 13.3656209}, {"type": "node", "id": 13048558231, "lat": 52.4127336, "lon": 13.3660614}, {"type": "node", "id": 13048558232, "lat": 52.4126432, "lon": 13.3669264}, {"type": "node", "id": 13048558264, "lat": 52.41258, "lon": 13.3672964}, {"type": "node", "id": 13048558266, "lat": 52.4125327, "lon": 13.3674861}, {"type": "node", "id": 13048558267, "lat": 52.4125547, "lon": 13.3674056}, {"type": "way", "id": 27134481, "nodes": [3738310779, 3738310837, 3738310885, 6083366731, 297701980, 297701981, 297701985, 2908709201, 297701986, 2908708902, 10763315776, 1699169696, 297701989, 5414818646, 5414818645, 5414818647, 5414818648, 5414818649, 5414818650, 297701991, 5414818651, 5414818652, 297701992, 297701993, 5414818644, 6083366690, 6083366687, 6083366686, 6083366685, 6083366684, 6083366683, 6083366682, 297701953, 297701954, 5414818660, 11476938782, 11476938780, 297701957, 268915456, 297701958, 297701960, 297701962, 297701963, 2908709501, 297701964, 297701967, 297701968, 297701971, 297701975, 3738310779], "tags": {"leisure": "park", "name": "Hampelsche Baumschule", "protection_title": "Gesch\u00fctzte Gr\u00fcnanlage"}}, {"type": "way", "id": 27492290, "nodes": [3098367334, 10139136058, 867826296, 10139136056, 301817319, 301817320, 3738871007, 339779495, 301817321, 11582466287, 11582466284, 333718846, 3738869470, 301817323, 11582438234, 301817324, 6083366736, 6083366750, 6083366737, 6083366738, 6083366739, 6083366740, 6083366741, 6083366742, 13034087017, 6083366757, 13034087016, 6083366824, 6083366743, 6083366744, 6083366745, 6083366842, 6083366746, 301817338, 3098367334], "tags": {"leisure": "park"}}, {"type": "way", "id": 28242872, "nodes": [4511088108, 4511088103, 4511088104, 1145363054, 301675225, 310193663, 310193664, 5794424763, 5794424549, 31051352, 1657670919, 11173008660, 1657671039, 5335080827, 5335080826, 310193665, 310193666, 3274700505, 3274700503, 310193667, 11040329690, 3274700481, 5335080829, 11040329679, 11040329680, 5335080830, 5335080828, 31056598, 10131943219, 1657670935, 306017958, 10137261275, 10137261276, 10137261274, 3274700205, 306473575, 306473577, 1657670837, 31056594, 4511087485, 3274699206, 3274699170, 3274699183, 3274699157, 3274699130, 1270299121, 4693755078, 1654049218, 1654049207, 31052994, 310193668, 3274696384, 3274696350, 3274696263, 3274696153, 2908259801, 9494060501, 1654022902, 9494060503, 1654022882, 2908307901, 2908307907, 310193670, 310193972, 310193970, 310193834, 830073001, 310193671, 4511088116, 864374467, 4511088112, 4511088111, 4511088110, 4511088109, 864374522, 4511088114, 4511088115, 4511088108], "tags": {"communication:amateur_radio:pota": "DE-0493", "leisure": "park", "name": "Freizeitpark Marienfelde", "protection_title": "Gesch\u00fctzte Gr\u00fcnanlage", "wikidata": "Q1454998", "wikipedia": "de:Freizeitpark Marienfelde"}}, {"type": "way", "id": 28464064, "nodes": [312714268, 13006512024, 13006512026, 13006512022, 13006512019, 312714269, 312714270, 11165911039, 312714271, 312714268], "tags": {"addr:city": "Berlin", "addr:housenumber": "49", "addr:postcode": "12277", "addr:street": "S\u00e4ntisstra\u00dfe", "addr:suburb": "Marienfelde", "brand": "Lidl", "brand:wikidata": "Q151954", "brand:wikipedia": "en:Lidl", "building": "supermarket", "name": "Lidl", "opening_hours": "Mo-Sa 07:00-21:00", "operator": "Lidl", "phone": "+49 800 4353361", "shop": "supermarket", "website": "https://www.lidl.de/filialen/berlin-tempelhof-schoeneberg/marienfelde-saentisstr-49.html", "wheelchair": "yes"}}, {"type": "way", "id": 28464065, "nodes": [312714272, 312714275, 8345822582, 312714276, 11165911078, 2304393656, 2304393652, 312714277, 11165911091, 11165911092, 11165911090, 11165911089, 312714272], "tags": {"addr:city": "Berlin", "addr:housenumber": "6", "addr:postcode": "12277", "addr:street": "Richard-Tauber-Damm", "addr:suburb": "Marienfelde", "brand": "Aldi Nord", "brand:wikidata": "Q41171373", "brand:wikipedia": "en:Aldi", "building": "supermarket", "name": "Aldi", "opening_hours": "Mo-Sa 07:00-21:00", "operator": "Aldi", "shop": "supermarket", "website": "https://www.aldi-nord.de/filialen-und-oeffnungszeiten.html/l/berlin/richard-tauber-damm-6/3180597", "wheelchair": "yes"}}, {"type": "way", "id": 29998110, "nodes": [331395210, 5287214927, 330243371, 5287214924, 5287214925, 3738868342, 3738868458, 331397656, 331397398, 331397150, 330242770, 6069073935, 330242773, 5287104406, 5287104407, 330242774, 330242777, 330242778, 331395739, 2403073256, 355497214, 1572836477, 355497212, 330242783, 4144845177, 5094086565, 5094086563, 5094086564, 355490212, 5287189415, 5287189215, 5287189214, 5287189414, 330242789, 5287098998, 5287098997, 5287098996, 6069072653, 5287099001, 330242791, 5287098947, 5287098946, 5287098943, 5287098944, 5287098945, 5287214937, 330242792, 5287214938, 5287214940, 5287214939, 5287214941, 5287214942, 5287214934, 5287214935, 5287214936, 5287214933, 5287214932, 5287214943, 331397742, 6069072652, 5287214930, 5287214931, 5287214944, 330243373, 331397743, 10970862941, 5094086544, 331397744, 5094086546, 331395210]}, {"type": "way", "id": 30279552, "nodes": [333718827, 333718828, 333718829, 333718830, 333718831, 333718832, 333718833, 333718834, 333765304, 333765305, 333765306, 333765307, 333718835, 333765308, 333765309, 333765310, 333765311, 333718836, 333718837, 333718838, 333718839, 333718840, 333718841, 333718842, 333718843, 333718827], "tags": {"access": "yes", "leisure": "playground"}}, {"type": "way", "id": 31758949, "nodes": [2281137269, 355499420, 2281137288, 2281137273, 13031355039, 2281137269], "tags": {"landuse": "grass", "leisure": "park"}}, {"type": "way", "id": 37901393, "nodes": [444822158, 2378082449, 2378082445, 2378082438, 2378082444, 444822160, 444822161, 444822163, 444822158], "tags": {"access": "private", "addr:housename": "Haus 31", "addr:street": "Daimlerstra\u00dfe", "amenity": "restaurant", "building": "yes", "indoor_seating": "yes", "name": "Kantine", "outdoor_seating": "no"}}, {"type": "way", "id": 37901733, "nodes": [5506021845, 5506021846, 5506021847, 5506021848, 5506021849, 5506021850, 5661529095, 5661529096, 5506021851, 1027998927, 444825775, 1027999053, 5506021843, 1027998923, 5506021842, 5506021841, 444825782, 1027999051, 1027998918, 5506021840, 1027998981, 444825791, 1027999098, 444825793, 444825769, 5506021844, 5506021845], "tags": {"addr:city": "Berlin", "addr:country": "DE", "addr:housenumber": "91-95", "addr:postcode": "12277", "addr:street": "Daimlerstra\u00dfe", "addr:suburb": "Marienfelde", "building": "retail", "building:levels": "1", "contact:email": "info@ngmarkt.de", "contact:fax": "+49 30 72015250", "contact:phone": "+49 30 72015250", "contact:website": "https://ngmarkt.de/", "description": "deutsch-t\u00fcrkischer Supermarkt", "name": "NG-Markt", "opening_hours": "Mo-Sa 07:00-20:00; Su,PH off", "payment:american_express": "yes", "payment:apple_pay": "yes", "payment:cards": "yes", "payment:cash": "yes", "payment:contactless": "yes", "payment:credit_cards": "yes", "payment:debit_cards": "yes", "payment:discover_card": "yes", "payment:girocard": "yes", "payment:maestro": "yes", "payment:mastercard_contactless": "yes", "payment:visa_debit": "yes", "roof:shape": "flat", "shop": "supermarket"}}, {"type": "way", "id": 37901854, "nodes": [3684330711, 3684330703, 3684330704, 3684330688, 3684330687, 3684330681, 3684330676, 3684330675, 3684330677, 3684330678, 3684330683, 3684330680, 3684330697, 3684330702, 3684330706, 3684330710, 3684330708, 3684330711], "tags": {"addr:city": "Berlin", "addr:country": "DE", "addr:housenumber": "36", "addr:postcode": "12277", "addr:street": "Richard-Tauber-Damm", "addr:suburb": "Marienfelde", "building": "yes", "leisure": "playground", "name": "Ritterland", "opening_hours": "Mo-Su 10:00-19:00", "phone": "+49 30 7421002", "website": "https://www.ritterlandberlin.de/"}}, {"type": "way", "id": 43168219, "nodes": [444760912, 5286262596, 444760897, 444770150, 3274699171, 444770151, 444760955, 444760958, 444760961, 5335079841, 444760963, 5335079840, 5335079839, 444760965, 5335079838, 5335079837, 5335079836, 444760972, 444760974, 444760978, 444760980, 444760983, 444760988, 3905713263, 444770153, 313442287, 540861022, 540861081, 540861087, 540861103, 5286262598, 540860996, 5286262609, 540860988, 5286262599, 5286262600, 5286262602, 5286262601, 444760912], "tags": {"leisure": "park", "protection_title": "Gesch\u00fctzte Gr\u00fcnanlage"}}, {"type": "way", "id": 51563455, "nodes": [659432005, 12367488211, 12367488214, 659432011, 659431996, 9451199146, 1673091189, 659432005], "tags": {"access": "yes", "leisure": "playground", "name": "Fantasia Spielplatz", "protection_title": "Gesch\u00fctzte Gr\u00fcnanage"}}, {"type": "way", "id": 72843208, "nodes": [2402213292, 2402213290, 2402213291, 5339588765, 864374493, 864374463, 2402213293, 2402213294, 5339588789, 2402120118, 2402120116, 864374506, 2402213292], "tags": {"addr:city": "Berlin", "addr:country": "DE", "addr:housenumber": "101", "addr:postcode": "12277", "addr:street": "Marienfelder Allee", "addr:suburb": "Marienfelde", "brand": "EDEKA", "brand:wikidata": "Q701755", "building": "supermarket", "email": "e4033408@minden.edeka.de", "name": "EDEKA Wiesemann", "opening_hours": "Mo-Sa 07:00-20:00", "phone": "+49 30 72017812", "shop": "supermarket", "website": "https://www.edeka.de/eh/minden-hannover/edeka-wiesemann-marienfelder-allee-101/index.jsp", "wheelchair": "yes"}}, {"type": "way", "id": 72843209, "nodes": [6068272978, 5286365001, 5286365003, 5286365004, 5286365006, 5286365010, 13048558228, 5286365008, 13048558229, 5286365009, 13048558230, 5286365011, 5286365012, 13048558231, 13048558232, 5286365014, 5286365015, 5286365016, 13048558264, 13048558267, 13048558266, 5286365020, 5286364995, 5286365221, 5286365223, 5286365227, 13048558219, 5286365225, 5286365224, 5286365226, 5286365228, 5286350386, 5286350385, 5286350500, 5286350499, 5286350497, 5286350496, 310566747, 5286350492, 6068276908, 5286350491, 6068272976, 6068272978], "tags": {"leisure": "park"}}, {"type": "way", "id": 88524861, "nodes": [1028152177, 5287883140, 5287883138, 5287883137, 5287883139, 5287883135, 5287883134, 5287883136, 5287883133, 5287883132, 5287883143, 5287883142, 5287883141, 1028152091, 5287883147, 5287883146, 1028152037, 5287883144, 5287883145, 2823110590, 7232729799, 7232729802, 1028152177], "tags": {"addr:city": "Berlin", "addr:country": "DE", "addr:housenumber": "52-56", "addr:postcode": "12279", "addr:street": "Hildburghauser Stra\u00dfe", "addr:suburb": "Marienfelde", "brand": "EDEKA", "brand:wikidata": "Q701755", "brand:wikipedia": "de:Edeka", "building": "yes", "check_date:opening_hours": "2024-03-12", "name": "EDEKA Christ", "opening_hours": "Mo-Sa 07:00-22:00", "shop": "supermarket", "source": "Geoportal Berlin / Hauskoordinaten", "website": "https://www.edeka.de/eh/minden-hannover/edeka-christ-hildburghauser-str.-52/index.jsp", "wheelchair": "yes"}}, {"type": "way", "id": 88524880, "nodes": [1028152055, 1028152200, 1028152107, 1028152184, 1028152096, 1028152019, 1028152151, 1028152055], "tags": {"leisure": "park"}}, {"type": "way", "id": 88632386, "nodes": [3738310830, 3738310635, 3738310625, 3738310629, 3738310597, 3738310592, 3738310586, 6083315302, 6083315303, 3738309941, 11918313250, 1029213660, 3738310753, 3738310830], "tags": {"leisure": "park", "protection_title": "Gesch\u00fctzte Gr\u00fcnanlage"}}, {"type": "way", "id": 88694280, "nodes": [6083366694, 6083366689, 11476938770, 6083366690, 6083366687, 6083366694], "tags": {"access": "yes", "leisure": "playground"}}, {"type": "way", "id": 116676560, "nodes": [2908393847, 2908393527, 2908394033, 2908393052, 2908392157, 2908392169, 2908394434, 2908392258, 2908393847], "tags": {"addr:city": "Berlin", "addr:country": "DE", "addr:housenumber": "202", "addr:postcode": "12279", "addr:street": "Marienfelder Allee", "addr:suburb": "Marienfelde", "brand": "Lidl", "brand:wikidata": "Q151954", "brand:wikipedia": "en:Lidl", "building": "yes", "name": "Lidl", "opening_hours": "Mo-Sa 07:00-21:00; Su off", "phone": "+49 800 4353361", "shop": "supermarket", "source": "Geoportal Berlin / Hauskoordinaten", "website": "https://www.lidl.de/filialen/berlin-tempelhof-schoeneberg/marienfelde-marienfelder-allee-202.html", "wheelchair": "yes"}}, {"type": "way", "id": 116676971, "nodes": [3738865898, 3738865883, 3738865886, 3738865880, 3738865877, 3738865872, 3738865871, 3738865858, 3738865846, 3738865881, 3738865898], "tags": {"amenity": "bar", "building": "yes", "name": "Zur Insel", "opening_hours": "Mo-Su 10:00-24:00"}}, {"type": "way", "id": 116676972, "nodes": [4511088101, 1614099483, 1614099472, 11042328605, 6068276962, 11042328626, 12103250592, 6252406781, 6252406780, 3092552609, 1614125587, 11920004609, 1314770036, 8894484814, 11920004587, 11920004588, 11920004589, 11920004590, 11920004591, 11920004592, 4511088105, 11920004606, 11920004608, 11920004607, 310192866, 310192865, 310192864, 310192863, 310192862, 4511088095, 4511088100, 4511088101], "tags": {"leisure": "park", "protection_title": "Gesch\u00fctzte Gr\u00fcnanlage"}}, {"type": "way", "id": 140687841, "nodes": [2908709107, 2908710704, 2908710005, 2908708703, 2908708108, 2908709202, 2908708503, 12098880625, 12098880626, 2908709107], "tags": {"addr:city": "Berlin", "addr:country": "DE", "addr:housenumber": "29", "addr:postcode": "12279", "addr:street": "Hildburghauser Stra\u00dfe", "addr:suburb": "Marienfelde", "building": "retail", "building:levels": "1", "name": "REWE", "opening_hours": "Mo-Sa 06:00-22:00", "shop": "supermarket"}}, {"type": "way", "id": 143732123, "nodes": [1572836488, 1572836486, 1572836485, 1572836487, 1572836488], "tags": {"access": "yes", "leisure": "playground"}}, {"type": "way", "id": 148090095, "nodes": [3738311106, 3738311006, 3738310922, 3738310896, 6083315302, 3738310586, 3738310592, 3738310597, 3738310629, 3738310625, 3738310635, 3738310830, 3738310854, 10010903801, 3738311146, 6083366676, 3738311106], "tags": {"access": "yes", "leisure": "playground", "protection_title": "Gesch\u00fctzte Gr\u00fcnanlage"}}, {"type": "way", "id": 148090908, "nodes": [6083461535, 6083461536, 6083461538, 6083495180, 6083461535], "tags": {"leisure": "playground", "protection_title": "Gesch\u00fctzte Gr\u00fcnanlage", "wheelchair": "yes"}}, {"type": "way", "id": 213273446, "nodes": [2230038494, 11895205749, 11895205758, 11895205759, 2230038491, 11895205760, 11895205761, 11895205762, 11895205763, 11895205764, 2230038478, 11895205737, 11895205738, 2230038475, 11895205736, 2230038477, 11895205732, 2230038479, 11895205733, 2230038483, 11895205734, 2230038487, 2230038481, 11895205735, 2230038480, 11895205739, 11895205740, 11895205741, 11895205742, 2230038482, 2230038485, 11895205743, 2230038489, 11895205744, 11895205745, 2230038492, 11895205746, 11895205747, 2230038493, 11895205748, 2230038494], "tags": {"access": "yes", "leisure": "playground"}}, {"type": "way", "id": 215525149, "nodes": [2249870044, 2249870049, 2249870045, 2249870041, 2249870048, 11165906902, 11165906903, 2249870051, 2249870047, 2249870046, 2249870044], "tags": {"addr:city": "Berlin", "addr:country": "DE", "addr:housenumber": "36", "addr:postcode": "12277", "addr:street": "Richard-Tauber-Damm", "addr:suburb": "Marienfelde", "brand": "Netto Marken-Discount", "brand:wikidata": "Q879858", "brand:wikipedia": "de:Netto Marken-Discount", "building": "retail", "building:colour": "yellow", "building:levels": "1", "name": "Netto Marken-Discount", "opening_hours": "Mo-Sa 07:00-21:00", "roof:colour": "salmon", "roof:levels": "0", "roof:shape": "gabled", "shop": "supermarket", "website": "https://www.netto-online.de/filialen/Berlin-Tempelhof/Richard-Tauber-Damm-36/5142/", "wheelchair": "yes"}}, {"type": "way", "id": 220691634, "nodes": [3327971782, 3327971761, 3327971781, 3327971693, 3327971668, 3327971643, 3327971615, 3327971602, 3327971582, 3327971728, 3327971769, 3327971782], "tags": {"addr:city": "Berlin", "addr:country": "DE", "addr:housenumber": "20", "addr:postcode": "12277", "addr:street": "Marienfelder Allee", "addr:suburb": "Marienfelde", "amenity": "restaurant", "building": "yes", "contact:phone": "+49 30 72019307", "cuisine": "italian", "diet:vegetarian": "yes", "name": "Masseria da Rocco", "opening_hours": "Mo,We-Fr 14:00-22:00; Tu off; Sa,Su 12:00-22:00", "toilets:wheelchair": "yes", "website": "https://masseriadarocco.de/", "wheelchair": "yes"}}, {"type": "way", "id": 229167129, "nodes": [2377948952, 2377949073, 2377949066, 2377948988, 2377949005, 2377949015, 2377949017, 2377949009, 2377949081, 2377948952], "tags": {"access": "yes", "leisure": "playground"}}, {"type": "way", "id": 233154343, "nodes": [2414956180, 2414956173, 2414956160, 2414956171, 2414956175, 2414956177, 2414956180], "tags": {"access": "yes", "barrier": "fence", "leisure": "playground", "name": "Piratenspielplatz", "opening_hours": "24/7"}}, {"type": "way", "id": 260826793, "nodes": [2663930260, 6551650638, 2663930257, 2663930244, 2663930248, 2663930260], "tags": {"access": "yes", "leisure": "playground"}}, {"type": "way", "id": 312448645, "nodes": [3183058164, 3183085774, 3183058168, 3183085775, 3183085779, 3184522017, 3183058186, 3183058165, 3183058179, 3183058170, 3183053548, 3183058185, 3183085770, 3183058183, 3183058164], "tags": {"access": "customers", "leisure": "playground"}}, {"type": "way", "id": 370284992, "nodes": [3739956979, 3739956970, 3739956968, 3739956974, 3739956979], "tags": {"access": "private", "leisure": "playground"}}, {"type": "way", "id": 370284993, "nodes": [3739956971, 3739956963, 3739956961, 3739956966, 3739956967, 3739956969, 3739956971], "tags": {"access": "private", "leisure": "playground"}}, {"type": "way", "id": 370284994, "nodes": [3739957013, 3739957016, 3739957018, 6235139109, 3739957425, 3739957431, 3739957426, 3739957430, 3739957020, 3739957013], "tags": {"access": "yes", "leisure": "playground"}}, {"type": "way", "id": 379871322, "nodes": [3544884098, 301676437, 301845954, 5339583431, 5339583430, 301676434, 3544884098], "tags": {"addr:city": "Berlin", "addr:country": "DE", "addr:housenumber": "144", "addr:postcode": "12277", "addr:street": "Malteserstra\u00dfe", "addr:suburb": "Marienfelde", "brand": "Netto Marken-Discount", "brand:wikidata": "Q879858", "brand:wikipedia": "de:Netto Marken-Discount", "building": "retail", "check_date:opening_hours": "2023-07-14", "name": "Netto Marken-Discount", "opening_hours": "Mo-Sa 07:00-21:00", "shop": "supermarket", "source": "Geoportal Berlin / Hauskoordinaten", "website": "https://www.netto-online.de/filialen/Berlin-Marienfelde/Malteserstr-144/5805/", "wheelchair": "yes"}}, {"type": "way", "id": 413723502, "nodes": [4149897202, 11899095594, 11899095595, 4149897203, 4149897204, 4149897205, 11899095593, 11899095598, 11899095603, 11899095599, 11899095602, 11899095601, 11899095600, 11899095597, 11899095604, 11899095596, 4149897202], "tags": {"access": "yes", "leisure": "playground"}}, {"type": "way", "id": 413723504, "nodes": [4149897206, 11899095611, 11899095610, 4149897207, 4149897208, 4149897209, 4149897206], "tags": {"access": "yes", "leisure": "playground"}}, {"type": "way", "id": 413723511, "nodes": [4149897219, 4149897220, 4149897221, 10144668295, 4149897222, 10144668296, 4149897219], "tags": {"amenity": "restaurant", "building": "yes", "diet:vegetarian": "no", "name": "Pizzeria", "opening_hours": "Mo-Th 11:30-22:00; Fr,Sa 11:30-23:00; Su 11:30-22:00", "wheelchair": "yes"}}, {"type": "way", "id": 511895484, "nodes": [5006352525, 5006352524, 4247963482, 5006352523, 5006352525], "tags": {"access": "yes", "leisure": "playground", "wheelchair": "limited"}}, {"type": "way", "id": 519758369, "nodes": [5067542420, 6252413747, 5067542419, 6252413749, 11920043954, 6252413754, 5067542418, 6252413757, 5067542417, 11920043964, 5067542415, 5067542416, 5067542420], "tags": {"leisure": "park", "name": "Gemeinschaftsplatz Stadtrandsiedlung Marienfelde II/III"}}, {"type": "way", "id": 547092884, "nodes": [5286275327, 5286275326, 5286275325, 5286275324, 5286275323, 5286275322, 5286275321, 5286271120, 5286271119, 5286271118, 5286271117, 5286271116, 5286271115, 5286271114, 5286275327], "tags": {"amenity": "fast_food", "brand": "Burger King", "brand:wikidata": "Q177054", "brand:wikipedia": "en:Burger King", "building": "yes", "cuisine": "burger", "drive_through": "yes", "name": "Burger King", "operator": "BURGER KING Deutschland GmbH", "phone": "+493075774780", "takeaway": "yes", "website": "https://www.burgerking.de/", "wheelchair": "yes"}}, {"type": "way", "id": 547103790, "nodes": [310195588, 310566723, 5286350417, 5286350416, 5286350415, 5286350414, 5286350413, 5286350412, 5286350411, 5286350410, 5286350409, 5286350408, 5286350407, 5286350406, 5286350405, 5286350404, 5286350403, 5286350402, 5286350401, 5286350400, 10148320408, 10148320410, 10148320411, 10148320409, 5286350399, 5286350398, 5286350397, 5286350396, 5286350395, 5286350394, 5286350393, 5286350392, 5286350391, 5286350390, 5286350228, 5286350229, 5286350227, 5286350226, 5286350389, 5286350388, 5286350387, 5286365228, 5286350386, 5286350385, 5286350500, 310195594, 5286350502, 5286350503, 5286350504, 5286350505, 5286350506, 5286350507, 310195592, 2862174036, 310195589, 310195588], "tags": {"heritage": "4", "heritage:operator": "lda", "lda:criteria": "Gartendenkmal", "leisure": "park", "name": "Gutspark Marienfelde", "postal_code": "12277", "ref:lda": "09046263", "wikidata": "Q1557320", "wikipedia": "de:Gutspark Marienfelde"}}, {"type": "way", "id": 547103791, "nodes": [5286350437, 5286350436, 5286350435, 5286350434, 5286350433, 5286350432, 5286350431, 5286350430, 5286350429, 5286350428, 5286350427, 5286350426, 5286350425, 5286350424, 5286350423, 5286350422, 5286350421, 5286350420, 5286350437], "tags": {"access": "yes", "leisure": "playground"}}, {"type": "way", "id": 547202232, "nodes": [330242793, 10970862939, 2414831400, 310196560, 2414831396, 5287104415, 310196567, 5287104416, 2414831397, 310196562, 5287104417, 5287104419, 5287104418, 2414831399, 32348072, 32348071, 5287104420, 2414831404, 2414831406, 310196595, 5287104821, 2414831407, 310196590, 2414831409, 2414831410, 310196569, 2414831412, 2414831415, 310196573, 2414831413, 310196571, 2414831411, 2349886466, 32348074, 5287104414, 32348073, 310196564, 2414831403, 330242793]}, {"type": "way", "id": 697687969, "nodes": [6552257658, 6552257659, 6552257660, 6552257661, 6552257662, 6552257658], "tags": {"access": "permissive", "leisure": "playground", "surface": "concrete"}}, {"type": "way", "id": 721662374, "nodes": [6769817149, 6769817148, 6769817147, 6769817146, 6769817145, 6769817144, 6769817143, 11771962692, 6769817149], "tags": {"leisure": "park"}}, {"type": "way", "id": 755408366, "nodes": [7056283272, 7056283269, 7056283270, 7056283271, 7056283272], "tags": {"amenity": "fast_food", "building": "commercial", "name": "Curry & More"}}, {"type": "way", "id": 1047778424, "nodes": [9634801879, 9634801878, 9634801877, 9634801876, 9634801875, 9634801879], "tags": {"access": "yes", "leisure": "playground"}}, {"type": "way", "id": 1147999756, "nodes": [10681325508, 10681325509, 10681325510, 10681325511, 10681325512, 10681325513, 10681325508], "tags": {"leisure": "playground"}}, {"type": "way", "id": 1166224722, "nodes": [1613523896, 10847083881, 10847083882, 10847083883, 1613523896], "tags": {"leisure": "playground"}}, {"type": "way", "id": 1166224733, "nodes": [2402138924, 10847104172, 10847104173, 10847104174, 10847104175, 10847104176, 10847104177, 10847104160, 10847104161, 10847104162, 10847104167, 10847104168, 10847104169, 10847104170, 10847104171, 10847104163, 10847104164, 10847104165, 10847104166, 2402138924], "tags": {"access": "private", "leisure": "playground"}}, {"type": "way", "id": 1166224772, "nodes": [1572836475, 10847082566, 10847082567, 10847082568, 1572836475], "tags": {"access": "yes", "leisure": "playground"}}, {"type": "way", "id": 1184392231, "nodes": [11001163666, 11001163667, 11001163668, 11001163669, 11001163670, 11001163671, 11001163672, 11001163673, 11001163666], "tags": {"leisure": "playground"}}, {"type": "way", "id": 1189152447, "nodes": [11042273194, 11042273195, 11042273196, 11042273197, 11042273198, 11042273199, 11042273200, 11042273201, 11042273202, 11042273194], "tags": {"leisure": "playground"}}, {"type": "way", "id": 1189152449, "nodes": [11042328606, 11042328607, 11042328608, 11042328609, 11042328610, 11042328606], "tags": {"leisure": "playground"}}, {"type": "way", "id": 1205661096, "nodes": [1572836471, 11173215800, 11173215801, 11173215802, 11173215803, 11173215804, 11173215805, 11173215806, 11173215807, 1572836471], "tags": {"access": "yes", "leisure": "playground", "name": "Drehscheibe"}}, {"type": "way", "id": 1227136194, "nodes": [11379445471, 11379445472, 11379445473, 11379445474, 11379445471], "tags": {"leisure": "playground"}}, {"type": "way", "id": 1236124361, "nodes": [11476938795, 11476938796, 11476938797, 11476938798, 11476938799, 11476938800, 11476938795], "tags": {"leisure": "playground"}}, {"type": "way", "id": 1236124377, "nodes": [11476938858, 11476938859, 11476938860, 11476938861, 11476938862, 11476938858], "tags": {"leisure": "playground"}}, {"type": "way", "id": 1254281065, "nodes": [11659290556, 11659290557, 11659338355, 11659290558, 11659290559, 11659290556], "tags": {"access": "private", "leisure": "playground", "surface": "sand"}}, {"type": "way", "id": 1282225082, "nodes": [11899055865, 11899055866, 11899055867, 11899055868, 11899055865], "tags": {"leisure": "playground"}}, {"type": "way", "id": 1282225088, "nodes": [11899095582, 11899095583, 11899095584, 11899095585, 11899095582], "tags": {"leisure": "playground"}}, {"type": "way", "id": 1284698770, "nodes": [11918313229, 11918313230, 11918313231, 11918313232, 11918313233, 11918313229], "tags": {"leisure": "playground"}}, {"type": "way", "id": 1312955995, "nodes": [12153048050, 12153048051, 12153048052, 12153048053, 12153048050], "tags": {"leisure": "playground"}}, {"type": "relation", "id": 7814669, "members": [{"type": "way", "ref": 547202232, "role": "inner"}, {"type": "way", "ref": 29998110, "role": "outer"}], "tags": {"leisure": "park", "type": "multipolygon"}}]}