{"version": 0.6, "generator": "Overpass API 0.7.62.7 375dc00a", "osm3s": {"timestamp_osm_base": "2025-08-05T15:16:24Z", "copyright": "The data included in this document is from www.openstreetmap.org. The data is made available under ODbL."}, "elements": [{"type": "node", "id": 30437323, "lat": 52.5966165, "lon": 13.3127758}, {"type": "node", "id": 30437326, "lat": 52.5965133, "lon": 13.3104479}, {"type": "node", "id": 30437328, "lat": 52.59649, "lon": 13.3089583}, {"type": "node", "id": 30437329, "lat": 52.5964339, "lon": 13.3080349}, {"type": "node", "id": 30437334, "lat": 52.595972, "lon": 13.3030705}, {"type": "node", "id": 30437336, "lat": 52.5979387, "lon": 13.3066527}, {"type": "node", "id": 30437337, "lat": 52.5983598, "lon": 13.3062199}, {"type": "node", "id": 30437339, "lat": 52.5981477, "lon": 13.3054692}, {"type": "node", "id": 168212729, "lat": 52.596345, "lon": 13.3064614}, {"type": "node", "id": 182760972, "lat": 52.5972963, "lon": 13.3158537}, {"type": "node", "id": 182760977, "lat": 52.5982943, "lon": 13.3144755}, {"type": "node", "id": 182760983, "lat": 52.5968794, "lon": 13.3029268}, {"type": "node", "id": 182760986, "lat": 52.5974663, "lon": 13.3058733}, {"type": "node", "id": 269843364, "lat": 52.5970419, "lon": 13.3155756}, {"type": "node", "id": 278635291, "lat": 52.5963831, "lon": 13.3072273}, {"type": "node", "id": 281224182, "lat": 52.5971362, "lon": 13.3154685}, {"type": "node", "id": 281224208, "lat": 52.5972111, "lon": 13.3159109}, {"type": "node", "id": 281420616, "lat": 52.5999627, "lon": 13.3144345}, {"type": "node", "id": 281429602, "lat": 52.6060645, "lon": 13.3371885}, {"type": "node", "id": 281429603, "lat": 52.6058008, "lon": 13.3368185}, {"type": "node", "id": 281429607, "lat": 52.6055472, "lon": 13.3312896}, {"type": "node", "id": 288516972, "lat": 52.5968417, "lon": 13.3029308}, {"type": "node", "id": 364504521, "lat": 52.6056613, "lon": 13.3283542}, {"type": "node", "id": 498640291, "lat": 52.6098513, "lon": 13.3283553}, {"type": "node", "id": 498640293, "lat": 52.6094178, "lon": 13.3287876}, {"type": "node", "id": 498640295, "lat": 52.6095819, "lon": 13.3293028}, {"type": "node", "id": 498640297, "lat": 52.609936, "lon": 13.3285875}, {"type": "node", "id": 498640298, "lat": 52.6098222, "lon": 13.3286999}, {"type": "node", "id": 498640300, "lat": 52.6099189, "lon": 13.3289654}, {"type": "node", "id": 614653570, "lat": 52.6075752, "lon": 13.324865}, {"type": "node", "id": 614653571, "lat": 52.6075515, "lon": 13.3246848}, {"type": "node", "id": 614653575, "lat": 52.6077541, "lon": 13.3245206}, {"type": "node", "id": 614653576, "lat": 52.6078022, "lon": 13.3246807}, {"type": "node", "id": 661114610, "lat": 52.6051594, "lon": 13.3328429}, {"type": "node", "id": 661114649, "lat": 52.605678, "lon": 13.3292152}, {"type": "node", "id": 661114691, "lat": 52.605086, "lon": 13.3345682}, {"type": "node", "id": 661114694, "lat": 52.6049575, "lon": 13.3327978}, {"type": "node", "id": 661117344, "lat": 52.6058342, "lon": 13.3342296, "tags": {"access": "yes", "leisure": "playground"}}, {"type": "node", "id": 661123172, "lat": 52.6116309, "lon": 13.3235154}, {"type": "node", "id": 664074198, "lat": 52.6046079, "lon": 13.3299494}, {"type": "node", "id": 664074199, "lat": 52.6047415, "lon": 13.3306119}, {"type": "node", "id": 664074201, "lat": 52.6054338, "lon": 13.3329975}, {"type": "node", "id": 664074202, "lat": 52.6053997, "lon": 13.3336309}, {"type": "node", "id": 664074207, "lat": 52.6085454, "lon": 13.3399962}, {"type": "node", "id": 676889578, "lat": 52.5977127, "lon": 13.3177632}, {"type": "node", "id": 746555274, "lat": 52.5978455, "lon": 13.3056418}, {"type": "node", "id": 747457784, "lat": 52.60739, "lon": 13.3413239}, {"type": "node", "id": 747457798, "lat": 52.6081192, "lon": 13.3399178}, {"type": "node", "id": 747457805, "lat": 52.6080115, "lon": 13.3393283}, {"type": "node", "id": 747457826, "lat": 52.6064355, "lon": 13.3374147}, {"type": "node", "id": 747457831, "lat": 52.6067433, "lon": 13.3375545}, {"type": "node", "id": 747457835, "lat": 52.6079005, "lon": 13.339612}, {"type": "node", "id": 747457837, "lat": 52.6078366, "lon": 13.3396654}, {"type": "node", "id": 747457840, "lat": 52.6078571, "lon": 13.3396949}, {"type": "node", "id": 831962878, "lat": 52.6070018, "lon": 13.3373179}, {"type": "node", "id": 831962894, "lat": 52.6064052, "lon": 13.3369894}, {"type": "node", "id": 831962997, "lat": 52.6068884, "lon": 13.3370857}, {"type": "node", "id": 831963005, "lat": 52.6062882, "lon": 13.3367629}, {"type": "node", "id": 831963086, "lat": 52.606204, "lon": 13.3368479}, {"type": "node", "id": 831963166, "lat": 52.6068247, "lon": 13.3371763}, {"type": "node", "id": 831963201, "lat": 52.6058109, "lon": 13.3360967}, {"type": "node", "id": 831963248, "lat": 52.6065083, "lon": 13.3368677}, {"type": "node", "id": 831963282, "lat": 52.6067061, "lon": 13.3369724}, {"type": "node", "id": 833090002, "lat": 52.6111593, "lon": 13.3371172}, {"type": "node", "id": 880350824, "lat": 52.61038, "lon": 13.3378693}, {"type": "node", "id": 884207461, "lat": 52.6057618, "lon": 13.3129673}, {"type": "node", "id": 884207535, "lat": 52.6057263, "lon": 13.3130081}, {"type": "node", "id": 884207588, "lat": 52.6061762, "lon": 13.3122326}, {"type": "node", "id": 884207789, "lat": 52.6056442, "lon": 13.3127687}, {"type": "node", "id": 884208047, "lat": 52.6061079, "lon": 13.3135275}, {"type": "node", "id": 899410486, "lat": 52.5965195, "lon": 13.3108492}, {"type": "node", "id": 920571253, "lat": 52.6050106, "lon": 13.3280176}, {"type": "node", "id": 920571464, "lat": 52.6046481, "lon": 13.3285015}, {"type": "node", "id": 920571736, "lat": 52.6054096, "lon": 13.3264397}, {"type": "node", "id": 920572140, "lat": 52.6051938, "lon": 13.3274371}, {"type": "node", "id": 920572475, "lat": 52.6049423, "lon": 13.3281154}, {"type": "node", "id": 920572635, "lat": 52.6053279, "lon": 13.3261735}, {"type": "node", "id": 920572642, "lat": 52.6049425, "lon": 13.329099}, {"type": "node", "id": 920573117, "lat": 52.6050779, "lon": 13.3278466}, {"type": "node", "id": 1219749304, "lat": 52.6007281, "lon": 13.3040207}, {"type": "node", "id": 1309586130, "lat": 52.60491, "lon": 13.3325493}, {"type": "node", "id": 1492771492, "lat": 52.6054088, "lon": 13.3348238}, {"type": "node", "id": 1492771494, "lat": 52.6094754, "lon": 13.3389672}, {"type": "node", "id": 1492771499, "lat": 52.6073048, "lon": 13.3377957}, {"type": "node", "id": 1492771505, "lat": 52.6059886, "lon": 13.3298087}, {"type": "node", "id": 1492771508, "lat": 52.6078694, "lon": 13.3385719}, {"type": "node", "id": 1492771512, "lat": 52.6060206, "lon": 13.3257681}, {"type": "node", "id": 1492771522, "lat": 52.6053414, "lon": 13.3344735}, {"type": "node", "id": 1492771525, "lat": 52.6085534, "lon": 13.3409956}, {"type": "node", "id": 1492771527, "lat": 52.6088375, "lon": 13.3406354}, {"type": "node", "id": 1492771531, "lat": 52.6060265, "lon": 13.3256284}, {"type": "node", "id": 1492771539, "lat": 52.6066338, "lon": 13.3371198}, {"type": "node", "id": 1492771541, "lat": 52.6084763, "lon": 13.3398415}, {"type": "node", "id": 1492771543, "lat": 52.6087196, "lon": 13.3407855}, {"type": "node", "id": 1492771545, "lat": 52.6082459, "lon": 13.3403461}, {"type": "node", "id": 1492771547, "lat": 52.609408, "lon": 13.3388403}, {"type": "node", "id": 1492771552, "lat": 52.6074635, "lon": 13.3415741}, {"type": "node", "id": 1492771561, "lat": 52.6057816, "lon": 13.3289043, "tags": {"access": "private", "barrier": "gate"}}, {"type": "node", "id": 1585171057, "lat": 52.6097807, "lon": 13.3295938, "tags": {"addr:city": "Berlin", "addr:housenumber": "31", "addr:postcode": "13469", "addr:street": "Zabel-Kr\u00fcger-Damm", "amenity": "restaurant", "cuisine": "asian", "email": "info@kimmami.de", "name": "Kim Mami", "opening_hours": "Mo 11:00-22:00; We-Su 11:00-22:00", "phone": "+49 30 99271880", "website": "https://www.kimmami.de", "wheelchair": "yes"}}, {"type": "node", "id": 1585171546, "lat": 52.6097315, "lon": 13.3294059, "tags": {"addr:city": "Berlin", "addr:housenumber": "31", "addr:postcode": "13469", "addr:street": "Zabel-Kr\u00fcger-Damm", "addr:suburb": "Waidmannslust", "amenity": "pharmacy", "dispensing": "yes", "healthcare": "pharmacy", "name": "Fleming Apotheke", "opening_hours": "Mo-Fr 08:30-18:30;Sa 08:30-14:00", "phone": "+49 30 4024085", "wheelchair": "yes"}}, {"type": "node", "id": 1669841847, "lat": 52.6110395, "lon": 13.3179908, "tags": {"brand": "Denns BioMarkt", "brand:wikidata": "Q48883773", "brand:wikipedia": "de:Dennree", "check_date:opening_hours": "2022-04-25", "name": "Denns BioMarkt", "opening_hours": "Mo-Sa 08:00-20:00", "operator": "Dennree GmbH", "operator:wikidata": "Q1189641", "organic": "only", "shop": "supermarket", "source": "mapillary, own knowledge", "wheelchair": "yes"}}, {"type": "node", "id": 2029618539, "lat": 52.6095451, "lon": 13.3387502}, {"type": "node", "id": 2423122288, "lat": 52.6065358, "lon": 13.3192004, "tags": {"addr:city": "Berlin", "addr:housenumber": "176", "addr:postcode": "13469", "addr:street": "Waidmannsluster Damm", "amenity": "pharmacy", "check_date:opening_hours": "2025-07-29", "dispensing": "yes", "healthcare": "pharmacy", "name": "Octopus Apotheke", "opening_hours": "Mo-Fr 08:30-19:00; Sa 08:30-13:00", "phone": "+49 30 41109110", "website": "https://octopus-apotheke.de/"}}, {"type": "node", "id": 2558170278, "lat": 52.6063881, "lon": 13.3132329}, {"type": "node", "id": 2558170279, "lat": 52.6065738, "lon": 13.3128036}, {"type": "node", "id": 2782835422, "lat": 52.6072867, "lon": 13.3264979, "tags": {"addr:city": "Berlin", "addr:country": "DE", "addr:housenumber": "6-10", "addr:postcode": "13469", "addr:street": "Oraniendamm", "addr:suburb": "Waidmannslust", "brand": "Edeka", "brand:wikidata": "Q701755", "diet:gluten_free": "yes", "diet:halal": "no", "diet:kosher": "no", "name": "EDEKA", "opening_hours": "Mo-We 07:00-20:00; Th-Sa 07:00-21:00", "shop": "supermarket", "wheelchair": "yes"}}, {"type": "node", "id": 2782835448, "lat": 52.6077274, "lon": 13.3260991, "tags": {"addr:city": "Berlin", "addr:country": "DE", "addr:housenumber": "6-10", "addr:postcode": "13469", "addr:street": "Oraniendamm", "addr:suburb": "Waidmannslust", "brand": "Lidl", "brand:wikidata": "Q151954", "name": "Lidl", "opening_hours": "Mo-Sa 07:00-21:00", "shop": "supermarket"}}, {"type": "node", "id": 2782835460, "lat": 52.6078978, "lon": 13.3255639, "tags": {"addr:city": "Berlin", "addr:housenumber": "6-10", "addr:postcode": "13469", "addr:street": "Oraniendamm", "addr:suburb": "Waidmannslust", "amenity": "pharmacy", "check_date:opening_hours": "2024-04-01", "dispensing": "yes", "healthcare": "pharmacy", "level": "0", "name": "Sanitas Apotheke", "opening_hours": "Mo-Fr 08:30-20:00; Sa 09:00-20:00", "phone": "+49 3040396922", "wheelchair": "yes"}}, {"type": "node", "id": 2861331618, "lat": 52.6081778, "lon": 13.3235948, "tags": {"addr:city": "Berlin", "addr:country": "DE", "addr:housenumber": "11", "addr:postcode": "13469", "addr:street": "Oraniendamm", "addr:suburb": "Waidmannslust", "amenity": "cafe", "cuisine": "breakfast;coffee_shop;sandwich;brunch;smoothie", "internet_access": "wlan", "internet_access:fee": "customers", "name": "Ma Maison Caf\u00e9 & Brunch", "opening_hours": "vor\u00fcbergehend geschlossen", "source": "Geoportal Berlin / Hauskoordinaten", "website": "https://www.instagram.com/mamaisonberlin/"}}, {"type": "node", "id": 2861331802, "lat": 52.6076773, "lon": 13.3219465, "tags": {"addr:city": "Berlin", "addr:country": "DE", "addr:housenumber": "1", "addr:postcode": "13469", "addr:street": "D\u00fcsterhauptstra\u00dfe", "addr:suburb": "Waidmannslust", "amenity": "restaurant", "cuisine": "oriental;turkish", "email": "info@morgen-land.de", "indoor_seating": "yes", "name": "Restaurant Morgenland", "opening_hours": "Mo off; Tu-Sa 16:00+; Su,PH 11:30+", "outdoor_seating": "yes", "phone": "+49 30 403 95 995", "source": "Geoportal Berlin / Hauskoordinaten", "website": "https://www.morgen-land.de/"}}, {"type": "node", "id": 2861338490, "lat": 52.6088081, "lon": 13.3218779, "tags": {"addr:city": "Berlin", "addr:country": "DE", "addr:housenumber": "9", "addr:postcode": "13469", "addr:street": "Benekendorffstra\u00dfe", "addr:suburb": "Waidmannslust", "amenity": "pub", "name": "Gudruns Bierstuben", "opening_hours": "Mo-Sa 16:00-24:00+, Su 18:00-24:00+", "source": "Geoportal Berlin / Hauskoordinaten", "wheelchair": "no"}}, {"type": "node", "id": 2861340555, "lat": 52.6072101, "lon": 13.3241228, "tags": {"addr:city": "Berlin", "addr:country": "DE", "addr:housenumber": "66", "addr:postcode": "13469", "addr:street": "Oraniendamm", "addr:suburb": "Waidmannslust", "amenity": "cafe", "food": "yes", "name": "Fr\u00fchst\u00fcckscaf\u00e9 Lavanda", "opening_hours": "Mo-Sa 09:00-17:00", "source": "Geoportal Berlin / Hauskoordinaten"}}, {"type": "node", "id": 2862187326, "lat": 52.6065892, "lon": 13.3244891}, {"type": "node", "id": 2862187620, "lat": 52.6065595, "lon": 13.324625}, {"type": "node", "id": 2862188605, "lat": 52.6065314, "lon": 13.324533}, {"type": "node", "id": 2862188607, "lat": 52.606546, "lon": 13.3245182}, {"type": "node", "id": 2862188709, "lat": 52.6065274, "lon": 13.3244514}, {"type": "node", "id": 2862188713, "lat": 52.6065648, "lon": 13.3244211}, {"type": "node", "id": 2862188813, "lat": 52.6065988, "lon": 13.3244816}, {"type": "node", "id": 2862188916, "lat": 52.6066232, "lon": 13.3245673}, {"type": "node", "id": 2863430077, "lat": 52.6104462, "lon": 13.3189037}, {"type": "node", "id": 2863430304, "lat": 52.6102474, "lon": 13.3185817}, {"type": "node", "id": 2863430614, "lat": 52.6100841, "lon": 13.3188552}, {"type": "node", "id": 2863430820, "lat": 52.6101572, "lon": 13.3187327}, {"type": "node", "id": 2863430907, "lat": 52.6103696, "lon": 13.3193175}, {"type": "node", "id": 2863431116, "lat": 52.6105329, "lon": 13.319044}, {"type": "node", "id": 2863445627, "lat": 52.6094428, "lon": 13.3287629}, {"type": "node", "id": 2863452537, "lat": 52.6095004, "lon": 13.3287067}, {"type": "node", "id": 2863452708, "lat": 52.6096424, "lon": 13.3285638}, {"type": "node", "id": 2941003784, "lat": 52.5986957, "lon": 13.3149497}, {"type": "node", "id": 2941022510, "lat": 52.6004384, "lon": 13.3139318}, {"type": "node", "id": 2941024920, "lat": 52.6024876, "lon": 13.3144703}, {"type": "node", "id": 2941025964, "lat": 52.6024417, "lon": 13.3142817}, {"type": "node", "id": 2941026171, "lat": 52.6017075, "lon": 13.313712}, {"type": "node", "id": 2941027084, "lat": 52.6024569, "lon": 13.3143441}, {"type": "node", "id": 2941027088, "lat": 52.6024987, "lon": 13.3145166}, {"type": "node", "id": 2941030132, "lat": 52.6023029, "lon": 13.3139717}, {"type": "node", "id": 2941030135, "lat": 52.6023249, "lon": 13.3140262}, {"type": "node", "id": 2942851222, "lat": 52.6062687, "lon": 13.3180599}, {"type": "node", "id": 2942851223, "lat": 52.6062739, "lon": 13.317833}, {"type": "node", "id": 2942851339, "lat": 52.6062085, "lon": 13.3178962}, {"type": "node", "id": 2942852027, "lat": 52.6063329, "lon": 13.3179998}, {"type": "node", "id": 2946031409, "lat": 52.6010207, "lon": 13.3076657}, {"type": "node", "id": 2946032270, "lat": 52.6010755, "lon": 13.3076029}, {"type": "node", "id": 2966843720, "lat": 52.596539, "lon": 13.3113998}, {"type": "node", "id": 2966843735, "lat": 52.5965813, "lon": 13.312219}, {"type": "node", "id": 2966843790, "lat": 52.596716, "lon": 13.3137634}, {"type": "node", "id": 2966843826, "lat": 52.5968566, "lon": 13.3147104}, {"type": "node", "id": 2966844639, "lat": 52.6031548, "lon": 13.3165376}, {"type": "node", "id": 2966844642, "lat": 52.603162, "lon": 13.3165945}, {"type": "node", "id": 2966844643, "lat": 52.6031628, "lon": 13.316663}, {"type": "node", "id": 3145470430, "lat": 52.609865, "lon": 13.338543}, {"type": "node", "id": 3145470486, "lat": 52.6099583, "lon": 13.3384403}, {"type": "node", "id": 3145470783, "lat": 52.6103246, "lon": 13.338037}, {"type": "node", "id": 3145470817, "lat": 52.6103492, "lon": 13.33801}, {"type": "node", "id": 3145471018, "lat": 52.6105296, "lon": 13.3378109}, {"type": "node", "id": 3145471046, "lat": 52.610555, "lon": 13.3377829}, {"type": "node", "id": 3145471128, "lat": 52.6106152, "lon": 13.3377165}, {"type": "node", "id": 3331333817, "lat": 52.6077191, "lon": 13.3249358, "tags": {"amenity": "fast_food", "cuisine": "kebab", "indoor_seating": "yes", "level": "0", "name": "D\u00f6ner Meile", "opening_hours": "Mo-Su,PH 10:00-23:00", "outdoor_seating": "yes"}}, {"type": "node", "id": 3339491292, "lat": 52.6092923, "lon": 13.335399, "tags": {"addr:city": "Berlin", "addr:housenumber": "5", "addr:postcode": "13469", "addr:street": "Titiseestra\u00dfe", "amenity": "pharmacy", "check_date:opening_hours": "2024-01-28", "healthcare": "pharmacy", "name": "Titisee Apotheke", "opening_hours": "Mo-Fr 08:30-18:00; Sa 08:30-13:00", "phone": "+49 30 4022980", "website": "https://www.titisee-apotheke-berlin.de/", "wheelchair": "yes"}}, {"type": "node", "id": 3409529627, "lat": 52.6082022, "lon": 13.3296156}, {"type": "node", "id": 3409531404, "lat": 52.6081122, "lon": 13.3299048}, {"type": "node", "id": 3409531405, "lat": 52.6083043, "lon": 13.3296152}, {"type": "node", "id": 3409531406, "lat": 52.6081117, "lon": 13.329616}, {"type": "node", "id": 3409531407, "lat": 52.6081121, "lon": 13.3298745}, {"type": "node", "id": 3409531408, "lat": 52.6083047, "lon": 13.3299039}, {"type": "node", "id": 3411752007, "lat": 52.6090498, "lon": 13.3339692}, {"type": "node", "id": 3411752008, "lat": 52.6088307, "lon": 13.3339623}, {"type": "node", "id": 3411752010, "lat": 52.608827, "lon": 13.3342857}, {"type": "node", "id": 3411752011, "lat": 52.6090461, "lon": 13.3342926}, {"type": "node", "id": 3411752094, "lat": 52.6088274, "lon": 13.3342493}, {"type": "node", "id": 3755709522, "lat": 52.6070088, "lon": 13.3191523, "tags": {"addr:city": "Berlin", "addr:country": "DE", "addr:housenumber": "175", "addr:postcode": "13469", "addr:street": "Waidmannsluster Damm", "addr:suburb": "Waidmannslust", "amenity": "fast_food", "check_date:opening_hours": "2025-07-29", "cuisine": "kebab", "diet:vegan": "yes", "diet:vegetarian": "yes", "indoor_seating": "yes", "name": "Nord Bistro", "opening_hours": "Mo-Su 10:00-23:00", "outdoor_seating": "yes", "payment:credit_cards": "no", "payment:debit_cards": "no", "wheelchair": "limited"}}, {"type": "node", "id": 3755709523, "lat": 52.6069824, "lon": 13.3190534, "tags": {"addr:city": "Berlin", "addr:country": "DE", "addr:housenumber": "175", "addr:postcode": "13469", "addr:street": "Waidmannsluster Damm", "addr:suburb": "Waidmannslust", "amenity": "bar", "indoor_seating": "yes", "name": "Cherry Lounge", "outdoor_seating": "yes"}}, {"type": "node", "id": 4375617711, "lat": 52.6038289, "lon": 13.3194318}, {"type": "node", "id": 4523367790, "lat": 52.6061232, "lon": 13.3243097, "tags": {"addr:city": "Berlin", "addr:country": "DE", "addr:housenumber": "72", "addr:postcode": "13469", "addr:street": "Oraniendamm", "addr:suburb": "Waidmannslust", "amenity": "restaurant", "description": "Jazz Blues - live music", "live_music": "yes", "name": "Loci Loft", "opening_hours": "Fr,Sa 18:00-12:00", "toilets:wheelchair": "yes", "website": "https://www.loci-loft.de/", "wheelchair": "yes", "wheelchair:description": "Behindertenparkplatz direkt vor der T\u00fcr."}}, {"type": "node", "id": 4552103999, "lat": 52.5978879, "lon": 13.3064255}, {"type": "node", "id": 4552104000, "lat": 52.5979465, "lon": 13.3062805}, {"type": "node", "id": 4558189566, "lat": 52.6058536, "lon": 13.3292546}, {"type": "node", "id": 4558189567, "lat": 52.6057232, "lon": 13.3287115}, {"type": "node", "id": 4558189568, "lat": 52.6056129, "lon": 13.3279198}, {"type": "node", "id": 4558189569, "lat": 52.6056057, "lon": 13.3274179}, {"type": "node", "id": 4558189570, "lat": 52.6056886, "lon": 13.3267245}, {"type": "node", "id": 4558189571, "lat": 52.6057361, "lon": 13.3265082}, {"type": "node", "id": 4558189591, "lat": 52.6051707, "lon": 13.3328351}, {"type": "node", "id": 4558189592, "lat": 52.6051826, "lon": 13.3327771}, {"type": "node", "id": 4558189593, "lat": 52.6052191, "lon": 13.3326844}, {"type": "node", "id": 4558189594, "lat": 52.605305, "lon": 13.3325755}, {"type": "node", "id": 4558189595, "lat": 52.6053404, "lon": 13.3325115}, {"type": "node", "id": 4558189596, "lat": 52.6053639, "lon": 13.3324156}, {"type": "node", "id": 4558189597, "lat": 52.6053639, "lon": 13.3323034}, {"type": "node", "id": 4558189598, "lat": 52.6053676, "lon": 13.3319727}, {"type": "node", "id": 4558189599, "lat": 52.6054221, "lon": 13.3314061}, {"type": "node", "id": 4558189600, "lat": 52.6054657, "lon": 13.3311563}, {"type": "node", "id": 4558189601, "lat": 52.6055003, "lon": 13.330987}, {"type": "node", "id": 4558189602, "lat": 52.6056141, "lon": 13.3305816}, {"type": "node", "id": 4558189608, "lat": 52.6057524, "lon": 13.3302115}, {"type": "node", "id": 4558189609, "lat": 52.605836, "lon": 13.3297508}, {"type": "node", "id": 4558189610, "lat": 52.6058601, "lon": 13.3297504}, {"type": "node", "id": 4558189611, "lat": 52.6058529, "lon": 13.3297054}, {"type": "node", "id": 4558189612, "lat": 52.6058264, "lon": 13.3297095}, {"type": "node", "id": 4558189613, "lat": 52.6056555, "lon": 13.3293003}, {"type": "node", "id": 4558189614, "lat": 52.6049859, "lon": 13.3300041}, {"type": "node", "id": 4558189615, "lat": 52.604911, "lon": 13.3301705}, {"type": "node", "id": 4558189616, "lat": 52.6048992, "lon": 13.3303573}, {"type": "node", "id": 4558189619, "lat": 52.6049805, "lon": 13.3320602}, {"type": "node", "id": 4558189620, "lat": 52.6049882, "lon": 13.3322975}, {"type": "node", "id": 4558189621, "lat": 52.6050615, "lon": 13.332526}, {"type": "node", "id": 4558189622, "lat": 52.6051303, "lon": 13.3326995}, {"type": "node", "id": 4558189623, "lat": 52.6051488, "lon": 13.3328004}, {"type": "node", "id": 4558189624, "lat": 52.6051465, "lon": 13.3328535}, {"type": "node", "id": 4588980163, "lat": 52.6065693, "lon": 13.3129638}, {"type": "node", "id": 4621315556, "lat": 52.6000551, "lon": 13.3152417}, {"type": "node", "id": 4681611296, "lat": 52.6054205, "lon": 13.3325656}, {"type": "node", "id": 4777047222, "lat": 52.6076946, "lon": 13.3332449}, {"type": "node", "id": 4777047223, "lat": 52.6076949, "lon": 13.3333223}, {"type": "node", "id": 4777047224, "lat": 52.6076569, "lon": 13.3333228}, {"type": "node", "id": 4777047225, "lat": 52.6076565, "lon": 13.3332454}, {"type": "node", "id": 4929550953, "lat": 52.6012306, "lon": 13.3049524}, {"type": "node", "id": 5250472541, "lat": 52.6098172, "lon": 13.3352661, "tags": {"addr:city": "Berlin", "addr:housenumber": "3", "addr:postcode": "13469", "addr:street": "Titiseestra\u00dfe", "amenity": "dentist", "fax": "+493040396448", "healthcare": "dentist", "name": "Dr. Carmen Glier", "phone": "+49304021035", "website": "http://www.carmenglier.de/"}}, {"type": "node", "id": 5272256237, "lat": 52.6047211, "lon": 13.3303397}, {"type": "node", "id": 5272256238, "lat": 52.6048606, "lon": 13.3322792}, {"type": "node", "id": 5272256239, "lat": 52.6063503, "lon": 13.337362}, {"type": "node", "id": 5272256240, "lat": 52.6062826, "lon": 13.3374926}, {"type": "node", "id": 5272256241, "lat": 52.6063487, "lon": 13.3375825}, {"type": "node", "id": 5272264452, "lat": 52.6056475, "lon": 13.3308344}, {"type": "node", "id": 5272264453, "lat": 52.605483, "lon": 13.3317196}, {"type": "node", "id": 5272264454, "lat": 52.605432, "lon": 13.3321573}, {"type": "node", "id": 5272264455, "lat": 52.6053523, "lon": 13.3330133}, {"type": "node", "id": 5272264456, "lat": 52.6053385, "lon": 13.3330375}, {"type": "node", "id": 5272271206, "lat": 52.6056869, "lon": 13.3285129}, {"type": "node", "id": 5272271207, "lat": 52.605619, "lon": 13.3280061}, {"type": "node", "id": 5272271208, "lat": 52.6056419, "lon": 13.3282278}, {"type": "node", "id": 5272271209, "lat": 52.605602, "lon": 13.3277074}, {"type": "node", "id": 5272271210, "lat": 52.6056146, "lon": 13.3272235}, {"type": "node", "id": 5272271211, "lat": 52.6056415, "lon": 13.326984}, {"type": "node", "id": 5272277421, "lat": 52.6046597, "lon": 13.3296184}, {"type": "node", "id": 5272277422, "lat": 52.6046615, "lon": 13.3292749}, {"type": "node", "id": 5272277423, "lat": 52.6046407, "lon": 13.3285792}, {"type": "node", "id": 5347832880, "lat": 52.5982357, "lon": 13.3058138}, {"type": "node", "id": 5437589112, "lat": 52.6026038, "lon": 13.3155837}, {"type": "node", "id": 5437589113, "lat": 52.6026535, "lon": 13.3156425}, {"type": "node", "id": 5437589114, "lat": 52.6029167, "lon": 13.3157701}, {"type": "node", "id": 5437589115, "lat": 52.6029847, "lon": 13.3158303}, {"type": "node", "id": 5437589116, "lat": 52.6030517, "lon": 13.3159297}, {"type": "node", "id": 5437589117, "lat": 52.6031192, "lon": 13.3162473}, {"type": "node", "id": 5437589118, "lat": 52.6031715, "lon": 13.3170697}, {"type": "node", "id": 5437589119, "lat": 52.6032088, "lon": 13.3174052}, {"type": "node", "id": 5437589120, "lat": 52.6032725, "lon": 13.3175302}, {"type": "node", "id": 5437590421, "lat": 52.6033309, "lon": 13.3176079}, {"type": "node", "id": 5437590422, "lat": 52.6034202, "lon": 13.3176522}, {"type": "node", "id": 5437590423, "lat": 52.6035841, "lon": 13.3176973}, {"type": "node", "id": 5437590424, "lat": 52.6038019, "lon": 13.3178636}, {"type": "node", "id": 5437590425, "lat": 52.6038536, "lon": 13.3179221}, {"type": "node", "id": 5437590426, "lat": 52.6040049, "lon": 13.3182255}, {"type": "node", "id": 5437590427, "lat": 52.6040769, "lon": 13.3184041}, {"type": "node", "id": 5437590428, "lat": 52.604094, "lon": 13.3184757}, {"type": "node", "id": 5437590429, "lat": 52.6042108, "lon": 13.3190874}, {"type": "node", "id": 5437590431, "lat": 52.6032926, "lon": 13.3179645}, {"type": "node", "id": 5437590432, "lat": 52.6030641, "lon": 13.3174738}, {"type": "node", "id": 5437590433, "lat": 52.6022416, "lon": 13.3152815}, {"type": "node", "id": 5437590434, "lat": 52.6023573, "lon": 13.3151249}, {"type": "node", "id": 5437590435, "lat": 52.6024259, "lon": 13.3150372}, {"type": "node", "id": 5476199237, "lat": 52.6049774, "lon": 13.332162}, {"type": "node", "id": 5476199238, "lat": 52.6050997, "lon": 13.3326122}, {"type": "node", "id": 5476212649, "lat": 52.6056295, "lon": 13.3293462}, {"type": "node", "id": 5476212650, "lat": 52.6056926, "lon": 13.3292058}, {"type": "node", "id": 5476212651, "lat": 52.6052465, "lon": 13.3297604}, {"type": "node", "id": 5476212652, "lat": 52.6052853, "lon": 13.3296582}, {"type": "node", "id": 5476213522, "lat": 52.6056669, "lon": 13.3292617}, {"type": "node", "id": 5476213622, "lat": 52.6050235, "lon": 13.332445}, {"type": "node", "id": 5476213623, "lat": 52.6056797, "lon": 13.3303838}, {"type": "node", "id": 5476213624, "lat": 52.6056667, "lon": 13.3292187}, {"type": "node", "id": 5741849572, "lat": 52.608053, "lon": 13.3231747, "tags": {"addr:city": "Berlin", "addr:country": "DE", "addr:housenumber": "63", "addr:postcode": "13469", "addr:street": "Oraniendamm", "addr:suburb": "Waidmannslust", "amenity": "restaurant", "capacity": "24", "check_date": "2024-08-15", "contact:phone": "+49 30 64310720", "contact:website": "http://www.duefratelli-berlin.de/", "cuisine": "pizza;italian;regional", "delivery": "no", "name": "Due Fratelli", "opening_hours": "Mo 10:00-21:30, We-Su 10:00-21:00", "outdoor_seating": "yes", "phone": "+49 30 52285396", "smoking": "outside", "takeaway": "yes"}}, {"type": "node", "id": 5907281654, "lat": 52.6096448, "lon": 13.3353663, "tags": {"brand": "Nahkauf", "brand:wikidata": "Q57515238", "name": "Nahkauf", "opening_hours": "Mo-Sa 08:00-20:00", "shop": "supermarket", "wheelchair": "yes"}}, {"type": "node", "id": 5907281655, "lat": 52.6082539, "lon": 13.33637}, {"type": "node", "id": 5907281656, "lat": 52.6082372, "lon": 13.3363367}, {"type": "node", "id": 5907281657, "lat": 52.6082376, "lon": 13.336289}, {"type": "node", "id": 5907281658, "lat": 52.6082564, "lon": 13.3362512}, {"type": "node", "id": 5907281659, "lat": 52.6082815, "lon": 13.3362454}, {"type": "node", "id": 5907281660, "lat": 52.6083036, "lon": 13.336281}, {"type": "node", "id": 5907281661, "lat": 52.6083328, "lon": 13.3363141}, {"type": "node", "id": 5907281662, "lat": 52.6083275, "lon": 13.3363714}, {"type": "node", "id": 5908604632, "lat": 52.6095728, "lon": 13.3319825}, {"type": "node", "id": 5908604633, "lat": 52.6095335, "lon": 13.332049}, {"type": "node", "id": 5908604634, "lat": 52.6094937, "lon": 13.3319831}, {"type": "node", "id": 5908604635, "lat": 52.6095331, "lon": 13.3319166}, {"type": "node", "id": 5908604636, "lat": 52.6095529, "lon": 13.3319165}, {"type": "node", "id": 5908604637, "lat": 52.6095727, "lon": 13.3319494}, {"type": "node", "id": 5908604638, "lat": 52.6095729, "lon": 13.3320156}, {"type": "node", "id": 5908604639, "lat": 52.6095532, "lon": 13.3320488}, {"type": "node", "id": 5908604640, "lat": 52.6095137, "lon": 13.3320491}, {"type": "node", "id": 5908604641, "lat": 52.6094938, "lon": 13.3320162}, {"type": "node", "id": 5908604642, "lat": 52.6094936, "lon": 13.33195}, {"type": "node", "id": 5908604643, "lat": 52.6095133, "lon": 13.3319168}, {"type": "node", "id": 6071348210, "lat": 52.6066168, "lon": 13.3328803}, {"type": "node", "id": 6071348211, "lat": 52.6065564, "lon": 13.3328821}, {"type": "node", "id": 6071348212, "lat": 52.6065579, "lon": 13.3330139}, {"type": "node", "id": 6071348213, "lat": 52.6065509, "lon": 13.3330141}, {"type": "node", "id": 6071348214, "lat": 52.6065523, "lon": 13.3331405}, {"type": "node", "id": 6071348215, "lat": 52.606605, "lon": 13.3331389}, {"type": "node", "id": 6071348216, "lat": 52.6066039, "lon": 13.3330355}, {"type": "node", "id": 6071348217, "lat": 52.6066186, "lon": 13.3330351}, {"type": "node", "id": 6071400405, "lat": 52.6065949, "lon": 13.3328809}, {"type": "node", "id": 6270291073, "lat": 52.5962948, "lon": 13.3059875}, {"type": "node", "id": 6359844358, "lat": 52.6119173, "lon": 13.3234571}, {"type": "node", "id": 6359844359, "lat": 52.6118818, "lon": 13.3232315}, {"type": "node", "id": 6359844360, "lat": 52.6116371, "lon": 13.3237259}, {"type": "node", "id": 6486828990, "lat": 52.6002159, "lon": 13.3043045}, {"type": "node", "id": 6486828995, "lat": 52.5989338, "lon": 13.3050298}, {"type": "node", "id": 6486829003, "lat": 52.5987104, "lon": 13.3051552}, {"type": "node", "id": 7280139524, "lat": 52.6107343, "lon": 13.3375858}, {"type": "node", "id": 7280139525, "lat": 52.6108532, "lon": 13.337454}, {"type": "node", "id": 7280139530, "lat": 52.6110909, "lon": 13.337193}, {"type": "node", "id": 7711671086, "lat": 52.6057799, "lon": 13.3288996}, {"type": "node", "id": 7711671094, "lat": 52.6058097, "lon": 13.3293836}, {"type": "node", "id": 7711671224, "lat": 52.6095904, "lon": 13.3388452}, {"type": "node", "id": 7730784542, "lat": 52.6089054, "lon": 13.3269627, "tags": {"addr:city": "Berlin", "addr:housenumber": "15", "addr:postcode": "13469", "addr:street": "Zabel-Kr\u00fcger-Damm", "amenity": "restaurant", "cuisine": "pizza;italian;pasta;seafood", "level": "0", "name": "Ristorante Romano", "opening_hours": "Mo-Su 12:00-24:00", "outdoor_seating": "yes", "phone": "+49304028687", "reservation": "yes", "smoking": "outside", "takeaway": "yes", "website": "https://romano-berlin.eatbu.com", "wheelchair": "yes"}}, {"type": "node", "id": 7730784543, "lat": 52.6090053, "lon": 13.327105, "tags": {"addr:city": "Berlin", "addr:housenumber": "17", "addr:postcode": "13469", "addr:street": "Zabel-Kr\u00fcger-Damm", "amenity": "dentist", "healthcare": "dentist", "name": "dental total", "opening_hours": "Mo-Th 08:00-18:00; Fr 08:00-14:00", "website": "https://www.dentaltotal.de"}}, {"type": "node", "id": 8319500471, "lat": 52.6075547, "lon": 13.3381393}, {"type": "node", "id": 8590047019, "lat": 52.6067406, "lon": 13.3194646, "tags": {"addr:city": "Berlin", "addr:country": "DE", "addr:housenumber": "176A", "addr:postcode": "13469", "addr:street": "Waidmannsluster Damm", "addr:suburb": "Waidmannslust", "amenity": "restaurant", "cuisine": "mexican", "highchair": "yes", "indoor_seating": "yes", "level": "0", "name": "Hola Mexico II", "opening_hours": "Mo-Th,Su 11:30-23:00; Fr-Sa 11:30-23:30; PH open", "phone": "+49 30 60596197", "toilets:access": "customers", "website": "https://holamexicoberlin.de/"}}, {"type": "node", "id": 8616259483, "lat": 52.6077016, "lon": 13.3245632}, {"type": "node", "id": 8616259484, "lat": 52.6076821, "lon": 13.3245788}, {"type": "node", "id": 8616259485, "lat": 52.6076745, "lon": 13.3245536}, {"type": "node", "id": 8616259486, "lat": 52.607694, "lon": 13.3245378}, {"type": "node", "id": 8616259487, "lat": 52.6075775, "lon": 13.3247713}, {"type": "node", "id": 8616259488, "lat": 52.607553, "lon": 13.3247912}, {"type": "node", "id": 8903855659, "lat": 52.5981894, "lon": 13.3054459}, {"type": "node", "id": 8903855670, "lat": 52.6004705, "lon": 13.3041647}, {"type": "node", "id": 8903855671, "lat": 52.6008385, "lon": 13.3042284}, {"type": "node", "id": 8903855672, "lat": 52.6010651, "lon": 13.3046392}, {"type": "node", "id": 8903855679, "lat": 52.5987531, "lon": 13.3051288}, {"type": "node", "id": 8920151541, "lat": 52.6099599, "lon": 13.3304233, "tags": {"addr:city": "Berlin", "addr:housenumber": "35", "addr:postcode": "13469", "addr:street": "Zabel-Kr\u00fcger-Damm", "amenity": "restaurant", "cuisine": "greek", "name": "Dionysos", "opening_hours": "Mo-Sa 12:00-23:30; Su,PH 12:00-23:00", "phone": "+49 30 40398984", "website": "https://www.dionysos-berlin.de/"}}, {"type": "node", "id": 9049230647, "lat": 52.6065151, "lon": 13.3193181, "tags": {"addr:city": "Berlin", "addr:housenumber": "176", "addr:postcode": "13469", "addr:street": "Waidmannsluster Damm", "amenity": "restaurant", "check_date:opening_hours": "2025-07-29", "cuisine": "indian", "delivery": "yes", "indoor_seating": "yes", "mobile": "+4917680298950", "name": "Tikka Haus", "opening_hours": "Mo-Su 11:00-23:00", "outdoor_seating": "no", "phone": "+49304112017", "takeaway": "yes"}}, {"type": "node", "id": 9379002157, "lat": 52.6070808, "lon": 13.3374424}, {"type": "node", "id": 9379002158, "lat": 52.6079082, "lon": 13.338653}, {"type": "node", "id": 9379002159, "lat": 52.6082228, "lon": 13.3393112}, {"type": "node", "id": 9741742488, "lat": 52.6071447, "lon": 13.3197133, "tags": {"amenity": "pub", "check_date": "2025-05-02", "indoor_seating": "yes", "name": "Kindl St\u00fcbl", "opening_hours": "Fr,Sa 13:30+; We,Th,Su,Mo 13:30-22:00", "outdoor_seating": "yes"}}, {"type": "node", "id": 9789564872, "lat": 52.6110926, "lon": 13.328408}, {"type": "node", "id": 9789564873, "lat": 52.6111577, "lon": 13.328585}, {"type": "node", "id": 9789564874, "lat": 52.6115126, "lon": 13.3282403}, {"type": "node", "id": 9789564875, "lat": 52.6114461, "lon": 13.3280773}, {"type": "node", "id": 9789564876, "lat": 52.6115366, "lon": 13.327607}, {"type": "node", "id": 9789564877, "lat": 52.6117048, "lon": 13.3274719}, {"type": "node", "id": 9789564878, "lat": 52.6116238, "lon": 13.3271928}, {"type": "node", "id": 9789564879, "lat": 52.6114783, "lon": 13.3273191}, {"type": "node", "id": 9789564880, "lat": 52.6113068, "lon": 13.3282006}, {"type": "node", "id": 9908139381, "lat": 52.6057891, "lon": 13.3127569, "tags": {"access": "yes", "leisure": "playground"}}, {"type": "node", "id": 10677685268, "lat": 52.6074203, "lon": 13.3414193}, {"type": "node", "id": 10677691080, "lat": 52.6082558, "lon": 13.3403659}, {"type": "node", "id": 10677704467, "lat": 52.6077453, "lon": 13.3406325}, {"type": "node", "id": 10677704468, "lat": 52.6078384, "lon": 13.3404528}, {"type": "node", "id": 10677704469, "lat": 52.6079298, "lon": 13.3402751}, {"type": "node", "id": 10677704470, "lat": 52.6080241, "lon": 13.3400932}, {"type": "node", "id": 10677704471, "lat": 52.6078729, "lon": 13.3391333}, {"type": "node", "id": 10677704472, "lat": 52.6076297, "lon": 13.3387937}, {"type": "node", "id": 10677704473, "lat": 52.6077489, "lon": 13.3389577}, {"type": "node", "id": 10677704474, "lat": 52.6071279, "lon": 13.3380897}, {"type": "node", "id": 10677704475, "lat": 52.6072494, "lon": 13.3382572}, {"type": "node", "id": 10677704476, "lat": 52.6069955, "lon": 13.3379041}, {"type": "node", "id": 10677704477, "lat": 52.6068679, "lon": 13.3377199}, {"type": "node", "id": 10677704478, "lat": 52.6055555, "lon": 13.3360473}, {"type": "node", "id": 10677704485, "lat": 52.6047804, "lon": 13.3311505}, {"type": "node", "id": 10677704486, "lat": 52.6048173, "lon": 13.3316726}, {"type": "node", "id": 10677704489, "lat": 52.6049711, "lon": 13.3329786}, {"type": "node", "id": 10677704490, "lat": 52.6050016, "lon": 13.3334016}, {"type": "node", "id": 10677704491, "lat": 52.6050359, "lon": 13.3338792}, {"type": "node", "id": 10681116916, "lat": 52.6090102, "lon": 13.3356104, "tags": {"addr:housenumber": "5", "amenity": "restaurant", "contact:phone": "+4930 453 70 83", "cuisine": "pizza;burger;pasta;chicken;fish", "delivery": "yes", "indoor_seating": "yes", "name": "leonardo da Vinci", "opening_hours": "Mo-Fr 12:00-22:00; Sa,Su 15:00-22:00", "outdoor_seating": "no", "smoking": "no", "wheelchair": "yes"}}, {"type": "node", "id": 10681117658, "lat": 52.6096809, "lon": 13.3356307, "tags": {"amenity": "bar", "indoor_seating": "yes", "min_age": "18", "name": "KnockOut by Franky", "opening_hours": "Mo 16:00+; Tu-Th 13:00+; Fr,Sa 12:00+, Su[1] 14:00+", "outdoor_seating": "yes", "smoking": "dedicated", "wheelchair": "yes"}}, {"type": "node", "id": 10681117659, "lat": 52.6093446, "lon": 13.3353598, "tags": {"amenity": "fast_food", "cuisine": "kebab", "indoor_seating": "yes", "name": "Titisee Black & White", "opening_hours": "Mo-Su 10:00-22:00", "outdoor_seating": "yes", "smoking": "outside", "wheelchair": "yes"}}, {"type": "node", "id": 10683751392, "lat": 52.6108395, "lon": 13.3183873, "tags": {"healthcare": "doctor", "healthcare:speciality": "orthopaedics", "level": "1", "name": "Orthop\u00e4die Waidmannslust", "opening_hours": "Mo-Th 08:00-18:30; Fr 09:00-17:30; Sa 10:00-12:00; PH closed", "phone": "030 403 613 40", "website": "https://orthopaedie-waidmannslust.de/"}}, {"type": "node", "id": 10683766929, "lat": 52.6108679, "lon": 13.3183713, "tags": {"amenity": "dentist", "healthcare": "dentist", "healthcare:speciality": "stomatology", "name": "Zahnarztpraxis Dr. Eichhorst", "opening_hours": "Mo 10:00-19:00; Tu 12:00-19:00; We-Fr 08:00-13:00; Fr 10:00-17:00; PH closed", "phone": "+49 30 40536595"}}, {"type": "node", "id": 10691079461, "lat": 52.6057948, "lon": 13.3262923}, {"type": "node", "id": 10801453340, "lat": 52.6099094, "lon": 13.3125972}, {"type": "node", "id": 10801453341, "lat": 52.6098312, "lon": 13.3124941}, {"type": "node", "id": 10801453342, "lat": 52.6098137, "lon": 13.3125087}, {"type": "node", "id": 10801453343, "lat": 52.6099079, "lon": 13.312565}, {"type": "node", "id": 10801453344, "lat": 52.6099002, "lon": 13.3125353}, {"type": "node", "id": 10801453345, "lat": 52.6098871, "lon": 13.3125112}, {"type": "node", "id": 10801453346, "lat": 52.6098699, "lon": 13.3124954}, {"type": "node", "id": 10801453347, "lat": 52.6098507, "lon": 13.3124894}, {"type": "node", "id": 10801453348, "lat": 52.6098, "lon": 13.3125318}, {"type": "node", "id": 10801453349, "lat": 52.6097915, "lon": 13.3125616}, {"type": "node", "id": 10801453350, "lat": 52.6097893, "lon": 13.3125944}, {"type": "node", "id": 10801453351, "lat": 52.6097938, "lon": 13.3126266}, {"type": "node", "id": 10801453352, "lat": 52.6098045, "lon": 13.3126545}, {"type": "node", "id": 10801453353, "lat": 52.6098201, "lon": 13.3126751}, {"type": "node", "id": 10801453354, "lat": 52.609839, "lon": 13.3126862}, {"type": "node", "id": 10801453355, "lat": 52.609859, "lon": 13.3126864}, {"type": "node", "id": 10801453356, "lat": 52.6098779, "lon": 13.3126758}, {"type": "node", "id": 10801453357, "lat": 52.6098937, "lon": 13.3126556}, {"type": "node", "id": 10801453358, "lat": 52.6099045, "lon": 13.3126285}, {"type": "node", "id": 11549364559, "lat": 52.6110946, "lon": 13.3365459}, {"type": "node", "id": 11549366069, "lat": 52.6103982, "lon": 13.3379561}, {"type": "node", "id": 11549366070, "lat": 52.6110459, "lon": 13.3371353}, {"type": "node", "id": 11549366071, "lat": 52.6110911, "lon": 13.3370817}, {"type": "node", "id": 11549366072, "lat": 52.6110282, "lon": 13.3366665}, {"type": "node", "id": 11549366073, "lat": 52.6111207, "lon": 13.3364986}, {"type": "node", "id": 11549366077, "lat": 52.6112588, "lon": 13.3370063}, {"type": "node", "id": 11747782850, "lat": 52.6058376, "lon": 13.3261607}, {"type": "node", "id": 11747782851, "lat": 52.6058883, "lon": 13.3260143}, {"type": "node", "id": 11747782860, "lat": 52.6058875, "lon": 13.3296475}, {"type": "node", "id": 11747782861, "lat": 52.6059306, "lon": 13.3296492}, {"type": "node", "id": 11747782862, "lat": 52.605821, "lon": 13.329312}, {"type": "node", "id": 11747782866, "lat": 52.6057765, "lon": 13.3289739}, {"type": "node", "id": 11934453248, "lat": 52.6101931, "lon": 13.3304451}, {"type": "node", "id": 11934453249, "lat": 52.6101823, "lon": 13.3304174}, {"type": "node", "id": 11934453250, "lat": 52.6099821, "lon": 13.3306153}, {"type": "node", "id": 11934453251, "lat": 52.6099915, "lon": 13.3306446}, {"type": "node", "id": 11934538597, "lat": 52.6098672, "lon": 13.3325646}, {"type": "node", "id": 11934538598, "lat": 52.6098672, "lon": 13.3326779}, {"type": "node", "id": 11934538599, "lat": 52.6097882, "lon": 13.3326867}, {"type": "node", "id": 11934538600, "lat": 52.6097871, "lon": 13.3326443}, {"type": "node", "id": 11934538601, "lat": 52.6098242, "lon": 13.3326407}, {"type": "node", "id": 11934538602, "lat": 52.6098215, "lon": 13.3325655}, {"type": "node", "id": 11934557132, "lat": 52.6096863, "lon": 13.336404}, {"type": "node", "id": 11934557133, "lat": 52.6096788, "lon": 13.3363518}, {"type": "node", "id": 11934557134, "lat": 52.6096449, "lon": 13.3362934}, {"type": "node", "id": 11934557135, "lat": 52.609567, "lon": 13.33622}, {"type": "node", "id": 11934557136, "lat": 52.6094875, "lon": 13.3359192}, {"type": "node", "id": 11934557137, "lat": 52.6094048, "lon": 13.3359669}, {"type": "node", "id": 11934557138, "lat": 52.6094236, "lon": 13.3360652}, {"type": "node", "id": 11934557139, "lat": 52.6093489, "lon": 13.3360917}, {"type": "node", "id": 11934557140, "lat": 52.6093113, "lon": 13.3359147}, {"type": "node", "id": 11934557141, "lat": 52.609221, "lon": 13.3359767}, {"type": "node", "id": 11934557142, "lat": 52.6092629, "lon": 13.3361589}, {"type": "node", "id": 11934557143, "lat": 52.6092592, "lon": 13.3364899}, {"type": "node", "id": 11934557144, "lat": 52.6093102, "lon": 13.3365394}, {"type": "node", "id": 11934557145, "lat": 52.6093618, "lon": 13.3365403}, {"type": "node", "id": 11934557146, "lat": 52.6093575, "lon": 13.3366305}, {"type": "node", "id": 11934557147, "lat": 52.6094537, "lon": 13.3366235}, {"type": "node", "id": 11934557148, "lat": 52.6094639, "lon": 13.3365111}, {"type": "node", "id": 11934557149, "lat": 52.6094972, "lon": 13.3364651}, {"type": "node", "id": 11934557150, "lat": 52.6095574, "lon": 13.3365642}, {"type": "node", "id": 11934557151, "lat": 52.6096277, "lon": 13.336566}, {"type": "node", "id": 11934557152, "lat": 52.6096756, "lon": 13.3365111}, {"type": "node", "id": 11934583209, "lat": 52.6104188, "lon": 13.3360447}, {"type": "node", "id": 11934583210, "lat": 52.6104971, "lon": 13.3364147}, {"type": "node", "id": 11934583211, "lat": 52.6104823, "lon": 13.3364472}, {"type": "node", "id": 11934583212, "lat": 52.6105107, "lon": 13.3366027}, {"type": "node", "id": 11934583213, "lat": 52.6105107, "lon": 13.336684}, {"type": "node", "id": 11934583214, "lat": 52.610478, "lon": 13.3367379}, {"type": "node", "id": 11934583215, "lat": 52.6104527, "lon": 13.3367369}, {"type": "node", "id": 11934583216, "lat": 52.6104107, "lon": 13.3367663}, {"type": "node", "id": 11934583217, "lat": 52.6103762, "lon": 13.3367308}, {"type": "node", "id": 11934583218, "lat": 52.6103595, "lon": 13.3366525}, {"type": "node", "id": 11934583219, "lat": 52.6103608, "lon": 13.3365051}, {"type": "node", "id": 11934583220, "lat": 52.6103836, "lon": 13.3363517}, {"type": "node", "id": 11934584890, "lat": 52.6104735, "lon": 13.3346276}, {"type": "node", "id": 11934584891, "lat": 52.6105517, "lon": 13.3348945}, {"type": "node", "id": 11934584892, "lat": 52.6105354, "lon": 13.3349441}, {"type": "node", "id": 11934584893, "lat": 52.6104972, "lon": 13.3349522}, {"type": "node", "id": 11934584894, "lat": 52.6104849, "lon": 13.3349348}, {"type": "node", "id": 11934584895, "lat": 52.6104678, "lon": 13.3348798}, {"type": "node", "id": 11934584896, "lat": 52.6104165, "lon": 13.3348838}, {"type": "node", "id": 11934584897, "lat": 52.6103986, "lon": 13.3349374}, {"type": "node", "id": 11934584898, "lat": 52.6103563, "lon": 13.3349415}, {"type": "node", "id": 11934584899, "lat": 52.6103375, "lon": 13.3348825}, {"type": "node", "id": 11934584900, "lat": 52.6103571, "lon": 13.3348261}, {"type": "node", "id": 11934584901, "lat": 52.6104141, "lon": 13.3346974}, {"type": "node", "id": 11934584902, "lat": 52.6104336, "lon": 13.334625}, {"type": "node", "id": 11934605588, "lat": 52.6088306, "lon": 13.3339738}, {"type": "node", "id": 11934605589, "lat": 52.6089289, "lon": 13.3342889}, {"type": "node", "id": 11934605591, "lat": 52.6089034, "lon": 13.3342881}, {"type": "node", "id": 11934605592, "lat": 52.6090483, "lon": 13.3340987}, {"type": "node", "id": 11934605595, "lat": 52.6090475, "lon": 13.3341711}, {"type": "node", "id": 11941532449, "lat": 52.6082793, "lon": 13.3296153}, {"type": "node", "id": 11941570590, "lat": 52.6091997, "lon": 13.3296852}, {"type": "node", "id": 11941570591, "lat": 52.6092281, "lon": 13.3297284}, {"type": "node", "id": 11941570592, "lat": 52.6092288, "lon": 13.3297904}, {"type": "node", "id": 11941570593, "lat": 52.6091988, "lon": 13.3298387}, {"type": "node", "id": 11941570594, "lat": 52.609164, "lon": 13.3298448}, {"type": "node", "id": 11941570595, "lat": 52.6091346, "lon": 13.329799}, {"type": "node", "id": 11941570596, "lat": 52.6091343, "lon": 13.3297355}, {"type": "node", "id": 11941570597, "lat": 52.6091609, "lon": 13.3296862}, {"type": "node", "id": 11941570598, "lat": 52.6087808, "lon": 13.3287115}, {"type": "node", "id": 11941570599, "lat": 52.6087182, "lon": 13.3287146}, {"type": "node", "id": 11941570600, "lat": 52.6087163, "lon": 13.3287739}, {"type": "node", "id": 11941570601, "lat": 52.6087369, "lon": 13.3288224}, {"type": "node", "id": 11941570602, "lat": 52.6087813, "lon": 13.3288186}, {"type": "node", "id": 11941570603, "lat": 52.6085863, "lon": 13.3283379}, {"type": "node", "id": 11941570604, "lat": 52.6086742, "lon": 13.3283372}, {"type": "node", "id": 11941570605, "lat": 52.6086719, "lon": 13.3286306}, {"type": "node", "id": 11941570606, "lat": 52.6085825, "lon": 13.3286314}, {"type": "node", "id": 11941585696, "lat": 52.6091804, "lon": 13.3368583}, {"type": "node", "id": 11941585697, "lat": 52.6090968, "lon": 13.3366551}, {"type": "node", "id": 11941585698, "lat": 52.6088862, "lon": 13.3366703}, {"type": "node", "id": 11941585699, "lat": 52.6088869, "lon": 13.3366983}, {"type": "node", "id": 11941585700, "lat": 52.6089046, "lon": 13.3367182}, {"type": "node", "id": 11941585701, "lat": 52.6089755, "lon": 13.3367147}, {"type": "node", "id": 11941585702, "lat": 52.6090386, "lon": 13.3368128}, {"type": "node", "id": 11941585703, "lat": 52.6091265, "lon": 13.336884}, {"type": "node", "id": 11941585704, "lat": 52.6076521, "lon": 13.3351622}, {"type": "node", "id": 11941585705, "lat": 52.6076552, "lon": 13.3351957}, {"type": "node", "id": 11941585706, "lat": 52.6076712, "lon": 13.335209}, {"type": "node", "id": 11941585707, "lat": 52.6076891, "lon": 13.3351927}, {"type": "node", "id": 11941585708, "lat": 52.6076879, "lon": 13.3351531}, {"type": "node", "id": 11941585709, "lat": 52.6076731, "lon": 13.3351368}, {"type": "node", "id": 11941585710, "lat": 52.6076582, "lon": 13.3351439}, {"type": "node", "id": 11941585711, "lat": 52.6075762, "lon": 13.3348807}, {"type": "node", "id": 11941585712, "lat": 52.6075663, "lon": 13.3349122}, {"type": "node", "id": 11941585713, "lat": 52.6075478, "lon": 13.3349162}, {"type": "node", "id": 11941585714, "lat": 52.6075373, "lon": 13.334903}, {"type": "node", "id": 11941585715, "lat": 52.6075329, "lon": 13.3348766}, {"type": "node", "id": 11941585716, "lat": 52.6075441, "lon": 13.3348553}, {"type": "node", "id": 11941585717, "lat": 52.6075595, "lon": 13.3348522}, {"type": "node", "id": 11941585718, "lat": 52.6075706, "lon": 13.3348614}, {"type": "node", "id": 11941585719, "lat": 52.6071471, "lon": 13.3340776}, {"type": "node", "id": 11941585720, "lat": 52.6071094, "lon": 13.3340786}, {"type": "node", "id": 11941585721, "lat": 52.6070816, "lon": 13.3341487}, {"type": "node", "id": 11941585722, "lat": 52.6070816, "lon": 13.3342382}, {"type": "node", "id": 11941585723, "lat": 52.6071001, "lon": 13.3342748}, {"type": "node", "id": 11941585724, "lat": 52.6071489, "lon": 13.3342727}, {"type": "node", "id": 11941585725, "lat": 52.6071699, "lon": 13.3342321}, {"type": "node", "id": 11941585726, "lat": 52.6071717, "lon": 13.3341274}, {"type": "node", "id": 11941585727, "lat": 52.6072236, "lon": 13.3349476}, {"type": "node", "id": 11941585728, "lat": 52.607223, "lon": 13.3349893}, {"type": "node", "id": 11941585729, "lat": 52.6072007, "lon": 13.3350157}, {"type": "node", "id": 11941585730, "lat": 52.6071742, "lon": 13.3349964}, {"type": "node", "id": 11941585731, "lat": 52.6071724, "lon": 13.3349446}, {"type": "node", "id": 11941585732, "lat": 52.6072007, "lon": 13.33491}, {"type": "node", "id": 11941585733, "lat": 52.6067661, "lon": 13.3314007}, {"type": "node", "id": 11941585734, "lat": 52.6067591, "lon": 13.3312543}, {"type": "node", "id": 11941585735, "lat": 52.6067137, "lon": 13.3312589}, {"type": "node", "id": 11941585736, "lat": 52.6067109, "lon": 13.3311357}, {"type": "node", "id": 11941585737, "lat": 52.6066202, "lon": 13.3311449}, {"type": "node", "id": 11941585738, "lat": 52.6066192, "lon": 13.3312535}, {"type": "node", "id": 11941585739, "lat": 52.6065617, "lon": 13.3312612}, {"type": "node", "id": 11941585740, "lat": 52.6065626, "lon": 13.3314292}, {"type": "node", "id": 11941585741, "lat": 52.6066347, "lon": 13.331413}, {"type": "node", "id": 11941585742, "lat": 52.6066347, "lon": 13.3313051}, {"type": "node", "id": 11941585743, "lat": 52.6066983, "lon": 13.3313059}, {"type": "node", "id": 11941585744, "lat": 52.6067006, "lon": 13.3314145}, {"type": "node", "id": 11941592770, "lat": 52.6061368, "lon": 13.3261716}, {"type": "node", "id": 11941592771, "lat": 52.6062047, "lon": 13.3263256}, {"type": "node", "id": 11941592772, "lat": 52.6062084, "lon": 13.3264096}, {"type": "node", "id": 11941592773, "lat": 52.6061808, "lon": 13.326465}, {"type": "node", "id": 11941592774, "lat": 52.6061003, "lon": 13.3265236}, {"type": "node", "id": 11941592775, "lat": 52.6060597, "lon": 13.3265883}, {"type": "node", "id": 11941592776, "lat": 52.6060059, "lon": 13.3265266}, {"type": "node", "id": 11941592777, "lat": 52.6060452, "lon": 13.326361}, {"type": "node", "id": 12180826146, "lat": 52.6017402, "lon": 13.3060388}, {"type": "node", "id": 12471880084, "lat": 52.6009686, "lon": 13.3071918}, {"type": "node", "id": 12471880085, "lat": 52.6018234, "lon": 13.3062161}, {"type": "node", "id": 12471880088, "lat": 52.6010796, "lon": 13.3070651}, {"type": "node", "id": 12471880089, "lat": 52.6011194, "lon": 13.3075526}, {"type": "node", "id": 12471880090, "lat": 52.6008731, "lon": 13.3078348}, {"type": "node", "id": 12471880091, "lat": 52.6008351, "lon": 13.3078787}, {"type": "node", "id": 12471880092, "lat": 52.6003679, "lon": 13.3084227}, {"type": "node", "id": 12471880093, "lat": 52.6003738, "lon": 13.3088468}, {"type": "node", "id": 12471880094, "lat": 52.6000803, "lon": 13.3091776}, {"type": "node", "id": 12471880095, "lat": 52.6004175, "lon": 13.309981}, {"type": "node", "id": 12471880096, "lat": 52.6007094, "lon": 13.3096531}, {"type": "node", "id": 12471898607, "lat": 52.6015292, "lon": 13.3115902}, {"type": "node", "id": 12471898608, "lat": 52.6014369, "lon": 13.3117041}, {"type": "node", "id": 12471898609, "lat": 52.6013348, "lon": 13.3121656}, {"type": "node", "id": 12471898610, "lat": 52.6018513, "lon": 13.3133744}, {"type": "node", "id": 12471898611, "lat": 52.60194, "lon": 13.3136388}, {"type": "node", "id": 12471898612, "lat": 52.6020983, "lon": 13.3134469}, {"type": "node", "id": 12471898613, "lat": 52.6021585, "lon": 13.3136167}, {"type": "node", "id": 12471898617, "lat": 52.6025406, "lon": 13.3147293}, {"type": "node", "id": 12471898696, "lat": 52.6043037, "lon": 13.3193956}, {"type": "node", "id": 12471898697, "lat": 52.6042418, "lon": 13.3192025}, {"type": "node", "id": 12471898698, "lat": 52.6028344, "lon": 13.3157575}, {"type": "node", "id": 12471898713, "lat": 52.603962, "lon": 13.3197976}, {"type": "node", "id": 12471898716, "lat": 52.6042598, "lon": 13.3196412}, {"type": "node", "id": 12471898739, "lat": 52.6043336, "lon": 13.3196088}, {"type": "node", "id": 12471898752, "lat": 52.5992743, "lon": 13.3163082}, {"type": "node", "id": 12471898753, "lat": 52.5998007, "lon": 13.3156976}, {"type": "node", "id": 12471898755, "lat": 52.6002621, "lon": 13.3148825}, {"type": "node", "id": 12471898757, "lat": 52.6005483, "lon": 13.3142648}, {"type": "node", "id": 12471898761, "lat": 52.6009368, "lon": 13.3133756}, {"type": "node", "id": 12471898763, "lat": 52.601384, "lon": 13.3129698}, {"type": "node", "id": 12471898765, "lat": 52.6014919, "lon": 13.3132184}, {"type": "node", "id": 12471898767, "lat": 52.6015113, "lon": 13.3131948}, {"type": "node", "id": 12471898769, "lat": 52.6015268, "lon": 13.3131986}, {"type": "node", "id": 12471898771, "lat": 52.6015692, "lon": 13.3132944}, {"type": "node", "id": 12471898773, "lat": 52.6015667, "lon": 13.3133209}, {"type": "node", "id": 12471898775, "lat": 52.6015479, "lon": 13.3133453}, {"type": "node", "id": 12471898777, "lat": 52.6020742, "lon": 13.3145366}, {"type": "node", "id": 12471898778, "lat": 52.6022494, "lon": 13.3149615}, {"type": "node", "id": 12471898780, "lat": 52.6022743, "lon": 13.3150572}, {"type": "way", "id": 17646721, "nodes": [281420616, 2941022510, 12471898757, 12471898755, 4621315556, 12471898753, 12471898752, 676889578, 182760972, 182760977, 2941003784, 281420616], "tags": {"leisure": "park"}}, {"type": "way", "id": 40937999, "nodes": [498640291, 498640297, 498640298, 498640300, 498640295, 498640293, 2863445627, 2863452537, 2863452708, 498640291], "tags": {"brand": "Edeka", "brand:wikidata": "Q701755", "brand:wikipedia": "de:Edeka", "building": "retail", "check_date": "2024-08-18", "name": "EDEKA", "opening_hours": "PH off; Mo-Sa 07:00-22:00", "shop": "supermarket"}}, {"type": "way", "id": 48395704, "nodes": [614653576, 614653570, 8616259488, 8616259487, 614653571, 8616259484, 8616259485, 8616259486, 8616259483, 614653575, 614653576], "tags": {"addr:housenumber": "6-10", "addr:postcode": "13469", "addr:street": "Oraniendamm", "air_conditioning": "yes", "amenity": "fast_food", "brand": "Burger King", "brand:wikidata": "Q177054", "brand:wikipedia": "en:Burger King", "building": "retail", "building:levels": "2", "cuisine": "burger", "diet:vegan": "yes", "diet:vegetarian": "yes", "indoor_seating": "yes", "int_name": "Burger King", "name": "Burger King", "opening_hours": "Mo-Th 09:00-01:00, Fr-Sa 09:00-05:00, Su 10:00-01:00", "outdoor_seating": "yes", "roof:levels": "0", "roof:shape": "flat", "takeaway": "yes", "toilets:wheelchair": "yes", "website": "https://www.burgerking.de/", "wheelchair": "yes"}}, {"type": "way", "id": 136024343, "nodes": [1492771543, 1492771527, 664074207, 1492771494, 1492771547, 1492771541, 9379002159, 9379002158, 1492771508, 8319500471, 1492771499, 9379002157, 831962878, 831962997, 831963166, 831963282, 1492771539, 831963248, 831962894, 831963005, 831963086, 831963201, 1492771492, 1492771522, 664074202, 5272264456, 5272264455, 664074201, 4681611296, 5272264454, 5272264453, 281429607, 5272264452, 1492771505, 11747782861, 11747782860, 7711671094, 11747782862, 4558189566, 11747782866, 1492771561, 7711671086, 4558189567, 5272271206, 364504521, 5272271208, 5272271207, 4558189568, 5272271209, 4558189569, 5272271210, 5272271211, 4558189570, 4558189571, 10691079461, 11747782850, 11747782851, 1492771512, 1492771531, 920572635, 920571736, 920572140, 920573117, 920571253, 920572475, 920571464, 5272277423, 920572642, 5272277422, 5272277421, 664074198, 5272256237, 664074199, 10677704485, 10677704486, 5272256238, 1309586130, 661114694, 10677704489, 10677704490, 10677704491, 661114691, 10677704478, 281429603, 281429602, 5272256239, 5272256240, 5272256241, 747457826, 747457831, 10677704477, 10677704476, 10677704474, 10677704475, 10677704472, 10677704473, 10677704471, 747457805, 747457837, 747457840, 747457835, 747457798, 10677704470, 10677704469, 10677704468, 10677704467, 747457784, 10677685268, 1492771552, 1492771545, 10677691080, 1492771525, 1492771543]}, {"type": "way", "id": 249159372, "nodes": [884208047, 2558170278, 4588980163, 2558170279, 884207588, 884207789, 884207535, 884207461, 884208047], "tags": {"boundary": "protected_area", "heritage": "4", "heritage:operator": "lda", "lda:criteria": "Gartendenkmal", "leisure": "park", "name": "Dianaplatz", "name:etymology": "Diana", "name:etymology:wikidata": "Q132543", "protect_class": "22", "ref:lda": "09046232", "start_date": "1900", "wikidata": "Q111897958", "wikimedia_commons": "Category:Dianaplatz (Berlin-Waidmannslust)"}}, {"type": "way", "id": 282282368, "nodes": [2862188916, 2862187620, 2862188605, 2862188607, 2862188709, 2862188713, 2862187326, 2862188813, 2862188916], "tags": {"amenity": "fast_food", "building": "yes", "cuisine": "regional", "indoor_seating": "no", "name": "Genussbox", "opening_hours": "Mo-Fr 08:00-16:00", "outdoor_seating": "yes", "source": "Geoportal Berlin / Hausumringe"}}, {"type": "way", "id": 282430511, "nodes": [2863431116, 2863430907, 2863430614, 2863430820, 2863430304, 2863430077, 2863431116], "tags": {"brand": "ALDI Nord", "brand:wikidata": "Q41171373", "brand:wikipedia": "en:Aldi", "building": "retail", "building:levels": "1", "check_date:opening_hours": "2022-11-15", "diet:kosher": "no", "name": "Aldi", "opening_hours": "Mo-Sa 07:00-21:00", "roof:levels": "0", "roof:shape": "flat", "shop": "supermarket", "wheelchair": "yes"}}, {"type": "way", "id": 290779204, "nodes": [2942851223, 2942851339, 2942851222, 2942852027, 2942851223], "tags": {"addr:city": "Berlin", "addr:housenumber": "168", "addr:postcode": "13469", "addr:street": "Waidmannsluster Damm", "addr:suburb": "Waidmannslust", "amenity": "restaurant", "building": "yes", "name": "Dong A", "source": "Geoportal Berlin / Hausumringe"}}, {"type": "way", "id": 333903245, "nodes": [3409531406, 3409529627, 11941532449, 3409531405, 3409531408, 3409531404, 3409531407, 3409531406], "tags": {"access": "yes", "leisure": "playground"}}, {"type": "way", "id": 334086496, "nodes": [3411752007, 11934605592, 11934605595, 3411752011, 11934605589, 11934605591, 3411752010, 3411752094, 11934605588, 3411752008, 3411752007], "tags": {"leisure": "playground"}}, {"type": "way", "id": 460141780, "nodes": [661114610, 4558189624, 4558189623, 4558189622, 5476199238, 4558189621, 5476213622, 4558189620, 5476199237, 4558189619, 4558189616, 4558189615, 4558189614, 5476212651, 5476212652, 5476212649, 4558189613, 5476213522, 5476213624, 661114649, 5476212650, 4558189612, 4558189611, 4558189610, 4558189609, 4558189608, 5476213623, 4558189602, 4558189601, 4558189600, 4558189599, 4558189598, 4558189597, 4558189596, 4558189595, 4558189594, 4558189593, 4558189592, 4558189591, 661114610], "tags": {"basin": "detention", "boat": "no", "canoe": "no", "intermittent": "yes", "motorboat": "no", "name": "Herrnholzbecken", "natural": "water", "ship": "no", "water": "basin"}}, {"type": "way", "id": 484957928, "nodes": [4777047222, 4777047223, 4777047224, 4777047225, 4777047222], "tags": {"addr:city": "Berlin", "addr:housenumber": "1", "addr:postcode": "13469", "addr:street": "Todtnauer Zeile", "amenity": "fast_food", "building": "yes", "cuisine": "burger;german", "outdoor_seating": "yes", "smoking": "yes", "takeaway": "yes"}}, {"type": "way", "id": 490754782, "nodes": [4929550953, 12180826146, 12471880085, 12471880088, 12471880084, 12471880089, 2946032270, 2946031409, 12471880090, 12471880091, 12471880092, 12471880093, 12471880094, 12471880095, 12471880096, 12471898607, 12471898608, 12471898609, 12471898610, 2941026171, 12471898775, 12471898773, 12471898771, 12471898769, 12471898767, 12471898765, 12471898763, 12471898761, 12471898757, 2941022510, 281420616, 2941003784, 182760977, 182760972, 281224208, 281224182, 269843364, 2966843826, 2966843790, 30437323, 2966843735, 2966843720, 899410486, 30437326, 30437328, 30437329, 278635291, 168212729, 6270291073, 30437334, 288516972, 182760983, 182760986, 746555274, 4552104000, 4552103999, 30437336, 30437337, 5347832880, 30437339, 8903855659, 6486829003, 8903855679, 6486828995, 6486828990, 8903855670, 1219749304, 8903855671, 8903855672, 4929550953], "tags": {"architect": "Franz Kuhrt; Karl L\u00f6wenhagen", "description": "35 Hektar gro\u00dfe Parkanlage.", "heritage": "4", "heritage:operator": "lda", "heritage:website": "https://denkmaldatenbank.berlin.de/daobj.php?obj_dok_nr=09046255", "lda:criteria": "Gartendenkmal", "leisure": "park", "name": "Steinbergpark", "name:etymology:wikidata": "Q1434274", "name:etymology:wikipedia": "de:Flurname", "ref:lda": "09046255", "start_date": "1933", "wikidata": "Q1546008", "wikimedia_commons": "Category:Steinbergpark (Berlin)", "wikipedia": "de:Steinbergpark", "year_of_construction": "1924..1933"}}, {"type": "way", "id": 564347713, "nodes": [12471898610, 12471898611, 12471898612, 12471898613, 2941030132, 2941030135, 2941025964, 2941027084, 2941024920, 2941027088, 12471898617, 12471898780, 12471898778, 12471898777, 2941026171, 12471898610], "tags": {"leisure": "park"}}, {"type": "way", "id": 564350135, "nodes": [5437590435, 5437590434, 5437590433, 5437590432, 5437590431, 4375617711, 12471898713, 12471898716, 12471898739, 12471898696, 12471898697, 5437590429, 5437590428, 5437590427, 5437590426, 5437590425, 5437590424, 5437590423, 5437590422, 5437590421, 5437589120, 5437589119, 5437589118, 2966844643, 2966844642, 2966844639, 5437589117, 5437589116, 5437589115, 5437589114, 12471898698, 5437589113, 5437589112, 5437590435], "tags": {"leisure": "park"}}, {"type": "way", "id": 625667908, "nodes": [5907281655, 5907281656, 5907281657, 5907281658, 5907281659, 5907281660, 5907281661, 5907281662, 5907281655], "tags": {"leisure": "playground"}}, {"type": "way", "id": 625814316, "nodes": [5908604637, 5908604632, 5908604638, 5908604639, 5908604633, 5908604640, 5908604641, 5908604634, 5908604642, 5908604643, 5908604635, 5908604636, 5908604637], "tags": {"access": "yes", "leisure": "playground"}}, {"type": "way", "id": 646050216, "nodes": [6071348210, 6071400405, 6071348211, 6071348212, 6071348213, 6071348214, 6071348215, 6071348216, 6071348217, 6071348210], "tags": {"access": "yes", "leisure": "playground"}}, {"type": "way", "id": 679185213, "nodes": [6359844360, 661123172, 6359844359, 6359844358, 6359844360], "tags": {"access": "yes", "leisure": "playground", "name": "Entenspielplatz"}}, {"type": "way", "id": 1066015606, "nodes": [9789564872, 9789564873, 9789564874, 9789564875, 9789564876, 9789564877, 9789564878, 9789564879, 9789564880, 9789564872], "tags": {"leisure": "park", "protection_title": "Gesch\u00fctzte Gr\u00fcnanlage"}}, {"type": "way", "id": 1161315187, "nodes": [10801453348, 10801453349, 10801453350, 10801453351, 10801453352, 10801453353, 10801453354, 10801453355, 10801453356, 10801453357, 10801453358, 10801453340, 10801453343, 10801453344, 10801453345, 10801453346, 10801453347, 10801453341, 10801453342, 10801453348], "tags": {"leisure": "playground", "operator": "Katholische Schule Salvator"}}, {"type": "way", "id": 1242774472, "nodes": [11549366069, 3145471018, 3145471046, 3145471128, 7280139524, 7280139525, 7280139530, 833090002, 11549366077, 11549366073, 11549364559, 11549366072, 11549366071, 11549366070, 880350824, 2029618539, 7711671224, 3145470430, 3145470486, 3145470783, 3145470817, 11549366069], "tags": {"leisure": "park"}}, {"type": "way", "id": 1286750608, "nodes": [11934453248, 11934453249, 11934453250, 11934453251, 11934453248], "tags": {"leisure": "park"}}, {"type": "way", "id": 1286760963, "nodes": [11934538597, 11934538598, 11934538599, 11934538600, 11934538601, 11934538602, 11934538597], "tags": {"leisure": "playground"}}, {"type": "way", "id": 1286761430, "nodes": [11934557132, 11934557133, 11934557134, 11934557135, 11934557136, 11934557137, 11934557138, 11934557139, 11934557140, 11934557141, 11934557142, 11934557143, 11934557144, 11934557145, 11934557146, 11934557147, 11934557148, 11934557149, 11934557150, 11934557151, 11934557152, 11934557132], "tags": {"leisure": "playground"}}, {"type": "way", "id": 1286761480, "nodes": [11934584890, 11934584891, 11934584892, 11934584893, 11934584894, 11934584895, 11934584896, 11934584897, 11934584898, 11934584899, 11934584900, 11934584901, 11934584902, 11934584890], "tags": {"leisure": "playground"}}, {"type": "way", "id": 1286761577, "nodes": [11934583209, 11934583210, 11934583211, 11934583212, 11934583213, 11934583214, 11934583215, 11934583216, 11934583217, 11934583218, 11934583219, 11934583220, 11934583209], "tags": {"leisure": "playground"}}, {"type": "way", "id": 1287600764, "nodes": [11941585696, 11941585697, 11941585698, 11941585699, 11941585700, 11941585701, 11941585702, 11941585703, 11941585696], "tags": {"leisure": "playground"}}, {"type": "way", "id": 1287600765, "nodes": [11941585704, 11941585705, 11941585706, 11941585707, 11941585708, 11941585709, 11941585710, 11941585704], "tags": {"leisure": "playground"}}, {"type": "way", "id": 1287600766, "nodes": [11941585711, 11941585712, 11941585713, 11941585714, 11941585715, 11941585716, 11941585717, 11941585718, 11941585711], "tags": {"leisure": "playground"}}, {"type": "way", "id": 1287600767, "nodes": [11941585719, 11941585720, 11941585721, 11941585722, 11941585723, 11941585724, 11941585725, 11941585726, 11941585719], "tags": {"leisure": "playground"}}, {"type": "way", "id": 1287600768, "nodes": [11941585727, 11941585728, 11941585729, 11941585730, 11941585731, 11941585732, 11941585727], "tags": {"leisure": "playground"}}, {"type": "way", "id": 1287600769, "nodes": [11941585733, 11941585734, 11941585735, 11941585736, 11941585737, 11941585738, 11941585739, 11941585740, 11941585741, 11941585742, 11941585743, 11941585744, 11941585733], "tags": {"leisure": "playground"}}, {"type": "way", "id": 1287600909, "nodes": [11941570590, 11941570591, 11941570592, 11941570593, 11941570594, 11941570595, 11941570596, 11941570597, 11941570590], "tags": {"leisure": "playground"}}, {"type": "way", "id": 1287600910, "nodes": [11941570598, 11941570599, 11941570600, 11941570601, 11941570602, 11941570598], "tags": {"leisure": "playground"}}, {"type": "way", "id": 1287600911, "nodes": [11941570603, 11941570604, 11941570605, 11941570606, 11941570603], "tags": {"leisure": "playground"}}, {"type": "way", "id": 1287601222, "nodes": [11941592770, 11941592771, 11941592772, 11941592773, 11941592774, 11941592775, 11941592776, 11941592777, 11941592770], "tags": {"leisure": "playground"}}, {"type": "relation", "id": 6970953, "members": [{"type": "way", "ref": 136024343, "role": "outer"}, {"type": "way", "ref": 460141780, "role": "inner"}], "tags": {"leisure": "park", "protection_title": "Gesch\u00fctzte Gr\u00fcnanlage", "type": "multipolygon"}}]}