{"version": 0.6, "generator": "Overpass API 0.7.62.7 375dc00a", "osm3s": {"timestamp_osm_base": "2025-08-05T14:06:44Z", "copyright": "The data included in this document is from www.openstreetmap.org. The data is made available under ODbL."}, "elements": [{"type": "node", "id": 191575007, "lat": 52.6213965, "lon": 13.4830613}, {"type": "node", "id": 191575008, "lat": 52.6214069, "lon": 13.4832158}, {"type": "node", "id": 191575009, "lat": 52.6213496, "lon": 13.4834218}, {"type": "node", "id": 191575010, "lat": 52.621235, "lon": 13.4835334}, {"type": "node", "id": 191575011, "lat": 52.6210995, "lon": 13.4835505}, {"type": "node", "id": 191575012, "lat": 52.6209849, "lon": 13.4834733}, {"type": "node", "id": 191575013, "lat": 52.6209223, "lon": 13.4833789}, {"type": "node", "id": 191575018, "lat": 52.6209401, "lon": 13.4829455}, {"type": "node", "id": 191575019, "lat": 52.6210283, "lon": 13.482909}, {"type": "node", "id": 191575020, "lat": 52.6211034, "lon": 13.4828443}, {"type": "node", "id": 191575021, "lat": 52.6212115, "lon": 13.4827437}, {"type": "node", "id": 293137288, "lat": 52.6183865, "lon": 13.4863459, "tags": {"brand": "Rewe", "brand:wikidata": "Q16968817", "brand:wikipedia": "en:REWE", "level": "0", "name": "REWE", "shop": "supermarket", "wheelchair": "yes"}}, {"type": "node", "id": 391407342, "lat": 52.6140483, "lon": 13.4695365, "tags": {"amenity": "restaurant", "cuisine": "asian", "name": "Viet Duc", "opening_hours": "Tu-Su 11:00-22:00", "phone": "+49 30 34626407; +49 30 92120475", "wheelchair": "no"}}, {"type": "node", "id": 391411289, "lat": 52.6151487, "lon": 13.4846529, "tags": {"addr:city": "Berlin", "addr:country": "DE", "addr:housenumber": "35", "addr:postcode": "13125", "addr:street": "Alt-Karow", "addr:suburb": "Karow", "amenity": "restaurant", "cuisine": "mexican", "name": "Poco Loco"}}, {"type": "node", "id": 395285627, "lat": 52.6160848, "lon": 13.4864746}, {"type": "node", "id": 395285628, "lat": 52.6161017, "lon": 13.4866157}, {"type": "node", "id": 395285629, "lat": 52.6163599, "lon": 13.4868241}, {"type": "node", "id": 395285631, "lat": 52.616458, "lon": 13.4865947}, {"type": "node", "id": 395285632, "lat": 52.6161901, "lon": 13.4863763}, {"type": "node", "id": 410749696, "lat": 52.6173677, "lon": 13.4863442, "tags": {"brand": "Netto", "brand:wikidata": "Q552652", "brand:wikipedia": "en:Netto (store)", "check_date:opening_hours": "2025-08-02", "name": "Netto", "opening_hours": "Mo-Sa 07:00-21:00", "shop": "supermarket", "wheelchair": "yes"}}, {"type": "node", "id": 431258771, "lat": 52.6174691, "lon": 13.4897579, "tags": {"addr:city": "Berlin", "addr:housenumber": "65", "addr:postcode": "13125", "addr:street": "Achillesstra\u00dfe", "amenity": "cafe", "cuisine": "coffee_shop;cake;donut;ice_cream", "name": "Siebert\u2019s Back & Caf\u00e9", "opening_hours": "Mo-Su 07:00-18:00", "start_date": "2020-03-07", "wheelchair": "yes"}}, {"type": "node", "id": 432469209, "lat": 52.6170996, "lon": 13.4889601, "tags": {"amenity": "restaurant", "cuisine": "indian", "name": "India Haus", "wheelchair": "limited"}}, {"type": "node", "id": 663879954, "lat": 52.615282, "lon": 13.470382, "tags": {"addr:city": "Berlin", "addr:country": "DE", "addr:housenumber": "64-65", "addr:postcode": "13125", "addr:street": "Hubertusdamm", "addr:suburb": "Karow", "brand": "Netto Marken-Discount", "brand:wikidata": "Q879858", "brand:wikipedia": "en:Netto Marken-Discount", "check_date:opening_hours": "2023-04-23", "name": "Netto Marken-Discount", "opening_hours": "Mo-Sa 07:00-22:00; Su off", "shop": "supermarket", "website": "https://www.netto-online.de/filialen/Berlin-Karow/Hubertusdamm-64-65/5052/", "wheelchair": "yes"}}, {"type": "node", "id": 705573153, "lat": 52.6184006, "lon": 13.486747, "tags": {"amenity": "fast_food", "level": "0", "name": "Thai Asia", "wheelchair": "yes"}}, {"type": "node", "id": 966869858, "lat": 52.6199323, "lon": 13.482768}, {"type": "node", "id": 966869860, "lat": 52.6191812, "lon": 13.4820052}, {"type": "node", "id": 966869863, "lat": 52.6194049, "lon": 13.4816407}, {"type": "node", "id": 966869866, "lat": 52.619845, "lon": 13.4820421}, {"type": "node", "id": 966869868, "lat": 52.6199782, "lon": 13.4821611}, {"type": "node", "id": 966869869, "lat": 52.6202075, "lon": 13.4823706}, {"type": "node", "id": 966869870, "lat": 52.6202278, "lon": 13.4823889}, {"type": "node", "id": 966869871, "lat": 52.6205419, "lon": 13.4826424}, {"type": "node", "id": 966869872, "lat": 52.6206545, "lon": 13.4826892}, {"type": "node", "id": 966869873, "lat": 52.6207786, "lon": 13.4827116}, {"type": "node", "id": 966869874, "lat": 52.6209184, "lon": 13.4827082}, {"type": "node", "id": 966869875, "lat": 52.621085, "lon": 13.4826611}, {"type": "node", "id": 966869877, "lat": 52.6211756, "lon": 13.4826145}, {"type": "node", "id": 966869878, "lat": 52.6213667, "lon": 13.4824428}, {"type": "node", "id": 966869879, "lat": 52.6214331, "lon": 13.4823598}, {"type": "node", "id": 966869880, "lat": 52.6219938, "lon": 13.4816176}, {"type": "node", "id": 966869882, "lat": 52.6221903, "lon": 13.4821929}, {"type": "node", "id": 966869883, "lat": 52.6220083, "lon": 13.4823794}, {"type": "node", "id": 966869884, "lat": 52.6218575, "lon": 13.4826055}, {"type": "node", "id": 966869885, "lat": 52.6216986, "lon": 13.482968}, {"type": "node", "id": 966869886, "lat": 52.6216205, "lon": 13.483233}, {"type": "node", "id": 966869887, "lat": 52.6215989, "lon": 13.4833342}, {"type": "node", "id": 966869888, "lat": 52.6220204, "lon": 13.4838173}, {"type": "node", "id": 966869889, "lat": 52.6218575, "lon": 13.4842047}, {"type": "node", "id": 966869891, "lat": 52.6214315, "lon": 13.4837177}, {"type": "node", "id": 966869892, "lat": 52.6213721, "lon": 13.4838103}, {"type": "node", "id": 966869894, "lat": 52.6212861, "lon": 13.4838825}, {"type": "node", "id": 966869895, "lat": 52.621108, "lon": 13.4839118}, {"type": "node", "id": 966869897, "lat": 52.6210071, "lon": 13.4838603}, {"type": "node", "id": 966869898, "lat": 52.6208335, "lon": 13.4836824}, {"type": "node", "id": 966869899, "lat": 52.6207558, "lon": 13.4836058}, {"type": "node", "id": 966869900, "lat": 52.6201534, "lon": 13.482988}, {"type": "node", "id": 966869902, "lat": 52.619911, "lon": 13.4835655}, {"type": "node", "id": 966869903, "lat": 52.6196911, "lon": 13.4833422}, {"type": "node", "id": 966872345, "lat": 52.6225664, "lon": 13.4838541}, {"type": "node", "id": 966872348, "lat": 52.6228575, "lon": 13.4849518}, {"type": "node", "id": 966872349, "lat": 52.6228535, "lon": 13.4850211}, {"type": "node", "id": 966872350, "lat": 52.6228389, "lon": 13.4850612}, {"type": "node", "id": 966872351, "lat": 52.6226725, "lon": 13.4850691}, {"type": "node", "id": 966872352, "lat": 52.6225367, "lon": 13.4849682}, {"type": "node", "id": 966872353, "lat": 52.6223954, "lon": 13.4848091}, {"type": "node", "id": 966872354, "lat": 52.6222637, "lon": 13.4846265}, {"type": "node", "id": 966872355, "lat": 52.6221839, "lon": 13.4844805}, {"type": "node", "id": 966872357, "lat": 52.6222667, "lon": 13.4842052}, {"type": "node", "id": 966872359, "lat": 52.6224041, "lon": 13.4842829}, {"type": "node", "id": 966872360, "lat": 52.6225536, "lon": 13.48442}, {"type": "node", "id": 966872361, "lat": 52.6226867, "lon": 13.4845904}, {"type": "node", "id": 966872362, "lat": 52.6227925, "lon": 13.4847687}, {"type": "node", "id": 972322780, "lat": 52.6219779, "lon": 13.4817819}, {"type": "node", "id": 972322782, "lat": 52.6217544, "lon": 13.4820796}, {"type": "node", "id": 972322784, "lat": 52.6215032, "lon": 13.4823763}, {"type": "node", "id": 972322787, "lat": 52.6215341, "lon": 13.4824409}, {"type": "node", "id": 972322789, "lat": 52.6214548, "lon": 13.4830452}, {"type": "node", "id": 972322793, "lat": 52.6214646, "lon": 13.4828735}, {"type": "node", "id": 972322796, "lat": 52.6215199, "lon": 13.4827341}, {"type": "node", "id": 972322798, "lat": 52.6216763, "lon": 13.4824337}, {"type": "node", "id": 972322800, "lat": 52.6218912, "lon": 13.4821601}, {"type": "node", "id": 977640110, "lat": 52.6208368, "lon": 13.4829145}, {"type": "node", "id": 977640111, "lat": 52.6207171, "lon": 13.4832108}, {"type": "node", "id": 977640112, "lat": 52.6208653, "lon": 13.4833423}, {"type": "node", "id": 977657079, "lat": 52.6171891, "lon": 13.4903858, "tags": {"addr:city": "Berlin", "addr:country": "DE", "addr:housenumber": "69", "addr:postcode": "13125", "addr:street": "Achillesstra\u00dfe", "addr:suburb": "Karow", "amenity": "pharmacy", "dispensing": "yes", "healthcare": "pharmacy", "name": "Achilles Apotheke", "phone": "+49 30 94380797", "website": "https://www.achillesapotheke.de/", "wheelchair": "limited"}}, {"type": "node", "id": 984114092, "lat": 52.620457, "lon": 13.485284, "tags": {"access": "yes", "leisure": "playground"}}, {"type": "node", "id": 984120137, "lat": 52.6197698, "lon": 13.4870614, "tags": {"access": "private", "leisure": "playground"}}, {"type": "node", "id": 984133239, "lat": 52.6231492, "lon": 13.4824332}, {"type": "node", "id": 984133240, "lat": 52.623016, "lon": 13.482753}, {"type": "node", "id": 984133241, "lat": 52.6232424, "lon": 13.4830219}, {"type": "node", "id": 984133244, "lat": 52.6233814, "lon": 13.4826908}, {"type": "node", "id": 992670271, "lat": 52.619405, "lon": 13.485909, "tags": {"access": "yes", "leisure": "playground"}}, {"type": "node", "id": 1111581173, "lat": 52.6161809, "lon": 13.4854364}, {"type": "node", "id": 1111581175, "lat": 52.6162064, "lon": 13.485478}, {"type": "node", "id": 1111581177, "lat": 52.6162243, "lon": 13.485512}, {"type": "node", "id": 1111581182, "lat": 52.6162433, "lon": 13.4855523}, {"type": "node", "id": 1111581183, "lat": 52.6162652, "lon": 13.4856032}, {"type": "node", "id": 1111581184, "lat": 52.6162815, "lon": 13.4856582}, {"type": "node", "id": 1111581186, "lat": 52.6162896, "lon": 13.4857145}, {"type": "node", "id": 1111581188, "lat": 52.6162929, "lon": 13.4857749}, {"type": "node", "id": 1111581191, "lat": 52.6162908, "lon": 13.4858298}, {"type": "node", "id": 1111581193, "lat": 52.6162863, "lon": 13.4858815}, {"type": "node", "id": 1111581195, "lat": 52.6162633, "lon": 13.4859534}, {"type": "node", "id": 1111581198, "lat": 52.6160346, "lon": 13.4857645}, {"type": "node", "id": 1111592774, "lat": 52.6163776, "lon": 13.4856201, "tags": {"healthcare": "centre", "name": "\u00c4rztehaus", "wheelchair": "yes"}}, {"type": "node", "id": 1111604017, "lat": 52.616159, "lon": 13.4862307}, {"type": "node", "id": 1111604019, "lat": 52.6160168, "lon": 13.4861136}, {"type": "node", "id": 1111604022, "lat": 52.6160067, "lon": 13.4864171}, {"type": "node", "id": 1111604023, "lat": 52.6160344, "lon": 13.4864077}, {"type": "node", "id": 1111604024, "lat": 52.6160613, "lon": 13.486393}, {"type": "node", "id": 1111604025, "lat": 52.6160833, "lon": 13.4863729}, {"type": "node", "id": 1111604027, "lat": 52.6161012, "lon": 13.4863501}, {"type": "node", "id": 1111604031, "lat": 52.6161158, "lon": 13.48633}, {"type": "node", "id": 1111604034, "lat": 52.6161289, "lon": 13.4863031}, {"type": "node", "id": 1111604038, "lat": 52.6161427, "lon": 13.4862736}, {"type": "node", "id": 1111633795, "lat": 52.6168927, "lon": 13.4946987}, {"type": "node", "id": 1111633797, "lat": 52.616194, "lon": 13.4963547}, {"type": "node", "id": 1111646339, "lat": 52.6170227, "lon": 13.4944411}, {"type": "node", "id": 1214522413, "lat": 52.613898, "lon": 13.4901922}, {"type": "node", "id": 1214522415, "lat": 52.614158, "lon": 13.4895808}, {"type": "node", "id": 1214525744, "lat": 52.6151339, "lon": 13.4877424}, {"type": "node", "id": 1214525745, "lat": 52.6136059, "lon": 13.4914705}, {"type": "node", "id": 1214525748, "lat": 52.6128431, "lon": 13.4930457}, {"type": "node", "id": 1214525750, "lat": 52.61446, "lon": 13.488872}, {"type": "node", "id": 1214525754, "lat": 52.6145819, "lon": 13.4885761}, {"type": "node", "id": 1214525755, "lat": 52.614976, "lon": 13.4876539}, {"type": "node", "id": 1214551475, "lat": 52.6117014, "lon": 13.4929252}, {"type": "node", "id": 1289141613, "lat": 52.6151445, "lon": 13.4915205}, {"type": "node", "id": 1289141615, "lat": 52.61536, "lon": 13.4917661}, {"type": "node", "id": 1289141617, "lat": 52.616356, "lon": 13.4894153}, {"type": "node", "id": 1289141619, "lat": 52.6162812, "lon": 13.4888342}, {"type": "node", "id": 1289141621, "lat": 52.6157213, "lon": 13.4901577}, {"type": "node", "id": 1388365976, "lat": 52.6144146, "lon": 13.4696539, "tags": {"amenity": "fast_food", "cuisine": "kebab", "name": "Karow D\u00f6ner", "opening_hours": "Mo-Fr 09:00-22:00; Sa,Su 10:00-21:00", "wheelchair": "limited"}}, {"type": "node", "id": 1470958477, "lat": 52.6174523, "lon": 13.494969}, {"type": "node", "id": 1470958478, "lat": 52.6170503, "lon": 13.4944792}, {"type": "node", "id": 1470958479, "lat": 52.6167211, "lon": 13.4952408}, {"type": "node", "id": 1470958480, "lat": 52.617692, "lon": 13.4987429}, {"type": "node", "id": 1470958483, "lat": 52.6180754, "lon": 13.4979779}, {"type": "node", "id": 1470958485, "lat": 52.6181377, "lon": 13.4972399}, {"type": "node", "id": 1470958486, "lat": 52.6175445, "lon": 13.4950758}, {"type": "node", "id": 1484178548, "lat": 52.6157955, "lon": 13.475826}, {"type": "node", "id": 1484178549, "lat": 52.6160444, "lon": 13.4773777}, {"type": "node", "id": 1484178550, "lat": 52.6165312, "lon": 13.4763079}, {"type": "node", "id": 1489831547, "lat": 52.6174788, "lon": 13.4889511}, {"type": "node", "id": 1489831549, "lat": 52.6173819, "lon": 13.4888386}, {"type": "node", "id": 1489831555, "lat": 52.6172437, "lon": 13.4891617}, {"type": "node", "id": 1489831557, "lat": 52.6173434, "lon": 13.4892726}, {"type": "node", "id": 1489831565, "lat": 52.6171607, "lon": 13.4893467}, {"type": "node", "id": 1489831567, "lat": 52.6168997, "lon": 13.4899676}, {"type": "node", "id": 1489831569, "lat": 52.6170043, "lon": 13.4900786}, {"type": "node", "id": 1489831570, "lat": 52.6172622, "lon": 13.4894554}, {"type": "node", "id": 1490931857, "lat": 52.6131522, "lon": 13.4933993}, {"type": "node", "id": 1490931858, "lat": 52.6137792, "lon": 13.4919156}, {"type": "node", "id": 1490931859, "lat": 52.6134703, "lon": 13.4915637}, {"type": "node", "id": 1493263491, "lat": 52.617856, "lon": 13.4984942}, {"type": "node", "id": 1493263496, "lat": 52.6180003, "lon": 13.4987791}, {"type": "node", "id": 1493263502, "lat": 52.6180864, "lon": 13.498571}, {"type": "node", "id": 1506573358, "lat": 52.6156647, "lon": 13.4974553}, {"type": "node", "id": 1506573360, "lat": 52.6160949, "lon": 13.4964306}, {"type": "node", "id": 1531384318, "lat": 52.6178319, "lon": 13.4870119, "tags": {"addr:city": "Berlin", "addr:country": "DE", "addr:housenumber": "54", "addr:postcode": "13125", "addr:street": "Achillesstra\u00dfe", "addr:suburb": "Karow", "amenity": "restaurant", "cuisine": "greek", "level": "0", "name": "Zeus", "opening_hours": "Tu-Su 12:00-23:00; PH Mo 12:00-23:00; PH +1 day Tu off \"Montag Ruhetag, au\u00dfer an Feiertagen, dann Dienstag Ruhetag\"", "phone": "+49 30 24355386", "website": "https://www.zeus-karow.de/", "wheelchair": "yes"}}, {"type": "node", "id": 2261408339, "lat": 52.6079352, "lon": 13.4780321, "tags": {"addr:city": "Berlin", "addr:country": "DE", "addr:housenumber": "10", "addr:postcode": "13125", "addr:street": "Blankenburger Chaussee", "addr:suburb": "Karow", "brand": "Lidl", "brand:wikidata": "Q151954", "brand:wikipedia": "en:Lidl", "name": "Lidl", "opening_hours": "Mo-Sa 07:00-21:00; Su off", "phone": "+49 800 4353361", "shop": "supermarket", "website": "https://www.lidl.de/filialen/berlin-pankow/karow-blankenburger-chaussee-10.html", "wheelchair": "yes"}}, {"type": "node", "id": 2316363534, "lat": 52.6221431, "lon": 13.4843708}, {"type": "node", "id": 2316363636, "lat": 52.6221483, "lon": 13.484249}, {"type": "node", "id": 2316363646, "lat": 52.6221932, "lon": 13.4841968}, {"type": "node", "id": 2316494307, "lat": 52.6159679, "lon": 13.486156}, {"type": "node", "id": 2323707525, "lat": 52.6164939, "lon": 13.4716787, "tags": {"addr:city": "Berlin", "addr:country": "DE", "addr:housenumber": "56", "addr:postcode": "13125", "addr:street": "Hubertusdamm", "addr:suburb": "Karow", "brand": "Rewe", "brand:wikidata": "Q16968817", "brand:wikipedia": "en:REWE", "check_date:opening_hours": "2023-04-23", "name": "Rewe", "opening_hours": "Mo-Sa 07:00-22:00; PH off", "phone": "+49 30 94393679", "shop": "supermarket", "wheelchair": "yes"}}, {"type": "node", "id": 2754629378, "lat": 52.6220228, "lon": 13.4820525}, {"type": "node", "id": 2754629379, "lat": 52.6220625, "lon": 13.4820298}, {"type": "node", "id": 2887512101, "lat": 52.613738, "lon": 13.4703802, "tags": {"addr:city": "Berlin", "addr:country": "DE", "addr:housenumber": "4", "addr:postcode": "13125", "addr:street": "Bahnhofstra\u00dfe", "addr:suburb": "Karow", "air_conditioning": "yes", "amenity": "cafe", "indoor_seating": "yes", "name": "Kaffeehaus Madlen", "opening_hours": "We-Mo 09:00-18:00", "outdoor_seating": "yes", "phone": "+49 30 46066919", "toilets:wheelchair": "yes", "website": "http://www.kaffeehaus-madlen.de", "wheelchair": "yes", "wheelchair:description": "verf\u00fcgt \u00fcber ein Behinderten WC"}}, {"type": "node", "id": 2928757440, "lat": 52.6017514, "lon": 13.4707937, "tags": {"addr:city": "Berlin", "addr:country": "DE", "addr:housenumber": "35", "addr:inclusion": "actual", "addr:postcode": "13125", "addr:street": "Blankenburger Chaussee", "addr:suburb": "Karow", "amenity": "doctors", "healthcare": "doctor", "healthcare:speciality": "internal", "name": "Ruthild Gruner", "phone": "+49 30 94380880"}}, {"type": "node", "id": 3149851086, "lat": 52.6103198, "lon": 13.4834628, "tags": {"access": "yes", "leisure": "playground"}}, {"type": "node", "id": 3149851103, "lat": 52.6106406, "lon": 13.4836452, "tags": {"access": "customers", "leisure": "playground"}}, {"type": "node", "id": 3150248663, "lat": 52.6173756, "lon": 13.4899797, "tags": {"amenity": "fast_food", "name": "Antalya"}}, {"type": "node", "id": 3150248675, "lat": 52.6183862, "lon": 13.4876108, "tags": {"amenity": "fast_food", "cuisine": "turkish;pizza;kebab", "diet:vegetarian": "yes", "gambling": "yes", "indoor_seating": "yes", "name": "Antalya II", "outdoor_seating": "sidewalk", "payment:credit_cards": "yes", "payment:debit_cards": "yes", "takeaway": "yes", "wheelchair": "limited"}}, {"type": "node", "id": 3277027555, "lat": 52.6208763, "lon": 13.4832801}, {"type": "node", "id": 3300147636, "lat": 52.6103318, "lon": 13.4974933}, {"type": "node", "id": 3300147637, "lat": 52.6100137, "lon": 13.4982465}, {"type": "node", "id": 3300147638, "lat": 52.6092478, "lon": 13.497973}, {"type": "node", "id": 3300147639, "lat": 52.6096237, "lon": 13.4970843}, {"type": "node", "id": 3300157792, "lat": 52.616322, "lon": 13.4855923, "tags": {"addr:city": "Berlin", "addr:country": "DE", "addr:housenumber": "1-3", "addr:postcode": "13125", "addr:street": "Bucher Chaussee", "addr:suburb": "Karow", "amenity": "pharmacy", "dispensing": "yes", "healthcare": "pharmacy", "name": "Karow Apotheke", "phone": "+49 30 94380913"}}, {"type": "node", "id": 3300157793, "lat": 52.6162986, "lon": 13.4854052, "tags": {"addr:city": "Berlin", "addr:country": "DE", "addr:housenumber": "1-3", "addr:postcode": "13125", "addr:street": "Bucher Chaussee", "addr:suburb": "Karow", "amenity": "doctors", "contact:website": "http://kinderarzt-karow.de/", "healthcare": "doctor", "healthcare:speciality": "paediatrics", "name": "Kinderarztpraxis Karow", "opening_hours": "Mo-Tu,Th 09:00-12:00,15:00-18:00; We 09:00-12:00; Fr 09:00-13:00", "operator": "Dr. Maike Pinkus & Dr. Kristina Kr\u00fcger"}}, {"type": "node", "id": 3300157794, "lat": 52.6163173, "lon": 13.4854599, "tags": {"amenity": "doctors", "healthcare": "doctor", "healthcare:speciality": "gynaecology", "name": "Gyn\u00e4kologe"}}, {"type": "node", "id": 3328474346, "lat": 52.6119717, "lon": 13.4742827, "tags": {"addr:city": "Berlin", "addr:country": "DE", "addr:housenumber": "17A", "addr:postcode": "13125", "addr:street": "Bahnhofstra\u00dfe", "addr:suburb": "Karow", "amenity": "pharmacy", "dispensing": "yes", "healthcare": "pharmacy", "name": "Birken-Apotheke Karow", "opening_hours": "Mo,Tu,Th 08:00-18:30; We,Fr 08:00-18:00; Sa 08:30-13:00", "phone": "+49 (0)30-9430542", "wheelchair": "no"}}, {"type": "node", "id": 3442702061, "lat": 52.6145291, "lon": 13.4703351, "tags": {"amenity": "fast_food", "cuisine": "kebab", "name": "D\u00f6ner", "opening_hours": "Mo-Sa 10:00-20:30; Su 11:30-20:30", "wheelchair": "yes"}}, {"type": "node", "id": 3442710834, "lat": 52.6116633, "lon": 13.4739664, "tags": {"amenity": "clinic", "healthcare": "clinic", "name": "\u00c4rztehaus Karow", "toilets:wheelchair": "no", "wheelchair": "limited"}}, {"type": "node", "id": 3918871260, "lat": 52.6128357, "lon": 13.493289}, {"type": "node", "id": 3918871261, "lat": 52.6124547, "lon": 13.4941892}, {"type": "node", "id": 3918871262, "lat": 52.6122879, "lon": 13.4939989}, {"type": "node", "id": 3918871263, "lat": 52.6126704, "lon": 13.4930968}, {"type": "node", "id": 3918871267, "lat": 52.6110169, "lon": 13.4976742}, {"type": "node", "id": 3918871270, "lat": 52.6109423, "lon": 13.4978486}, {"type": "node", "id": 3918871271, "lat": 52.6106722, "lon": 13.4984856}, {"type": "node", "id": 3918871272, "lat": 52.6105049, "lon": 13.4984203}, {"type": "node", "id": 3918871275, "lat": 52.6110155, "lon": 13.4939248}, {"type": "node", "id": 3918871276, "lat": 52.6118948, "lon": 13.4949277}, {"type": "node", "id": 3918871277, "lat": 52.6121711, "lon": 13.494276}, {"type": "node", "id": 3918871280, "lat": 52.6117289, "lon": 13.4953242}, {"type": "node", "id": 3918871281, "lat": 52.6108503, "lon": 13.4943196}, {"type": "node", "id": 4042062236, "lat": 52.6041924, "lon": 13.4771956}, {"type": "node", "id": 4042062249, "lat": 52.6034455, "lon": 13.4790188}, {"type": "node", "id": 4042062251, "lat": 52.6035784, "lon": 13.4793858}, {"type": "node", "id": 4042062270, "lat": 52.6027682, "lon": 13.4814304}, {"type": "node", "id": 4042062276, "lat": 52.602856, "lon": 13.4811344}, {"type": "node", "id": 4042062281, "lat": 52.6027265, "lon": 13.481431}, {"type": "node", "id": 4042062283, "lat": 52.6042283, "lon": 13.4772412}, {"type": "node", "id": 4406453546, "lat": 52.6134404, "lon": 13.4912797}, {"type": "node", "id": 4721512805, "lat": 52.6213484, "lon": 13.4826221}, {"type": "node", "id": 4741765472, "lat": 52.6157736, "lon": 13.4858933}, {"type": "node", "id": 4741765473, "lat": 52.6158175, "lon": 13.486057}, {"type": "node", "id": 4741765474, "lat": 52.6156854, "lon": 13.4864236}, {"type": "node", "id": 4741765475, "lat": 52.6153614, "lon": 13.4873214}, {"type": "node", "id": 4741765476, "lat": 52.6152666, "lon": 13.4875497}, {"type": "node", "id": 4741765477, "lat": 52.6151966, "lon": 13.487591}, {"type": "node", "id": 4741765478, "lat": 52.6149004, "lon": 13.4874185}, {"type": "node", "id": 4741765479, "lat": 52.6151668, "lon": 13.4864992}, {"type": "node", "id": 4741765481, "lat": 52.6153534, "lon": 13.4858735}, {"type": "node", "id": 4741765482, "lat": 52.6154364, "lon": 13.485599}, {"type": "node", "id": 4741803872, "lat": 52.6090922, "lon": 13.4807467}, {"type": "node", "id": 4741803873, "lat": 52.6091217, "lon": 13.4806791}, {"type": "node", "id": 4741803874, "lat": 52.6091716, "lon": 13.4807382}, {"type": "node", "id": 4916221574, "lat": 52.6170223, "lon": 13.4892379, "tags": {"addr:city": "Berlin", "addr:housenumber": "64", "addr:postcode": "13125", "addr:street": "Achillesstra\u00dfe", "description": "Podologische Praxisgemeinschaft in der Karower Achillesstra\u00dfe bietet fachkundige Beratungen sowie Leistungen im Spezialgebiet der medizinisch-therapeutischen Fu\u00dfpflege an: Pr\u00e4vention, Pflege und Behandlungen.", "email": "kontakt@podologie-karow.de", "fax": "+49 30 26589489", "healthcare": "podiatrist", "level": "0", "name": "Barfu\u00df - Podologische Gemeinschaftspraxis", "phone": "+49 30 26589490", "source": "https://podologie-karow.de", "start_date": "03/2017", "website": "https://podologie-karow.de", "wheelchair": "yes"}}, {"type": "node", "id": 4959610498, "lat": 52.6000481, "lon": 13.4926392}, {"type": "node", "id": 4959610502, "lat": 52.6041885, "lon": 13.4980253}, {"type": "node", "id": 4959610503, "lat": 52.6011703, "lon": 13.4954214}, {"type": "node", "id": 4959610504, "lat": 52.6010973, "lon": 13.4953732}, {"type": "node", "id": 4959610505, "lat": 52.6010303, "lon": 13.4953887}, {"type": "node", "id": 4959610506, "lat": 52.6009642, "lon": 13.4954682}, {"type": "node", "id": 4959610507, "lat": 52.6005118, "lon": 13.4965154}, {"type": "node", "id": 4959610508, "lat": 52.6004694, "lon": 13.4966645}, {"type": "node", "id": 4959610509, "lat": 52.6004496, "lon": 13.4967953}, {"type": "node", "id": 4959610510, "lat": 52.6001309, "lon": 13.4971787}, {"type": "node", "id": 4959610511, "lat": 52.6000784, "lon": 13.4970615}, {"type": "node", "id": 4959610512, "lat": 52.5999996, "lon": 13.4969826}, {"type": "node", "id": 4959610513, "lat": 52.5989521, "lon": 13.4959912}, {"type": "node", "id": 4959610514, "lat": 52.5992201, "lon": 13.4937358}, {"type": "node", "id": 4959610515, "lat": 52.5991994, "lon": 13.4936712}, {"type": "node", "id": 4959610516, "lat": 52.6001668, "lon": 13.4915561}, {"type": "node", "id": 4959610517, "lat": 52.6021762, "lon": 13.4936641}, {"type": "node", "id": 4959610518, "lat": 52.6021556, "lon": 13.4936813}, {"type": "node", "id": 4959610519, "lat": 52.6027166, "lon": 13.4944748}, {"type": "node", "id": 4959610520, "lat": 52.6035328, "lon": 13.4952113}, {"type": "node", "id": 4959611321, "lat": 52.6042507, "lon": 13.4960379}, {"type": "node", "id": 4959611322, "lat": 52.6050276, "lon": 13.4966639}, {"type": "node", "id": 4959611323, "lat": 52.6051554, "lon": 13.498979}, {"type": "node", "id": 4959611325, "lat": 52.6033209, "lon": 13.5002883}, {"type": "node", "id": 4959611327, "lat": 52.6010262, "lon": 13.4953823}, {"type": "node", "id": 4959611328, "lat": 52.6004497, "lon": 13.4969099}, {"type": "node", "id": 4959611329, "lat": 52.6005247, "lon": 13.4982763}, {"type": "node", "id": 4959611330, "lat": 52.6003846, "lon": 13.4983406}, {"type": "node", "id": 4959611331, "lat": 52.5999241, "lon": 13.4969543}, {"type": "node", "id": 4959611332, "lat": 52.5991401, "lon": 13.4970495}, {"type": "node", "id": 4959611333, "lat": 52.5989576, "lon": 13.4957904}, {"type": "node", "id": 4959611334, "lat": 52.5992414, "lon": 13.4935102}, {"type": "node", "id": 4959611335, "lat": 52.5998315, "lon": 13.4924208}, {"type": "node", "id": 5100098646, "lat": 52.6145142, "lon": 13.4694099, "tags": {"amenity": "fast_food", "name": "Asia Imbiss"}}, {"type": "node", "id": 5669101033, "lat": 52.6004968, "lon": 13.4919023}, {"type": "node", "id": 5678201524, "lat": 52.6091421, "lon": 13.4808059}, {"type": "node", "id": 5760339098, "lat": 52.6111336, "lon": 13.482248, "tags": {"healthcare": "physiotherapist", "name": "Kristin Auert"}}, {"type": "node", "id": 6208202335, "lat": 52.6118524, "lon": 13.4925738}, {"type": "node", "id": 6208202336, "lat": 52.6119957, "lon": 13.4927408}, {"type": "node", "id": 6208202337, "lat": 52.6118446, "lon": 13.4930922}, {"type": "node", "id": 6208779561, "lat": 52.6124168, "lon": 13.4725906}, {"type": "node", "id": 6417369831, "lat": 52.6114705, "lon": 13.4959362}, {"type": "node", "id": 7366729223, "lat": 52.6204143, "lon": 13.4825565}, {"type": "node", "id": 7366729234, "lat": 52.6192377, "lon": 13.4818517}, {"type": "node", "id": 7366729237, "lat": 52.6210042, "lon": 13.4826897}, {"type": "node", "id": 7366729238, "lat": 52.6213042, "lon": 13.4825069}, {"type": "node", "id": 7366729239, "lat": 52.6217057, "lon": 13.481997}, {"type": "node", "id": 7366729240, "lat": 52.6210561, "lon": 13.4838923}, {"type": "node", "id": 7366729241, "lat": 52.6211706, "lon": 13.4839183}, {"type": "node", "id": 7366729242, "lat": 52.6212195, "lon": 13.483911}, {"type": "node", "id": 7366729243, "lat": 52.6213326, "lon": 13.4838496}, {"type": "node", "id": 7366749259, "lat": 52.6220897, "lon": 13.4822869}, {"type": "node", "id": 7366749260, "lat": 52.6219479, "lon": 13.4824584}, {"type": "node", "id": 7366749261, "lat": 52.6217938, "lon": 13.4827319}, {"type": "node", "id": 7366749262, "lat": 52.6217353, "lon": 13.4828666}, {"type": "node", "id": 7366749263, "lat": 52.6216614, "lon": 13.4830789}, {"type": "node", "id": 7366821837, "lat": 52.6211216, "lon": 13.4799563}, {"type": "node", "id": 7366821838, "lat": 52.6211079, "lon": 13.4800688}, {"type": "node", "id": 7366821839, "lat": 52.6205218, "lon": 13.4808444}, {"type": "node", "id": 7366821840, "lat": 52.6204604, "lon": 13.4808342}, {"type": "node", "id": 7366821841, "lat": 52.6203108, "lon": 13.4805321}, {"type": "node", "id": 7366821842, "lat": 52.6210005, "lon": 13.4796028}, {"type": "node", "id": 7366821897, "lat": 52.6188658, "lon": 13.4860442}, {"type": "node", "id": 7366821898, "lat": 52.6188292, "lon": 13.4860583}, {"type": "node", "id": 7366821899, "lat": 52.6186961, "lon": 13.4859303}, {"type": "node", "id": 7366821900, "lat": 52.6186887, "lon": 13.4858711}, {"type": "node", "id": 7366821901, "lat": 52.6196515, "lon": 13.4835956}, {"type": "node", "id": 7366821902, "lat": 52.6198268, "lon": 13.4837711}, {"type": "node", "id": 7368799875, "lat": 52.6169074, "lon": 13.4947199}, {"type": "node", "id": 7427790207, "lat": 52.6166355, "lon": 13.4860687, "tags": {"addr:city": "Berlin", "addr:country": "DE", "addr:housenumber": "5", "addr:postcode": "13125", "addr:street": "Bucher Chaussee", "addr:suburb": "Karow", "amenity": "restaurant", "cuisine": "italian", "diet:vegan": "no", "diet:vegetarian": "yes", "email": "info@buongusto-berlin.de", "name": "Buon Gusto", "opening_hours": "12:00-23:00", "opening_hours:covid19": "12:00-20:00", "phone": "+49 30 81813515", "website": "https://www.buongusto-berlin.de/", "website:menu": "https://www.buongusto-berlin.de/static/img/speisekarte/buon-gusto-karow-speisekarte.pdf"}}, {"type": "node", "id": 7623970719, "lat": 52.6153063, "lon": 13.4706867, "tags": {"amenity": "fast_food", "indoor_seating": "yes", "name": "Burger Karow Pizza", "opening_hours": "PH,Mo-Su 10:00-22:00", "outdoor_seating": "yes", "phone": "+49 30 61643042", "smoking": "outside", "website": "https://karow-doener-pizza-burger-berlin.de", "wheelchair": "yes"}}, {"type": "node", "id": 7797262066, "lat": 52.6047625, "lon": 13.479069}, {"type": "node", "id": 7797262067, "lat": 52.6045264, "lon": 13.4796202}, {"type": "node", "id": 7797262069, "lat": 52.6043543, "lon": 13.4785653}, {"type": "node", "id": 7797312893, "lat": 52.6125557, "lon": 13.47316}, {"type": "node", "id": 7807717440, "lat": 52.6173556, "lon": 13.4975293}, {"type": "node", "id": 7807717475, "lat": 52.6181046, "lon": 13.4969347}, {"type": "node", "id": 7810556353, "lat": 52.616942, "lon": 13.4960374}, {"type": "node", "id": 7810556354, "lat": 52.6173364, "lon": 13.49746}, {"type": "node", "id": 7810556363, "lat": 52.6129404, "lon": 13.4998048}, {"type": "node", "id": 7810565997, "lat": 52.6146506, "lon": 13.4971507}, {"type": "node", "id": 7810566020, "lat": 52.6170393, "lon": 13.4944898}, {"type": "node", "id": 7810566021, "lat": 52.6169241, "lon": 13.4959731}, {"type": "node", "id": 7810566164, "lat": 52.6131923, "lon": 13.4988549}, {"type": "node", "id": 7810566274, "lat": 52.6151496, "lon": 13.4878253}, {"type": "node", "id": 7810566311, "lat": 52.6150487, "lon": 13.4917483}, {"type": "node", "id": 7810566312, "lat": 52.6152649, "lon": 13.4919968}, {"type": "node", "id": 7810566313, "lat": 52.6147437, "lon": 13.4932277}, {"type": "node", "id": 7810566314, "lat": 52.6145254, "lon": 13.4929804}, {"type": "node", "id": 7887764487, "lat": 52.6157405, "lon": 13.4975423}, {"type": "node", "id": 7887780892, "lat": 52.6126372, "lon": 13.4970997}, {"type": "node", "id": 7887780893, "lat": 52.612151, "lon": 13.4982544}, {"type": "node", "id": 7887780898, "lat": 52.6116763, "lon": 13.4979795}, {"type": "node", "id": 7887780899, "lat": 52.6122424, "lon": 13.4966467}, {"type": "node", "id": 7887780900, "lat": 52.6123009, "lon": 13.4966303}, {"type": "node", "id": 7887780901, "lat": 52.6126217, "lon": 13.4969951}, {"type": "node", "id": 7887780904, "lat": 52.6132753, "lon": 13.4991412}, {"type": "node", "id": 7887780905, "lat": 52.6132129, "lon": 13.4991623}, {"type": "node", "id": 7887780907, "lat": 52.6137008, "lon": 13.4993885}, {"type": "node", "id": 7887780908, "lat": 52.6133106, "lon": 13.4990557}, {"type": "node", "id": 7887780909, "lat": 52.6132956, "lon": 13.4989699}, {"type": "node", "id": 7887780910, "lat": 52.6142674, "lon": 13.4966692}, {"type": "node", "id": 7887780911, "lat": 52.6143309, "lon": 13.4967423}, {"type": "node", "id": 7887780912, "lat": 52.6145243, "lon": 13.4962817}, {"type": "node", "id": 7887780914, "lat": 52.6148553, "lon": 13.4966605}, {"type": "node", "id": 7887780917, "lat": 52.613739, "lon": 13.4992978}, {"type": "node", "id": 8503980120, "lat": 52.6104279, "lon": 13.4983942}, {"type": "node", "id": 8503980121, "lat": 52.6107148, "lon": 13.4977159}, {"type": "node", "id": 8648183039, "lat": 52.6129669, "lon": 13.4987242}, {"type": "node", "id": 8746887122, "lat": 52.6129589, "lon": 13.4913062}, {"type": "node", "id": 8746887123, "lat": 52.6131091, "lon": 13.4914805}, {"type": "node", "id": 8746887124, "lat": 52.613035, "lon": 13.4916555}, {"type": "node", "id": 8746887125, "lat": 52.6128672, "lon": 13.4915227}, {"type": "node", "id": 9066175879, "lat": 52.6123004, "lon": 13.4728476}, {"type": "node", "id": 9066175880, "lat": 52.6124451, "lon": 13.4725277}, {"type": "node", "id": 9066175881, "lat": 52.612703, "lon": 13.472837}, {"type": "node", "id": 9177391632, "lat": 52.6227858, "lon": 13.4851032}, {"type": "node", "id": 9177391633, "lat": 52.6227271, "lon": 13.4850962}, {"type": "node", "id": 9177391634, "lat": 52.6228361, "lon": 13.4848569}, {"type": "node", "id": 9177391635, "lat": 52.6226056, "lon": 13.4850237}, {"type": "node", "id": 9177391636, "lat": 52.6221371, "lon": 13.4843041}, {"type": "node", "id": 9177391637, "lat": 52.6221677, "lon": 13.4842196}, {"type": "node", "id": 9202256349, "lat": 52.6115578, "lon": 13.4822518, "tags": {"addr:city": "Berlin", "addr:housenumber": "26", "addr:postcode": "13125", "addr:street": "Frundsbergstra\u00dfe", "amenity": "doctors", "contact:phone": "+49 30 94796070", "healthcare": "doctor", "healthcare:speciality": "orthopaedics;surgery", "name": "Orthoplus Berlin Dr. med. Christoph Willimski", "old_name": "Chirurgische Praxis Uwe Gabriel"}}, {"type": "node", "id": 9204620167, "lat": 52.6165109, "lon": 13.4859093, "tags": {"addr:city": "Berlin", "addr:country": "DE", "addr:housenumber": "5", "addr:postcode": "13125", "addr:street": "Bucher Chaussee", "amenity": "dentist", "contact:phone": "+49 30 9416661", "healthcare": "dentist", "healthcare:speciality": "orthodontics", "name": "Dr. med. Kerstin Hanig - Fachzahn\u00e4rztin f\u00fcr Kieferorthop\u00e4die"}}, {"type": "node", "id": 9245553763, "lat": 52.6142069, "lon": 13.4894656}, {"type": "node", "id": 9391223585, "lat": 52.6037142, "lon": 13.4998568}, {"type": "node", "id": 9391223588, "lat": 52.6039687, "lon": 13.4956949}, {"type": "node", "id": 9391223589, "lat": 52.6044758, "lon": 13.4945116}, {"type": "node", "id": 9391223590, "lat": 52.6040377, "lon": 13.4940511}, {"type": "node", "id": 9562685389, "lat": 52.6044354, "lon": 13.4946125}, {"type": "node", "id": 9581030538, "lat": 52.6216009, "lon": 13.4825785}, {"type": "node", "id": 9667915323, "lat": 52.5995494, "lon": 13.4931613}, {"type": "node", "id": 10749931146, "lat": 52.6176421, "lon": 13.4952904}, {"type": "node", "id": 10749931147, "lat": 52.6173515, "lon": 13.4948403}, {"type": "node", "id": 10833663422, "lat": 52.6134502, "lon": 13.4717773, "tags": {"healthcare": "physiotherapist", "healthcare:speciality": "occupational", "name": "Spektrum Praxis"}}, {"type": "node", "id": 10959250676, "lat": 52.6142511, "lon": 13.4967044}, {"type": "node", "id": 10959250679, "lat": 52.6140911, "lon": 13.4970841}, {"type": "node", "id": 10959250680, "lat": 52.6140722, "lon": 13.4971289}, {"type": "node", "id": 10959250683, "lat": 52.6139073, "lon": 13.4975204}, {"type": "node", "id": 10959250687, "lat": 52.6136912, "lon": 13.4980332}, {"type": "node", "id": 10959250689, "lat": 52.6136722, "lon": 13.4980782}, {"type": "node", "id": 10959250690, "lat": 52.6133539, "lon": 13.4988336}, {"type": "node", "id": 10959259890, "lat": 52.6134272, "lon": 13.4901911}, {"type": "node", "id": 10959259891, "lat": 52.6137455, "lon": 13.4905566}, {"type": "node", "id": 10959259918, "lat": 52.6124733, "lon": 13.4941467}, {"type": "node", "id": 10959259921, "lat": 52.6128281, "lon": 13.4933046}, {"type": "node", "id": 10959260121, "lat": 52.6119232, "lon": 13.4955335}, {"type": "node", "id": 10959260124, "lat": 52.6107937, "lon": 13.4975442}, {"type": "node", "id": 10959260127, "lat": 52.6134053, "lon": 13.5000947}, {"type": "node", "id": 10959292174, "lat": 52.6130747, "lon": 13.4984708}, {"type": "node", "id": 10959292175, "lat": 52.6132689, "lon": 13.4986737}, {"type": "node", "id": 11008120202, "lat": 52.6191993, "lon": 13.481956}, {"type": "node", "id": 11008120203, "lat": 52.6184358, "lon": 13.481185}, {"type": "node", "id": 11008120204, "lat": 52.618478, "lon": 13.4810808}, {"type": "node", "id": 11008137205, "lat": 52.618601, "lon": 13.4809168}, {"type": "node", "id": 11008137206, "lat": 52.6193676, "lon": 13.4816878}, {"type": "node", "id": 11008137207, "lat": 52.6194735, "lon": 13.4817033}, {"type": "node", "id": 11008137208, "lat": 52.6194542, "lon": 13.4817532}, {"type": "node", "id": 11008137209, "lat": 52.6201254, "lon": 13.4823707}, {"type": "node", "id": 11008137210, "lat": 52.6200598, "lon": 13.4824594}, {"type": "node", "id": 11008137211, "lat": 52.6199497, "lon": 13.4827257}, {"type": "node", "id": 11008137212, "lat": 52.619432, "lon": 13.4821739}, {"type": "node", "id": 11008137213, "lat": 52.6194087, "lon": 13.4822363}, {"type": "node", "id": 11013474291, "lat": 52.6049527, "lon": 13.4801208}, {"type": "node", "id": 11013474292, "lat": 52.6051971, "lon": 13.4795415}, {"type": "node", "id": 11013474293, "lat": 52.6043678, "lon": 13.4785332}, {"type": "node", "id": 11013474294, "lat": 52.6046445, "lon": 13.4788409}, {"type": "node", "id": 11013507316, "lat": 52.6135802, "lon": 13.4898298}, {"type": "node", "id": 11013507319, "lat": 52.6135771, "lon": 13.487867}, {"type": "node", "id": 11013507320, "lat": 52.613704, "lon": 13.487569}, {"type": "node", "id": 11016392036, "lat": 52.6066463, "lon": 13.4759526}, {"type": "node", "id": 11016392037, "lat": 52.6067686, "lon": 13.4756629}, {"type": "node", "id": 11016392038, "lat": 52.6064653, "lon": 13.4751949}, {"type": "node", "id": 11016392039, "lat": 52.606158, "lon": 13.4746993}, {"type": "node", "id": 11016392040, "lat": 52.6060282, "lon": 13.4749826}, {"type": "node", "id": 11016392041, "lat": 52.6063401, "lon": 13.4754867}, {"type": "node", "id": 11135664497, "lat": 52.6133795, "lon": 13.4732423, "tags": {"amenity": "dentist", "healthcare": "dentist", "name": "Zahnarztpraxis Kerstin Hillenberg"}}, {"type": "node", "id": 11373936526, "lat": 52.61792, "lon": 13.4981165}, {"type": "node", "id": 11373936527, "lat": 52.6178387, "lon": 13.49818}, {"type": "node", "id": 11373936528, "lat": 52.6178006, "lon": 13.4980425}, {"type": "node", "id": 11373936529, "lat": 52.6178832, "lon": 13.4979826}, {"type": "node", "id": 11373936530, "lat": 52.61767, "lon": 13.497915}, {"type": "node", "id": 11373936531, "lat": 52.6176231, "lon": 13.4979501}, {"type": "node", "id": 11373936532, "lat": 52.6176016, "lon": 13.4978722}, {"type": "node", "id": 11373936533, "lat": 52.6176485, "lon": 13.4978371}, {"type": "node", "id": 11747858493, "lat": 52.6154129, "lon": 13.4856774}, {"type": "node", "id": 11747858495, "lat": 52.6157476, "lon": 13.486}, {"type": "node", "id": 11747858496, "lat": 52.6157843, "lon": 13.4859271}, {"type": "node", "id": 11961219590, "lat": 52.6141296, "lon": 13.4919317}, {"type": "node", "id": 11961219591, "lat": 52.6142304, "lon": 13.4920398}, {"type": "node", "id": 11961219592, "lat": 52.6142937, "lon": 13.4920445}, {"type": "node", "id": 11961219593, "lat": 52.6143461, "lon": 13.4920142}, {"type": "node", "id": 11961219594, "lat": 52.6144296, "lon": 13.4919175}, {"type": "node", "id": 11961219595, "lat": 52.6144353, "lon": 13.4918207}, {"type": "node", "id": 11961219596, "lat": 52.6143484, "lon": 13.4918568}, {"type": "node", "id": 11961219597, "lat": 52.6142747, "lon": 13.4918966}, {"type": "node", "id": 11961219598, "lat": 52.6142327, "lon": 13.4918805}, {"type": "node", "id": 11961219599, "lat": 52.6142079, "lon": 13.4918549}, {"type": "node", "id": 11961219600, "lat": 52.6141947, "lon": 13.4918226}, {"type": "node", "id": 11961219601, "lat": 52.6141808, "lon": 13.4918226}, {"type": "node", "id": 11961219604, "lat": 52.6148908, "lon": 13.4903816}, {"type": "node", "id": 11961219605, "lat": 52.6149237, "lon": 13.4904527}, {"type": "node", "id": 11961219606, "lat": 52.6149641, "lon": 13.4904549}, {"type": "node", "id": 11961219607, "lat": 52.6149839, "lon": 13.490403}, {"type": "node", "id": 11961219608, "lat": 52.6150079, "lon": 13.4904267}, {"type": "node", "id": 11961219609, "lat": 52.6150038, "lon": 13.4903444}, {"type": "node", "id": 11961219610, "lat": 52.6150387, "lon": 13.4903027}, {"type": "node", "id": 11961219611, "lat": 52.6150298, "lon": 13.4902158}, {"type": "node", "id": 11961219612, "lat": 52.6150298, "lon": 13.4901651}, {"type": "node", "id": 11961219613, "lat": 52.6149846, "lon": 13.4901516}, {"type": "node", "id": 11961219614, "lat": 52.614897, "lon": 13.4899646}, {"type": "node", "id": 11961219615, "lat": 52.6148318, "lon": 13.4898924}, {"type": "node", "id": 11961219616, "lat": 52.6148762, "lon": 13.4897834}, {"type": "node", "id": 11961219617, "lat": 52.6149415, "lon": 13.4898556}, {"type": "node", "id": 11961219620, "lat": 52.6155765, "lon": 13.4887252}, {"type": "node", "id": 11961219621, "lat": 52.6155717, "lon": 13.4887805}, {"type": "node", "id": 11961219622, "lat": 52.6155532, "lon": 13.4888188}, {"type": "node", "id": 11961219623, "lat": 52.6155292, "lon": 13.4888448}, {"type": "node", "id": 11961219624, "lat": 52.615495, "lon": 13.4888707}, {"type": "node", "id": 11961219625, "lat": 52.6154827, "lon": 13.4888764}, {"type": "node", "id": 11961219626, "lat": 52.6154785, "lon": 13.4888899}, {"type": "node", "id": 11961219627, "lat": 52.6154984, "lon": 13.4889147}, {"type": "node", "id": 11961219628, "lat": 52.6154984, "lon": 13.4889406}, {"type": "node", "id": 11961219629, "lat": 52.6155094, "lon": 13.48897}, {"type": "node", "id": 11961219630, "lat": 52.615521, "lon": 13.4889779}, {"type": "node", "id": 11961219631, "lat": 52.6155422, "lon": 13.4889756}, {"type": "node", "id": 11961219632, "lat": 52.6155648, "lon": 13.4889857}, {"type": "node", "id": 11961219633, "lat": 52.6155744, "lon": 13.4889801}, {"type": "node", "id": 11961219634, "lat": 52.6155799, "lon": 13.4889542}, {"type": "node", "id": 11961219635, "lat": 52.6156011, "lon": 13.4889102}, {"type": "node", "id": 11961219636, "lat": 52.6156216, "lon": 13.4888921}, {"type": "node", "id": 11961219637, "lat": 52.6156422, "lon": 13.4888899}, {"type": "node", "id": 11961219638, "lat": 52.6156538, "lon": 13.4888673}, {"type": "node", "id": 11961219639, "lat": 52.6156326, "lon": 13.488829}, {"type": "node", "id": 11961219640, "lat": 52.6156299, "lon": 13.4887985}, {"type": "node", "id": 11961219641, "lat": 52.6156395, "lon": 13.488767}, {"type": "node", "id": 11971222725, "lat": 52.6038623, "lon": 13.4996437}, {"type": "node", "id": 11971222726, "lat": 52.6039955, "lon": 13.4994044}, {"type": "node", "id": 11971222727, "lat": 52.6041092, "lon": 13.4991371}, {"type": "node", "id": 11971222728, "lat": 52.6042112, "lon": 13.4988003}, {"type": "node", "id": 11971222729, "lat": 52.6043616, "lon": 13.4981546}, {"type": "node", "id": 11971541946, "lat": 52.6140098, "lon": 13.4953123}, {"type": "node", "id": 11971541947, "lat": 52.6139177, "lon": 13.495208}, {"type": "node", "id": 11971541948, "lat": 52.6138745, "lon": 13.4953104}, {"type": "node", "id": 11971541949, "lat": 52.6139661, "lon": 13.4954138}, {"type": "node", "id": 11971541959, "lat": 52.6142295, "lon": 13.4953466}, {"type": "node", "id": 11971541960, "lat": 52.6141598, "lon": 13.4952726}, {"type": "node", "id": 11971541961, "lat": 52.6141477, "lon": 13.4952318}, {"type": "node", "id": 11971541962, "lat": 52.6140861, "lon": 13.495156}, {"type": "node", "id": 11971541963, "lat": 52.6141385, "lon": 13.495028}, {"type": "node", "id": 11971541964, "lat": 52.6142024, "lon": 13.4951029}, {"type": "node", "id": 11971541965, "lat": 52.6141834, "lon": 13.495156}, {"type": "node", "id": 11971541966, "lat": 52.6142681, "lon": 13.4952489}, {"type": "node", "id": 11971716537, "lat": 52.6162703, "lon": 13.4888599}, {"type": "node", "id": 11971752281, "lat": 52.6152668, "lon": 13.4934547}, {"type": "node", "id": 11971752282, "lat": 52.6150204, "lon": 13.4931796}, {"type": "node", "id": 11971752283, "lat": 52.6153308, "lon": 13.4924338}, {"type": "node", "id": 11971752284, "lat": 52.6155727, "lon": 13.492705}, {"type": "node", "id": 11971752292, "lat": 52.616263, "lon": 13.4904957}, {"type": "node", "id": 11971752293, "lat": 52.6162736, "lon": 13.4904783}, {"type": "node", "id": 11971752294, "lat": 52.6162804, "lon": 13.4904564}, {"type": "node", "id": 11971752295, "lat": 52.6162826, "lon": 13.490432}, {"type": "node", "id": 11971752296, "lat": 52.6162801, "lon": 13.4904077}, {"type": "node", "id": 11971752297, "lat": 52.6162731, "lon": 13.490386}, {"type": "node", "id": 11971752298, "lat": 52.6162623, "lon": 13.490369}, {"type": "node", "id": 11971752299, "lat": 52.6162063, "lon": 13.490372}, {"type": "node", "id": 11971752300, "lat": 52.6161956, "lon": 13.4903918}, {"type": "node", "id": 11971752301, "lat": 52.6161896, "lon": 13.4904164}, {"type": "node", "id": 11971752302, "lat": 52.6161889, "lon": 13.4904429}, {"type": "node", "id": 11971752303, "lat": 52.6161937, "lon": 13.4904682}, {"type": "node", "id": 11971752304, "lat": 52.6162034, "lon": 13.4904893}, {"type": "node", "id": 11971752305, "lat": 52.6162169, "lon": 13.4905039}, {"type": "node", "id": 11971752306, "lat": 52.6162488, "lon": 13.4903584}, {"type": "node", "id": 11971752307, "lat": 52.616234, "lon": 13.4903553}, {"type": "node", "id": 11971752308, "lat": 52.6162193, "lon": 13.49036}, {"type": "node", "id": 11971752309, "lat": 52.6162325, "lon": 13.4905101}, {"type": "node", "id": 11971752310, "lat": 52.6162485, "lon": 13.4905072}, {"type": "node", "id": 11971752311, "lat": 52.6156165, "lon": 13.4912652}, {"type": "node", "id": 11971752312, "lat": 52.6157259, "lon": 13.4912301}, {"type": "node", "id": 11971752313, "lat": 52.6157109, "lon": 13.4911059}, {"type": "node", "id": 11971752314, "lat": 52.6156798, "lon": 13.4911144}, {"type": "node", "id": 11971752315, "lat": 52.6148877, "lon": 13.494193}, {"type": "node", "id": 11971752316, "lat": 52.6147483, "lon": 13.4942225}, {"type": "node", "id": 11971752317, "lat": 52.6147647, "lon": 13.4942871}, {"type": "node", "id": 11971752318, "lat": 52.6147904, "lon": 13.4943094}, {"type": "node", "id": 11971752319, "lat": 52.6148219, "lon": 13.4943174}, {"type": "node", "id": 11971752320, "lat": 52.6148519, "lon": 13.4943102}, {"type": "node", "id": 11971752321, "lat": 52.61488, "lon": 13.4942568}, {"type": "node", "id": 11972314886, "lat": 52.6123644, "lon": 13.4944941}, {"type": "node", "id": 11972490176, "lat": 52.6109574, "lon": 13.4814799}, {"type": "node", "id": 11972490177, "lat": 52.6109256, "lon": 13.4815923}, {"type": "node", "id": 11972490178, "lat": 52.6110497, "lon": 13.4816876}, {"type": "node", "id": 11972490179, "lat": 52.6110815, "lon": 13.4815752}, {"type": "node", "id": 11973886068, "lat": 52.6129068, "lon": 13.4957028}, {"type": "node", "id": 11973901869, "lat": 52.6129047, "lon": 13.495621}, {"type": "node", "id": 11973901870, "lat": 52.6128559, "lon": 13.4954641}, {"type": "node", "id": 11973901871, "lat": 52.6128135, "lon": 13.4953829}, {"type": "node", "id": 11973901872, "lat": 52.6127805, "lon": 13.495336}, {"type": "node", "id": 11973901873, "lat": 52.6127484, "lon": 13.4953407}, {"type": "node", "id": 11973901874, "lat": 52.6127219, "lon": 13.4953796}, {"type": "node", "id": 11973901875, "lat": 52.612691, "lon": 13.4954688}, {"type": "node", "id": 11974448115, "lat": 52.61308, "lon": 13.4943806}, {"type": "node", "id": 11974448116, "lat": 52.6132055, "lon": 13.4943455}, {"type": "node", "id": 11974448117, "lat": 52.6131272, "lon": 13.4941948}, {"type": "node", "id": 11974448119, "lat": 52.6117404, "lon": 13.4952951}, {"type": "node", "id": 11974448120, "lat": 52.611717, "lon": 13.4952666}, {"type": "node", "id": 11974448121, "lat": 52.6117059, "lon": 13.495217}, {"type": "node", "id": 11974448122, "lat": 52.6117038, "lon": 13.4951725}, {"type": "node", "id": 11974448123, "lat": 52.6117086, "lon": 13.4951389}, {"type": "node", "id": 11974448124, "lat": 52.611717, "lon": 13.4951046}, {"type": "node", "id": 11974448125, "lat": 52.6117268, "lon": 13.4950788}, {"type": "node", "id": 11974448126, "lat": 52.6118669, "lon": 13.4949969}, {"type": "node", "id": 11974448127, "lat": 52.6118531, "lon": 13.4950033}, {"type": "node", "id": 11974448128, "lat": 52.6118314, "lon": 13.4950039}, {"type": "node", "id": 11974448129, "lat": 52.6118042, "lon": 13.4950068}, {"type": "node", "id": 11974448130, "lat": 52.6117786, "lon": 13.4950187}, {"type": "node", "id": 11974448131, "lat": 52.61176, "lon": 13.4950362}, {"type": "node", "id": 11974448132, "lat": 52.6117447, "lon": 13.4950538}, {"type": "node", "id": 11974559084, "lat": 52.6141479, "lon": 13.4882247}, {"type": "node", "id": 11974559085, "lat": 52.6141169, "lon": 13.4883148}, {"type": "node", "id": 11974559086, "lat": 52.6139629, "lon": 13.4881641}, {"type": "node", "id": 11974559087, "lat": 52.613975, "lon": 13.4881011}, {"type": "node", "id": 11974559088, "lat": 52.6139242, "lon": 13.4880692}, {"type": "node", "id": 11974559089, "lat": 52.6139518, "lon": 13.4880038}, {"type": "node", "id": 11974559090, "lat": 52.6143624, "lon": 13.4884735}, {"type": "node", "id": 11974559091, "lat": 52.6143367, "lon": 13.4885429}, {"type": "node", "id": 11974559092, "lat": 52.6142123, "lon": 13.4884169}, {"type": "node", "id": 11974559093, "lat": 52.6142423, "lon": 13.4883388}, {"type": "node", "id": 11975126509, "lat": 52.6213584, "lon": 13.4819869}, {"type": "node", "id": 11975126510, "lat": 52.621336, "lon": 13.4819425}, {"type": "node", "id": 11975126511, "lat": 52.6213637, "lon": 13.4819045}, {"type": "node", "id": 11975126512, "lat": 52.6213862, "lon": 13.4819489}, {"type": "node", "id": 11975126520, "lat": 52.6216098, "lon": 13.481655}, {"type": "node", "id": 11975126521, "lat": 52.6215874, "lon": 13.4816106}, {"type": "node", "id": 11975126522, "lat": 52.6216152, "lon": 13.4815726}, {"type": "node", "id": 11975126523, "lat": 52.6216376, "lon": 13.481617}, {"type": "node", "id": 11975551727, "lat": 52.6219415, "lon": 13.4865772}, {"type": "node", "id": 11975551728, "lat": 52.6218454, "lon": 13.4864677}, {"type": "node", "id": 11975551729, "lat": 52.6217767, "lon": 13.4866314}, {"type": "node", "id": 11975551730, "lat": 52.6218727, "lon": 13.4867409}, {"type": "node", "id": 11975928409, "lat": 52.6193825, "lon": 13.4848221}, {"type": "node", "id": 11975928410, "lat": 52.6198153, "lon": 13.4837982}, {"type": "node", "id": 11975928413, "lat": 52.6193699, "lon": 13.4848518}, {"type": "node", "id": 11975928414, "lat": 52.6193112, "lon": 13.4849907}, {"type": "node", "id": 11975928423, "lat": 52.6193002, "lon": 13.4850168}, {"type": "node", "id": 11976252503, "lat": 52.6246303, "lon": 13.4824664}, {"type": "node", "id": 11976252504, "lat": 52.6244717, "lon": 13.4822827}, {"type": "node", "id": 11976252505, "lat": 52.6245087, "lon": 13.4821959}, {"type": "node", "id": 11976252506, "lat": 52.6246673, "lon": 13.4823796}, {"type": "node", "id": 11976252509, "lat": 52.6239395, "lon": 13.4818247}, {"type": "node", "id": 11976252510, "lat": 52.6239056, "lon": 13.4819054}, {"type": "node", "id": 11976252511, "lat": 52.6238566, "lon": 13.4818513}, {"type": "node", "id": 11976252512, "lat": 52.6238912, "lon": 13.4817707}, {"type": "node", "id": 11976252513, "lat": 52.623396, "lon": 13.4831015}, {"type": "node", "id": 11976252514, "lat": 52.6232953, "lon": 13.4829925}, {"type": "node", "id": 11976252515, "lat": 52.6233563, "lon": 13.4828436}, {"type": "node", "id": 11976252516, "lat": 52.6234069, "lon": 13.4829014}, {"type": "node", "id": 11976252517, "lat": 52.6234271, "lon": 13.4830266}, {"type": "node", "id": 11980023969, "lat": 52.6126405, "lon": 13.4926082}, {"type": "node", "id": 11980023970, "lat": 52.6126092, "lon": 13.4925719}, {"type": "node", "id": 11980023971, "lat": 52.6125651, "lon": 13.4926751}, {"type": "node", "id": 11980023972, "lat": 52.6125963, "lon": 13.4927113}, {"type": "node", "id": 11980023974, "lat": 52.6126752, "lon": 13.4924482}, {"type": "node", "id": 11980023975, "lat": 52.6126486, "lon": 13.4924171}, {"type": "node", "id": 11980023976, "lat": 52.6126278, "lon": 13.4924618}, {"type": "node", "id": 11980023977, "lat": 52.6126563, "lon": 13.4924969}, {"type": "node", "id": 11980023984, "lat": 52.6117684, "lon": 13.4946014}, {"type": "node", "id": 11980023985, "lat": 52.61172, "lon": 13.4947114}, {"type": "node", "id": 11980023986, "lat": 52.6116071, "lon": 13.4945806}, {"type": "node", "id": 11980023987, "lat": 52.6116526, "lon": 13.4944734}, {"type": "node", "id": 11985430075, "lat": 52.6170401, "lon": 13.4907201}, {"type": "node", "id": 11985430076, "lat": 52.6169901, "lon": 13.4908384}, {"type": "node", "id": 11985430077, "lat": 52.6171135, "lon": 13.4909799}, {"type": "node", "id": 11985430078, "lat": 52.6171635, "lon": 13.4908616}, {"type": "node", "id": 11985474168, "lat": 52.6167424, "lon": 13.4899287}, {"type": "node", "id": 11985547869, "lat": 52.6166425, "lon": 13.4898178}, {"type": "node", "id": 11985547870, "lat": 52.616547, "lon": 13.4900553}, {"type": "node", "id": 11985547871, "lat": 52.6165842, "lon": 13.4902991}, {"type": "node", "id": 11987445151, "lat": 52.6037219, "lon": 13.4788405}, {"type": "node", "id": 11987445152, "lat": 52.6037401, "lon": 13.4788027}, {"type": "node", "id": 11987445153, "lat": 52.6037522, "lon": 13.4787498}, {"type": "node", "id": 11987445154, "lat": 52.6037558, "lon": 13.478696}, {"type": "node", "id": 11987445155, "lat": 52.6037358, "lon": 13.4786631}, {"type": "node", "id": 11987445156, "lat": 52.6036844, "lon": 13.4786541}, {"type": "node", "id": 11987445157, "lat": 52.6036541, "lon": 13.4786641}, {"type": "node", "id": 11987445158, "lat": 52.6036232, "lon": 13.478699}, {"type": "node", "id": 11987445159, "lat": 52.6036099, "lon": 13.4787359}, {"type": "node", "id": 11987445160, "lat": 52.6036111, "lon": 13.4787927}, {"type": "node", "id": 11987445161, "lat": 52.6036341, "lon": 13.4788336}, {"type": "node", "id": 11987445162, "lat": 52.6036686, "lon": 13.4788535}, {"type": "node", "id": 11987445163, "lat": 52.6036971, "lon": 13.4788565}, {"type": "node", "id": 11987753423, "lat": 52.6226701, "lon": 13.4836029}, {"type": "node", "id": 11987753424, "lat": 52.6226191, "lon": 13.4835458}, {"type": "node", "id": 11987753425, "lat": 52.6225154, "lon": 13.4837969}, {"type": "node", "id": 11987753428, "lat": 52.6235767, "lon": 13.484691}, {"type": "node", "id": 11987753429, "lat": 52.623505, "lon": 13.4848585}, {"type": "node", "id": 11987753430, "lat": 52.6237108, "lon": 13.4848553}, {"type": "node", "id": 11987753431, "lat": 52.6237132, "lon": 13.4848067}, {"type": "node", "id": 11987753432, "lat": 52.623124, "lon": 13.485997}, {"type": "node", "id": 11987753433, "lat": 52.6230853, "lon": 13.4859674}, {"type": "node", "id": 11987753434, "lat": 52.623048, "lon": 13.4859651}, {"type": "node", "id": 11987753435, "lat": 52.6230209, "lon": 13.4860464}, {"type": "node", "id": 11987753436, "lat": 52.6230209, "lon": 13.486233}, {"type": "node", "id": 11987753437, "lat": 52.6230669, "lon": 13.4862274}, {"type": "node", "id": 11987753438, "lat": 52.6231163, "lon": 13.4861987}, {"type": "node", "id": 11987753439, "lat": 52.6231347, "lon": 13.4861429}, {"type": "node", "id": 11987753440, "lat": 52.623142, "lon": 13.4860807}, {"type": "node", "id": 11987753441, "lat": 52.6239863, "lon": 13.4839139}, {"type": "node", "id": 11987753442, "lat": 52.6239558, "lon": 13.4839146}, {"type": "node", "id": 11987753443, "lat": 52.6239366, "lon": 13.4838938}, {"type": "node", "id": 11987753444, "lat": 52.6239501, "lon": 13.4838516}, {"type": "node", "id": 11987753445, "lat": 52.6239847, "lon": 13.4837718}, {"type": "node", "id": 11987753446, "lat": 52.6240193, "lon": 13.4837215}, {"type": "node", "id": 11987753447, "lat": 52.6240714, "lon": 13.4836765}, {"type": "node", "id": 11987753448, "lat": 52.6241153, "lon": 13.4836417}, {"type": "node", "id": 11987753449, "lat": 52.6240999, "lon": 13.4837429}, {"type": "node", "id": 11987753450, "lat": 52.6240763, "lon": 13.483818}, {"type": "node", "id": 11987753451, "lat": 52.6240335, "lon": 13.4838757}, {"type": "node", "id": 11987753452, "lat": 52.6226407, "lon": 13.4874218}, {"type": "node", "id": 11987753453, "lat": 52.622616, "lon": 13.4873014}, {"type": "node", "id": 11987753454, "lat": 52.6225659, "lon": 13.4871819}, {"type": "node", "id": 11987753455, "lat": 52.6225193, "lon": 13.4871696}, {"type": "node", "id": 11987753456, "lat": 52.6224928, "lon": 13.4873991}, {"type": "node", "id": 11987753457, "lat": 52.6224726, "lon": 13.4874816}, {"type": "node", "id": 11987753458, "lat": 52.6224548, "lon": 13.4875385}, {"type": "node", "id": 11987753459, "lat": 52.6225624, "lon": 13.4875906}, {"type": "node", "id": 11987753462, "lat": 52.6221013, "lon": 13.4885393}, {"type": "node", "id": 11987753463, "lat": 52.6219655, "lon": 13.4883809}, {"type": "node", "id": 11987753464, "lat": 52.6218929, "lon": 13.4885545}, {"type": "node", "id": 11987753465, "lat": 52.6220288, "lon": 13.4887119}, {"type": "node", "id": 11987753466, "lat": 52.6214975, "lon": 13.4881035}, {"type": "node", "id": 11987753467, "lat": 52.6214002, "lon": 13.4880142}, {"type": "node", "id": 11987753468, "lat": 52.6214496, "lon": 13.4879049}, {"type": "node", "id": 11987773269, "lat": 52.6215362, "lon": 13.488003}, {"type": "node", "id": 11987773270, "lat": 52.621151, "lon": 13.4872374}, {"type": "node", "id": 11987773271, "lat": 52.6210847, "lon": 13.4874184}, {"type": "node", "id": 11987773272, "lat": 52.6209941, "lon": 13.4873307}, {"type": "node", "id": 11987773273, "lat": 52.6210658, "lon": 13.4871481}, {"type": "node", "id": 11987773275, "lat": 52.6236437, "lon": 13.4817883}, {"type": "node", "id": 11987773276, "lat": 52.6235758, "lon": 13.4817077}, {"type": "node", "id": 11987773277, "lat": 52.6236057, "lon": 13.48163}, {"type": "node", "id": 11987773278, "lat": 52.6235107, "lon": 13.4815238}, {"type": "node", "id": 11987773279, "lat": 52.6236391, "lon": 13.4812203}, {"type": "node", "id": 11987773280, "lat": 52.6237721, "lon": 13.481372}, {"type": "node", "id": 11987773281, "lat": 52.623661, "lon": 13.4816527}, {"type": "node", "id": 11987773282, "lat": 52.6236806, "lon": 13.4816963}, {"type": "node", "id": 11990454755, "lat": 52.622022, "lon": 13.4829943}, {"type": "node", "id": 11990454756, "lat": 52.6219688, "lon": 13.4829337}, {"type": "node", "id": 11990454757, "lat": 52.622007, "lon": 13.4828516}, {"type": "node", "id": 11990454758, "lat": 52.6220361, "lon": 13.4828117}, {"type": "node", "id": 11990454759, "lat": 52.6220772, "lon": 13.4828827}, {"type": "node", "id": 11990454760, "lat": 52.6217698, "lon": 13.4826993}, {"type": "node", "id": 11990454761, "lat": 52.6217083, "lon": 13.4826068}, {"type": "node", "id": 11990454762, "lat": 52.6217621, "lon": 13.4825015}, {"type": "node", "id": 11990454763, "lat": 52.6218371, "lon": 13.4825661}, {"type": "node", "id": 11990458774, "lat": 52.6211103, "lon": 13.484289}, {"type": "node", "id": 11990458775, "lat": 52.6211132, "lon": 13.4843658}, {"type": "node", "id": 11990458776, "lat": 52.62107, "lon": 13.4843743}, {"type": "node", "id": 11990458777, "lat": 52.6210009, "lon": 13.4843468}, {"type": "node", "id": 11990458778, "lat": 52.6210113, "lon": 13.4842577}, {"type": "node", "id": 11990458793, "lat": 52.61966, "lon": 13.4827123}, {"type": "node", "id": 11990458794, "lat": 52.6196318, "lon": 13.4826877}, {"type": "node", "id": 11990458795, "lat": 52.6196566, "lon": 13.4826222}, {"type": "node", "id": 11990458796, "lat": 52.6196831, "lon": 13.4826497}, {"type": "node", "id": 11990468972, "lat": 52.6211719, "lon": 13.4805283}, {"type": "node", "id": 11990468973, "lat": 52.621174, "lon": 13.4805188}, {"type": "node", "id": 11990468974, "lat": 52.6211695, "lon": 13.4805063}, {"type": "node", "id": 11990468975, "lat": 52.6211579, "lon": 13.4804956}, {"type": "node", "id": 11990468976, "lat": 52.6211469, "lon": 13.4804945}, {"type": "node", "id": 11990468977, "lat": 52.6211377, "lon": 13.480499}, {"type": "node", "id": 11990468978, "lat": 52.6211353, "lon": 13.4805126}, {"type": "node", "id": 11990468979, "lat": 52.6211404, "lon": 13.4805272}, {"type": "node", "id": 11990468980, "lat": 52.6211528, "lon": 13.4805368}, {"type": "node", "id": 11990468981, "lat": 52.621164, "lon": 13.4805368}, {"type": "node", "id": 11990741933, "lat": 52.6197733, "lon": 13.4848168}, {"type": "node", "id": 11990741934, "lat": 52.6197387, "lon": 13.4847806}, {"type": "node", "id": 11990741935, "lat": 52.6197818, "lon": 13.4846793}, {"type": "node", "id": 11990741936, "lat": 52.6198018, "lon": 13.4847008}, {"type": "node", "id": 11990741941, "lat": 52.6199141, "lon": 13.4844446}, {"type": "node", "id": 11990741942, "lat": 52.6198958, "lon": 13.4844259}, {"type": "node", "id": 11990741943, "lat": 52.6199764, "lon": 13.484214}, {"type": "node", "id": 11990741944, "lat": 52.62002, "lon": 13.4842609}, {"type": "node", "id": 12003536486, "lat": 52.6234005, "lon": 13.4830923}, {"type": "node", "id": 12003536489, "lat": 52.6232986, "lon": 13.4829845}, {"type": "node", "id": 12003536493, "lat": 52.6233537, "lon": 13.48285}, {"type": "node", "id": 12018818233, "lat": 52.6137333, "lon": 13.49643}, {"type": "node", "id": 12018818234, "lat": 52.6136637, "lon": 13.4965678}, {"type": "node", "id": 12018818235, "lat": 52.6137679, "lon": 13.4966801}, {"type": "node", "id": 12018818236, "lat": 52.6137997, "lon": 13.4966058}, {"type": "node", "id": 12018818237, "lat": 52.6137784, "lon": 13.4965112}, {"type": "node", "id": 12018818250, "lat": 52.6156785, "lon": 13.4871554}, {"type": "node", "id": 12018818251, "lat": 52.615643, "lon": 13.4872742}, {"type": "node", "id": 12018818252, "lat": 52.6157694, "lon": 13.4873774}, {"type": "node", "id": 12018818253, "lat": 52.6158021, "lon": 13.4872611}, {"type": "node", "id": 12020033327, "lat": 52.6075381, "lon": 13.479439, "tags": {"healthcare": "physiotherapist"}}, {"type": "node", "id": 12715184858, "lat": 52.6163736, "lon": 13.4858267, "tags": {"addr:city": "Berlin", "addr:housenumber": "1-3", "addr:postcode": "13125", "addr:street": "Bucher Chaussee", "amenity": "doctors", "fax": "030 94795492", "healthcare": "doctor", "healthcare:speciality": "general", "name": "Praxis Karow", "opening_hours": "Mo-We 08:00-12:30; Tu 14:00-18:30; Fr 08:00-12:30; PH off", "operator": "Dr. Sylvia Hebes", "phone": "030 9430721", "website": "https://praxis-karow.de/", "wheelchair": "yes"}}, {"type": "node", "id": 12802265747, "lat": 52.5993794, "lon": 13.4933539}, {"type": "way", "id": 34413848, "nodes": [395285627, 395285628, 395285629, 395285631, 395285632, 395285627], "tags": {"addr:city": "Berlin", "addr:postcode": "13125", "brand": "Netto Marken-Discount", "brand:wikidata": "Q879858", "brand:wikipedia": "de:Netto Marken-Discount", "building": "yes", "name": "Netto Marken-Discount", "opening_hours": "Mo-Sa 07:00-21:00", "shop": "supermarket", "website": "https://www.netto-online.de/filialen/Berlin-Karow/Bucher-Chaussee-Nr-6/7594/", "wheelchair": "limited"}}, {"type": "way", "id": 83105502, "nodes": [966869858, 11008137213, 966869860, 11008120202, 7366729234, 11008137206, 966869863, 11008137207, 966869866, 966869868, 966869869, 966869870, 7366729223, 966869871, 966869872, 966869873, 966869874, 7366729237, 966869875, 966869877, 7366729238, 966869878, 966869879, 7366729239, 966869880, 966869882, 7366749259, 966869883, 7366749260, 966869884, 7366749261, 7366749262, 966869885, 7366749263, 966869886, 966869887, 966869888, 966869889, 966869891, 966869892, 7366729243, 966869894, 7366729242, 7366729241, 966869895, 7366729240, 966869897, 966869898, 966869899, 966869900, 966869902, 966869903, 966869858]}, {"type": "way", "id": 83105589, "nodes": [966872348, 966872349, 966872350, 9177391632, 9177391633, 966872351, 9177391635, 966872352, 966872353, 966872354, 966872355, 2316363534, 9177391636, 2316363636, 9177391637, 2316363646, 966872357, 966872359, 966872360, 966872361, 966872362, 9177391634, 966872348], "tags": {"leisure": "park", "name": "Ballonplatz", "wikidata": "Q29000432"}}, {"type": "way", "id": 83506421, "nodes": [191575007, 972322789, 972322793, 972322796, 9581030538, 972322798, 972322800, 2754629378, 2754629379, 972322780, 972322782, 972322784, 972322787, 4721512805, 191575021]}, {"type": "way", "id": 84034825, "nodes": [191575018, 977640110, 977640111, 977640112, 3277027555]}, {"type": "way", "id": 84736086, "nodes": [984133239, 984133240, 984133241, 984133244, 984133239], "tags": {"leisure": "park"}}, {"type": "way", "id": 95936569, "nodes": [1111581173, 1111581175, 1111581177, 1111581182, 1111581183, 1111581184, 1111581186, 1111581188, 1111581191, 1111581193, 1111581195, 1111581198, 1111581173], "tags": {"leisure": "park"}}, {"type": "way", "id": 95938329, "nodes": [1111604017, 1111604019, 2316494307, 1111604022, 1111604023, 1111604024, 1111604025, 1111604027, 1111604031, 1111604034, 1111604038, 1111604017], "tags": {"landuse": "grass", "leisure": "park"}}, {"type": "way", "id": 105440318, "nodes": [4406453546, 10959259891, 1214522413, 1214522415, 9245553763, 1214525750, 1214525754, 1214525755, 1214525744, 7810566274, 1214525745, 4406453546], "tags": {"leisure": "park", "protection_title": "Gesch\u00fctzte Gr\u00fcnanlage", "source": "Geoportal Berlin / Gr\u00fcnanlagenbestand Berlin (einschlie\u00dflich der \u00f6ffentlichen Spielpl\u00e4tze)"}}, {"type": "way", "id": 113714264, "nodes": [1289141613, 1289141615, 1289141617, 1289141619, 11971716537, 1289141621, 1289141613], "tags": {"leisure": "park", "protection_title": "Gesch\u00fctzte Gr\u00fcnanlage"}}, {"type": "way", "id": 133644977, "nodes": [1470958477, 10749931147, 1470958478, 7810566020, 1470958479, 7810566021, 7810556353, 7810556354, 7807717440, 1470958480, 1493263491, 1493263496, 1493263502, 1470958483, 1470958485, 7807717475, 10749931146, 1470958486, 1470958477], "tags": {"leisure": "park", "protection_title": "Gesch\u00fctzte Gr\u00fcnanlage"}}, {"type": "way", "id": 135116539, "nodes": [1484178550, 1484178549, 1484178548, 1484178550], "tags": {"leisure": "park", "name": "Danewendplatz", "name:etymology:wikidata": "Q1434274", "name:etymology:wikipedia": "de:Flurname", "place": "square", "protection_title": "Gesch\u00fctzte Gr\u00fcnanlage"}}, {"type": "way", "id": 135689419, "nodes": [1489831547, 1489831549, 1489831555, 1489831557, 1489831547], "tags": {"leisure": "park", "protection_title": "Gesch\u00fctzte Gr\u00fcnanlage"}}, {"type": "way", "id": 135689423, "nodes": [1489831565, 1489831567, 1489831569, 1489831570, 1489831565], "tags": {"leisure": "park", "protection_title": "Gesch\u00fctzte Gr\u00fcnanlage"}}, {"type": "way", "id": 135812031, "nodes": [1490931859, 1490931858, 1490931857, 1214525748, 1490931859], "tags": {"leisure": "park", "name": "Schmiedebankplatz", "place": "square", "protection_title": "Gesch\u00fctzte Gr\u00fcnanlage", "source": "Geoportal Berlin / Gr\u00fcnanlagenbestand Berlin (einschlie\u00dflich der \u00f6ffentlichen Spielpl\u00e4tze)", "wikidata": "Q131831352"}}, {"type": "way", "id": 321001489, "nodes": [191575018, 191575019, 191575020, 191575021]}, {"type": "way", "id": 321001491, "nodes": [191575007, 191575008, 191575009, 191575010, 191575011, 191575012, 191575013, 3277027555]}, {"type": "way", "id": 323225958, "nodes": [3300147636, 3300147637, 3300147638, 3300147639, 3300147636], "tags": {"access": "yes", "leisure": "playground", "name": "Abenteuerspielplatz", "source": "Geoportal Berlin / Gr\u00fcnanlagenbestand Berlin (einschlie\u00dflich der \u00f6ffentlichen Spielpl\u00e4tze)", "website": "https://www.albatrosggmbh.de/kinder-jugend-und-familie/abenteuerspielplatz/karow/beschreibung.html"}}, {"type": "way", "id": 388723456, "nodes": [3918871260, 10959259921, 10959259918, 3918871261, 3918871262, 3918871263, 3918871260], "tags": {"leisure": "park", "protection_title": "Gesch\u00fctzte Gr\u00fcnanlage", "source": "Geoportal Berlin / Gr\u00fcnanlagenbestand Berlin (einschlie\u00dflich der \u00f6ffentlichen Spielpl\u00e4tze)"}}, {"type": "way", "id": 388723457, "nodes": [3918871267, 10959260124, 6417369831, 3918871280, 3918871281, 3918871275, 3918871276, 3918871277, 11972314886, 10959260121, 3918871267], "tags": {"leisure": "park", "protection_title": "Gesch\u00fctzte Gr\u00fcnanlage", "source": "Geoportal Berlin / Gr\u00fcnanlagenbestand Berlin (einschlie\u00dflich der \u00f6ffentlichen Spielpl\u00e4tze)"}}, {"type": "way", "id": 388723459, "nodes": [3918871270, 3918871271, 3918871272, 8503980120, 8503980121, 3918871270], "tags": {"leisure": "park", "protection_title": "Gesch\u00fctzte Gr\u00fcnanlage", "source": "Geoportal Berlin / Gr\u00fcnanlagenbestand Berlin (einschlie\u00dflich der \u00f6ffentlichen Spielpl\u00e4tze)"}}, {"type": "way", "id": 388723460, "nodes": [3918871275, 3918871276, 11974448126, 11974448127, 11974448128, 11974448129, 11974448130, 11974448131, 11974448132, 11974448125, 11974448124, 11974448123, 11974448122, 11974448121, 11974448120, 11974448119, 3918871280, 3918871281, 3918871275], "tags": {"access": "yes", "description": "Allgemeiner Spielplatz: Gatterweg, Stelenwald", "leisure": "playground", "protection_title": "Gesch\u00fctzte Gr\u00fcnanlage", "source": "Geoportal Berlin / Gr\u00fcnanlagenbestand Berlin (einschlie\u00dflich der \u00f6ffentlichen Spielpl\u00e4tze)"}}, {"type": "way", "id": 401802433, "nodes": [4042062270, 4042062276, 4042062251, 4042062283, 4042062236, 4042062249, 4042062281, 4042062270], "tags": {"leisure": "park"}}, {"type": "way", "id": 481242484, "nodes": [4741765472, 4741765482, 11747858493, 4741765481, 4741765479, 4741765478, 4741765477, 4741765476, 4741765475, 4741765474, 4741765473, 11747858495, 11747858496, 4741765472], "tags": {"leisure": "park", "protection_title": "Gesch\u00fctzte Gr\u00fcnanlage", "source": "Geoportal Berlin / Gr\u00fcnanlagenbestand Berlin (einschlie\u00dflich der \u00f6ffentlichen Spielpl\u00e4tze)"}}, {"type": "way", "id": 481246221, "nodes": [4741803874, 4741803873, 4741803872, 5678201524, 4741803874], "tags": {"addr:city": "Berlin", "addr:country": "DE", "addr:housenumber": "1", "addr:postcode": "13125", "addr:street": "Blankenburger Chaussee", "addr:suburb": "Karow", "amenity": "fast_food", "building": "yes", "indoor_seating": "no", "name": "Syriana Teller", "outdoor_seating": "yes", "source": "Geoportal Berlin / Hauskoordinaten"}}, {"type": "way", "id": 506190818, "nodes": [4959611335, 4959610498, 9667915323, 12802265747, 4959611334, 4959610515, 4959610514, 4959611333, 4959610513, 4959611332, 4959611331, 4959610512, 4959610511, 4959610510, 4959611330, 4959611329, 4959611328, 4959610509, 4959610508, 4959610507, 4959610506, 4959611327, 4959610505, 4959610504, 4959610503, 4959610502, 11971222729, 11971222728, 11971222727, 11971222726, 11971222725, 9391223585, 4959611325, 4959611323, 4959611322, 4959611321, 9391223588, 9562685389, 9391223589, 9391223590, 4959610520, 4959610519, 4959610518, 4959610517, 5669101033, 4959610516, 4959611335], "tags": {"description": "12 Hektar gro\u00dfe Naherholungslandschaft", "landuse": "recreation_ground", "leisure": "park", "name": "Stadtrandpark Neue Wiesen", "protection_title": "Gesch\u00fctzte Gr\u00fcnanlage", "start_date": "1998", "wikidata": "Q24199442", "wikipedia": "de:Neue Wiesen"}}, {"type": "way", "id": 663222304, "nodes": [6208202337, 6208202336, 6208202335, 1214551475, 6208202337], "tags": {"leisure": "playground"}}, {"type": "way", "id": 787957208, "nodes": [7366821902, 7366821901, 7366821900, 7366821899, 7366821898, 7366821897, 11975928423, 11975928414, 11975928413, 11975928409, 11975928410, 7366821902], "tags": {"leisure": "park"}}, {"type": "way", "id": 787957934, "nodes": [7366821842, 7366821841, 7366821840, 7366821839, 7366821838, 7366821837, 7366821842], "tags": {"access": "yes", "leisure": "playground", "protection_title": "Gesch\u00fctzte Gr\u00fcnanlage", "source": "Geoportal Berlin / Gr\u00fcnanlagenbestand Berlin (einschlie\u00dflich der \u00f6ffentlichen Spielpl\u00e4tze)"}}, {"type": "way", "id": 836869451, "nodes": [7810566311, 7810566312, 7810566313, 7810566314, 7810566311], "tags": {"leisure": "park"}}, {"type": "way", "id": 845443345, "nodes": [7810566020, 1111646339, 7368799875, 1111633795, 1111633797, 1506573360, 1506573358, 7887764487, 1470958479, 7810566020], "tags": {"leisure": "park"}}, {"type": "way", "id": 845445165, "nodes": [7887780907, 10959260127, 7810556363, 7887780905, 7887780904, 7887780907], "tags": {"leisure": "park", "protection_title": "Gesch\u00fctzte Gr\u00fcnanlage", "source": "Geoportal Berlin / Gr\u00fcnanlagenbestand Berlin (einschlie\u00dflich der \u00f6ffentlichen Spielpl\u00e4tze)"}}, {"type": "way", "id": 845445166, "nodes": [7887780914, 7887780912, 7887780911, 7887780910, 10959250676, 10959250679, 10959250680, 10959250683, 10959250687, 10959250689, 10959250690, 7887780909, 7887780908, 7887780917, 7810565997, 7887780914], "tags": {"leisure": "park", "protection_title": "Gesch\u00fctzte Gr\u00fcnanlage", "source": "Geoportal Berlin / Gr\u00fcnanlagenbestand Berlin (einschlie\u00dflich der \u00f6ffentlichen Spielpl\u00e4tze)"}}, {"type": "way", "id": 944796070, "nodes": [8746887125, 8746887124, 8746887123, 8746887122, 8746887125], "tags": {"access": "private", "leisure": "playground"}}, {"type": "way", "id": 980064652, "nodes": [9066175881, 9066175880, 6208779561, 9066175879, 7797312893, 9066175881], "tags": {"access": "yes", "leisure": "playground", "source": "Geoportal Berlin / Gr\u00fcnanlagenbestand Berlin (einschlie\u00dflich der \u00f6ffentlichen Spielpl\u00e4tze)"}}, {"type": "way", "id": 1179957033, "nodes": [10959259891, 10959259890, 11013507316, 1214522413, 10959259891], "tags": {"access": "yes", "leisure": "playground", "name": "Kinderspielplatz S\u00e4gebeckweg 107", "protection_title": "Gesch\u00fctzte Gr\u00fcnanlage", "source": "Geoportal Berlin / Gr\u00fcnanlagenbestand Berlin (einschlie\u00dflich der \u00f6ffentlichen Spielpl\u00e4tze)"}}, {"type": "way", "id": 1179961409, "nodes": [10959292175, 10959292174, 8648183039, 7810566164, 10959292175], "tags": {"leisure": "playground"}}, {"type": "way", "id": 1185088667, "nodes": [11008120202, 11008120203, 11008120204, 11008137205, 11008137206, 7366729234, 11008120202], "tags": {"leisure": "park", "protection_title": "Gesch\u00fctzte Gr\u00fcnanlage", "source": "Geoportal Berlin / Gr\u00fcnanlagenbestand Berlin (einschlie\u00dflich der \u00f6ffentlichen Spielpl\u00e4tze)"}}, {"type": "way", "id": 1185088668, "nodes": [966869860, 7366729234, 966869863, 11008137207, 11008137208, 11008137209, 11008137210, 11008137211, 11008137212, 11008137213, 966869860], "tags": {"access": "yes", "leisure": "playground", "protection_title": "Gesch\u00fctzte Gr\u00fcnanlage"}}, {"type": "way", "id": 1185644473, "nodes": [7797262067, 11013474291, 11013474292, 11013474294, 11013474293, 7797262069, 7797262066, 7797262067], "tags": {"access": "yes", "leisure": "playground", "protection_title": "Gesch\u00fctzte Gr\u00fcnanlage", "source": "Geoportal Berlin / Gr\u00fcnanlagenbestand Berlin (einschlie\u00dflich der \u00f6ffentlichen Spielpl\u00e4tze)"}}, {"type": "way", "id": 1185648576, "nodes": [7887780898, 7887780893, 7887780892, 7887780901, 7887780900, 7887780899, 7887780898], "tags": {"leisure": "park", "protection_title": "Gesch\u00fctzte Gr\u00fcnanlage", "source": "Geoportal Berlin / Gr\u00fcnanlagenbestand Berlin (einschlie\u00dflich der \u00f6ffentlichen Spielpl\u00e4tze)"}}, {"type": "way", "id": 1185648578, "nodes": [1214525750, 11013507319, 11013507320, 1214525754, 1214525750], "tags": {"access": "yes", "leisure": "playground", "protection_title": "Gesch\u00fctzte Gr\u00fcnanlage", "source": "Geoportal Berlin / Gr\u00fcnanlagenbestand Berlin (einschlie\u00dflich der \u00f6ffentlichen Spielpl\u00e4tze)"}}, {"type": "way", "id": 1186033009, "nodes": [11016392036, 11016392037, 11016392038, 11016392039, 11016392040, 11016392041, 11016392036], "tags": {"leisure": "park", "source": "Geoportal Berlin / Gr\u00fcnanlagenbestand Berlin (einschlie\u00dflich der \u00f6ffentlichen Spielpl\u00e4tze)"}}, {"type": "way", "id": 1226559363, "nodes": [11373936526, 11373936527, 11373936528, 11373936529, 11373936526], "tags": {"leisure": "playground"}}, {"type": "way", "id": 1226559364, "nodes": [11373936530, 11373936531, 11373936532, 11373936533, 11373936530], "tags": {"leisure": "playground"}}, {"type": "way", "id": 1290062244, "nodes": [11961219590, 11961219591, 11961219592, 11961219593, 11961219594, 11961219595, 11961219596, 11961219597, 11961219598, 11961219599, 11961219600, 11961219601, 11961219590], "tags": {"leisure": "playground"}}, {"type": "way", "id": 1290062247, "nodes": [11961219604, 11961219605, 11961219606, 11961219607, 11961219608, 11961219609, 11961219610, 11961219611, 11961219612, 11961219613, 11961219604], "tags": {"leisure": "playground"}}, {"type": "way", "id": 1290062248, "nodes": [11961219614, 11961219615, 11961219616, 11961219617, 11961219614], "tags": {"leisure": "playground"}}, {"type": "way", "id": 1290062250, "nodes": [11961219620, 11961219621, 11961219622, 11961219623, 11961219624, 11961219625, 11961219626, 11961219627, 11961219628, 11961219629, 11961219630, 11961219631, 11961219632, 11961219633, 11961219634, 11961219635, 11961219636, 11961219637, 11961219638, 11961219639, 11961219640, 11961219641, 11961219620], "tags": {"leisure": "playground"}}, {"type": "way", "id": 1291235991, "nodes": [11971541946, 11971541947, 11971541948, 11971541949, 11971541946], "tags": {"leisure": "playground"}}, {"type": "way", "id": 1291235996, "nodes": [11971541959, 11971541960, 11971541961, 11971541962, 11971541963, 11971541964, 11971541965, 11971541966, 11971541959], "tags": {"leisure": "playground"}}, {"type": "way", "id": 1291263114, "nodes": [11971752281, 11971752282, 11971752283, 11971752284, 11971752281], "tags": {"leisure": "playground", "operator:type": "private"}}, {"type": "way", "id": 1291263116, "nodes": [11971752309, 11971752310, 11971752292, 11971752293, 11971752294, 11971752295, 11971752296, 11971752297, 11971752298, 11971752306, 11971752307, 11971752308, 11971752299, 11971752300, 11971752301, 11971752302, 11971752303, 11971752304, 11971752305, 11971752309], "tags": {"leisure": "playground"}}, {"type": "way", "id": 1291263117, "nodes": [11971752311, 11971752312, 11971752313, 11971752314, 11971752311], "tags": {"leisure": "playground"}}, {"type": "way", "id": 1291263118, "nodes": [11971752315, 11971752316, 11971752317, 11971752318, 11971752319, 11971752320, 11971752321, 11971752315], "tags": {"leisure": "playground"}}, {"type": "way", "id": 1291371593, "nodes": [11972490176, 11972490177, 11972490178, 11972490179, 11972490176], "tags": {"leisure": "playground"}}, {"type": "way", "id": 1291559460, "nodes": [11973886068, 11973901869, 11973901870, 11973901871, 11973901872, 11973901873, 11973901874, 11973901875, 11973886068], "tags": {"leisure": "playground"}}, {"type": "way", "id": 1291636938, "nodes": [11974448115, 11974448116, 11974448117, 11974448115], "tags": {"leisure": "playground"}}, {"type": "way", "id": 1291637843, "nodes": [11974559084, 11974559085, 11974559086, 11974559087, 11974559088, 11974559089, 11974559084], "tags": {"access": "yes", "leisure": "playground", "surface": "sand"}}, {"type": "way", "id": 1291637844, "nodes": [11974559090, 11974559091, 11974559092, 11974559093, 11974559090], "tags": {"access": "yes", "leisure": "playground", "surface": "sand"}}, {"type": "way", "id": 1291717526, "nodes": [11975126509, 11975126510, 11975126511, 11975126512, 11975126509], "tags": {"leisure": "playground"}}, {"type": "way", "id": 1291717529, "nodes": [11975126520, 11975126521, 11975126522, 11975126523, 11975126520], "tags": {"leisure": "playground"}}, {"type": "way", "id": 1291783214, "nodes": [11975551727, 11975551728, 11975551729, 11975551730, 11975551727], "tags": {"leisure": "playground"}}, {"type": "way", "id": 1291868656, "nodes": [11976252503, 11976252504, 11976252505, 11976252506, 11976252503], "tags": {"leisure": "playground"}}, {"type": "way", "id": 1291868657, "nodes": [11976252509, 11976252510, 11976252511, 11976252512, 11976252509], "tags": {"leisure": "playground"}}, {"type": "way", "id": 1291868658, "nodes": [11976252513, 11976252514, 12003536489, 12003536493, 11976252515, 11976252516, 11976252517, 12003536486, 11976252513], "tags": {"leisure": "playground"}}, {"type": "way", "id": 1292265173, "nodes": [11980023969, 11980023970, 11980023971, 11980023972, 11980023969], "tags": {"leisure": "playground"}}, {"type": "way", "id": 1292265174, "nodes": [11980023974, 11980023975, 11980023976, 11980023977, 11980023974], "tags": {"leisure": "playground"}}, {"type": "way", "id": 1292265176, "nodes": [11980023984, 11980023985, 11980023986, 11980023987, 11980023984], "tags": {"access": "private", "leisure": "playground"}}, {"type": "way", "id": 1292847501, "nodes": [11985430075, 11985430076, 11985430077, 11985430078, 11985430075], "tags": {"leisure": "playground"}}, {"type": "way", "id": 1292861289, "nodes": [11985474168, 11985547869, 11985547870, 11985547871, 11985474168], "tags": {"leisure": "playground"}}, {"type": "way", "id": 1293071201, "nodes": [11987445151, 11987445152, 11987445153, 11987445154, 11987445155, 11987445156, 11987445157, 11987445158, 11987445159, 11987445160, 11987445161, 11987445162, 11987445163, 11987445151], "tags": {"leisure": "playground"}}, {"type": "way", "id": 1293107608, "nodes": [11987753423, 11987753424, 11987753425, 966872345, 11987753423], "tags": {"access": "permissive", "leisure": "playground"}}, {"type": "way", "id": 1293107609, "nodes": [11987753428, 11987753429, 11987753430, 11987753431, 11987753428], "tags": {"leisure": "playground"}}, {"type": "way", "id": 1293107610, "nodes": [11987753432, 11987753433, 11987753434, 11987753435, 11987753436, 11987753437, 11987753438, 11987753439, 11987753440, 11987753432], "tags": {"leisure": "playground"}}, {"type": "way", "id": 1293107611, "nodes": [11987753441, 11987753442, 11987753443, 11987753444, 11987753445, 11987753446, 11987753447, 11987753448, 11987753449, 11987753450, 11987753451, 11987753441], "tags": {"leisure": "playground", "operator:type": "private"}}, {"type": "way", "id": 1293107612, "nodes": [11987753452, 11987753453, 11987753454, 11987753455, 11987753456, 11987753457, 11987753458, 11987753459, 11987753452], "tags": {"leisure": "playground"}}, {"type": "way", "id": 1293107613, "nodes": [11987753462, 11987753463, 11987753464, 11987753465, 11987753462], "tags": {"leisure": "playground"}}, {"type": "way", "id": 1293107614, "nodes": [11987753466, 11987753467, 11987753468, 11987773269, 11987753466], "tags": {"leisure": "playground"}}, {"type": "way", "id": 1293107615, "nodes": [11987773270, 11987773271, 11987773272, 11987773273, 11987773270], "tags": {"leisure": "playground"}}, {"type": "way", "id": 1293107616, "nodes": [11987773275, 11987773276, 11987773277, 11987773278, 11987773279, 11987773280, 11987773281, 11987773282, 11987773275], "tags": {"leisure": "playground"}}, {"type": "way", "id": 1293460578, "nodes": [11990454755, 11990454756, 11990454757, 11990454758, 11990454759, 11990454755], "tags": {"leisure": "playground"}}, {"type": "way", "id": 1293460579, "nodes": [11990454760, 11990454761, 11990454762, 11990454763, 11990454760], "tags": {"leisure": "playground"}}, {"type": "way", "id": 1293460585, "nodes": [11990458774, 11990458775, 11990458776, 11990458777, 11990458778, 11990458774], "tags": {"leisure": "playground"}}, {"type": "way", "id": 1293460592, "nodes": [11990458793, 11990458794, 11990458795, 11990458796, 11990458793], "tags": {"leisure": "playground"}}, {"type": "way", "id": 1293461759, "nodes": [11990468972, 11990468973, 11990468974, 11990468975, 11990468976, 11990468977, 11990468978, 11990468979, 11990468980, 11990468981, 11990468972], "tags": {"leisure": "playground"}}, {"type": "way", "id": 1293494258, "nodes": [11990741933, 11990741934, 11990741935, 11990741936, 11990741933], "tags": {"leisure": "playground"}}, {"type": "way", "id": 1293494261, "nodes": [11990741941, 11990741942, 11990741943, 11990741944, 11990741941], "tags": {"leisure": "playground"}}, {"type": "way", "id": 1297218217, "nodes": [12018818233, 12018818234, 12018818235, 12018818236, 12018818237, 12018818233], "tags": {"leisure": "playground"}}, {"type": "way", "id": 1297218219, "nodes": [12018818250, 12018818251, 12018818252, 12018818253, 12018818250], "tags": {"leisure": "playground"}}, {"type": "relation", "id": 3616112, "members": [{"type": "way", "ref": 83105502, "role": "outer"}, {"type": "way", "ref": 83506421, "role": "inner"}, {"type": "way", "ref": 321001491, "role": "inner"}, {"type": "way", "ref": 84034825, "role": "inner"}, {"type": "way", "ref": 321001489, "role": "inner"}], "tags": {"leisure": "park", "protection_title": "Gesch\u00fctzte Gr\u00fcnanlage", "source": "Geoportal Berlin / Gr\u00fcnanlagenbestand Berlin (einschlie\u00dflich der \u00f6ffentlichen Spielpl\u00e4tze)", "type": "multipolygon"}}]}