{"version": 0.6, "generator": "Overpass API 0.7.62.7 375dc00a", "osm3s": {"timestamp_osm_base": "2025-08-05T14:27:16Z", "copyright": "The data included in this document is from www.openstreetmap.org. The data is made available under ODbL."}, "elements": [{"type": "node", "id": 31138253, "lat": 52.4579926, "lon": 13.3060808}, {"type": "node", "id": 31138254, "lat": 52.4555279, "lon": 13.3084447}, {"type": "node", "id": 126363482, "lat": 52.4659833, "lon": 13.2906101}, {"type": "node", "id": 126363494, "lat": 52.4659393, "lon": 13.2903853}, {"type": "node", "id": 126363500, "lat": 52.4658761, "lon": 13.2903803}, {"type": "node", "id": 126363510, "lat": 52.4657792, "lon": 13.2904328}, {"type": "node", "id": 126363520, "lat": 52.4657584, "lon": 13.2906346}, {"type": "node", "id": 126363538, "lat": 52.4658001, "lon": 13.2907288}, {"type": "node", "id": 126363550, "lat": 52.4658887, "lon": 13.2907544}, {"type": "node", "id": 126363682, "lat": 52.4670754, "lon": 13.2894865}, {"type": "node", "id": 126363683, "lat": 52.466259, "lon": 13.2902323}, {"type": "node", "id": 126429099, "lat": 52.4634677, "lon": 13.303468}, {"type": "node", "id": 170903356, "lat": 52.461902, "lon": 13.269189, "tags": {"addr:city": "Berlin", "addr:country": "DE", "addr:housenumber": "5", "addr:housenumber2": "99", "addr:postcode": "14195", "addr:street": "Im Jagen", "addr:street2": "Clayallee", "addr:suburb": "Dahlem", "amenity": "restaurant", "cuisine": "suisse", "name": "Chalet Suisse", "note": "Adresse laut Webseite \"Im Jagen 5 / Clayallee 99\"", "opening_hours": "Mo-Su 12:00+", "phone": "+49 30 8326362", "website": "https://chalet-suisse.de/", "website:menu": "https://eltilos.de/wp-content/uploads/2020/11/S22C-120110515250.pdf", "wheelchair": "no"}}, {"type": "node", "id": 237858681, "lat": 52.4558624, "lon": 13.3091349}, {"type": "node", "id": 241485722, "lat": 52.4603054, "lon": 13.2953049}, {"type": "node", "id": 241485724, "lat": 52.4600886, "lon": 13.2960332}, {"type": "node", "id": 241485763, "lat": 52.458615, "lon": 13.2922666}, {"type": "node", "id": 241485764, "lat": 52.4583764, "lon": 13.2922732}, {"type": "node", "id": 241485766, "lat": 52.4583773, "lon": 13.2926474}, {"type": "node", "id": 241485767, "lat": 52.4586159, "lon": 13.2926429}, {"type": "node", "id": 241485924, "lat": 52.4603051, "lon": 13.2957783}, {"type": "node", "id": 241485926, "lat": 52.4589022, "lon": 13.2959995}, {"type": "node", "id": 265950550, "lat": 52.4642559, "lon": 13.2784167}, {"type": "node", "id": 265950552, "lat": 52.464388, "lon": 13.2822101}, {"type": "node", "id": 265950553, "lat": 52.4649977, "lon": 13.28445}, {"type": "node", "id": 265950554, "lat": 52.4655645, "lon": 13.2853684}, {"type": "node", "id": 265950555, "lat": 52.4658148, "lon": 13.2861585}, {"type": "node", "id": 272593724, "lat": 52.456348, "lon": 13.2925424, "tags": {"addr:city": "Berlin", "addr:country": "DE", "addr:housenumber": "8", "addr:postcode": "14195", "addr:street": "Lansstra\u00dfe", "addr:suburb": "Dahlem", "amenity": "cafe", "contact:email": "info@esskultur-berlin.de", "contact:phone": "+49 30 8301433", "contact:website": "http://www.esskultur-berlin.de/", "name": "e\u00dfkultur", "opening_hours": "Mo-Fr 9:00-16:00", "wheelchair": "yes"}}, {"type": "node", "id": 274234890, "lat": 52.458522, "lon": 13.3042177}, {"type": "node", "id": 274234891, "lat": 52.4584259, "lon": 13.3041108}, {"type": "node", "id": 274234892, "lat": 52.4583506, "lon": 13.3039373}, {"type": "node", "id": 274234893, "lat": 52.4583385, "lon": 13.3036101}, {"type": "node", "id": 275919981, "lat": 52.4664766, "lon": 13.2560001}, {"type": "node", "id": 275919982, "lat": 52.4663254, "lon": 13.2560726}, {"type": "node", "id": 275919983, "lat": 52.4662899, "lon": 13.2564021}, {"type": "node", "id": 275919984, "lat": 52.4664355, "lon": 13.2564317}, {"type": "node", "id": 276397521, "lat": 52.4530183, "lon": 13.2629663}, {"type": "node", "id": 276397522, "lat": 52.4523871, "lon": 13.2628775}, {"type": "node", "id": 276397523, "lat": 52.4521511, "lon": 13.2646689}, {"type": "node", "id": 276397524, "lat": 52.4526529, "lon": 13.2647547}, {"type": "node", "id": 276421763, "lat": 52.4487386, "lon": 13.2733398}, {"type": "node", "id": 276421765, "lat": 52.4487173, "lon": 13.2729323}, {"type": "node", "id": 276421766, "lat": 52.448486, "lon": 13.2725196}, {"type": "node", "id": 276421767, "lat": 52.4469715, "lon": 13.2715676}, {"type": "node", "id": 276421770, "lat": 52.4464131, "lon": 13.2731531}, {"type": "node", "id": 276421771, "lat": 52.4481853, "lon": 13.2740858}, {"type": "node", "id": 276421772, "lat": 52.448472, "lon": 13.2740129}, {"type": "node", "id": 276421773, "lat": 52.4486388, "lon": 13.2737652}, {"type": "node", "id": 277525547, "lat": 52.4578483, "lon": 13.2882349, "tags": {"addr:city": "Berlin", "addr:country": "DE", "addr:housenumber": "52", "addr:postcode": "14195", "addr:street": "K\u00f6nigin-Luise-Stra\u00dfe", "addr:suburb": "Dahlem", "amenity": "restaurant", "check_date": "2023-06-25", "cuisine": "german", "delivery": "no", "image": "http://de.wikipedia.org/wiki/Datei:Dahlem_K%C3%B6nigin-Luise-Stra%C3%9Fe_Alter_Krug.JPG", "name": "Alter Krug", "opening_hours": "Mo-Sa 11:00-23:00; Su 10:00-23:00", "smoking": "outside", "toilets:wheelchair": "yes", "wheelchair": "yes"}}, {"type": "node", "id": 293465520, "lat": 52.4564828, "lon": 13.2951628}, {"type": "node", "id": 298262888, "lat": 52.458553, "lon": 13.3044197}, {"type": "node", "id": 298262890, "lat": 52.4584072, "lon": 13.3044896}, {"type": "node", "id": 298262891, "lat": 52.4584348, "lon": 13.3046445}, {"type": "node", "id": 298262894, "lat": 52.457958, "lon": 13.3048654}, {"type": "node", "id": 309627391, "lat": 52.4513354, "lon": 13.2825941, "tags": {"amenity": "cafe", "name": "Overcomer Bubble Tea", "opening_hours": "Mo-Sa 11:00-19:00"}}, {"type": "node", "id": 313584459, "lat": 52.4578484, "lon": 13.2924415, "tags": {"addr:city": "Berlin", "addr:country": "DE", "addr:housenumber": "38", "addr:postcode": "14195", "addr:street": "K\u00f6nigin-Luise-Stra\u00dfe", "addr:suburb": "Dahlem", "amenity": "pharmacy", "check_date:opening_hours": "2021-11-25", "contact:fax": "+49-30-84109711", "contact:phone": "+49-30-84109710", "dispensing": "yes", "healthcare": "pharmacy", "name": "Apotheke Dahlem-Dorf", "opening_hours": "Mo-Fr 08:30-18:30; Sa 08:30-13:30", "owner": "Monika Birkhahn", "wheelchair": "limited"}}, {"type": "node", "id": 324245147, "lat": 52.4449923, "lon": 13.2710188}, {"type": "node", "id": 324245149, "lat": 52.4460509, "lon": 13.2727474}, {"type": "node", "id": 324245152, "lat": 52.4443388, "lon": 13.271567}, {"type": "node", "id": 324245153, "lat": 52.4437261, "lon": 13.2709676}, {"type": "node", "id": 324245154, "lat": 52.4430118, "lon": 13.2712607}, {"type": "node", "id": 324245159, "lat": 52.4437365, "lon": 13.2713914}, {"type": "node", "id": 324245161, "lat": 52.444972, "lon": 13.271842}, {"type": "node", "id": 324245163, "lat": 52.4453591, "lon": 13.2720298}, {"type": "node", "id": 324245165, "lat": 52.4458878, "lon": 13.2724713}, {"type": "node", "id": 324245166, "lat": 52.4449526, "lon": 13.2712898}, {"type": "node", "id": 324245168, "lat": 52.4443187, "lon": 13.2706512}, {"type": "node", "id": 324245170, "lat": 52.4448106, "lon": 13.2712113}, {"type": "node", "id": 324245171, "lat": 52.4444933, "lon": 13.2709062}, {"type": "node", "id": 324245173, "lat": 52.4441259, "lon": 13.2708135}, {"type": "node", "id": 324245174, "lat": 52.443872, "lon": 13.2709356}, {"type": "node", "id": 324245176, "lat": 52.4440006, "lon": 13.270882}, {"type": "node", "id": 325096177, "lat": 52.4663585, "lon": 13.3074181}, {"type": "node", "id": 325096181, "lat": 52.4665415, "lon": 13.3075437}, {"type": "node", "id": 325096183, "lat": 52.4666521, "lon": 13.3076368}, {"type": "node", "id": 325096186, "lat": 52.4667582, "lon": 13.307753}, {"type": "node", "id": 325096190, "lat": 52.4672886, "lon": 13.308701}, {"type": "node", "id": 325096193, "lat": 52.4669354, "lon": 13.3092555}, {"type": "node", "id": 325096198, "lat": 52.4663447, "lon": 13.308231}, {"type": "node", "id": 325096202, "lat": 52.4662815, "lon": 13.3080193}, {"type": "node", "id": 325096206, "lat": 52.4662465, "lon": 13.3078431}, {"type": "node", "id": 325096210, "lat": 52.4662141, "lon": 13.3075741}, {"type": "node", "id": 335172577, "lat": 52.4483263, "lon": 13.276018, "tags": {"amenity": "cafe", "check_date:opening_hours": "2024-01-13", "diet:vegetarian": "yes", "name": "Aux Delices Normands", "opening_hours": "Mo-Fr 06:30-18:00; Sa-Su 07:00-18:00", "wheelchair": "limited"}}, {"type": "node", "id": 343015557, "lat": 52.4583875, "lon": 13.3040242, "tags": {"barrier": "gate", "entrance": "yes"}}, {"type": "node", "id": 343314980, "lat": 52.451796, "lon": 13.3101309, "tags": {"barrier": "full-height_turnstile", "wheelchair": "yes"}}, {"type": "node", "id": 345127877, "lat": 52.4576996, "lon": 13.2907097, "tags": {"addr:city": "Berlin", "addr:country": "DE", "addr:housenumber": "44", "addr:postcode": "14195", "addr:street": "K\u00f6nigin-Luise-Stra\u00dfe", "addr:suburb": "Dahlem", "amenity": "restaurant", "contact:email": "info@ristorante-piaggio.de", "contact:phone": "+49-30-83202266", "contact:website": "http://www.ristorante-piaggio.de/", "cuisine": "italian", "name": "Piaggio", "opening_hours": "Mo 12:00-22:00; We-Su 12:00-22:00", "outdoor_seating": "yes", "toilets:wheelchair": "no", "wheelchair": "no", "wheelchair:description": "Restaurant ist nur \u00fcber Stufen erreichbar. Toiletten sind im Keller und nur \u00fcber eine Treppe erreichbar"}}, {"type": "node", "id": 359073692, "lat": 52.4588749, "lon": 13.2736566}, {"type": "node", "id": 370000505, "lat": 52.4530342, "lon": 13.2707968}, {"type": "node", "id": 412834467, "lat": 52.4662365, "lon": 13.3074801}, {"type": "node", "id": 415917223, "lat": 52.4585698, "lon": 13.2992444}, {"type": "node", "id": 415917226, "lat": 52.4584416, "lon": 13.2993067}, {"type": "node", "id": 415917228, "lat": 52.4584812, "lon": 13.2997085}, {"type": "node", "id": 415917231, "lat": 52.4586135, "lon": 13.2996442}, {"type": "node", "id": 416405905, "lat": 52.4506268, "lon": 13.2808788, "tags": {"amenity": "cafe", "diet:vegetarian": "yes", "name": "Coffee Station", "opening_hours": "Mo-Su 07:00-19:00"}}, {"type": "node", "id": 416852364, "lat": 52.4484954, "lon": 13.2846554}, {"type": "node", "id": 422527941, "lat": 52.4657005, "lon": 13.2866255}, {"type": "node", "id": 442534063, "lat": 52.4488357, "lon": 13.2783362, "tags": {"addr:city": "Berlin", "addr:country": "DE", "addr:housenumber": "1 A", "addr:postcode": "14195", "addr:street": "Harnackstra\u00dfe", "addr:suburb": "Dahlem", "amenity": "cafe", "contact:phone": "+493083856272", "contact:website": "http://www.rotescafe.blogsport.de", "name": "Rotes Caf\u00e9", "source": "Geoportal Berlin / k5_2012_sw_sued.zip", "wheelchair": "limited"}}, {"type": "node", "id": 452106549, "lat": 52.4484061, "lon": 13.2758434, "tags": {"addr:city": "Berlin", "addr:housenumber": "46", "addr:postcode": "14195", "addr:street": "Garystra\u00dfe", "amenity": "fast_food", "cuisine": "vietnamese", "diet:vegetarian": "yes", "name": "C\u01a1m b\u1ee5i", "opening_hours": "Mo-Fr 11:00-20:00, Sa 12:00-19:00, Su 12:30-16:00", "phone": "+49 30 89207321", "website": "http://www.combui.de", "wheelchair": "no"}}, {"type": "node", "id": 462615463, "lat": 52.4578205, "lon": 13.2913928, "tags": {"addr:city": "Berlin", "addr:country": "DE", "addr:housenumber": "40-42", "addr:postcode": "14195", "addr:street": "K\u00f6nigin-Luise-Stra\u00dfe", "addr:suburb": "Dahlem", "amenity": "restaurant", "check_date:opening_hours": "2025-05-06", "contact:phone": "+49 30 8418880", "contact:website": "https://www.luise-dahlem.de/", "cuisine": "german", "diet:vegetarian": "yes", "name": "Luise", "opening_hours": "Tu-Su 11:00-23:30", "smoking": "outside", "toilets:wheelchair": "no", "wheelchair": "limited"}}, {"type": "node", "id": 479146731, "lat": 52.4617474, "lon": 13.3046951}, {"type": "node", "id": 503360870, "lat": 52.4574383, "lon": 13.3027008}, {"type": "node", "id": 503360967, "lat": 52.4529197, "lon": 13.309555}, {"type": "node", "id": 503360969, "lat": 52.4528373, "lon": 13.3093217}, {"type": "node", "id": 503360971, "lat": 52.4538514, "lon": 13.3083233}, {"type": "node", "id": 503360978, "lat": 52.4541585, "lon": 13.3081883}, {"type": "node", "id": 503360981, "lat": 52.454257, "lon": 13.3084172}, {"type": "node", "id": 503360984, "lat": 52.4552459, "lon": 13.3074867}, {"type": "node", "id": 534667998, "lat": 52.4482088, "lon": 13.2723417}, {"type": "node", "id": 534726577, "lat": 52.4451395, "lon": 13.2712373, "tags": {"access": "yes", "leisure": "playground"}}, {"type": "node", "id": 592079780, "lat": 52.464445, "lon": 13.297545, "tags": {"addr:city": "Berlin", "addr:country": "DE", "addr:housenumber": "50", "addr:postcode": "14195", "addr:street": "Podbielskiallee", "addr:suburb": "Dahlem", "amenity": "restaurant", "contact:facebook": "https://www.facebook.com/Eierschale.Berlin", "contact:phone": "+49 30 83228387", "contact:website": "http://www.berliner-eierschale.de/", "cuisine": "international", "diet:vegetarian": "yes", "indoor_seating": "yes", "name": "Eierschale", "opening_hours": "Mo-Su 09:00+", "outdoor_seating": "yes", "wheelchair": "limited", "wikidata": "Q1302804", "wikipedia": "de:Eierschale (Jazzclub)"}}, {"type": "node", "id": 618262270, "lat": 52.4662849, "lon": 13.3074199}, {"type": "node", "id": 618571207, "lat": 52.4471029, "lon": 13.2806343, "tags": {"addr:city": "Berlin", "addr:country": "DE", "addr:housenumber": "21", "addr:postcode": "14195", "addr:street": "Garystra\u00dfe", "addr:suburb": "Dahlem", "amenity": "cafe", "contact:phone": "+4930939397683", "contact:website": "https://www.stw.berlin/mensen/coffeebar-fu-wirtschaftswissenschaften.html", "name": "Coffeebar FU Wirtschaftswissenschaften", "opening_hours": "Mo-Th 08:30-16:15; Fr 08:30-15:00", "operator": "Studentenwerk Berlin"}}, {"type": "node", "id": 637034927, "lat": 52.4514147, "lon": 13.2825056, "tags": {"amenity": "fast_food", "cuisine": "asian", "diet:vegan": "yes", "name": "Oh my Bap"}}, {"type": "node", "id": 653256895, "lat": 52.4531567, "lon": 13.3015791}, {"type": "node", "id": 653256896, "lat": 52.4517625, "lon": 13.3034965}, {"type": "node", "id": 653256903, "lat": 52.4525032, "lon": 13.3024759}, {"type": "node", "id": 653256971, "lat": 52.4545201, "lon": 13.2996585}, {"type": "node", "id": 653256980, "lat": 52.4499963, "lon": 13.305395}, {"type": "node", "id": 653256983, "lat": 52.4520087, "lon": 13.310837}, {"type": "node", "id": 660130778, "lat": 52.44702, "lon": 13.2831931, "tags": {"addr:city": "Berlin", "addr:country": "DE", "addr:housenumber": "6", "addr:postcode": "14195", "addr:street": "Van't-Hoff-Stra\u00dfe", "addr:suburb": "Dahlem", "amenity": "fast_food", "contact:phone": "+49 30 93939-7501", "contact:website": "https://www.stw.berlin/mensen/einrichtungen/freie-universit%C3%A4t-berlin/shokudo.html", "cuisine": "japanese", "fast_food": "cafeteria", "name": "Mensa Shokud\u014d", "opening_hours": "Mo-Fr 11:00-15:00", "operator": "studierendenWERK BERLIN", "wheelchair": "yes"}}, {"type": "node", "id": 678901082, "lat": 52.4579284, "lon": 13.2897428}, {"type": "node", "id": 678901083, "lat": 52.4579281, "lon": 13.289823}, {"type": "node", "id": 678901084, "lat": 52.4578785, "lon": 13.2898225}, {"type": "node", "id": 678901085, "lat": 52.4578788, "lon": 13.2897423}, {"type": "node", "id": 678901089, "lat": 52.4578859, "lon": 13.2927463, "tags": {"addr:city": "Berlin", "addr:country": "DE", "addr:housenumber": "38", "addr:postcode": "14195", "addr:street": "K\u00f6nigin-Luise-Stra\u00dfe", "addr:suburb": "Dahlem", "amenity": "cafe", "check_date:opening_hours": "2022-11-17", "contact:phone": "+49-30-83227361", "diet:vegetarian": "yes", "internet_access": "wlan", "name": "Oliv'chen", "old_name": "Kornfeld", "opening_hours": "Mo-Su 06:00-18:00"}}, {"type": "node", "id": 678901090, "lat": 52.4578817, "lon": 13.2925563, "tags": {"addr:city": "Berlin", "addr:country": "DE", "addr:housenumber": "38", "addr:postcode": "14195", "addr:street": "K\u00f6nigin-Luise-Stra\u00dfe", "addr:suburb": "Dahlem", "amenity": "fast_food", "contact:phone": "+49-30-84418830", "contact:website": "http://www.asiasnack-dahlem.de/", "cuisine": "asian", "diet:vegan": "yes", "diet:vegetarian": "yes", "name": "Asia-Snack Dahlem", "opening_hours": "Mo-Fr 10:00-22:00; Sa-Su,PH 11:00-22:00", "payment:cash": "yes", "payment:others": "no", "wheelchair": "no"}}, {"type": "node", "id": 715203754, "lat": 52.4641129, "lon": 13.2966929, "tags": {"addr:city": "Berlin", "addr:country": "DE", "addr:housenumber": "49", "addr:postcode": "14195", "addr:street": "Podbielskiallee", "addr:suburb": "Dahlem", "amenity": "restaurant", "beer_garden": "yes", "cuisine": "asian", "description": "Asia kitchen and BBQ", "indoor_seating": "yes", "name": "Herr Nguyen 1991", "opening_hours": "Mo-Su 11:00-21:30", "phone": "+49 30 92093588", "start_date": "2024-04-27"}}, {"type": "node", "id": 734473516, "lat": 52.4490398, "lon": 13.2739584}, {"type": "node", "id": 734473521, "lat": 52.4494833, "lon": 13.2741597}, {"type": "node", "id": 734473556, "lat": 52.4495097, "lon": 13.2738901}, {"type": "node", "id": 734877505, "lat": 52.4535541, "lon": 13.2985957}, {"type": "node", "id": 734877508, "lat": 52.4539464, "lon": 13.2990008}, {"type": "node", "id": 734877524, "lat": 52.4528413, "lon": 13.2994121}, {"type": "node", "id": 782950200, "lat": 52.4497871, "lon": 13.2836759}, {"type": "node", "id": 823788767, "lat": 52.4532768, "lon": 13.2864973, "tags": {"addr:city": "Berlin", "addr:country": "DE", "addr:housenumber": "40", "addr:postcode": "14195", "addr:street": "Br\u00fcmmerstra\u00dfe", "addr:suburb": "Dahlem", "amenity": "restaurant", "check_date": "2025-07-07", "check_date:opening_hours": "2025-07-07", "cuisine": "sushi", "name": "Funa Sushi", "opening_hours": "Mo-Su 11:00-22:45", "opening_hours:signed": "no", "source": "Geoportal Berlin / k5_2012_sw_sued.zip", "website": "https://funasushi.de/"}}, {"type": "node", "id": 823788770, "lat": 52.4533177, "lon": 13.2865366, "tags": {"addr:city": "Berlin", "addr:country": "DE", "addr:housenumber": "34", "addr:postcode": "14195", "addr:street": "Thielallee", "addr:suburb": "Dahlem", "amenity": "cafe", "contact:email": "nayajouly@gmail.com", "diet:vegan": "yes", "diet:vegetarian": "yes", "name": "CoffeeCross", "opening_hours": "Mo-Fr 08:00-19:00; Sa-Su 10:00-19:00", "outdoor_seating": "yes", "smoking": "outside"}}, {"type": "node", "id": 927076449, "lat": 52.4648812, "lon": 13.2841724}, {"type": "node", "id": 927076479, "lat": 52.4642266, "lon": 13.2795303}, {"type": "node", "id": 940815668, "lat": 52.4643933, "lon": 13.2963918, "tags": {"amenity": "cafe", "name": "La Vie", "wheelchair": "limited"}}, {"type": "node", "id": 975764058, "lat": 52.455117, "lon": 13.2716361}, {"type": "node", "id": 975764325, "lat": 52.4550007, "lon": 13.2723749}, {"type": "node", "id": 1044889062, "lat": 52.4589769, "lon": 13.2733862}, {"type": "node", "id": 1044889780, "lat": 52.4588427, "lon": 13.2735627}, {"type": "node", "id": 1044890274, "lat": 52.4591082, "lon": 13.2735933}, {"type": "node", "id": 1044890646, "lat": 52.4589552, "lon": 13.2735801}, {"type": "node", "id": 1068973643, "lat": 52.4551253, "lon": 13.2779822}, {"type": "node", "id": 1068973645, "lat": 52.4557408, "lon": 13.2757384}, {"type": "node", "id": 1068973657, "lat": 52.4556359, "lon": 13.2736069}, {"type": "node", "id": 1068973659, "lat": 52.4557927, "lon": 13.2757413}, {"type": "node", "id": 1068973660, "lat": 52.4551904, "lon": 13.2762154}, {"type": "node", "id": 1068973663, "lat": 52.4549922, "lon": 13.2792518}, {"type": "node", "id": 1068973666, "lat": 52.4557171, "lon": 13.2756447}, {"type": "node", "id": 1068973678, "lat": 52.4554246, "lon": 13.2757894}, {"type": "node", "id": 1068973683, "lat": 52.4555787, "lon": 13.2756541}, {"type": "node", "id": 1068973684, "lat": 52.455082, "lon": 13.2768849}, {"type": "node", "id": 1068973688, "lat": 52.4550893, "lon": 13.2767145}, {"type": "node", "id": 1068973700, "lat": 52.4554531, "lon": 13.2756822}, {"type": "node", "id": 1068973701, "lat": 52.4553479, "lon": 13.2758586}, {"type": "node", "id": 1068973702, "lat": 52.455965, "lon": 13.2737314}, {"type": "node", "id": 1068973704, "lat": 52.4555871, "lon": 13.2757443}, {"type": "node", "id": 1068973705, "lat": 52.4548909, "lon": 13.2794419}, {"type": "node", "id": 1068973707, "lat": 52.4553675, "lon": 13.275721}, {"type": "node", "id": 1068973722, "lat": 52.4553829, "lon": 13.2755586}, {"type": "node", "id": 1068973725, "lat": 52.4550436, "lon": 13.2790376}, {"type": "node", "id": 1097069311, "lat": 52.4588807, "lon": 13.3030396}, {"type": "node", "id": 1097069312, "lat": 52.4587789, "lon": 13.3031605}, {"type": "node", "id": 1097069314, "lat": 52.4587227, "lon": 13.303033}, {"type": "node", "id": 1097069316, "lat": 52.4588256, "lon": 13.3029093}, {"type": "node", "id": 1194229412, "lat": 52.455934, "lon": 13.2824622}, {"type": "node", "id": 1194230891, "lat": 52.4558519, "lon": 13.2822958}, {"type": "node", "id": 1200981327, "lat": 52.4530746, "lon": 13.260489}, {"type": "node", "id": 1200981578, "lat": 52.4525978, "lon": 13.2604117}, {"type": "node", "id": 1200981827, "lat": 52.4466748, "lon": 13.271445}, {"type": "node", "id": 1204023001, "lat": 52.4587101, "lon": 13.303087}, {"type": "node", "id": 1204023136, "lat": 52.4587092, "lon": 13.3031268}, {"type": "node", "id": 1204023375, "lat": 52.4584489, "lon": 13.2995296}, {"type": "node", "id": 1204023758, "lat": 52.4588339, "lon": 13.3029298}, {"type": "node", "id": 1204023795, "lat": 52.4589156, "lon": 13.3029733}, {"type": "node", "id": 1204023874, "lat": 52.4587267, "lon": 13.3031606}, {"type": "node", "id": 1204024083, "lat": 52.4587693, "lon": 13.3031426}, {"type": "node", "id": 1204024294, "lat": 52.4588742, "lon": 13.3028811}, {"type": "node", "id": 1204024301, "lat": 52.458731, "lon": 13.3030529}, {"type": "node", "id": 1204024314, "lat": 52.4584792, "lon": 13.2995149}, {"type": "node", "id": 1204024371, "lat": 52.4588736, "lon": 13.3030238}, {"type": "node", "id": 1315432354, "lat": 52.4577894, "lon": 13.299541}, {"type": "node", "id": 1315432355, "lat": 52.4576923, "lon": 13.2995387}, {"type": "node", "id": 1315432356, "lat": 52.4576269, "lon": 13.2995195}, {"type": "node", "id": 1315432357, "lat": 52.4574762, "lon": 13.2994276}, {"type": "node", "id": 1315432359, "lat": 52.4573622, "lon": 13.2992683}, {"type": "node", "id": 1315432361, "lat": 52.4572855, "lon": 13.2990751}, {"type": "node", "id": 1315432363, "lat": 52.4572487, "lon": 13.2988665, "tags": {"barrier": "gate"}}, {"type": "node", "id": 1315432365, "lat": 52.4572344, "lon": 13.2987284}, {"type": "node", "id": 1315432367, "lat": 52.4572498, "lon": 13.2985414}, {"type": "node", "id": 1315432368, "lat": 52.4572877, "lon": 13.2983798}, {"type": "node", "id": 1315432370, "lat": 52.457342, "lon": 13.2982214}, {"type": "node", "id": 1315432384, "lat": 52.4577116, "lon": 13.2990071}, {"type": "node", "id": 1332267898, "lat": 52.4643173, "lon": 13.2980111}, {"type": "node", "id": 1332267900, "lat": 52.4643753, "lon": 13.2979587}, {"type": "node", "id": 1332267901, "lat": 52.4643415, "lon": 13.2978421}, {"type": "node", "id": 1332267902, "lat": 52.4642794, "lon": 13.2978918}, {"type": "node", "id": 1391115682, "lat": 52.4578179, "lon": 13.3061705}, {"type": "node", "id": 1404604249, "lat": 52.4589233, "lon": 13.2734862}, {"type": "node", "id": 1408402532, "lat": 52.455617, "lon": 13.3082993}, {"type": "node", "id": 1431722014, "lat": 52.4526349, "lon": 13.287921, "tags": {"amenity": "cafe", "contact:website": "https://www.stw.berlin/mensen/einrichtungen/freie-universit%C3%A4t-berlin/mensa-fu-ii.html", "diet:vegan": "yes", "diet:vegetarian": "yes", "name": "Coffeebar", "opening_hours": "Mo-Fr 10:00-19:00; Sa,Su 11:00-17:00", "operator": "Studentenwerk Berlin", "wheelchair": "yes"}}, {"type": "node", "id": 1431722015, "lat": 52.452868, "lon": 13.2899566, "tags": {"addr:city": "Berlin", "addr:housenumber": "45", "addr:postcode": "14195", "addr:street": "Habelschwerdter Allee", "amenity": "cafe", "diet:vegan": "yes", "diet:vegetarian": "yes", "email": "info@kauderwelsch.org", "name": "Kauderwelsch", "opening_hours": "Mo-Fr 09:45-18:15; Sa,Su 10:30-16:45", "outdoor_seating": "no", "payment:cash": "yes", "smoking": "no", "website": "http://www.kauderwelsch.org/", "wheelchair": "limited"}}, {"type": "node", "id": 1464848001, "lat": 52.4608002, "lon": 13.2741071, "tags": {"addr:city": "Berlin", "addr:country": "DE", "addr:housenumber": "91", "addr:postcode": "14195", "addr:street": "Clayallee", "addr:suburb": "Dahlem", "amenity": "fast_food", "contact:phone": "+49 30 8313217", "contact:website": "http://www.grunewaldbaude.de", "delivery": "no", "indoor_seating": "yes", "name": "Waldbaude am Grunewaldsee", "opening_hours": "Mo-Fr, Su 10:00-19:00; Sa 12:00-19:00", "outdoor_seating": "yes", "phone": "+49 30 8313217", "takeaway": "yes", "website": "http://www.grunewaldbaude.de", "wheelchair": "limited"}}, {"type": "node", "id": 1496086442, "lat": 52.4498319, "lon": 13.2745439}, {"type": "node", "id": 1538131173, "lat": 52.467, "lon": 13.3086174}, {"type": "node", "id": 1538131180, "lat": 52.46713, "lon": 13.3088453}, {"type": "node", "id": 1538131182, "lat": 52.4671852, "lon": 13.3087604}, {"type": "node", "id": 1560580829, "lat": 52.4670239, "lon": 13.3091852}, {"type": "node", "id": 1560580830, "lat": 52.4670492, "lon": 13.3092263}, {"type": "node", "id": 1560580831, "lat": 52.4670697, "lon": 13.3091093}, {"type": "node", "id": 1560580832, "lat": 52.467095, "lon": 13.3091504}, {"type": "node", "id": 1563585512, "lat": 52.4657902, "lon": 13.2864898}, {"type": "node", "id": 1563585513, "lat": 52.4658223, "lon": 13.286372}, {"type": "node", "id": 1563629913, "lat": 52.4643554, "lon": 13.2813856}, {"type": "node", "id": 1577132725, "lat": 52.4530539, "lon": 13.2707609}, {"type": "node", "id": 1577132732, "lat": 52.4531014, "lon": 13.2707817}, {"type": "node", "id": 1577132742, "lat": 52.4513152, "lon": 13.269836, "tags": {"addr:city": "Berlin", "addr:country": "DE", "addr:housenumber": "177", "addr:postcode": "14195", "addr:street": "Clayallee", "addr:suburb": "Dahlem", "amenity": "pharmacy", "check_date": "2024-05-09", "contact:phone": "+49 30 84788830", "contact:website": "http://www.oh-apotheke.de/oskar-helene", "dispensing": "yes", "healthcare": "pharmacy", "name": "Oskar Helene Apotheke", "opening_hours": "Mo-Fr 08:30-19:00; Sa 09:00-14:00; Su,PH off", "wheelchair": "yes"}}, {"type": "node", "id": 1577132747, "lat": 52.4530617, "lon": 13.2708701}, {"type": "node", "id": 1610888213, "lat": 52.4429655, "lon": 13.2754838}, {"type": "node", "id": 1610888220, "lat": 52.4430012, "lon": 13.2748702}, {"type": "node", "id": 1616141249, "lat": 52.4431689, "lon": 13.2808575}, {"type": "node", "id": 1616141260, "lat": 52.4432518, "lon": 13.280244}, {"type": "node", "id": 1616141308, "lat": 52.4438951, "lon": 13.2811215}, {"type": "node", "id": 1616141317, "lat": 52.443978, "lon": 13.2805081}, {"type": "node", "id": 1617517124, "lat": 52.4424028, "lon": 13.2834388, "tags": {"addr:city": "Berlin", "addr:country": "DE", "addr:housenumber": "84D", "addr:postcode": "12205", "addr:street": "Unter den Eichen", "addr:suburb": "Lichterfelde", "amenity": "restaurant", "contact:facebook": "https://www.facebook.com/trattoriaromanaberlin/", "contact:phone": "+49 30 83220741", "contact:website": "https://trattoriaromanaberlin.de/", "cuisine": "italian", "email": "info@trattoria-romana.de", "indoor_seating": "yes", "name": "Trattoria Romana", "opening_hours": "Mo-Su 11:00-23:00", "outdoor_seating": "yes", "payment:cash": "yes", "payment:contactless": "yes", "payment:credit_cards": "yes", "payment:debit_cards": "yes", "phone": "+49 30 83220741", "toilets:wheelchair": "no", "website": "https://trattoria-romana.eatbu.com", "wheelchair": "limited"}}, {"type": "node", "id": 1629319865, "lat": 52.4637925, "lon": 13.3007626}, {"type": "node", "id": 1629319867, "lat": 52.4638594, "lon": 13.3006856}, {"type": "node", "id": 1635716679, "lat": 52.4586558, "lon": 13.3043826}, {"type": "node", "id": 1835093030, "lat": 52.4461616, "lon": 13.2924947, "tags": {"addr:suburb": "Dahlem", "amenity": "restaurant", "cuisine": "asian", "email": "nngocthanh96@yahoo.com", "name": "Asia light", "opening_hours": "Mo-Fr 11:30-22:00; Su, PH 16:00-22:00", "phone": "+49-30-84186394", "website": "http://www.asialight.de/"}}, {"type": "node", "id": 1937560189, "lat": 52.44639, "lon": 13.2713868}, {"type": "node", "id": 1937560190, "lat": 52.4468206, "lon": 13.2714889}, {"type": "node", "id": 1937560192, "lat": 52.4464821, "lon": 13.270919}, {"type": "node", "id": 1937560193, "lat": 52.4468628, "lon": 13.2710093}, {"type": "node", "id": 1937560196, "lat": 52.4469662, "lon": 13.271053}, {"type": "node", "id": 1937560197, "lat": 52.4469349, "lon": 13.271545}, {"type": "node", "id": 1937560199, "lat": 52.4470374, "lon": 13.2710933}, {"type": "node", "id": 1937560358, "lat": 52.4554251, "lon": 13.2711404}, {"type": "node", "id": 1937560359, "lat": 52.455428, "lon": 13.2709479}, {"type": "node", "id": 1937560360, "lat": 52.4554339, "lon": 13.2708949}, {"type": "node", "id": 1937560361, "lat": 52.4554427, "lon": 13.2709888}, {"type": "node", "id": 1937560362, "lat": 52.4554573, "lon": 13.2708853}, {"type": "node", "id": 1937560363, "lat": 52.4554705, "lon": 13.2708781}, {"type": "node", "id": 1937560364, "lat": 52.4555263, "lon": 13.2711717}, {"type": "node", "id": 1937560365, "lat": 52.4555556, "lon": 13.2709118}, {"type": "node", "id": 2031923539, "lat": 52.4511588, "lon": 13.2702265}, {"type": "node", "id": 2031923549, "lat": 52.4512241, "lon": 13.2697044}, {"type": "node", "id": 2031923564, "lat": 52.45146, "lon": 13.2698413}, {"type": "node", "id": 2031923570, "lat": 52.4514786, "lon": 13.2700622}, {"type": "node", "id": 2031923575, "lat": 52.4517252, "lon": 13.270511}, {"type": "node", "id": 2031923578, "lat": 52.4517836, "lon": 13.2702372}, {"type": "node", "id": 2031923579, "lat": 52.4517994, "lon": 13.2705998}, {"type": "node", "id": 2031923583, "lat": 52.4519231, "lon": 13.2700267}, {"type": "node", "id": 2031923598, "lat": 52.4521357, "lon": 13.2702782}, {"type": "node", "id": 2031923608, "lat": 52.4521609, "lon": 13.2701628}, {"type": "node", "id": 2031923613, "lat": 52.4524939, "lon": 13.2710052}, {"type": "node", "id": 2031923621, "lat": 52.4525936, "lon": 13.2705455}, {"type": "node", "id": 2187988485, "lat": 52.4437276, "lon": 13.2808003}, {"type": "node", "id": 2187988486, "lat": 52.4437405, "lon": 13.2808281}, {"type": "node", "id": 2187988487, "lat": 52.4437564, "lon": 13.2805769}, {"type": "node", "id": 2187988488, "lat": 52.4437674, "lon": 13.2808378}, {"type": "node", "id": 2187988489, "lat": 52.4437793, "lon": 13.2805622}, {"type": "node", "id": 2187988490, "lat": 52.4437853, "lon": 13.2808281}, {"type": "node", "id": 2187988491, "lat": 52.4437942, "lon": 13.2807693}, {"type": "node", "id": 2187988492, "lat": 52.4437982, "lon": 13.2805638}, {"type": "node", "id": 2187988493, "lat": 52.4438091, "lon": 13.2806421}, {"type": "node", "id": 2187988494, "lat": 52.4438121, "lon": 13.2805785}, {"type": "node", "id": 2187988495, "lat": 52.443829, "lon": 13.2807759}, {"type": "node", "id": 2187988496, "lat": 52.4438489, "lon": 13.2806535}, {"type": "node", "id": 2218321934, "lat": 52.4563332, "lon": 13.2995177, "tags": {"addr:city": "Berlin", "addr:country": "DE", "addr:housenumber": "15A", "addr:postcode": "14195", "addr:street": "Altensteinstra\u00dfe", "addr:suburb": "Dahlem", "amenity": "cafe", "atm": "no", "changing_table": "yes", "check_date": "2023-10-19", "contact:website": "http://www.dascafeindergartenakademie.de/", "drive_through": "no", "indoor_seating": "yes", "name": "Das Caf\u00e9 in der Gartenakademie", "opening_hours": "Apr-Sep Tu-Sa 10:00-19:00, Su,PH 10:00-16:00; Oct-Mar Tu-Sa 10:00-17:30, Su,PH 10:00-16:00", "operator": "Isabelle Van Groeningen", "outdoor_seating": "yes", "smoking": "yes", "wheelchair": "yes"}}, {"type": "node", "id": 2255239042, "lat": 52.4529937, "lon": 13.3091481}, {"type": "node", "id": 2255239053, "lat": 52.4532262, "lon": 13.3089956}, {"type": "node", "id": 2255239129, "lat": 52.4542854, "lon": 13.3084837}, {"type": "node", "id": 2255239131, "lat": 52.4543112, "lon": 13.3084996}, {"type": "node", "id": 2255239139, "lat": 52.4544821, "lon": 13.3083257}, {"type": "node", "id": 2255239141, "lat": 52.4545217, "lon": 13.3082805}, {"type": "node", "id": 2255239164, "lat": 52.454654, "lon": 13.3081309}, {"type": "node", "id": 2255239247, "lat": 52.4549063, "lon": 13.3078771}, {"type": "node", "id": 2255239552, "lat": 52.4554347, "lon": 13.3078875}, {"type": "node", "id": 2255239665, "lat": 52.4564645, "lon": 13.3016959}, {"type": "node", "id": 2255239706, "lat": 52.4570423, "lon": 13.3078031}, {"type": "node", "id": 2255239712, "lat": 52.4571558, "lon": 13.3076509}, {"type": "node", "id": 2255239719, "lat": 52.4571994, "lon": 13.3075919}, {"type": "node", "id": 2255239723, "lat": 52.457316, "lon": 13.3074328}, {"type": "node", "id": 2262896304, "lat": 52.4511657, "lon": 13.2699753}, {"type": "node", "id": 2262896307, "lat": 52.4512862, "lon": 13.2700949, "tags": {"addr:city": "Berlin", "addr:country": "DE", "addr:housenumber": "177", "addr:postcode": "14195", "addr:street": "Clayallee", "addr:suburb": "Dahlem", "brand": "Denns BioMarkt", "brand:wikidata": "Q48883773", "brand:wikipedia": "de:Denn\u2019s Biomarkt", "name": "Denns BioMarkt", "opening_hours": "Mo-Sa 08:00-20:00", "operator": "Dennree GmbH", "operator:wikidata": "Q1189641", "organic": "only", "shop": "supermarket", "toilets:wheelchair": "no", "wheelchair": "yes"}}, {"type": "node", "id": 2262896308, "lat": 52.4512077, "lon": 13.2699997}, {"type": "node", "id": 2262896921, "lat": 52.4513527, "lon": 13.2703391}, {"type": "node", "id": 2264152244, "lat": 52.4514202, "lon": 13.2703359}, {"type": "node", "id": 2264160369, "lat": 52.4513033, "lon": 13.2703104}, {"type": "node", "id": 2264160371, "lat": 52.4523695, "lon": 13.2709326}, {"type": "node", "id": 2319180077, "lat": 52.4578464, "lon": 13.3051943}, {"type": "node", "id": 2319180079, "lat": 52.4579254, "lon": 13.3051566}, {"type": "node", "id": 2383638714, "lat": 52.4458206, "lon": 13.2845887}, {"type": "node", "id": 2383638716, "lat": 52.4459568, "lon": 13.2844446}, {"type": "node", "id": 2383638718, "lat": 52.4463805, "lon": 13.285951}, {"type": "node", "id": 2383638720, "lat": 52.4467999, "lon": 13.2854697}, {"type": "node", "id": 2383638723, "lat": 52.4471434, "lon": 13.2849075}, {"type": "node", "id": 2394142526, "lat": 52.4532901, "lon": 13.2812513}, {"type": "node", "id": 2453777640, "lat": 52.4672186, "lon": 13.3046462}, {"type": "node", "id": 2453777641, "lat": 52.4672209, "lon": 13.3045642}, {"type": "node", "id": 2453777642, "lat": 52.4672237, "lon": 13.3046517}, {"type": "node", "id": 2453777643, "lat": 52.4672313, "lon": 13.3046568}, {"type": "node", "id": 2453777645, "lat": 52.4672373, "lon": 13.304661}, {"type": "node", "id": 2453777646, "lat": 52.4672423, "lon": 13.3046684}, {"type": "node", "id": 2453777647, "lat": 52.4672466, "lon": 13.3046786}, {"type": "node", "id": 2453777648, "lat": 52.4672533, "lon": 13.3046902}, {"type": "node", "id": 2453777649, "lat": 52.4672556, "lon": 13.3045258}, {"type": "node", "id": 2453777650, "lat": 52.4672621, "lon": 13.3046971}, {"type": "node", "id": 2453777652, "lat": 52.4672765, "lon": 13.3046999}, {"type": "node", "id": 2453777653, "lat": 52.467281, "lon": 13.3045351}, {"type": "node", "id": 2453777654, "lat": 52.4672847, "lon": 13.3046994}, {"type": "node", "id": 2453777655, "lat": 52.4672937, "lon": 13.304693}, {"type": "node", "id": 2453777656, "lat": 52.4673005, "lon": 13.3045499}, {"type": "node", "id": 2453777657, "lat": 52.4673052, "lon": 13.3046726}, {"type": "node", "id": 2453777658, "lat": 52.46731, "lon": 13.3045559}, {"type": "node", "id": 2453777659, "lat": 52.4673163, "lon": 13.3046443}, {"type": "node", "id": 2453777660, "lat": 52.4673188, "lon": 13.3045698}, {"type": "node", "id": 2453777661, "lat": 52.467323, "lon": 13.3046101}, {"type": "node", "id": 2462994574, "lat": 52.4484143, "lon": 13.2679167}, {"type": "node", "id": 2462994576, "lat": 52.4490797, "lon": 13.2671641}, {"type": "node", "id": 2652913677, "lat": 52.4477613, "lon": 13.2809256, "tags": {"addr:city": "Berlin", "addr:country": "DE", "addr:housenumber": "8", "addr:postcode": "14195", "addr:street": "Van't-Hoff-Stra\u00dfe", "addr:suburb": "Dahlem", "amenity": "cafe", "name": "Cafe Tatort", "opening_hours:covid19": "closed", "toilets:wheelchair": "no", "website": "http://www.fsijuraforum.de/cms/node/15", "wheelchair": "yes"}}, {"type": "node", "id": 2672518797, "lat": 52.4661421, "lon": 13.306643, "tags": {"access:covid19": "no", "addr:city": "Berlin", "addr:country": "DE", "addr:housenumber": "5", "addr:postcode": "14195", "addr:street": "Schorlemerallee", "amenity": "restaurant", "check_date": "2024-10-16", "check_date:opening_hours": "2024-10-16", "cuisine": "vietnamese", "drive_through:covid19": "no", "indoor_seating": "yes", "name": "Viet koch BBQ", "opening_hours": "Mo-Su 12:00-23:00", "outdoor_seating": "yes", "takeaway:covid19": "yes", "toilets:wheelchair": "no", "wheelchair": "limited"}}, {"type": "node", "id": 2710036516, "lat": 52.4621132, "lon": 13.2690213}, {"type": "node", "id": 2710036520, "lat": 52.4621363, "lon": 13.2689768}, {"type": "node", "id": 2710036524, "lat": 52.4621665, "lon": 13.2690955}, {"type": "node", "id": 2710036526, "lat": 52.4621895, "lon": 13.269051}, {"type": "node", "id": 3029540004, "lat": 52.4496425, "lon": 13.2691657}, {"type": "node", "id": 3041547694, "lat": 52.4515839, "lon": 13.2703028, "tags": {"addr:city": "Berlin", "addr:country": "DE", "addr:housenumber": "175", "addr:postcode": "14195", "addr:street": "Clayallee", "addr:suburb": "Dahlem", "amenity": "cafe", "check_date": "2024-05-09", "description": "Wiener Conditorei Caffeehaus In Dahlem", "indoor_seating": "yes", "name": "Wiener Conditorei", "opening_hours": "Mo-Su 07:30-18:30", "outdoor_seating": "yes", "phone": "+49308459194", "toilets:wheelchair": "yes", "website": "http://wiener-conditorei.de/conditorei/truman-plaza/", "wheelchair": "yes", "wheelchair:description": "der gr\u00f6\u00dfte Teil des Caf\u00e9s stufenlos"}}, {"type": "node", "id": 3041547705, "lat": 52.4524552, "lon": 13.2713136}, {"type": "node", "id": 3099090255, "lat": 52.4517098, "lon": 13.2698371, "tags": {"addr:city": "Berlin", "addr:country": "DE", "addr:housenumber": "173", "addr:postcode": "14195", "addr:street": "Clayallee", "addr:suburb": "Dahlem", "amenity": "restaurant", "cuisine": "asian", "description": "Sushi und generisch-asiatische Gerichte", "name": "Vietnam", "opening_hours": "Mo-Su 11:00-22:00", "outdoor_seating": "yes", "phone": "+49 30 80407332", "wheelchair": "yes"}}, {"type": "node", "id": 3102173860, "lat": 52.4576252, "lon": 13.2636346}, {"type": "node", "id": 3102173863, "lat": 52.4575326, "lon": 13.2637969}, {"type": "node", "id": 3102173864, "lat": 52.4575505, "lon": 13.2637654}, {"type": "node", "id": 3102177053, "lat": 52.4575018, "lon": 13.2638507}, {"type": "node", "id": 3102177054, "lat": 52.4575213, "lon": 13.2638166}, {"type": "node", "id": 3102177060, "lat": 52.4576636, "lon": 13.2640993}, {"type": "node", "id": 3102177148, "lat": 52.4577822, "lon": 13.2633349}, {"type": "node", "id": 3103218330, "lat": 52.4579533, "lon": 13.2635916}, {"type": "node", "id": 3136665156, "lat": 52.4491475, "lon": 13.2774886, "tags": {"addr:street": "Ihnestra\u00dfe", "amenity": "fast_food", "cuisine": "sandwich;german;turkish", "diet:vegetarian": "yes", "name": "Uni-Imbiss", "opening_hours": "Mo-Fr 07:30-18:30", "outdoor_seating": "yes", "snack": "yes", "takeaway": "only"}}, {"type": "node", "id": 3150720890, "lat": 52.4525198, "lon": 13.2710266}, {"type": "node", "id": 3150720891, "lat": 52.4534763, "lon": 13.2719196}, {"type": "node", "id": 3150720892, "lat": 52.4535684, "lon": 13.271639}, {"type": "node", "id": 3150720893, "lat": 52.4537907, "lon": 13.2717337}, {"type": "node", "id": 3150720894, "lat": 52.4539683, "lon": 13.2718412}, {"type": "node", "id": 3150720896, "lat": 52.454055, "lon": 13.2716506}, {"type": "node", "id": 3150720897, "lat": 52.4544157, "lon": 13.2718287}, {"type": "node", "id": 3150720898, "lat": 52.4549527, "lon": 13.2726745}, {"type": "node", "id": 3150720899, "lat": 52.4549201, "lon": 13.2716658}, {"type": "node", "id": 3179341000, "lat": 52.4524233, "lon": 13.270964}, {"type": "node", "id": 3249815642, "lat": 52.4515851, "lon": 13.2702105, "tags": {"addr:city": "Berlin", "addr:country": "DE", "addr:housenumber": "175", "addr:postcode": "14195", "addr:street": "Clayallee", "addr:suburb": "Dahlem", "alt_name": "bonedoctor", "amenity": "doctors", "contact:website": "http://www.bonedoctor.de", "healthcare": "doctor", "healthcare:speciality": "orthopaedics;surgery", "name": "Dr. Christian Rose", "opening_hours": "Mo,Tu 07:30-12:00,15:00-19:00; Fr 07:00-14:00", "wheelchair": "yes"}}, {"type": "node", "id": 3249819415, "lat": 52.4488656, "lon": 13.2690386}, {"type": "node", "id": 3249819416, "lat": 52.4489095, "lon": 13.2686718}, {"type": "node", "id": 3249819417, "lat": 52.4489149, "lon": 13.2688048}, {"type": "node", "id": 3249819420, "lat": 52.448965, "lon": 13.2684325}, {"type": "node", "id": 3249819421, "lat": 52.4490019, "lon": 13.2688599}, {"type": "node", "id": 3249819422, "lat": 52.4490282, "lon": 13.2687422}, {"type": "node", "id": 3249819423, "lat": 52.4491076, "lon": 13.2689223}, {"type": "node", "id": 3249819425, "lat": 52.4491346, "lon": 13.2688035}, {"type": "node", "id": 3249819427, "lat": 52.4491798, "lon": 13.2692225}, {"type": "node", "id": 3249819428, "lat": 52.4492299, "lon": 13.268992}, {"type": "node", "id": 3249819429, "lat": 52.4492991, "lon": 13.2688998}, {"type": "node", "id": 3249819431, "lat": 52.4493512, "lon": 13.2686617}, {"type": "node", "id": 3249819438, "lat": 52.4495422, "lon": 13.2685165}, {"type": "node", "id": 3249819439, "lat": 52.4495479, "lon": 13.2684418}, {"type": "node", "id": 3249819441, "lat": 52.4495201, "lon": 13.269431}, {"type": "node", "id": 3249819443, "lat": 52.4495655, "lon": 13.2685263}, {"type": "node", "id": 3249819445, "lat": 52.4494936, "lon": 13.2687524}, {"type": "node", "id": 3249819446, "lat": 52.4496942, "lon": 13.2683672}, {"type": "node", "id": 3249819448, "lat": 52.4497612, "lon": 13.268654}, {"type": "node", "id": 3249819449, "lat": 52.4496489, "lon": 13.2691321}, {"type": "node", "id": 3249819450, "lat": 52.4497637, "lon": 13.2691875}, {"type": "node", "id": 3249819452, "lat": 52.4499195, "lon": 13.2690056}, {"type": "node", "id": 3249819453, "lat": 52.4497676, "lon": 13.2691647}, {"type": "node", "id": 3249819455, "lat": 52.4498221, "lon": 13.2683243}, {"type": "node", "id": 3249819457, "lat": 52.4498671, "lon": 13.2684692}, {"type": "node", "id": 3249819458, "lat": 52.4499689, "lon": 13.2687777}, {"type": "node", "id": 3249819661, "lat": 52.4498774, "lon": 13.26828}, {"type": "node", "id": 3249819666, "lat": 52.4499174, "lon": 13.2696685}, {"type": "node", "id": 3249819667, "lat": 52.4499243, "lon": 13.2680752}, {"type": "node", "id": 3249819669, "lat": 52.4499929, "lon": 13.2683509}, {"type": "node", "id": 3249819670, "lat": 52.4501725, "lon": 13.2684611}, {"type": "node", "id": 3249819671, "lat": 52.449998, "lon": 13.2692985}, {"type": "node", "id": 3249819677, "lat": 52.4502194, "lon": 13.2682563}, {"type": "node", "id": 3295655654, "lat": 52.4594864, "lon": 13.2806473}, {"type": "node", "id": 3295655655, "lat": 52.4595396, "lon": 13.2803737}, {"type": "node", "id": 3295655657, "lat": 52.4604744, "lon": 13.2808068}, {"type": "node", "id": 3295655659, "lat": 52.4604104, "lon": 13.2810776}, {"type": "node", "id": 3295657161, "lat": 52.4606056, "lon": 13.2811661}, {"type": "node", "id": 3295657162, "lat": 52.4606816, "lon": 13.2808853}, {"type": "node", "id": 3368095398, "lat": 52.4518647, "lon": 13.2702989, "tags": {"description": "Eingang zum B\u00e4cker im Edeka", "entrance": "yes"}}, {"type": "node", "id": 3368095402, "lat": 52.4561057, "lon": 13.2731519}, {"type": "node", "id": 3368095427, "lat": 52.45891, "lon": 13.2734504}, {"type": "node", "id": 3368095429, "lat": 52.4589916, "lon": 13.2736852}, {"type": "node", "id": 3368095430, "lat": 52.4590929, "lon": 13.2735473}, {"type": "node", "id": 3368095431, "lat": 52.4591454, "lon": 13.2735005}, {"type": "node", "id": 3368095432, "lat": 52.4591487, "lon": 13.2734164}, {"type": "node", "id": 3368095433, "lat": 52.4591619, "lon": 13.2735466}, {"type": "node", "id": 3368095434, "lat": 52.4591872, "lon": 13.2735205}, {"type": "node", "id": 3368148500, "lat": 52.4535106, "lon": 13.2719029}, {"type": "node", "id": 3377697127, "lat": 52.4582018, "lon": 13.2923122, "tags": {"addr:city": "Berlin", "addr:housenumber": "37", "addr:postcode": "14195", "addr:street": "K\u00f6nigin-Luise-Stra\u00dfe", "amenity": "doctors", "email": "info@klemmt-partner.de", "healthcare": "doctor", "healthcare:speciality": "general", "name": "Dr. Irina Klemmt", "opening_hours": "Mo,Tu,Th 09:00-13:00,15:30-18:30, Fr 09:00-13:00", "website": "https://www.klemmt-partner.de"}}, {"type": "node", "id": 3484060004, "lat": 52.4540806, "lon": 13.273269}, {"type": "node", "id": 3484060030, "lat": 52.4541287, "lon": 13.2730515}, {"type": "node", "id": 3484060069, "lat": 52.4541729, "lon": 13.273076}, {"type": "node", "id": 3484060071, "lat": 52.4541743, "lon": 13.2730693}, {"type": "node", "id": 3484060073, "lat": 52.4541771, "lon": 13.2733242}, {"type": "node", "id": 3484060081, "lat": 52.4541905, "lon": 13.2732563}, {"type": "node", "id": 3484060095, "lat": 52.4541977, "lon": 13.2730887}, {"type": "node", "id": 3484060097, "lat": 52.4541989, "lon": 13.2730833}, {"type": "node", "id": 3484060133, "lat": 52.4542375, "lon": 13.2731114}, {"type": "node", "id": 3484060139, "lat": 52.4542435, "lon": 13.2730852}, {"type": "node", "id": 3484060148, "lat": 52.4542586, "lon": 13.2731249}, {"type": "node", "id": 3484060151, "lat": 52.4542646, "lon": 13.2730966}, {"type": "node", "id": 3484060171, "lat": 52.4542899, "lon": 13.2733125}, {"type": "node", "id": 3484060183, "lat": 52.4543015, "lon": 13.2731487}, {"type": "node", "id": 3484060186, "lat": 52.4543031, "lon": 13.2731431}, {"type": "node", "id": 3484060193, "lat": 52.4542563, "lon": 13.272327}, {"type": "node", "id": 3484060195, "lat": 52.4543149, "lon": 13.273195}, {"type": "node", "id": 3484060198, "lat": 52.4543186, "lon": 13.2731975}, {"type": "node", "id": 3484060212, "lat": 52.4543283, "lon": 13.2731569}, {"type": "node", "id": 3484061073, "lat": 52.4550244, "lon": 13.2791357}, {"type": "node", "id": 3484065769, "lat": 52.459588, "lon": 13.2842069}, {"type": "node", "id": 3484065780, "lat": 52.4595988, "lon": 13.2842457}, {"type": "node", "id": 3484065992, "lat": 52.4597463, "lon": 13.2834137}, {"type": "node", "id": 3484066303, "lat": 52.4597678, "lon": 13.2834002}, {"type": "node", "id": 3484066312, "lat": 52.4597723, "lon": 13.2843424}, {"type": "node", "id": 3484066324, "lat": 52.4597856, "lon": 13.2843393}, {"type": "node", "id": 3484066332, "lat": 52.4597927, "lon": 13.2843176}, {"type": "node", "id": 3484066428, "lat": 52.4599431, "lon": 13.2834925}, {"type": "node", "id": 3484066433, "lat": 52.4599538, "lon": 13.2835277}, {"type": "node", "id": 3484066434, "lat": 52.459953, "lon": 13.2835064}, {"type": "node", "id": 3484188099, "lat": 52.4511896, "lon": 13.2814733}, {"type": "node", "id": 3484188115, "lat": 52.4515802, "lon": 13.2823932}, {"type": "node", "id": 3484188122, "lat": 52.4517054, "lon": 13.2823269}, {"type": "node", "id": 3484188142, "lat": 52.4519873, "lon": 13.282226}, {"type": "node", "id": 3486372250, "lat": 52.4531665, "lon": 13.2821577}, {"type": "node", "id": 3486382474, "lat": 52.4626473, "lon": 13.2817898}, {"type": "node", "id": 3486382639, "lat": 52.462695, "lon": 13.2817839}, {"type": "node", "id": 3486382658, "lat": 52.4627087, "lon": 13.2821538}, {"type": "node", "id": 3486383331, "lat": 52.4629668, "lon": 13.2815562}, {"type": "node", "id": 3486383594, "lat": 52.4630595, "lon": 13.2818159}, {"type": "node", "id": 3486386218, "lat": 52.4645115, "lon": 13.2828176}, {"type": "node", "id": 3486386223, "lat": 52.4645127, "lon": 13.2774567}, {"type": "node", "id": 3486386253, "lat": 52.4645639, "lon": 13.277494}, {"type": "node", "id": 3486386341, "lat": 52.4646611, "lon": 13.2781321}, {"type": "node", "id": 3486386345, "lat": 52.4646655, "lon": 13.2784244}, {"type": "node", "id": 3486386353, "lat": 52.4646738, "lon": 13.2775709}, {"type": "node", "id": 3486386364, "lat": 52.4646847, "lon": 13.2787234}, {"type": "node", "id": 3486386365, "lat": 52.4646854, "lon": 13.2778477}, {"type": "node", "id": 3486386374, "lat": 52.4646934, "lon": 13.283534}, {"type": "node", "id": 3486386387, "lat": 52.4647208, "lon": 13.2776039}, {"type": "node", "id": 3486386393, "lat": 52.4647245, "lon": 13.2790414}, {"type": "node", "id": 3486386397, "lat": 52.4647281, "lon": 13.2795891}, {"type": "node", "id": 3486386424, "lat": 52.4647445, "lon": 13.2800599}, {"type": "node", "id": 3486386428, "lat": 52.4647479, "lon": 13.2801619}, {"type": "node", "id": 3486386456, "lat": 52.4647775, "lon": 13.2805674}, {"type": "node", "id": 3486386498, "lat": 52.4648111, "lon": 13.2810146}, {"type": "node", "id": 3486386525, "lat": 52.4648455, "lon": 13.2813356}, {"type": "node", "id": 3486386558, "lat": 52.4649039, "lon": 13.2817495}, {"type": "node", "id": 3486386725, "lat": 52.464978, "lon": 13.282113}, {"type": "node", "id": 3486386964, "lat": 52.4651163, "lon": 13.2826238}, {"type": "node", "id": 3486387121, "lat": 52.4652204, "lon": 13.2847933}, {"type": "node", "id": 3486387143, "lat": 52.4652453, "lon": 13.2829898}, {"type": "node", "id": 3486387183, "lat": 52.4653033, "lon": 13.2870497}, {"type": "node", "id": 3486387223, "lat": 52.4653464, "lon": 13.2849572}, {"type": "node", "id": 3486387235, "lat": 52.4653663, "lon": 13.2833068}, {"type": "node", "id": 3486387269, "lat": 52.4654512, "lon": 13.2851218}, {"type": "node", "id": 3486387271, "lat": 52.4654454, "lon": 13.2879243}, {"type": "node", "id": 3486387298, "lat": 52.465498, "lon": 13.2879395}, {"type": "node", "id": 3486387300, "lat": 52.4655114, "lon": 13.2836444}, {"type": "node", "id": 3486387309, "lat": 52.4655327, "lon": 13.2877759}, {"type": "node", "id": 3486387382, "lat": 52.4656257, "lon": 13.2874836}, {"type": "node", "id": 3486387408, "lat": 52.4656891, "lon": 13.2856763}, {"type": "node", "id": 3486387428, "lat": 52.4657278, "lon": 13.2841089}, {"type": "node", "id": 3486387448, "lat": 52.4657665, "lon": 13.2859494}, {"type": "node", "id": 3486387458, "lat": 52.46579, "lon": 13.287127}, {"type": "node", "id": 3486387470, "lat": 52.4658152, "lon": 13.2843031}, {"type": "node", "id": 3486387474, "lat": 52.4658259, "lon": 13.2862627}, {"type": "node", "id": 3486387494, "lat": 52.4658996, "lon": 13.2845232}, {"type": "node", "id": 3486387503, "lat": 52.4659161, "lon": 13.2869155}, {"type": "node", "id": 3486387537, "lat": 52.4659842, "lon": 13.2848061}, {"type": "node", "id": 3486387559, "lat": 52.4660467, "lon": 13.2850879}, {"type": "node", "id": 3486387561, "lat": 52.4660499, "lon": 13.286724}, {"type": "node", "id": 3486387579, "lat": 52.4661097, "lon": 13.2853344}, {"type": "node", "id": 3486387600, "lat": 52.4661809, "lon": 13.2857262}, {"type": "node", "id": 3486387628, "lat": 52.4662576, "lon": 13.2864757}, {"type": "node", "id": 3486387639, "lat": 52.4662714, "lon": 13.2863907}, {"type": "node", "id": 3534143493, "lat": 52.4670335, "lon": 13.3077338, "tags": {"addr:city": "Berlin", "addr:country": "DE", "addr:housenumber": "12", "addr:postcode": "14195", "addr:street": "Breitenbachplatz", "amenity": "restaurant", "cuisine": "mexican;american", "name": "Santa Caf\u00e9", "opening_hours": "Mo-Su,PH 12:00-23:00", "toilets:wheelchair": "no", "website": "https://www.santa-cafe.de", "wheelchair": "no"}}, {"type": "node", "id": 3736494733, "lat": 52.4482399, "lon": 13.2849584}, {"type": "node", "id": 3736494739, "lat": 52.448885, "lon": 13.2852989}, {"type": "node", "id": 3736494741, "lat": 52.4494119, "lon": 13.2828049}, {"type": "node", "id": 3736494742, "lat": 52.4494829, "lon": 13.2829904}, {"type": "node", "id": 3736494743, "lat": 52.4495412, "lon": 13.2832311}, {"type": "node", "id": 3736494744, "lat": 52.4495675, "lon": 13.2834598}, {"type": "node", "id": 3736494773, "lat": 52.4509959, "lon": 13.2823544}, {"type": "node", "id": 3864942884, "lat": 52.4582324, "lon": 13.2920817, "tags": {"addr:city": "Berlin", "addr:housenumber": "39", "addr:postcode": "14195", "addr:street": "K\u00f6nigin-Luise-Stra\u00dfe", "addr:suburb": "Dahlem", "amenity": "cafe", "contact:email": "baciscoffee@googlemail.com", "contact:phone": "+49 17610090609", "contact:website": "https://baciscoffee.eatbu.com/", "name": "Baci\u2019s Coffee", "opening_hours": "Mo-Fr 08:00-18:00; Sa 09:30-17:00", "source": "Geoportal Berlin / Hausumringe"}}, {"type": "node", "id": 3907071247, "lat": 52.4423225, "lon": 13.2751501}, {"type": "node", "id": 3907071251, "lat": 52.4423291, "lon": 13.2750068}, {"type": "node", "id": 3907071256, "lat": 52.4423523, "lon": 13.2745268}, {"type": "node", "id": 3907071285, "lat": 52.4424418, "lon": 13.2712338}, {"type": "node", "id": 3907071286, "lat": 52.4424446, "lon": 13.270941}, {"type": "node", "id": 3907201857, "lat": 52.4433276, "lon": 13.2709661}, {"type": "node", "id": 3907202354, "lat": 52.4446473, "lon": 13.2710752}, {"type": "node", "id": 3907202450, "lat": 52.445978, "lon": 13.2725929}, {"type": "node", "id": 3907202471, "lat": 52.4461257, "lon": 13.2728484}, {"type": "node", "id": 3907202474, "lat": 52.4461793, "lon": 13.2729134}, {"type": "node", "id": 3907202501, "lat": 52.4462819, "lon": 13.2713577}, {"type": "node", "id": 3907202503, "lat": 52.4462889, "lon": 13.2730382}, {"type": "node", "id": 3907202570, "lat": 52.4464995, "lon": 13.273227}, {"type": "node", "id": 3907202582, "lat": 52.446603, "lon": 13.2732999}, {"type": "node", "id": 3907202595, "lat": 52.4467296, "lon": 13.2733728}, {"type": "node", "id": 3907202625, "lat": 52.4470419, "lon": 13.2735276}, {"type": "node", "id": 3907202631, "lat": 52.4470784, "lon": 13.2735446}, {"type": "node", "id": 3907203040, "lat": 52.4480258, "lon": 13.2740159}, {"type": "node", "id": 3907203204, "lat": 52.4483027, "lon": 13.2740948}, {"type": "node", "id": 3907203210, "lat": 52.4483435, "lon": 13.2740838}, {"type": "node", "id": 3907203225, "lat": 52.4484178, "lon": 13.2740509}, {"type": "node", "id": 3907203239, "lat": 52.4485426, "lon": 13.2725707}, {"type": "node", "id": 3907203241, "lat": 52.4485468, "lon": 13.273928}, {"type": "node", "id": 3907203253, "lat": 52.4486071, "lon": 13.2738361}, {"type": "node", "id": 3907203255, "lat": 52.4486132, "lon": 13.2726636}, {"type": "node", "id": 3907203375, "lat": 52.4486528, "lon": 13.2727415}, {"type": "node", "id": 3907203387, "lat": 52.4486917, "lon": 13.2728424}, {"type": "node", "id": 3907203394, "lat": 52.4487355, "lon": 13.2730292}, {"type": "node", "id": 3907203398, "lat": 52.4487465, "lon": 13.273171}, {"type": "node", "id": 3907470748, "lat": 52.4489216, "lon": 13.2739312}, {"type": "node", "id": 3907470977, "lat": 52.4490105, "lon": 13.2735493}, {"type": "node", "id": 3907470980, "lat": 52.4490178, "lon": 13.2735047}, {"type": "node", "id": 3907471205, "lat": 52.4494416, "lon": 13.2742023}, {"type": "node", "id": 3907471766, "lat": 52.4489712, "lon": 13.2669956}, {"type": "node", "id": 3955492665, "lat": 52.4617809, "lon": 13.3051197}, {"type": "node", "id": 3955492666, "lat": 52.461771, "lon": 13.3063441}, {"type": "node", "id": 3957039948, "lat": 52.457863, "lon": 13.2910405, "tags": {"addr:city": "Berlin", "addr:country": "DE", "addr:housenumber": "44", "addr:postcode": "14195", "addr:street": "K\u00f6nigin-Luise-Stra\u00dfe", "addr:suburb": "Dahlem", "amenity": "fast_food", "check_date": "2025-05-06", "check_date:opening_hours": "2025-05-06", "contact:phone": "+49 30 64442373", "contact:website": "https://www.reallygoodlife.de/", "cuisine": "coffee_shop;burger", "diet:vegan": "yes", "diet:vegetarian": "yes", "drive_through": "no", "indoor_seating": "yes", "name": "Reallygoodlife", "opening_hours": "Mo-Su,PH 11:30-02:00", "outdoor_seating": "yes", "payment:contactless": "yes", "payment:credit_cards": "yes", "payment:debit_cards": "yes", "payment:girocard": "yes", "smoking": "no", "takeaway": "yes", "wheelchair": "yes"}}, {"type": "node", "id": 3974152804, "lat": 52.4590842, "lon": 13.2831876, "tags": {"addr:city": "Berlin", "addr:housenumber": "71", "addr:postcode": "14195", "addr:street": "K\u00f6nigin-Luise-Stra\u00dfe", "amenity": "restaurant", "cuisine": "chinese", "name": "Miss Wu", "opening_hours": "Mo-Su 12:00-23:00", "outdoor_seating": "yes", "toilets:wheelchair": "yes", "website": "http://www.misswu.de/", "wheelchair": "yes"}}, {"type": "node", "id": 3997359836, "lat": 52.4593769, "lon": 13.2954062}, {"type": "node", "id": 3997359837, "lat": 52.4595311, "lon": 13.2954262}, {"type": "node", "id": 3997359838, "lat": 52.4595113, "lon": 13.2956941}, {"type": "node", "id": 3997359839, "lat": 52.4593614, "lon": 13.295685}, {"type": "node", "id": 4042353567, "lat": 52.4526539, "lon": 13.273873}, {"type": "node", "id": 4042353568, "lat": 52.4526294, "lon": 13.2740427}, {"type": "node", "id": 4042353569, "lat": 52.4525736, "lon": 13.274021}, {"type": "node", "id": 4042353570, "lat": 52.4525981, "lon": 13.2738513}, {"type": "node", "id": 4076067690, "lat": 52.4495691, "lon": 13.2691994}, {"type": "node", "id": 4076067692, "lat": 52.4496138, "lon": 13.2692218}, {"type": "node", "id": 4095033690, "lat": 52.448578, "lon": 13.2680194}, {"type": "node", "id": 4305457723, "lat": 52.4569991, "lon": 13.2501554}, {"type": "node", "id": 4317979052, "lat": 52.4517261, "lon": 13.2630571, "tags": {"access": "yes", "addr:city": "Berlin", "addr:housenumber": "23", "addr:postcode": "14169", "addr:street": "Am Waldfriedhof", "amenity": "clinic", "contact:website": "http://www.mvz-zehlendorf.de/", "healthcare": "clinic", "name": "MVZ Zehlendorf", "operator": "\u00fcBAG AnthroMed BB", "wheelchair": "yes"}}, {"type": "node", "id": 4337839795, "lat": 52.4734873, "lon": 13.2798813}, {"type": "node", "id": 4337839797, "lat": 52.4737695, "lon": 13.279482}, {"type": "node", "id": 4337839800, "lat": 52.473879, "lon": 13.2793077}, {"type": "node", "id": 4337839805, "lat": 52.474056, "lon": 13.2787966}, {"type": "node", "id": 4337839809, "lat": 52.4747602, "lon": 13.2787737}, {"type": "node", "id": 4337839810, "lat": 52.474821, "lon": 13.2788046}, {"type": "node", "id": 4337839811, "lat": 52.4748162, "lon": 13.2789274}, {"type": "node", "id": 4404131268, "lat": 52.4540115, "lon": 13.3082013}, {"type": "node", "id": 4404131274, "lat": 52.45409, "lon": 13.3081665}, {"type": "node", "id": 4406745053, "lat": 52.4476695, "lon": 13.2677095}, {"type": "node", "id": 4430734888, "lat": 52.4517711, "lon": 13.2694781}, {"type": "node", "id": 4442174758, "lat": 52.4473551, "lon": 13.2674362}, {"type": "node", "id": 4442174759, "lat": 52.4473438, "lon": 13.2675344}, {"type": "node", "id": 4442174760, "lat": 52.4475537, "lon": 13.2672527}, {"type": "node", "id": 4442174762, "lat": 52.4475968, "lon": 13.2673026}, {"type": "node", "id": 4590302593, "lat": 52.4495841, "lon": 13.2694016, "tags": {"addr:city": "Berlin", "addr:country": "DE", "addr:housenumber": "225", "addr:postcode": "14195", "addr:street": "Clayallee", "addr:suburb": "Dahlem", "amenity": "pharmacy", "healthcare": "pharmacy", "name": "B\u00e4renapotheke", "wheelchair": "yes"}}, {"type": "node", "id": 4605994602, "lat": 52.4671219, "lon": 13.3086489}, {"type": "node", "id": 4605994604, "lat": 52.4671378, "lon": 13.3085637}, {"type": "node", "id": 4605994605, "lat": 52.4670902, "lon": 13.3084793}, {"type": "node", "id": 4605994623, "lat": 52.466416, "lon": 13.308402}, {"type": "node", "id": 4605994624, "lat": 52.4665203, "lon": 13.3085936}, {"type": "node", "id": 4605994625, "lat": 52.4668697, "lon": 13.3079207}, {"type": "node", "id": 4638839443, "lat": 52.4565333, "lon": 13.2950662}, {"type": "node", "id": 4638839482, "lat": 52.456505, "lon": 13.2950445}, {"type": "node", "id": 4638839521, "lat": 52.4565449, "lon": 13.2950943}, {"type": "node", "id": 4638839767, "lat": 52.4564562, "lon": 13.2951001}, {"type": "node", "id": 4638839808, "lat": 52.4565201, "lon": 13.2950809}, {"type": "node", "id": 4656560689, "lat": 52.467232, "lon": 13.3082149, "tags": {"amenity": "pharmacy", "healthcare": "pharmacy", "name": "Zwilling Apotheke", "opening_hours": "Mo-Fr 08:30-19:00; Sa 08:30-14:00", "operator": "R. H. Scheer", "phone": "+49 30 897999-0", "website": "http://www.zwilling-apotheke.de/", "wheelchair": "no"}}, {"type": "node", "id": 4674506178, "lat": 52.4592796, "lon": 13.2960381}, {"type": "node", "id": 4741168900, "lat": 52.4484333, "lon": 13.2757614, "tags": {"addr:city": "Berlin", "addr:housenumber": "46", "addr:postcode": "14195", "addr:street": "Garystra\u00dfe", "amenity": "fast_food", "cuisine": "turkish", "diet:vegetarian": "yes", "name": "K\u00f6fte Burger"}}, {"type": "node", "id": 4954651329, "lat": 52.4619205, "lon": 13.2689083, "tags": {"access": "customers", "leisure": "playground"}}, {"type": "node", "id": 5008481025, "lat": 52.4476504, "lon": 13.2674287}, {"type": "node", "id": 5008481026, "lat": 52.4476209, "lon": 13.2673431}, {"type": "node", "id": 5008481027, "lat": 52.4477417, "lon": 13.2675679}, {"type": "node", "id": 5008481028, "lat": 52.4476903, "lon": 13.2676347}, {"type": "node", "id": 5008481029, "lat": 52.4473349, "lon": 13.267474}, {"type": "node", "id": 5017435631, "lat": 52.4483965, "lon": 13.2848836}, {"type": "node", "id": 5017435632, "lat": 52.4487318, "lon": 13.2845648}, {"type": "node", "id": 5017435633, "lat": 52.4487821, "lon": 13.2848681}, {"type": "node", "id": 5017435634, "lat": 52.4486039, "lon": 13.2849695}, {"type": "node", "id": 5147573239, "lat": 52.4662168, "lon": 13.3076371}, {"type": "node", "id": 5147573240, "lat": 52.4662208, "lon": 13.3075283}, {"type": "node", "id": 5147573242, "lat": 52.4663193, "lon": 13.3074093}, {"type": "node", "id": 5217515907, "lat": 52.4504674, "lon": 13.2829474}, {"type": "node", "id": 5273066715, "lat": 52.4629924, "lon": 13.2925028}, {"type": "node", "id": 5273066716, "lat": 52.4630038, "lon": 13.2924311}, {"type": "node", "id": 5273066717, "lat": 52.4630014, "lon": 13.2923828}, {"type": "node", "id": 5273066718, "lat": 52.4629523, "lon": 13.2923513}, {"type": "node", "id": 5273066719, "lat": 52.4629188, "lon": 13.2923908}, {"type": "node", "id": 5273066720, "lat": 52.4629041, "lon": 13.2924445}, {"type": "node", "id": 5273066821, "lat": 52.4629255, "lon": 13.2924896}, {"type": "node", "id": 5273066822, "lat": 52.4629544, "lon": 13.2925194}, {"type": "node", "id": 5275122576, "lat": 52.4629762, "lon": 13.2922695}, {"type": "node", "id": 5275122577, "lat": 52.4629931, "lon": 13.2922831}, {"type": "node", "id": 5275122578, "lat": 52.4629907, "lon": 13.2923162}, {"type": "node", "id": 5275122579, "lat": 52.4629809, "lon": 13.2923607}, {"type": "node", "id": 5275122580, "lat": 52.4629655, "lon": 13.2922979}, {"type": "node", "id": 5275142135, "lat": 52.4644528, "lon": 13.3023763}, {"type": "node", "id": 5275142136, "lat": 52.4644806, "lon": 13.302552}, {"type": "node", "id": 5275142137, "lat": 52.4644161, "lon": 13.3025828}, {"type": "node", "id": 5275142138, "lat": 52.4643883, "lon": 13.3024072}, {"type": "node", "id": 5275392236, "lat": 52.4640875, "lon": 13.3024961}, {"type": "node", "id": 5275392238, "lat": 52.4639929, "lon": 13.302896}, {"type": "node", "id": 5275392239, "lat": 52.464171, "lon": 13.3026488}, {"type": "node", "id": 5284357177, "lat": 52.4664959, "lon": 13.2556014}, {"type": "node", "id": 5284357180, "lat": 52.466485, "lon": 13.2556918}, {"type": "node", "id": 5284357181, "lat": 52.4665103, "lon": 13.2557425}, {"type": "node", "id": 5284357182, "lat": 52.4665424, "lon": 13.2557645}, {"type": "node", "id": 5284357183, "lat": 52.4665894, "lon": 13.2556552}, {"type": "node", "id": 5284357184, "lat": 52.4665455, "lon": 13.2556101}, {"type": "node", "id": 5309406258, "lat": 52.4523685, "lon": 13.2631497}, {"type": "node", "id": 5309406259, "lat": 52.4523336, "lon": 13.2633194}, {"type": "node", "id": 5309406260, "lat": 52.4522232, "lon": 13.2637113}, {"type": "node", "id": 5309406261, "lat": 52.4522081, "lon": 13.2637734}, {"type": "node", "id": 5309406262, "lat": 52.4521983, "lon": 13.263832}, {"type": "node", "id": 5309406263, "lat": 52.452193, "lon": 13.2638813}, {"type": "node", "id": 5309406264, "lat": 52.4528106, "lon": 13.2645361}, {"type": "node", "id": 5309406265, "lat": 52.4528687, "lon": 13.2640667}, {"type": "node", "id": 5309406266, "lat": 52.452413, "lon": 13.2628443}, {"type": "node", "id": 5309406267, "lat": 52.4523603, "lon": 13.2632232}, {"type": "node", "id": 5309729112, "lat": 52.456127, "lon": 13.2708285}, {"type": "node", "id": 5309729113, "lat": 52.4559062, "lon": 13.270735}, {"type": "node", "id": 5309729114, "lat": 52.4559023, "lon": 13.2706738}, {"type": "node", "id": 5309729115, "lat": 52.4561328, "lon": 13.2705965}, {"type": "node", "id": 5309730274, "lat": 52.4546101, "lon": 13.2718199}, {"type": "node", "id": 5309730275, "lat": 52.4547344, "lon": 13.2717703}, {"type": "node", "id": 5309730279, "lat": 52.4547706, "lon": 13.2717451}, {"type": "node", "id": 5309730297, "lat": 52.4592721, "lon": 13.2757252}, {"type": "node", "id": 5309730298, "lat": 52.4593049, "lon": 13.2756105}, {"type": "node", "id": 5309730306, "lat": 52.459286, "lon": 13.2757134}, {"type": "node", "id": 5309730703, "lat": 52.4592396, "lon": 13.2756454}, {"type": "node", "id": 5309730705, "lat": 52.459244, "lon": 13.2756653}, {"type": "node", "id": 5309730722, "lat": 52.4592786, "lon": 13.2755838}, {"type": "node", "id": 5309730726, "lat": 52.4592481, "lon": 13.2756252}, {"type": "node", "id": 5309757475, "lat": 52.4575941, "lon": 13.263689}, {"type": "node", "id": 5309757476, "lat": 52.4577922, "lon": 13.263344}, {"type": "node", "id": 5309757477, "lat": 52.4577903, "lon": 13.2633474}, {"type": "node", "id": 5309757478, "lat": 52.4575944, "lon": 13.2635873}, {"type": "node", "id": 5309757479, "lat": 52.4577226, "lon": 13.2633626}, {"type": "node", "id": 5309757480, "lat": 52.4577495, "lon": 13.2633601}, {"type": "node", "id": 5309757481, "lat": 52.4577593, "lon": 13.2633752}, {"type": "node", "id": 5309757499, "lat": 52.4563416, "lon": 13.2672981}, {"type": "node", "id": 5309757500, "lat": 52.4563528, "lon": 13.2674408}, {"type": "node", "id": 5309757501, "lat": 52.4561741, "lon": 13.2677485}, {"type": "node", "id": 5309757502, "lat": 52.4560648, "lon": 13.267578}, {"type": "node", "id": 5309757503, "lat": 52.4562783, "lon": 13.2672047}, {"type": "node", "id": 5312660630, "lat": 52.457565, "lon": 13.2680874}, {"type": "node", "id": 5312660631, "lat": 52.4574583, "lon": 13.268223}, {"type": "node", "id": 5312660632, "lat": 52.4576263, "lon": 13.268906}, {"type": "node", "id": 5312660633, "lat": 52.4578606, "lon": 13.269083}, {"type": "node", "id": 5312660634, "lat": 52.4577472, "lon": 13.2685859}, {"type": "node", "id": 5316404202, "lat": 52.4724327, "lon": 13.281499}, {"type": "node", "id": 5316404204, "lat": 52.4724768, "lon": 13.2816218}, {"type": "node", "id": 5316404206, "lat": 52.472381, "lon": 13.281711}, {"type": "node", "id": 5316404207, "lat": 52.4723372, "lon": 13.2815866}, {"type": "node", "id": 5316404210, "lat": 52.4725992, "lon": 13.2819531}, {"type": "node", "id": 5316404212, "lat": 52.4734052, "lon": 13.2808473}, {"type": "node", "id": 5316404215, "lat": 52.4739693, "lon": 13.2790876}, {"type": "node", "id": 5316404216, "lat": 52.4748035, "lon": 13.2787852}, {"type": "node", "id": 5316404217, "lat": 52.4748324, "lon": 13.2788541}, {"type": "node", "id": 5316404218, "lat": 52.474828, "lon": 13.278898}, {"type": "node", "id": 5316404219, "lat": 52.4742504, "lon": 13.2796861}, {"type": "node", "id": 5316404324, "lat": 52.4723218, "lon": 13.2811946}, {"type": "node", "id": 5316667309, "lat": 52.4643643, "lon": 13.2816091}, {"type": "node", "id": 5316667310, "lat": 52.465333, "lon": 13.2832307}, {"type": "node", "id": 5316667311, "lat": 52.4650672, "lon": 13.2824488}, {"type": "node", "id": 5316667312, "lat": 52.4648703, "lon": 13.2815568}, {"type": "node", "id": 5316667392, "lat": 52.4653765, "lon": 13.2897733}, {"type": "node", "id": 5316667440, "lat": 52.4667447, "lon": 13.2896102}, {"type": "node", "id": 5316667441, "lat": 52.4667646, "lon": 13.2895378}, {"type": "node", "id": 5316667442, "lat": 52.4667633, "lon": 13.289442}, {"type": "node", "id": 5316667443, "lat": 52.4644246, "lon": 13.2942987}, {"type": "node", "id": 5316667444, "lat": 52.4644014, "lon": 13.2933729}, {"type": "node", "id": 5316667445, "lat": 52.4643908, "lon": 13.2934697}, {"type": "node", "id": 5316667446, "lat": 52.4643657, "lon": 13.2942978}, {"type": "node", "id": 5316667447, "lat": 52.4643648, "lon": 13.2941068}, {"type": "node", "id": 5316667448, "lat": 52.4646542, "lon": 13.2918499}, {"type": "node", "id": 5316667449, "lat": 52.4653088, "lon": 13.2900883}, {"type": "node", "id": 5316667450, "lat": 52.4653417, "lon": 13.2899395}, {"type": "node", "id": 5316667451, "lat": 52.4666298, "lon": 13.2899976}, {"type": "node", "id": 5316667452, "lat": 52.4663509, "lon": 13.2905664}, {"type": "node", "id": 5316667453, "lat": 52.4669285, "lon": 13.2896581}, {"type": "node", "id": 5316667454, "lat": 52.4646206, "lon": 13.2941537}, {"type": "node", "id": 5316667455, "lat": 52.4648658, "lon": 13.2913344}, {"type": "node", "id": 5316667456, "lat": 52.4644948, "lon": 13.2923877}, {"type": "node", "id": 5316667457, "lat": 52.465084, "lon": 13.2908121}, {"type": "node", "id": 5316667458, "lat": 52.4664429, "lon": 13.290333}, {"type": "node", "id": 5316667459, "lat": 52.4653796, "lon": 13.2915175}, {"type": "node", "id": 5316667460, "lat": 52.4649101, "lon": 13.2938489}, {"type": "node", "id": 5316667461, "lat": 52.4643853, "lon": 13.292959}, {"type": "node", "id": 5316667462, "lat": 52.466387, "lon": 13.2904685}, {"type": "node", "id": 5316667463, "lat": 52.4644554, "lon": 13.2925838}, {"type": "node", "id": 5316667464, "lat": 52.4645996, "lon": 13.2920089}, {"type": "node", "id": 5316667465, "lat": 52.4643405, "lon": 13.2933627}, {"type": "node", "id": 5316667466, "lat": 52.4647523, "lon": 13.2915991}, {"type": "node", "id": 5316667467, "lat": 52.4652933, "lon": 13.2916755}, {"type": "node", "id": 5316667468, "lat": 52.4643716, "lon": 13.2937439}, {"type": "node", "id": 5316667469, "lat": 52.4668566, "lon": 13.2894603}, {"type": "node", "id": 5316667470, "lat": 52.4667136, "lon": 13.2899058}, {"type": "node", "id": 5316667471, "lat": 52.4651816, "lon": 13.2905357}, {"type": "node", "id": 5316667472, "lat": 52.4644374, "lon": 13.2943382}, {"type": "node", "id": 5316667473, "lat": 52.4651326, "lon": 13.2921429}, {"type": "node", "id": 5316667474, "lat": 52.4651889, "lon": 13.2919436}, {"type": "node", "id": 5316667475, "lat": 52.4665907, "lon": 13.2900587}, {"type": "node", "id": 5316667476, "lat": 52.4656212, "lon": 13.2912362}, {"type": "node", "id": 5316667477, "lat": 52.4650759, "lon": 13.2923993}, {"type": "node", "id": 5316667478, "lat": 52.4654311, "lon": 13.2898049}, {"type": "node", "id": 5316667479, "lat": 52.4665174, "lon": 13.2901821}, {"type": "node", "id": 5316667480, "lat": 52.4654964, "lon": 13.2913442}, {"type": "node", "id": 5316667481, "lat": 52.4650186, "lon": 13.292995}, {"type": "node", "id": 5316667482, "lat": 52.4662889, "lon": 13.2907227}, {"type": "node", "id": 5316667483, "lat": 52.4662574, "lon": 13.2908023}, {"type": "node", "id": 5316667484, "lat": 52.4662151, "lon": 13.290886}, {"type": "node", "id": 5316667485, "lat": 52.4661715, "lon": 13.2909515}, {"type": "node", "id": 5316667486, "lat": 52.4660989, "lon": 13.2910265}, {"type": "node", "id": 5316667487, "lat": 52.4659944, "lon": 13.2910997}, {"type": "node", "id": 5316667488, "lat": 52.4658891, "lon": 13.2911379}, {"type": "node", "id": 5316667491, "lat": 52.4657548, "lon": 13.2911763}, {"type": "node", "id": 5316667671, "lat": 52.4698017, "lon": 13.2857522}, {"type": "node", "id": 5316667675, "lat": 52.4673651, "lon": 13.2881127}, {"type": "node", "id": 5316667676, "lat": 52.4679056, "lon": 13.2872164}, {"type": "node", "id": 5316667678, "lat": 52.4722307, "lon": 13.281305}, {"type": "node", "id": 5316667679, "lat": 52.4725126, "lon": 13.28206}, {"type": "node", "id": 5316667681, "lat": 52.4699407, "lon": 13.2855663}, {"type": "node", "id": 5316667682, "lat": 52.4693251, "lon": 13.2864052}, {"type": "node", "id": 5316667685, "lat": 52.4673763, "lon": 13.2880352}, {"type": "node", "id": 5316667686, "lat": 52.4673912, "lon": 13.2879598}, {"type": "node", "id": 5316667687, "lat": 52.4674558, "lon": 13.2878028}, {"type": "node", "id": 5316667688, "lat": 52.4674148, "lon": 13.2878843}, {"type": "node", "id": 5316667689, "lat": 52.4673552, "lon": 13.2883064}, {"type": "node", "id": 5316667691, "lat": 52.4689414, "lon": 13.2869224}, {"type": "node", "id": 5316667692, "lat": 52.4706437, "lon": 13.2835875}, {"type": "node", "id": 5316667693, "lat": 52.4673589, "lon": 13.2890801}, {"type": "node", "id": 5316667694, "lat": 52.4686595, "lon": 13.2862312}, {"type": "node", "id": 5316667695, "lat": 52.4714384, "lon": 13.2823871}, {"type": "node", "id": 5316667696, "lat": 52.4673502, "lon": 13.2884307}, {"type": "node", "id": 5316667697, "lat": 52.4697719, "lon": 13.284783}, {"type": "node", "id": 5316667698, "lat": 52.4697797, "lon": 13.2857843}, {"type": "node", "id": 5316667699, "lat": 52.4696249, "lon": 13.2849882}, {"type": "node", "id": 5316667700, "lat": 52.4673266, "lon": 13.2890791}, {"type": "node", "id": 5316667701, "lat": 52.4673154, "lon": 13.2890475}, {"type": "node", "id": 5316667702, "lat": 52.4707868, "lon": 13.2844163}, {"type": "node", "id": 5319055130, "lat": 52.4650593, "lon": 13.292534}, {"type": "node", "id": 5319055131, "lat": 52.4649915, "lon": 13.29299}, {"type": "node", "id": 5325418890, "lat": 52.4559171, "lon": 13.3090342}, {"type": "node", "id": 5401887551, "lat": 52.4577527, "lon": 13.2691533}, {"type": "node", "id": 5453466849, "lat": 52.4575908, "lon": 13.2686037}, {"type": "node", "id": 5484328009, "lat": 52.4574748, "lon": 13.2508947}, {"type": "node", "id": 5484328010, "lat": 52.4571938, "lon": 13.2506895}, {"type": "node", "id": 5484328011, "lat": 52.4571312, "lon": 13.2506258}, {"type": "node", "id": 5484328012, "lat": 52.4571083, "lon": 13.2505951}, {"type": "node", "id": 5484328013, "lat": 52.4570608, "lon": 13.2505133}, {"type": "node", "id": 5484328014, "lat": 52.4570084, "lon": 13.250361}, {"type": "node", "id": 5484328136, "lat": 52.4573482, "lon": 13.2507955}, {"type": "node", "id": 5520514280, "lat": 52.4576027, "lon": 13.2687962}, {"type": "node", "id": 5520762711, "lat": 52.4589489, "lon": 13.2736685, "tags": {"access": "customers", "leisure": "playground", "playground": "structure"}}, {"type": "node", "id": 5535477506, "lat": 52.4505823, "lon": 13.2828197}, {"type": "node", "id": 5570016009, "lat": 52.4526246, "lon": 13.2667999}, {"type": "node", "id": 5570016010, "lat": 52.4526716, "lon": 13.266434}, {"type": "node", "id": 5570016011, "lat": 52.4529813, "lon": 13.2665803}, {"type": "node", "id": 5570016012, "lat": 52.452746, "lon": 13.2668568}, {"type": "node", "id": 5570784779, "lat": 52.4575331, "lon": 13.2684072}, {"type": "node", "id": 5587550741, "lat": 52.4518489, "lon": 13.2705479, "tags": {"amenity": "cafe", "cuisine": "coffee_shop", "internet_access": "no", "name": "Truman Cafe Edeka Sch\u00e4fers", "wheelchair": "yes"}}, {"type": "node", "id": 5590521655, "lat": 52.4529659, "lon": 13.2629553}, {"type": "node", "id": 5590521662, "lat": 52.4521605, "lon": 13.2644408}, {"type": "node", "id": 5590521663, "lat": 52.4526535, "lon": 13.2648383}, {"type": "node", "id": 5590521664, "lat": 52.4523538, "lon": 13.2647976}, {"type": "node", "id": 5590521665, "lat": 52.452329, "lon": 13.2650415}, {"type": "node", "id": 5590521666, "lat": 52.4526288, "lon": 13.2650944}, {"type": "node", "id": 5590521671, "lat": 52.4526955, "lon": 13.2646991}, {"type": "node", "id": 5590521691, "lat": 52.4563507, "lon": 13.2674443}, {"type": "node", "id": 5590521692, "lat": 52.4562362, "lon": 13.2676415}, {"type": "node", "id": 5703016575, "lat": 52.4659386, "lon": 13.2906892}, {"type": "node", "id": 5703016576, "lat": 52.4659823, "lon": 13.2904433}, {"type": "node", "id": 5703017160, "lat": 52.4658098, "lon": 13.2903898}, {"type": "node", "id": 5703017161, "lat": 52.4657623, "lon": 13.2905317}, {"type": "node", "id": 5846555337, "lat": 52.4573157, "lon": 13.3074279}, {"type": "node", "id": 5846555347, "lat": 52.4577564, "lon": 13.30682}, {"type": "node", "id": 5846559604, "lat": 52.4565871, "lon": 13.3082846}, {"type": "node", "id": 5846559609, "lat": 52.4565244, "lon": 13.3083477}, {"type": "node", "id": 5846559610, "lat": 52.4569913, "lon": 13.3078776}, {"type": "node", "id": 5846591142, "lat": 52.4560174, "lon": 13.3088575}, {"type": "node", "id": 5873377354, "lat": 52.4518708, "lon": 13.3104669}, {"type": "node", "id": 5873377368, "lat": 52.4516488, "lon": 13.3098498}, {"type": "node", "id": 5873377383, "lat": 52.4528456, "lon": 13.3096349, "tags": {"access": "private", "barrier": "gate"}}, {"type": "node", "id": 5873378687, "lat": 52.4518984, "lon": 13.3104122}, {"type": "node", "id": 5873378696, "lat": 52.4539548, "lon": 13.3081504}, {"type": "node", "id": 5873378702, "lat": 52.4516861, "lon": 13.3098373}, {"type": "node", "id": 5873378712, "lat": 52.4522448, "lon": 13.3102508}, {"type": "node", "id": 5873378719, "lat": 52.4516697, "lon": 13.3098313}, {"type": "node", "id": 5873378730, "lat": 52.4518944, "lon": 13.310443}, {"type": "node", "id": 5922530386, "lat": 52.4579442, "lon": 13.3051473, "tags": {"barrier": "gate", "foot": "private", "motor_vehicle": "private"}}, {"type": "node", "id": 5922530390, "lat": 52.4579748, "lon": 13.3059522, "tags": {"access": "no", "barrier": "gate", "bicycle": "no", "foot": "no", "horse": "no", "motor_vehicle": "no"}}, {"type": "node", "id": 6071422170, "lat": 52.4558493, "lon": 13.296996, "tags": {"addr:city": "Berlin", "addr:door": "K34", "addr:housenumber": "9", "addr:postcode": "14195", "addr:street": "Takustra\u00dfe", "air_conditioning": "no", "alt_name": "Cafete", "amenity": "cafe", "check_date": "2023-11-13", "cuisine": "bistro", "description": "Caf\u00e9teria", "diet:halal": "yes", "diet:vegan": "yes", "diet:vegetarian": "yes", "drink:club-mate": "yes", "indoor_seating": "yes", "internet_access": "wlan", "level": "-1", "name": "Cafete", "opening_hours": "Mo-Fr 09:00-16:00 \"unknown\"; Mo-Fr 09:45-10:15, 11:45-12:15, 13:45-14:15; PH off", "outdoor_seating": "no", "payment:cash": "yes", "payment:credit_cards": "no", "payment:debit_cards": "no", "phone": "+49 30 83875207", "smoking": "no", "snack": "yes", "wheelchair": "yes"}}, {"type": "node", "id": 6119366682, "lat": 52.4581604, "lon": 13.2904799}, {"type": "node", "id": 6119366683, "lat": 52.4581432, "lon": 13.2905321}, {"type": "node", "id": 6119366684, "lat": 52.4581685, "lon": 13.2905525}, {"type": "node", "id": 6119371385, "lat": 52.4581835, "lon": 13.2905021}, {"type": "node", "id": 6135636926, "lat": 52.4586334, "lon": 13.3042554}, {"type": "node", "id": 6135636927, "lat": 52.4586213, "lon": 13.3044018}, {"type": "node", "id": 6135636928, "lat": 52.4583325, "lon": 13.3038294}, {"type": "node", "id": 6135638347, "lat": 52.4558632, "lon": 13.3010675}, {"type": "node", "id": 6222367531, "lat": 52.4517695, "lon": 13.31006, "tags": {"access": "no", "barrier": "gate", "entrance": "yes", "note": "entrance currently not in use due to construction"}}, {"type": "node", "id": 6251077779, "lat": 52.4453064, "lon": 13.2711076}, {"type": "node", "id": 6302257542, "lat": 52.4588263, "lon": 13.3031341}, {"type": "node", "id": 6302257543, "lat": 52.4588556, "lon": 13.3031005}, {"type": "node", "id": 6302257544, "lat": 52.4587761, "lon": 13.302942}, {"type": "node", "id": 6302257545, "lat": 52.4587547, "lon": 13.302967}, {"type": "node", "id": 6302257546, "lat": 52.4588084, "lon": 13.3031254}, {"type": "node", "id": 6302257547, "lat": 52.4588548, "lon": 13.3030703}, {"type": "node", "id": 6302257548, "lat": 52.458756, "lon": 13.302993}, {"type": "node", "id": 6302257549, "lat": 52.4587919, "lon": 13.3029498}, {"type": "node", "id": 6302257550, "lat": 52.4587447, "lon": 13.3031662}, {"type": "node", "id": 6302439495, "lat": 52.4617996, "lon": 13.3057521}, {"type": "node", "id": 6353108381, "lat": 52.467413, "lon": 13.3084766, "tags": {"addr:city": "Berlin", "addr:housenumber": "8", "addr:postcode": "14195", "addr:street": "Breitenbachplatz", "amenity": "restaurant", "cuisine": "chinese", "delivery": "yes", "diet:vegetarian": "yes", "indoor_seating": "yes", "name": "Guo Guo Xiang", "opening_hours": "We-Mo 11:30-22:00", "outdoor_seating": "yes", "phone": "+49 30 4373 6698", "takeaway": "yes", "website": "https://www.ggx-restaurant.de", "wheelchair": "no"}}, {"type": "node", "id": 6482050551, "lat": 52.4496963, "lon": 13.2665841}, {"type": "node", "id": 6482050552, "lat": 52.4494651, "lon": 13.2662703}, {"type": "node", "id": 6513497215, "lat": 52.458524, "lon": 13.3044144}, {"type": "node", "id": 6513497216, "lat": 52.4585056, "lon": 13.3044069}, {"type": "node", "id": 6513497217, "lat": 52.4584867, "lon": 13.3044065}, {"type": "node", "id": 6513497218, "lat": 52.4584637, "lon": 13.3044162}, {"type": "node", "id": 6513497219, "lat": 52.4584422, "lon": 13.304438}, {"type": "node", "id": 6513497220, "lat": 52.4584264, "lon": 13.3044669}, {"type": "node", "id": 6513497221, "lat": 52.4584208, "lon": 13.3044831}, {"type": "node", "id": 6513497222, "lat": 52.4585382, "lon": 13.3044268}, {"type": "node", "id": 6513497228, "lat": 52.458377, "lon": 13.3046723}, {"type": "node", "id": 6513497229, "lat": 52.4583757, "lon": 13.3046651}, {"type": "node", "id": 6513497230, "lat": 52.457967, "lon": 13.3049159}, {"type": "node", "id": 6513497231, "lat": 52.4579536, "lon": 13.3049223}, {"type": "node", "id": 6513497233, "lat": 52.4579769, "lon": 13.3050532}, {"type": "node", "id": 6518931487, "lat": 52.4577359, "lon": 13.2665717, "tags": {"leisure": "playground"}}, {"type": "node", "id": 6556044987, "lat": 52.4660478, "lon": 13.3062983, "tags": {"addr:city": "Berlin", "addr:housenumber": "10", "addr:postcode": "14195", "addr:street": "Spilstra\u00dfe", "amenity": "restaurant", "check_date": "2024-10-16", "check_date:opening_hours": "2024-10-16", "cuisine": "italian", "indoor_seating": "yes", "name": "Tagesbar", "opening_hours": "Mo-Fr 12:00-22:00; Sa 16:00-22:00", "outdoor_seating": "yes", "toilets:wheelchair": "yes", "wheelchair": "yes"}}, {"type": "node", "id": 6645856242, "lat": 52.4528373, "lon": 13.2808181}, {"type": "node", "id": 6645856243, "lat": 52.4527921, "lon": 13.2808162}, {"type": "node", "id": 6645857793, "lat": 52.4485549, "lon": 13.2873331}, {"type": "node", "id": 6645857794, "lat": 52.4487788, "lon": 13.2870869}, {"type": "node", "id": 6645866627, "lat": 52.4531277, "lon": 13.2821189}, {"type": "node", "id": 6685043738, "lat": 52.4530965, "lon": 13.2709033}, {"type": "node", "id": 6685043739, "lat": 52.4530333, "lon": 13.2708627}, {"type": "node", "id": 6685067019, "lat": 52.449617, "lon": 13.2669308}, {"type": "node", "id": 6685067020, "lat": 52.4495012, "lon": 13.2668167}, {"type": "node", "id": 6685067021, "lat": 52.4494317, "lon": 13.266837}, {"type": "node", "id": 6685067022, "lat": 52.4493541, "lon": 13.2667653}, {"type": "node", "id": 6700717678, "lat": 52.4495839, "lon": 13.2692543, "tags": {"addr:city": "Berlin", "addr:country": "DE", "addr:housenumber": "225", "addr:postcode": "14195", "addr:street": "Clayallee", "addr:suburb": "Dahlem", "amenity": "cafe", "check_date:opening_hours": "2024-01-14", "name": "Breadleys", "opening_hours": "Mo-Fr 08:00-18:00", "wheelchair": "yes"}}, {"type": "node", "id": 6853840081, "lat": 52.4578609, "lon": 13.3052806}, {"type": "node", "id": 6854488175, "lat": 52.45798, "lon": 13.3050747}, {"type": "node", "id": 6854488178, "lat": 52.4579466, "lon": 13.3057906}, {"type": "node", "id": 6854488179, "lat": 52.4579479, "lon": 13.3050896}, {"type": "node", "id": 6854488182, "lat": 52.4579569, "lon": 13.3051415}, {"type": "node", "id": 6982103606, "lat": 52.4582142, "lon": 13.2909032, "tags": {"addr:housenumber": "43", "addr:postcode": "14195", "addr:street": "K\u00f6nigin-Luise-Stra\u00dfe", "amenity": "cafe", "check_date": "2024-10-18", "check_date:opening_hours": "2024-10-18", "diet:vegetarian": "yes", "name": "BioBackHaus", "opening_hours": "Mo-Sa 07:00-18:00; Su 08:00-18:00", "phone": "+49 3084 417 080", "website": "https://das-biobackhaus.de/filialen-standorte/berlin-zehlendorf-koenigin-luise-strasse/"}}, {"type": "node", "id": 7006486712, "lat": 52.4532066, "lon": 13.2812403}, {"type": "node", "id": 7006486713, "lat": 52.4531674, "lon": 13.2812858}, {"type": "node", "id": 7006486714, "lat": 52.4531915, "lon": 13.2813207}, {"type": "node", "id": 7006486715, "lat": 52.4532969, "lon": 13.2813214}, {"type": "node", "id": 7006486716, "lat": 52.4533108, "lon": 13.2812892}, {"type": "node", "id": 7027349868, "lat": 52.4456663, "lon": 13.2722351}, {"type": "node", "id": 7058724388, "lat": 52.4586399, "lon": 13.3043915}, {"type": "node", "id": 7093891130, "lat": 52.452274, "lon": 13.302793}, {"type": "node", "id": 7141526649, "lat": 52.458157, "lon": 13.3034197, "tags": {"barrier": "gate"}}, {"type": "node", "id": 7141564304, "lat": 52.4574476, "lon": 13.3027109}, {"type": "node", "id": 7276865211, "lat": 52.4553877, "lon": 13.2726197, "tags": {"barrier": "gate"}}, {"type": "node", "id": 7276865213, "lat": 52.4560818, "lon": 13.2729644}, {"type": "node", "id": 7276865218, "lat": 52.4559095, "lon": 13.2729003, "tags": {"barrier": "gate", "foot": "yes"}}, {"type": "node", "id": 7276865219, "lat": 52.4553777, "lon": 13.2726854}, {"type": "node", "id": 7276865220, "lat": 52.4553983, "lon": 13.2725496}, {"type": "node", "id": 7530032784, "lat": 52.4598746, "lon": 13.2771956}, {"type": "node", "id": 7530051494, "lat": 52.4559054, "lon": 13.2827238}, {"type": "node", "id": 7530051496, "lat": 52.4558825, "lon": 13.2827862}, {"type": "node", "id": 7530051498, "lat": 52.4558333, "lon": 13.282812}, {"type": "node", "id": 7530051499, "lat": 52.4557041, "lon": 13.282721}, {"type": "node", "id": 7530051501, "lat": 52.4556047, "lon": 13.282651}, {"type": "node", "id": 7530051504, "lat": 52.4555448, "lon": 13.2826168}, {"type": "node", "id": 7530051506, "lat": 52.4553779, "lon": 13.2825562}, {"type": "node", "id": 7530051508, "lat": 52.4551622, "lon": 13.2825105}, {"type": "node", "id": 7537218143, "lat": 52.4535507, "lon": 13.308631}, {"type": "node", "id": 7554401024, "lat": 52.4537638, "lon": 13.299443}, {"type": "node", "id": 7554401025, "lat": 52.453169, "lon": 13.3002005}, {"type": "node", "id": 7554401048, "lat": 52.4536975, "lon": 13.2984352}, {"type": "node", "id": 7554401049, "lat": 52.4537816, "lon": 13.2983349}, {"type": "node", "id": 7554401050, "lat": 52.4538307, "lon": 13.2982537}, {"type": "node", "id": 7554401051, "lat": 52.4538823, "lon": 13.2981379}, {"type": "node", "id": 7554401052, "lat": 52.4539337, "lon": 13.2979576}, {"type": "node", "id": 7554401053, "lat": 52.4539402, "lon": 13.2979235}, {"type": "node", "id": 7554401058, "lat": 52.4543419, "lon": 13.298965}, {"type": "node", "id": 7554401059, "lat": 52.4544379, "lon": 13.299213}, {"type": "node", "id": 7554431505, "lat": 52.449352, "lon": 13.2892877}, {"type": "node", "id": 7554431539, "lat": 52.4491048, "lon": 13.2858699}, {"type": "node", "id": 7556762713, "lat": 52.4609882, "lon": 13.3045378}, {"type": "node", "id": 7556762714, "lat": 52.4608741, "lon": 13.3062095}, {"type": "node", "id": 7560770492, "lat": 52.4640643, "lon": 13.2995225}, {"type": "node", "id": 7560770493, "lat": 52.4641853, "lon": 13.3002578}, {"type": "node", "id": 7560770494, "lat": 52.4641842, "lon": 13.3003565}, {"type": "node", "id": 7560770495, "lat": 52.464172, "lon": 13.3005682}, {"type": "node", "id": 7560770496, "lat": 52.4641741, "lon": 13.3006995}, {"type": "node", "id": 7560770497, "lat": 52.4642286, "lon": 13.301147}, {"type": "node", "id": 7560770504, "lat": 52.4639452, "lon": 13.3014909}, {"type": "node", "id": 7560770505, "lat": 52.4639896, "lon": 13.302097}, {"type": "node", "id": 7560770506, "lat": 52.463453, "lon": 13.3046045}, {"type": "node", "id": 7560770507, "lat": 52.4636352, "lon": 13.3046735}, {"type": "node", "id": 7560770508, "lat": 52.4644655, "lon": 13.3050724}, {"type": "node", "id": 7560770509, "lat": 52.4644804, "lon": 13.3050549}, {"type": "node", "id": 7560770510, "lat": 52.4645633, "lon": 13.3038}, {"type": "node", "id": 7560770511, "lat": 52.4645645, "lon": 13.3034804}, {"type": "node", "id": 7560770512, "lat": 52.4645587, "lon": 13.3031172}, {"type": "node", "id": 7560770513, "lat": 52.4645264, "lon": 13.3027454}, {"type": "node", "id": 7560770514, "lat": 52.4644554, "lon": 13.3022574}, {"type": "node", "id": 7560770515, "lat": 52.4642436, "lon": 13.301351}, {"type": "node", "id": 7560770521, "lat": 52.4640467, "lon": 13.299542}, {"type": "node", "id": 7560770522, "lat": 52.4637089, "lon": 13.2999491}, {"type": "node", "id": 7560770524, "lat": 52.4638822, "lon": 13.3017741}, {"type": "node", "id": 7563590470, "lat": 52.45305, "lon": 13.2880425}, {"type": "node", "id": 7563615868, "lat": 52.4589463, "lon": 13.29529}, {"type": "node", "id": 7563615871, "lat": 52.4601983, "lon": 13.2954928}, {"type": "node", "id": 7563615872, "lat": 52.4602308, "lon": 13.2952979}, {"type": "node", "id": 7563861730, "lat": 52.4550971, "lon": 13.277782}, {"type": "node", "id": 7563861732, "lat": 52.4550977, "lon": 13.2778002}, {"type": "node", "id": 7563861733, "lat": 52.4556471, "lon": 13.2776946}, {"type": "node", "id": 7563861734, "lat": 52.4556445, "lon": 13.2778659}, {"type": "node", "id": 7563861735, "lat": 52.4550878, "lon": 13.2779893}, {"type": "node", "id": 7563861737, "lat": 52.4549484, "lon": 13.2793582}, {"type": "node", "id": 7563861738, "lat": 52.4511881, "lon": 13.2814792}, {"type": "node", "id": 7563861739, "lat": 52.4516742, "lon": 13.2807518}, {"type": "node", "id": 7563861740, "lat": 52.4521127, "lon": 13.2807303}, {"type": "node", "id": 7563861744, "lat": 52.4523818, "lon": 13.2807289}, {"type": "node", "id": 7563861745, "lat": 52.4525744, "lon": 13.2807526}, {"type": "node", "id": 7563861749, "lat": 52.4533992, "lon": 13.2808449}, {"type": "node", "id": 7563861750, "lat": 52.4543726, "lon": 13.2806938}, {"type": "node", "id": 7563861751, "lat": 52.4546389, "lon": 13.2805964}, {"type": "node", "id": 7563861752, "lat": 52.4547354, "lon": 13.2803629}, {"type": "node", "id": 7563861753, "lat": 52.4548052, "lon": 13.2795746}, {"type": "node", "id": 7563861785, "lat": 52.4515978, "lon": 13.2824313}, {"type": "node", "id": 7563861786, "lat": 52.4518314, "lon": 13.2822576}, {"type": "node", "id": 7563861787, "lat": 52.4519456, "lon": 13.2822248}, {"type": "node", "id": 7563861788, "lat": 52.452018, "lon": 13.2822284}, {"type": "node", "id": 7563861789, "lat": 52.4520907, "lon": 13.2822382}, {"type": "node", "id": 7563861790, "lat": 52.4556759, "lon": 13.2809723}, {"type": "node", "id": 7563861791, "lat": 52.4558411, "lon": 13.2818517}, {"type": "node", "id": 7563861792, "lat": 52.4557577, "lon": 13.2821051}, {"type": "node", "id": 7563861794, "lat": 52.4559724, "lon": 13.2825389}, {"type": "node", "id": 7563861795, "lat": 52.4549918, "lon": 13.2824946}, {"type": "node", "id": 7563861796, "lat": 52.4549635, "lon": 13.2823074}, {"type": "node", "id": 7563861797, "lat": 52.4549194, "lon": 13.282145}, {"type": "node", "id": 7563861798, "lat": 52.4548816, "lon": 13.2820461}, {"type": "node", "id": 7563861799, "lat": 52.4548272, "lon": 13.2819418}, {"type": "node", "id": 7563861800, "lat": 52.4546385, "lon": 13.2818242}, {"type": "node", "id": 7563861801, "lat": 52.4544884, "lon": 13.2817699}, {"type": "node", "id": 7563861802, "lat": 52.4543576, "lon": 13.2817475}, {"type": "node", "id": 7563861803, "lat": 52.4541519, "lon": 13.2817596}, {"type": "node", "id": 7563861804, "lat": 52.4539583, "lon": 13.2818063}, {"type": "node", "id": 7563861805, "lat": 52.4535184, "lon": 13.2819988}, {"type": "node", "id": 7563861806, "lat": 52.453306, "lon": 13.2821214}, {"type": "node", "id": 7563861810, "lat": 52.4528809, "lon": 13.2819002}, {"type": "node", "id": 7563861811, "lat": 52.4526034, "lon": 13.2816831}, {"type": "node", "id": 7563861812, "lat": 52.4525382, "lon": 13.2816513}, {"type": "node", "id": 7563861813, "lat": 52.4524358, "lon": 13.2816488}, {"type": "node", "id": 7563861814, "lat": 52.4523674, "lon": 13.2816754}, {"type": "node", "id": 7563861815, "lat": 52.4523018, "lon": 13.2817294}, {"type": "node", "id": 7563861816, "lat": 52.452224, "lon": 13.2818473}, {"type": "node", "id": 7563861823, "lat": 52.4558564, "lon": 13.2828106}, {"type": "node", "id": 7563861824, "lat": 52.4557991, "lon": 13.2827896}, {"type": "node", "id": 7563861876, "lat": 52.4548454, "lon": 13.2794941}, {"type": "node", "id": 7563861921, "lat": 52.455096, "lon": 13.277311}, {"type": "node", "id": 7563861922, "lat": 52.4551509, "lon": 13.2763538}, {"type": "node", "id": 7617569039, "lat": 52.4555704, "lon": 13.2935432, "tags": {"amenity": "cafe", "name": "KAFFEE!", "opening_hours": "Th-Su 12:00-18:00"}}, {"type": "node", "id": 7681371618, "lat": 52.4499036, "lon": 13.2745754}, {"type": "node", "id": 7681371620, "lat": 52.4498311, "lon": 13.275728}, {"type": "node", "id": 7681371621, "lat": 52.4497924, "lon": 13.2763394}, {"type": "node", "id": 7681371622, "lat": 52.449767, "lon": 13.2767245}, {"type": "node", "id": 7681371623, "lat": 52.4497525, "lon": 13.2770521}, {"type": "node", "id": 7681371624, "lat": 52.4497512, "lon": 13.2773399}, {"type": "node", "id": 7681371625, "lat": 52.4497665, "lon": 13.2775916}, {"type": "node", "id": 7681371626, "lat": 52.4498078, "lon": 13.2779874}, {"type": "node", "id": 7681371627, "lat": 52.4498485, "lon": 13.2783079}, {"type": "node", "id": 7681371628, "lat": 52.4499085, "lon": 13.2786662}, {"type": "node", "id": 7681371629, "lat": 52.4499261, "lon": 13.2787555}, {"type": "node", "id": 7681371633, "lat": 52.4499093, "lon": 13.2744847}, {"type": "node", "id": 7681371638, "lat": 52.4501488, "lon": 13.2705547}, {"type": "node", "id": 7681371639, "lat": 52.4500984, "lon": 13.271412}, {"type": "node", "id": 7681371640, "lat": 52.4499851, "lon": 13.2733115}, {"type": "node", "id": 7681371641, "lat": 52.4499257, "lon": 13.2742114}, {"type": "node", "id": 7713037875, "lat": 52.4502488, "lon": 13.2699166, "tags": {"amenity": "fast_food", "cuisine": "kebab", "name": "D\u00f6ner", "wheelchair": "yes"}}, {"type": "node", "id": 7793517106, "lat": 52.4523979, "lon": 13.2636496}, {"type": "node", "id": 7793517107, "lat": 52.452411, "lon": 13.2637394}, {"type": "node", "id": 7793517108, "lat": 52.4525156, "lon": 13.2638105}, {"type": "node", "id": 7793517109, "lat": 52.4525393, "lon": 13.2637703}, {"type": "node", "id": 7793517110, "lat": 52.4527702, "lon": 13.2629979}, {"type": "node", "id": 7793517111, "lat": 52.4524596, "lon": 13.2630254}, {"type": "node", "id": 7798246783, "lat": 52.4573779, "lon": 13.2992991, "tags": {"barrier": "gate"}}, {"type": "node", "id": 7925854058, "lat": 52.4579149, "lon": 13.2897864, "tags": {"amenity": "fast_food", "indoor_seating": "no", "name": "Best of Kebap Dahlem", "outdoor_seating": "yes", "wheelchair": "yes"}}, {"type": "node", "id": 7925854068, "lat": 52.4641846, "lon": 13.2973246}, {"type": "node", "id": 7925854074, "lat": 52.4643274, "lon": 13.2976392}, {"type": "node", "id": 8110379698, "lat": 52.451303, "lon": 13.2699847, "tags": {"addr:city": "Berlin", "addr:housenumber": "177", "addr:postcode": "14195", "addr:street": "Clayallee", "amenity": "doctors", "email": "praxis-zehlendorf@t-online.de", "healthcare": "doctor", "healthcare:speciality": "general;internal", "name": "my doc MVZ Berlin", "opening_hours": "Mo,We,Fr 08:00-13:00,17:00-19:00; Tu 14:00-19:00; Th 08:00-12:00; Sa,Su,PH off", "opening_hours:url": "https://praxis-zehlendorf.de/oeffnungszeiten/", "operator": "Dr. Wolfgang Kreischer", "phone": "+49 30 8110828", "toilets:wheelchair": "no", "website": "https://praxis-zehlendorf.de/", "wheelchair": "yes"}}, {"type": "node", "id": 8114081981, "lat": 52.4536896, "lon": 13.2719944}, {"type": "node", "id": 8194800302, "lat": 52.4531923, "lon": 13.2598825}, {"type": "node", "id": 8194800303, "lat": 52.4532005, "lon": 13.2599576}, {"type": "node", "id": 8194800304, "lat": 52.4532095, "lon": 13.2600501}, {"type": "node", "id": 8194800305, "lat": 52.4531972, "lon": 13.2601427}, {"type": "node", "id": 8194800306, "lat": 52.4531621, "lon": 13.260207}, {"type": "node", "id": 8194800307, "lat": 52.4530844, "lon": 13.260258}, {"type": "node", "id": 8194800308, "lat": 52.4529823, "lon": 13.2602875}, {"type": "node", "id": 8194800309, "lat": 52.4528809, "lon": 13.2602888}, {"type": "node", "id": 8194800310, "lat": 52.4527959, "lon": 13.2601963}, {"type": "node", "id": 8194800311, "lat": 52.4528057, "lon": 13.2601091}, {"type": "node", "id": 8194800312, "lat": 52.4528303, "lon": 13.2600488}, {"type": "node", "id": 8194800313, "lat": 52.4528768, "lon": 13.2599965}, {"type": "node", "id": 8194800314, "lat": 52.4529316, "lon": 13.259908}, {"type": "node", "id": 8194800315, "lat": 52.4529782, "lon": 13.2598275}, {"type": "node", "id": 8194800316, "lat": 52.4530199, "lon": 13.2597913}, {"type": "node", "id": 8194834017, "lat": 52.4530803, "lon": 13.2597725}, {"type": "node", "id": 8194834018, "lat": 52.4531359, "lon": 13.2597738}, {"type": "node", "id": 8194834019, "lat": 52.4531948, "lon": 13.2598342}, {"type": "node", "id": 8194834020, "lat": 52.4532397, "lon": 13.2593688}, {"type": "node", "id": 8194834021, "lat": 52.4525516, "lon": 13.2602392}, {"type": "node", "id": 8194834022, "lat": 52.4525499, "lon": 13.2604042}, {"type": "node", "id": 8194834023, "lat": 52.4532324, "lon": 13.2605249}, {"type": "node", "id": 8194834024, "lat": 52.4532397, "lon": 13.2594466}, {"type": "node", "id": 8194851391, "lat": 52.450078, "lon": 13.2718673}, {"type": "node", "id": 8194851392, "lat": 52.4500485, "lon": 13.2723521}, {"type": "node", "id": 8194851395, "lat": 52.4497571, "lon": 13.2774509}, {"type": "node", "id": 8194851396, "lat": 52.4497085, "lon": 13.2777661}, {"type": "node", "id": 8194851397, "lat": 52.4496856, "lon": 13.2774838}, {"type": "node", "id": 8194851398, "lat": 52.4496754, "lon": 13.277107}, {"type": "node", "id": 8194851399, "lat": 52.4496827, "lon": 13.2768959}, {"type": "node", "id": 8194851400, "lat": 52.4495552, "lon": 13.274373}, {"type": "node", "id": 8194851401, "lat": 52.4495966, "lon": 13.2741463}, {"type": "node", "id": 8194851402, "lat": 52.449613, "lon": 13.2740144}, {"type": "node", "id": 8194851403, "lat": 52.4496227, "lon": 13.2738206}, {"type": "node", "id": 8194851404, "lat": 52.4498687, "lon": 13.2739661}, {"type": "node", "id": 8194851405, "lat": 52.4499889, "lon": 13.272161}, {"type": "node", "id": 8194851406, "lat": 52.4500089, "lon": 13.2718471}, {"type": "node", "id": 8194851407, "lat": 52.4500224, "lon": 13.2714985}, {"type": "node", "id": 8194851408, "lat": 52.4500722, "lon": 13.2706261}, {"type": "node", "id": 8194851409, "lat": 52.4499092, "lon": 13.2705322}, {"type": "node", "id": 8194851410, "lat": 52.449919, "lon": 13.270498}, {"type": "node", "id": 8194851411, "lat": 52.4499321, "lon": 13.2704732}, {"type": "node", "id": 8194851412, "lat": 52.4499537, "lon": 13.2704611}, {"type": "node", "id": 8194851413, "lat": 52.4499856, "lon": 13.2704477}, {"type": "node", "id": 8194851414, "lat": 52.4498434, "lon": 13.2787478}, {"type": "node", "id": 8194851415, "lat": 52.4497719, "lon": 13.2787143}, {"type": "node", "id": 8194851416, "lat": 52.4496926, "lon": 13.2786499}, {"type": "node", "id": 8194871217, "lat": 52.4496345, "lon": 13.2785755}, {"type": "node", "id": 8194871218, "lat": 52.4495205, "lon": 13.2783086}, {"type": "node", "id": 8194871219, "lat": 52.4497437, "lon": 13.2780565}, {"type": "node", "id": 8200085122, "lat": 52.4673234, "lon": 13.3083345, "tags": {"addr:city": "Berlin", "addr:country": "DE", "addr:housenumber": "8", "addr:postcode": "14195", "addr:street": "Breitenbachplatz", "addr:suburb": "Dahlem", "amenity": "doctors", "healthcare": "doctor", "healthcare:speciality": "orthopaedics;surgery", "name": "COPV Chirurgisch Orthop\u00e4discher Praxisverbund", "opening_hours": "\"Mo bis Fr nach Vereinbarung\"", "website": "https://www.copv.berlin/", "wheelchair": "no"}}, {"type": "node", "id": 8200085123, "lat": 52.467235, "lon": 13.3080456, "tags": {"addr:city": "Berlin", "addr:country": "DE", "addr:housenumber": "10", "addr:postcode": "14195", "addr:street": "Breitenbachplatz", "addr:suburb": "Dahlem", "amenity": "dentist", "healthcare": "dentist", "name": "Yvonne Ende", "opening_hours": "Mo-Fr 09:00-13:00, Mo,Th 14:00-18:00, Tu 14:00-19:00", "website": "https://www.zahnarztbreitenbachplatz.de/", "wheelchair": "no"}}, {"type": "node", "id": 8200085127, "lat": 52.4670939, "lon": 13.3078194, "tags": {"addr:city": "Berlin", "addr:country": "DE", "addr:housenumber": "12", "addr:postcode": "14195", "addr:street": "Breitenbachplatz", "addr:suburb": "Dahlem", "amenity": "restaurant", "cuisine": "austrian", "diet:vegetarian": "yes", "name": "Heuriger Nu\u00dfbaumerin", "opening_hours": "Tu-Fr 16:00-23:00", "phone": "+49 30 50178033", "website": "https://nussbaumerin.de/", "wheelchair": "no"}}, {"type": "node", "id": 8200085130, "lat": 52.4668389, "lon": 13.3073628, "tags": {"addr:city": "Berlin", "addr:country": "DE", "addr:housenumber": "16", "addr:postcode": "14195", "addr:street": "Breitenbachplatz", "addr:suburb": "Dahlem", "check_date:opening_hours": "2024-05-20", "healthcare": "physiotherapist", "name": "Physiotherapie Marion Koch", "opening_hours:signed": "no", "website": "https://www.pt-koch.de/", "wheelchair": "no"}}, {"type": "node", "id": 8200085132, "lat": 52.4660201, "lon": 13.3055214, "tags": {"addr:city": "Berlin", "addr:country": "DE", "addr:housenumber": "7A", "addr:postcode": "14195", "addr:street": "Schorlemerallee", "addr:suburb": "Dahlem", "amenity": "dentist", "healthcare": "dentist", "healthcare:speciality": "orthodontics", "name": "Dr. Klaus Hunger", "opening_hours": "Mo,Tu,Th 09:00-13:00,14:00-17:30; We 08:00-12:00,13:00-16:30", "website": "http://www.dr-hunger.de/"}}, {"type": "node", "id": 8200085133, "lat": 52.4623132, "lon": 13.2930999, "tags": {"addr:city": "Berlin", "addr:country": "DE", "addr:housenumber": "10", "addr:postcode": "14195", "addr:street": "Archivstra\u00dfe", "addr:suburb": "Dahlem", "healthcare": "physiotherapist", "name": "Michaela Bode", "website": "http://mb-physio.de/"}}, {"type": "node", "id": 8200085136, "lat": 52.4572266, "lon": 13.2981336, "tags": {"addr:city": "Berlin", "addr:country": "DE", "addr:housenumber": "2A", "addr:postcode": "14195", "addr:street": "Arnimallee", "addr:suburb": "Dahlem", "healthcare": "alternative", "name": "Dr. med. Karin Bandelin", "website": "https://www.homoeopathische-praxis-berlin.de/"}}, {"type": "node", "id": 8246249184, "lat": 52.4536757, "lon": 13.2719436}, {"type": "node", "id": 8246249185, "lat": 52.4540069, "lon": 13.2716692}, {"type": "node", "id": 8247572496, "lat": 52.4516797, "lon": 13.2694863}, {"type": "node", "id": 8247572497, "lat": 52.4516722, "lon": 13.2695789}, {"type": "node", "id": 8247572498, "lat": 52.4518259, "lon": 13.26967}, {"type": "node", "id": 8247572499, "lat": 52.4518541, "lon": 13.2696025}, {"type": "node", "id": 8259096930, "lat": 52.4617969, "lon": 13.3054416}, {"type": "node", "id": 8259096931, "lat": 52.4617856, "lon": 13.3060861}, {"type": "node", "id": 8418110823, "lat": 52.4531546, "lon": 13.2708958}, {"type": "node", "id": 8418110824, "lat": 52.4531591, "lon": 13.2708809}, {"type": "node", "id": 8507843759, "lat": 52.4641862, "lon": 13.3003071}, {"type": "node", "id": 8507851269, "lat": 52.4577223, "lon": 13.2991393}, {"type": "node", "id": 8507877020, "lat": 52.4627714, "lon": 13.2966563}, {"type": "node", "id": 8507877021, "lat": 52.4633048, "lon": 13.2978401}, {"type": "node", "id": 8507877022, "lat": 52.4639977, "lon": 13.2993792}, {"type": "node", "id": 8507877023, "lat": 52.4638913, "lon": 13.2991433}, {"type": "node", "id": 8507877024, "lat": 52.4634648, "lon": 13.2981945}, {"type": "node", "id": 8507877025, "lat": 52.4647177, "lon": 13.2985106}, {"type": "node", "id": 8507877031, "lat": 52.4634938, "lon": 13.2957832}, {"type": "node", "id": 8507877035, "lat": 52.4640253, "lon": 13.2969714}, {"type": "node", "id": 8567917077, "lat": 52.4675031, "lon": 13.3081817, "tags": {"addr:city": "Berlin", "addr:country": "DE", "addr:housenumber": "1", "addr:postcode": "14199", "addr:street": "Dillenburger Stra\u00dfe", "addr:suburb": "Dahlem", "amenity": "doctors", "healthcare": "doctor", "healthcare:speciality": "paediatrics", "name": "Dr. med. Sigrid Schr\u00fcnder", "opening_hours": "Mo,Tu,Fr 08:00-13:00; We,Th 14:00-18:00", "website": "http://www.kinderaerztin-schruender.de/"}}, {"type": "node", "id": 8893019240, "lat": 52.445543, "lon": 13.2817753}, {"type": "node", "id": 8893019241, "lat": 52.4455509, "lon": 13.2817668}, {"type": "node", "id": 8893019242, "lat": 52.4455668, "lon": 13.2817638}, {"type": "node", "id": 8893019243, "lat": 52.4455783, "lon": 13.2817626}, {"type": "node", "id": 8893019244, "lat": 52.4455906, "lon": 13.281768}, {"type": "node", "id": 8893019245, "lat": 52.4458398, "lon": 13.28201}, {"type": "node", "id": 8893019246, "lat": 52.4462182, "lon": 13.2824847}, {"type": "node", "id": 8893019247, "lat": 52.4462713, "lon": 13.2823658}, {"type": "node", "id": 8893019248, "lat": 52.4458851, "lon": 13.2818819}, {"type": "node", "id": 8893019249, "lat": 52.4456405, "lon": 13.2816506}, {"type": "node", "id": 8893019250, "lat": 52.4456304, "lon": 13.2816363}, {"type": "node", "id": 8893019251, "lat": 52.4456218, "lon": 13.2816186}, {"type": "node", "id": 8893019252, "lat": 52.4456156, "lon": 13.2815847}, {"type": "node", "id": 8893019253, "lat": 52.4456152, "lon": 13.2815657}, {"type": "node", "id": 8893019254, "lat": 52.4456175, "lon": 13.2815465}, {"type": "node", "id": 8893019255, "lat": 52.4455339, "lon": 13.2817837}, {"type": "node", "id": 9170221509, "lat": 52.4576976, "lon": 13.2988179}, {"type": "node", "id": 9170221510, "lat": 52.4576776, "lon": 13.2987575}, {"type": "node", "id": 9170221511, "lat": 52.4575236, "lon": 13.2986046}, {"type": "node", "id": 9245797061, "lat": 52.4537279, "lon": 13.2716963}, {"type": "node", "id": 9271782871, "lat": 52.4492929, "lon": 13.2855921}, {"type": "node", "id": 9271782873, "lat": 52.4497185, "lon": 13.284343}, {"type": "node", "id": 9271782875, "lat": 52.4499645, "lon": 13.284468}, {"type": "node", "id": 9271782877, "lat": 52.4500252, "lon": 13.2845262}, {"type": "node", "id": 9271782880, "lat": 52.4497771, "lon": 13.2844559}, {"type": "node", "id": 9271803096, "lat": 52.4483849, "lon": 13.2784539}, {"type": "node", "id": 9271803097, "lat": 52.4485493, "lon": 13.2785631}, {"type": "node", "id": 9271803098, "lat": 52.4486287, "lon": 13.278596}, {"type": "node", "id": 9271803099, "lat": 52.4486919, "lon": 13.2786159}, {"type": "node", "id": 9271803101, "lat": 52.4481314, "lon": 13.2794163}, {"type": "node", "id": 9271884365, "lat": 52.4512385, "lon": 13.2829176}, {"type": "node", "id": 9271884366, "lat": 52.4509925, "lon": 13.2837027}, {"type": "node", "id": 9271884367, "lat": 52.4507849, "lon": 13.2841633}, {"type": "node", "id": 9271884368, "lat": 52.4504859, "lon": 13.2845105}, {"type": "node", "id": 9271884369, "lat": 52.4510789, "lon": 13.2833458}, {"type": "node", "id": 9271884370, "lat": 52.4509013, "lon": 13.2839583}, {"type": "node", "id": 9271884371, "lat": 52.4502807, "lon": 13.2847401}, {"type": "node", "id": 9271884372, "lat": 52.4502104, "lon": 13.2846826}, {"type": "node", "id": 9271884392, "lat": 52.4512105, "lon": 13.2829821}, {"type": "node", "id": 9271884398, "lat": 52.4499077, "lon": 13.2844049}, {"type": "node", "id": 9271884399, "lat": 52.4496804, "lon": 13.2836705}, {"type": "node", "id": 9271884400, "lat": 52.4497128, "lon": 13.283964}, {"type": "node", "id": 9271884401, "lat": 52.4497527, "lon": 13.2841102}, {"type": "node", "id": 9271884402, "lat": 52.4498441, "lon": 13.284317}, {"type": "node", "id": 9271884403, "lat": 52.4495755, "lon": 13.2836548}, {"type": "node", "id": 9271884404, "lat": 52.449591, "lon": 13.2838936}, {"type": "node", "id": 9271884405, "lat": 52.4496204, "lon": 13.2840578}, {"type": "node", "id": 9271884406, "lat": 52.4496613, "lon": 13.284209}, {"type": "node", "id": 9271884408, "lat": 52.4494446, "lon": 13.2828816}, {"type": "node", "id": 9271884414, "lat": 52.448813, "lon": 13.285253}, {"type": "node", "id": 9271884415, "lat": 52.4495094, "lon": 13.2867224}, {"type": "node", "id": 9271884416, "lat": 52.4495821, "lon": 13.2863232}, {"type": "node", "id": 9271884417, "lat": 52.4495738, "lon": 13.2862558}, {"type": "node", "id": 9271884418, "lat": 52.4493649, "lon": 13.2860828}, {"type": "node", "id": 9271884419, "lat": 52.4494047, "lon": 13.2893138}, {"type": "node", "id": 9271884420, "lat": 52.4495677, "lon": 13.2891202}, {"type": "node", "id": 9271884421, "lat": 52.4495091, "lon": 13.2887374}, {"type": "node", "id": 9271884422, "lat": 52.4494607, "lon": 13.2884602}, {"type": "node", "id": 9271884423, "lat": 52.4494348, "lon": 13.2881783}, {"type": "node", "id": 9271884424, "lat": 52.4494329, "lon": 13.2878873}, {"type": "node", "id": 9271884425, "lat": 52.4494368, "lon": 13.2874926}, {"type": "node", "id": 9271884426, "lat": 52.4494648, "lon": 13.2870528}, {"type": "node", "id": 9271884427, "lat": 52.4495844, "lon": 13.2862743}, {"type": "node", "id": 9271884428, "lat": 52.4495855, "lon": 13.2862993}, {"type": "node", "id": 9271884429, "lat": 52.4495803, "lon": 13.2890375}, {"type": "node", "id": 9271884430, "lat": 52.4495831, "lon": 13.289067}, {"type": "node", "id": 9271884431, "lat": 52.4495797, "lon": 13.2890975}, {"type": "node", "id": 9271884432, "lat": 52.4493869, "lon": 13.2893201}, {"type": "node", "id": 9271884433, "lat": 52.4493663, "lon": 13.2893092}, {"type": "node", "id": 9550968269, "lat": 52.4542122, "lon": 13.2504286}, {"type": "node", "id": 9550968270, "lat": 52.4546324, "lon": 13.2539604}, {"type": "node", "id": 9550968271, "lat": 52.4552871, "lon": 13.2544303}, {"type": "node", "id": 9550968272, "lat": 52.4554122, "lon": 13.2532889}, {"type": "node", "id": 9550968273, "lat": 52.4552766, "lon": 13.2530792}, {"type": "node", "id": 9550968274, "lat": 52.4556155, "lon": 13.2518908}, {"type": "node", "id": 9550968275, "lat": 52.4559372, "lon": 13.2517374}, {"type": "node", "id": 9550968276, "lat": 52.4565772, "lon": 13.2516942}, {"type": "node", "id": 9550968277, "lat": 52.4571365, "lon": 13.2514363}, {"type": "node", "id": 9550968278, "lat": 52.4573422, "lon": 13.2513204}, {"type": "node", "id": 9550968280, "lat": 52.4570819, "lon": 13.2505542}, {"type": "node", "id": 9573949656, "lat": 52.4549419, "lon": 13.254497}, {"type": "node", "id": 9573949657, "lat": 52.4551325, "lon": 13.2545289}, {"type": "node", "id": 9573949658, "lat": 52.4554311, "lon": 13.2537879}, {"type": "node", "id": 9580332831, "lat": 52.4531649, "lon": 13.2864555, "tags": {"addr:city": "Berlin", "addr:country": "DE", "addr:housenumber": "34", "addr:postcode": "14195", "addr:street": "Thielallee", "addr:suburb": "Dahlem", "amenity": "fast_food", "check_date": "2025-07-07", "check_date:opening_hours": "2025-07-07", "contact:facebook": "https://www.facebook.com/Naya-Jouly-Restaurant-103950365424470/", "cuisine": "oriental", "drive_through": "no", "name": "Naya Jouly", "opening_hours": "Mo-Su 10:30-22:00"}}, {"type": "node", "id": 9590497055, "lat": 52.4594429, "lon": 13.284239}, {"type": "node", "id": 9590497057, "lat": 52.45933, "lon": 13.2837194}, {"type": "node", "id": 9590525891, "lat": 52.4593814, "lon": 13.2831404}, {"type": "node", "id": 9590525892, "lat": 52.4593138, "lon": 13.2834649}, {"type": "node", "id": 9590525893, "lat": 52.4595585, "lon": 13.283597}, {"type": "node", "id": 9590525894, "lat": 52.4596239, "lon": 13.2832678}, {"type": "node", "id": 9590525895, "lat": 52.4594229, "lon": 13.2843395}, {"type": "node", "id": 9590525896, "lat": 52.4591671, "lon": 13.2842056}, {"type": "node", "id": 9590525897, "lat": 52.45927, "lon": 13.2836901}, {"type": "node", "id": 9590525898, "lat": 52.4595234, "lon": 13.2838193}, {"type": "node", "id": 9644830475, "lat": 52.4484786, "lon": 13.2850361}, {"type": "node", "id": 9648069932, "lat": 52.4514118, "lon": 13.2698133}, {"type": "node", "id": 9648069934, "lat": 52.4515875, "lon": 13.270432}, {"type": "node", "id": 9648069935, "lat": 52.4516459, "lon": 13.2701582}, {"type": "node", "id": 9648105828, "lat": 52.4518232, "lon": 13.2704901}, {"type": "node", "id": 9648105829, "lat": 52.4525035, "lon": 13.2709611}, {"type": "node", "id": 9648105831, "lat": 52.4522632, "lon": 13.2708706}, {"type": "node", "id": 9648105832, "lat": 52.4520272, "lon": 13.2707328}, {"type": "node", "id": 9648105837, "lat": 52.4523565, "lon": 13.270407}, {"type": "node", "id": 9711955937, "lat": 52.4594908, "lon": 13.2806243}, {"type": "node", "id": 9711955938, "lat": 52.4595356, "lon": 13.2803944}, {"type": "node", "id": 9723738759, "lat": 52.4653687, "lon": 13.2898108}, {"type": "node", "id": 9723738778, "lat": 52.4669484, "lon": 13.2894717}, {"type": "node", "id": 9723738790, "lat": 52.4657673, "lon": 13.2904818}, {"type": "node", "id": 9723754465, "lat": 52.4644722, "lon": 13.2930426}, {"type": "node", "id": 9723754466, "lat": 52.4645347, "lon": 13.2930654}, {"type": "node", "id": 9723754467, "lat": 52.464547, "lon": 13.2930835}, {"type": "node", "id": 9723754468, "lat": 52.4645543, "lon": 13.2931177}, {"type": "node", "id": 9723754469, "lat": 52.4645433, "lon": 13.2931788}, {"type": "node", "id": 9723754470, "lat": 52.464605, "lon": 13.2930601}, {"type": "node", "id": 9723754471, "lat": 52.4645936, "lon": 13.2930346}, {"type": "node", "id": 9723754472, "lat": 52.4646132, "lon": 13.292871}, {"type": "node", "id": 9723754473, "lat": 52.4644951, "lon": 13.2928395}, {"type": "node", "id": 9735018709, "lat": 52.4662624, "lon": 13.2907887}, {"type": "node", "id": 9735038919, "lat": 52.4658297, "lon": 13.2911549}, {"type": "node", "id": 9735038921, "lat": 52.4654484, "lon": 13.2914155}, {"type": "node", "id": 9735038935, "lat": 52.4649401, "lon": 13.2935323}, {"type": "node", "id": 9735038939, "lat": 52.4649327, "lon": 13.29361}, {"type": "node", "id": 9735809146, "lat": 52.4675029, "lon": 13.2888831}, {"type": "node", "id": 9735809158, "lat": 52.4689138, "lon": 13.2869638}, {"type": "node", "id": 9735809166, "lat": 52.4696395, "lon": 13.2849695}, {"type": "node", "id": 9737708507, "lat": 52.4653605, "lon": 13.2898534}, {"type": "node", "id": 9737708513, "lat": 52.4643858, "lon": 13.2933709}, {"type": "node", "id": 9737708515, "lat": 52.4643584, "lon": 13.2933657}, {"type": "node", "id": 9737710420, "lat": 52.4645443, "lon": 13.2921956}, {"type": "node", "id": 9737710423, "lat": 52.4646917, "lon": 13.291754}, {"type": "node", "id": 9737710433, "lat": 52.4653244, "lon": 13.2900178}, {"type": "node", "id": 9737710434, "lat": 52.4652627, "lon": 13.2902675}, {"type": "node", "id": 9741526798, "lat": 52.4709546, "lon": 13.2841727}, {"type": "node", "id": 9741526807, "lat": 52.4722546, "lon": 13.2813682}, {"type": "node", "id": 9741526810, "lat": 52.4708117, "lon": 13.2843847}, {"type": "node", "id": 9741526813, "lat": 52.4709379, "lon": 13.2842008}, {"type": "node", "id": 9741526814, "lat": 52.4697845, "lon": 13.2848375}, {"type": "node", "id": 9741538335, "lat": 52.4723461, "lon": 13.281261}, {"type": "node", "id": 9741538336, "lat": 52.474225, "lon": 13.27972}, {"type": "node", "id": 9741538338, "lat": 52.4741855, "lon": 13.2787934}, {"type": "node", "id": 9741547576, "lat": 52.4644774, "lon": 13.2815974}, {"type": "node", "id": 9741547579, "lat": 52.464743, "lon": 13.28157}, {"type": "node", "id": 9741547580, "lat": 52.4644735, "lon": 13.2813736}, {"type": "node", "id": 9741547581, "lat": 52.4647285, "lon": 13.2813475}, {"type": "node", "id": 9741585902, "lat": 52.4545615, "lon": 13.2806247}, {"type": "node", "id": 9741643426, "lat": 52.4556096, "lon": 13.2778735}, {"type": "node", "id": 9741643446, "lat": 52.4559334, "lon": 13.282644}, {"type": "node", "id": 9741643464, "lat": 52.4551571, "lon": 13.2779722}, {"type": "node", "id": 9741643476, "lat": 52.4555779, "lon": 13.2778804}, {"type": "node", "id": 9741643478, "lat": 52.4555838, "lon": 13.2777083}, {"type": "node", "id": 9741643479, "lat": 52.4551506, "lon": 13.277794}, {"type": "node", "id": 9741643497, "lat": 52.4553885, "lon": 13.2758138}, {"type": "node", "id": 9741643505, "lat": 52.4556899, "lon": 13.2757356}, {"type": "node", "id": 9741643506, "lat": 52.4556221, "lon": 13.2737174}, {"type": "node", "id": 9741643507, "lat": 52.4559507, "lon": 13.2738417}, {"type": "node", "id": 9741872050, "lat": 52.4520978, "lon": 13.2822174}, {"type": "node", "id": 9741872068, "lat": 52.4551161, "lon": 13.2825062}, {"type": "node", "id": 9794512243, "lat": 52.4496746, "lon": 13.2693893, "tags": {"addr:city": "Berlin", "addr:country": "DE", "addr:housenumber": "225", "addr:postcode": "14195", "addr:street": "Clayallee", "addr:suburb": "Dahlem", "amenity": "doctors", "healthcare": "doctor", "healthcare:speciality": "dermatology", "name": "Siddi & Bachmann Dermatologie in Dahlem", "operator": "Dott. Valentina Siddi;Dr. med. Frank Bachmann", "website": "https://hautzentrum-berlin.de/"}}, {"type": "node", "id": 9855689057, "lat": 52.4595869, "lon": 13.2842319}, {"type": "node", "id": 9855689058, "lat": 52.4597542, "lon": 13.2834001}, {"type": "node", "id": 9855741794, "lat": 52.4531557, "lon": 13.2708698}, {"type": "node", "id": 9855741795, "lat": 52.4531327, "lon": 13.2708249}, {"type": "node", "id": 9855741796, "lat": 52.4530863, "lon": 13.2707632}, {"type": "node", "id": 9855741797, "lat": 52.4530685, "lon": 13.2707558}, {"type": "node", "id": 9855741798, "lat": 52.4530454, "lon": 13.2707726}, {"type": "node", "id": 9855741799, "lat": 52.4530266, "lon": 13.2708376}, {"type": "node", "id": 9855741800, "lat": 52.4530278, "lon": 13.2708514}, {"type": "node", "id": 9855741801, "lat": 52.4530444, "lon": 13.2708661}, {"type": "node", "id": 9855741802, "lat": 52.4530756, "lon": 13.2708869}, {"type": "node", "id": 9855741803, "lat": 52.4531431, "lon": 13.2709013}, {"type": "node", "id": 9855830877, "lat": 52.4524458, "lon": 13.2631652, "tags": {"entrance": "yes"}}, {"type": "node", "id": 9855830878, "lat": 52.4523943, "lon": 13.2628527}, {"type": "node", "id": 9855830879, "lat": 52.452773, "lon": 13.2630483, "tags": {"entrance": "yes"}}, {"type": "node", "id": 9855830880, "lat": 52.4529725, "lon": 13.2635115}, {"type": "node", "id": 9855830881, "lat": 52.4529443, "lon": 13.2635041}, {"type": "node", "id": 9855830886, "lat": 52.4526115, "lon": 13.2635652, "tags": {"entrance": "yes"}}, {"type": "node", "id": 9855830888, "lat": 52.4523987, "lon": 13.2636993}, {"type": "node", "id": 9855830889, "lat": 52.4524269, "lon": 13.2637724}, {"type": "node", "id": 9855830890, "lat": 52.4524482, "lon": 13.2637985}, {"type": "node", "id": 9855830891, "lat": 52.4524792, "lon": 13.2638159}, {"type": "node", "id": 9855830892, "lat": 52.4525181, "lon": 13.2629509}, {"type": "node", "id": 9855830893, "lat": 52.4527759, "lon": 13.2630984}, {"type": "node", "id": 9855830894, "lat": 52.4524878, "lon": 13.2629744}, {"type": "node", "id": 9855830895, "lat": 52.4525659, "lon": 13.2629549}, {"type": "node", "id": 9979365912, "lat": 52.4664442, "lon": 13.256009, "tags": {"addr:city": "Berlin", "addr:country": "DE", "addr:housenumber": "90", "addr:postcode": "14193", "addr:street": "H\u00fcttenweg", "addr:suburb": "Grunewald", "amenity": "restaurant", "contact:email": "info@locanda-12apostoli.de", "contact:phone": "+49 30 8181910", "contact:website": "https://www.12-apostoli.de/grunewald", "cuisine": "italian", "name": "Locanda 12 Apostoli"}}, {"type": "node", "id": 9979365913, "lat": 52.4662775, "lon": 13.256318}, {"type": "node", "id": 9979365914, "lat": 52.46628, "lon": 13.2562816}, {"type": "node", "id": 9979365915, "lat": 52.4664744, "lon": 13.2560277}, {"type": "node", "id": 9979365916, "lat": 52.4662881, "lon": 13.2562668}, {"type": "node", "id": 9979372617, "lat": 52.4662827, "lon": 13.2563386}, {"type": "node", "id": 9979372618, "lat": 52.4662999, "lon": 13.2562692}, {"type": "node", "id": 9979372619, "lat": 52.4662945, "lon": 13.256341}, {"type": "node", "id": 9979372620, "lat": 52.4663278, "lon": 13.255841}, {"type": "node", "id": 9979372621, "lat": 52.4663105, "lon": 13.2560696}, {"type": "node", "id": 9979372622, "lat": 52.4663145, "lon": 13.2562173}, {"type": "node", "id": 9979372623, "lat": 52.466304, "lon": 13.2562151}, {"type": "node", "id": 9979372624, "lat": 52.4664456, "lon": 13.256298}, {"type": "node", "id": 9979372625, "lat": 52.4664332, "lon": 13.2562955}, {"type": "node", "id": 9979372626, "lat": 52.4664505, "lon": 13.2560507}, {"type": "node", "id": 9979372627, "lat": 52.4664676, "lon": 13.2559754}, {"type": "node", "id": 9979372628, "lat": 52.4664767, "lon": 13.2558712}, {"type": "node", "id": 10114791992, "lat": 52.4518497, "lon": 13.2706292, "tags": {"description": "Eingang von Edeka", "entrance": "yes"}}, {"type": "node", "id": 10304713601, "lat": 52.4590446, "lon": 13.2736534}, {"type": "node", "id": 10304713602, "lat": 52.4590403, "lon": 13.2736418}, {"type": "node", "id": 10304713603, "lat": 52.4590574, "lon": 13.2733939}, {"type": "node", "id": 10308393332, "lat": 52.4604444, "lon": 13.2810548}, {"type": "node", "id": 10308393333, "lat": 52.4604244, "lon": 13.281077}, {"type": "node", "id": 10308393334, "lat": 52.4604875, "lon": 13.2808467}, {"type": "node", "id": 10308393335, "lat": 52.4604844, "lon": 13.2808268}, {"type": "node", "id": 10574782154, "lat": 52.4664202, "lon": 13.2739757, "tags": {"addr:city": "Berlin", "addr:housenumber": "12", "addr:postcode": "14195", "addr:street": "K\u00e4uzchensteig", "amenity": "cafe", "check_date": "2025-05-08", "email": "post@cikd.de", "name": "CAF\u00c9 IM KUNSTHAUS DAHLEM", "phone": "030 - 890 46 100", "website": "https://www.cafe-im-kunsthaus-dahlem.de/"}}, {"type": "node", "id": 10681154974, "lat": 52.4609273, "lon": 13.3062175}, {"type": "node", "id": 10681154996, "lat": 52.46102, "lon": 13.304545}, {"type": "node", "id": 10681154997, "lat": 52.4609614, "lon": 13.3062226}, {"type": "node", "id": 10681160524, "lat": 52.461741, "lon": 13.3063396}, {"type": "node", "id": 10681160525, "lat": 52.4617728, "lon": 13.3063118}, {"type": "node", "id": 10681160531, "lat": 52.4617909, "lon": 13.3059595}, {"type": "node", "id": 10681160562, "lat": 52.461042, "lon": 13.3045501}, {"type": "node", "id": 10681160573, "lat": 52.4611929, "lon": 13.3045802}, {"type": "node", "id": 10681160591, "lat": 52.4615164, "lon": 13.3046472}, {"type": "node", "id": 10681160607, "lat": 52.4616951, "lon": 13.3046843}, {"type": "node", "id": 10681160608, "lat": 52.4617827, "lon": 13.3051568}, {"type": "node", "id": 10681160623, "lat": 52.4617529, "lon": 13.3047644}, {"type": "node", "id": 10681174597, "lat": 52.4644862, "lon": 13.3049441}, {"type": "node", "id": 10681180211, "lat": 52.4642212, "lon": 13.304955}, {"type": "node", "id": 10681180251, "lat": 52.4639474, "lon": 13.3016978}, {"type": "node", "id": 10681180254, "lat": 52.4639699, "lon": 13.3016714}, {"type": "node", "id": 10681180270, "lat": 52.4642025, "lon": 13.3013991}, {"type": "node", "id": 10681180275, "lat": 52.4644699, "lon": 13.3023568}, {"type": "node", "id": 10681180287, "lat": 52.4642771, "lon": 13.3014944}, {"type": "node", "id": 10681180288, "lat": 52.4645173, "lon": 13.302683}, {"type": "node", "id": 10681180299, "lat": 52.464496, "lon": 13.3048194}, {"type": "node", "id": 10694913198, "lat": 52.4632711, "lon": 13.2977653}, {"type": "node", "id": 10694913203, "lat": 52.4633641, "lon": 13.2977686}, {"type": "node", "id": 10695006309, "lat": 52.463198, "lon": 13.297603}, {"type": "node", "id": 10695006319, "lat": 52.4627897, "lon": 13.2966968}, {"type": "node", "id": 10695006328, "lat": 52.463599, "lon": 13.2974854}, {"type": "node", "id": 10695006421, "lat": 52.4628011, "lon": 13.2966205}, {"type": "node", "id": 10695006430, "lat": 52.4630724, "lon": 13.2962925}, {"type": "node", "id": 10695006431, "lat": 52.4632093, "lon": 13.296127}, {"type": "node", "id": 10695006439, "lat": 52.4634486, "lon": 13.2958379}, {"type": "node", "id": 10695006459, "lat": 52.4634784, "lon": 13.2958018}, {"type": "node", "id": 10695006486, "lat": 52.4640174, "lon": 13.2969809}, {"type": "node", "id": 10695006487, "lat": 52.4637897, "lon": 13.2972555}, {"type": "node", "id": 10695006500, "lat": 52.4639976, "lon": 13.2970048}, {"type": "node", "id": 10695006531, "lat": 52.463519, "lon": 13.298129}, {"type": "node", "id": 10695006550, "lat": 52.4636941, "lon": 13.2979174}, {"type": "node", "id": 10695006557, "lat": 52.464146, "lon": 13.2973713}, {"type": "node", "id": 10695006558, "lat": 52.4637715, "lon": 13.2978239}, {"type": "node", "id": 10695006575, "lat": 52.4641732, "lon": 13.2973384}, {"type": "node", "id": 10695006603, "lat": 52.4647077, "lon": 13.2985227}, {"type": "node", "id": 10695006604, "lat": 52.4646637, "lon": 13.2985757}, {"type": "node", "id": 10695006617, "lat": 52.4640574, "lon": 13.2993071}, {"type": "node", "id": 10695006618, "lat": 52.4634743, "lon": 13.2982157}, {"type": "node", "id": 10695006623, "lat": 52.463677, "lon": 13.2986667}, {"type": "node", "id": 10695006635, "lat": 52.463984, "lon": 13.2993489}, {"type": "node", "id": 10695006639, "lat": 52.4639851, "lon": 13.3014433}, {"type": "node", "id": 10695006646, "lat": 52.4638251, "lon": 13.2998091}, {"type": "node", "id": 10695006647, "lat": 52.4638585, "lon": 13.2997688}, {"type": "node", "id": 10695006653, "lat": 52.4640122, "lon": 13.3014111}, {"type": "node", "id": 10695006654, "lat": 52.4641777, "lon": 13.301214}, {"type": "node", "id": 10695006656, "lat": 52.4639826, "lon": 13.2996193}, {"type": "node", "id": 10695006657, "lat": 52.4640093, "lon": 13.2995871}, {"type": "node", "id": 10695006660, "lat": 52.4641987, "lon": 13.3011889}, {"type": "node", "id": 10695006685, "lat": 52.4635948, "lon": 13.3046556}, {"type": "node", "id": 10706655972, "lat": 52.4495365, "lon": 13.2862249}, {"type": "node", "id": 10706655980, "lat": 52.4495757, "lon": 13.289018}, {"type": "node", "id": 10706655981, "lat": 52.4495685, "lon": 13.2889877}, {"type": "node", "id": 10706655999, "lat": 52.4488317, "lon": 13.2880064}, {"type": "node", "id": 10706656000, "lat": 52.4488092, "lon": 13.2879508}, {"type": "node", "id": 10706656004, "lat": 52.4485954, "lon": 13.287422}, {"type": "node", "id": 10706656005, "lat": 52.4485759, "lon": 13.2873764}, {"type": "node", "id": 10706656011, "lat": 52.4491743, "lon": 13.2859268}, {"type": "node", "id": 10706680130, "lat": 52.4495826, "lon": 13.2838266}, {"type": "node", "id": 10706680133, "lat": 52.4487701, "lon": 13.2839755}, {"type": "node", "id": 10706680144, "lat": 52.4495128, "lon": 13.2830934}, {"type": "node", "id": 10706680148, "lat": 52.4493326, "lon": 13.2829656}, {"type": "node", "id": 10706680157, "lat": 52.4494194, "lon": 13.2851686}, {"type": "node", "id": 10706680160, "lat": 52.4491815, "lon": 13.2855049}, {"type": "node", "id": 10706680188, "lat": 52.4487289, "lon": 13.2840462}, {"type": "node", "id": 10706680189, "lat": 52.4483712, "lon": 13.2846675}, {"type": "node", "id": 10706680191, "lat": 52.448503, "lon": 13.285081}, {"type": "node", "id": 10706680192, "lat": 52.4484676, "lon": 13.2846954}, {"type": "node", "id": 10706681313, "lat": 52.4484114, "lon": 13.2848062}, {"type": "node", "id": 10706681314, "lat": 52.4484424, "lon": 13.2847318}, {"type": "node", "id": 10706681330, "lat": 52.4489606, "lon": 13.2843167}, {"type": "node", "id": 10706681331, "lat": 52.4488156, "lon": 13.2843228}, {"type": "node", "id": 10706681332, "lat": 52.4487882, "lon": 13.2843442}, {"type": "node", "id": 10706681333, "lat": 52.4487583, "lon": 13.2844106}, {"type": "node", "id": 10706681334, "lat": 52.4487608, "lon": 13.2845206}, {"type": "node", "id": 10706681335, "lat": 52.4488135, "lon": 13.2848123}, {"type": "node", "id": 10706681336, "lat": 52.448883, "lon": 13.2850215}, {"type": "node", "id": 10706681337, "lat": 52.4489549, "lon": 13.2851201}, {"type": "node", "id": 10706681338, "lat": 52.4490608, "lon": 13.2852099}, {"type": "node", "id": 10706681339, "lat": 52.4490869, "lon": 13.2851905}, {"type": "node", "id": 10706681340, "lat": 52.4491016, "lon": 13.2851663}, {"type": "node", "id": 10706681341, "lat": 52.4491163, "lon": 13.285106}, {"type": "node", "id": 10706681342, "lat": 52.4491086, "lon": 13.285045}, {"type": "node", "id": 10706681343, "lat": 52.4490379, "lon": 13.2849403}, {"type": "node", "id": 10706681344, "lat": 52.4490117, "lon": 13.284825}, {"type": "node", "id": 10706681345, "lat": 52.4489798, "lon": 13.2843536}, {"type": "node", "id": 10706681350, "lat": 52.4483983, "lon": 13.2849591}, {"type": "node", "id": 10706681351, "lat": 52.4484306, "lon": 13.2850101}, {"type": "node", "id": 10706700325, "lat": 52.4502371, "lon": 13.2847045}, {"type": "node", "id": 10706700340, "lat": 52.449698, "lon": 13.2838723}, {"type": "node", "id": 10706700348, "lat": 52.4504883, "lon": 13.2830045}, {"type": "node", "id": 10706700349, "lat": 52.4502504, "lon": 13.2832874}, {"type": "node", "id": 10706700350, "lat": 52.4502623, "lon": 13.2833203}, {"type": "node", "id": 10706700351, "lat": 52.4498119, "lon": 13.2836992}, {"type": "node", "id": 10706700352, "lat": 52.4498405, "lon": 13.2837119}, {"type": "node", "id": 10706700353, "lat": 52.4498802, "lon": 13.2837146}, {"type": "node", "id": 10706700354, "lat": 52.449928, "lon": 13.2836857}, {"type": "node", "id": 10706700355, "lat": 52.4501262, "lon": 13.2834712}, {"type": "node", "id": 10706700359, "lat": 52.4496912, "lon": 13.2838252}, {"type": "node", "id": 10707943015, "lat": 52.4489056, "lon": 13.2739218}, {"type": "node", "id": 10707943029, "lat": 52.4460977, "lon": 13.2725951}, {"type": "node", "id": 10707943085, "lat": 52.4461144, "lon": 13.2725375}, {"type": "node", "id": 10707943087, "lat": 52.4461767, "lon": 13.2723244}, {"type": "node", "id": 10707943088, "lat": 52.4462351, "lon": 13.2721188}, {"type": "node", "id": 10707943089, "lat": 52.4462813, "lon": 13.2719457}, {"type": "node", "id": 10707943091, "lat": 52.4463589, "lon": 13.2715689}, {"type": "node", "id": 10707943177, "lat": 52.4463736, "lon": 13.2715058}, {"type": "node", "id": 10707943194, "lat": 52.4432155, "lon": 13.27129}, {"type": "node", "id": 10707943195, "lat": 52.4432443, "lon": 13.2712842}, {"type": "node", "id": 10707943228, "lat": 52.4460063, "lon": 13.2724945}, {"type": "node", "id": 10707943229, "lat": 52.4424436, "lon": 13.2710492}, {"type": "node", "id": 10707943254, "lat": 52.4462508, "lon": 13.2715407}, {"type": "node", "id": 10707943278, "lat": 52.4460343, "lon": 13.2723892}, {"type": "node", "id": 10707943279, "lat": 52.44609, "lon": 13.2722186}, {"type": "node", "id": 10707943280, "lat": 52.4461545, "lon": 13.2719873}, {"type": "node", "id": 10707943281, "lat": 52.4461966, "lon": 13.2718156}, {"type": "node", "id": 10707943284, "lat": 52.4462591, "lon": 13.2714803}, {"type": "node", "id": 10707943291, "lat": 52.4452658, "lon": 13.2710917}, {"type": "node", "id": 10726381751, "lat": 52.4489588, "lon": 13.2739101}, {"type": "node", "id": 10726381753, "lat": 52.4490356, "lon": 13.2735641}, {"type": "node", "id": 10726381771, "lat": 52.4484794, "lon": 13.2725153}, {"type": "node", "id": 10726381788, "lat": 52.4484556, "lon": 13.2725001}, {"type": "node", "id": 10726422238, "lat": 52.4498658, "lon": 13.2787499}, {"type": "node", "id": 10726422240, "lat": 52.4495634, "lon": 13.2743279}, {"type": "node", "id": 10726422314, "lat": 52.4484376, "lon": 13.2724885}, {"type": "node", "id": 10748488353, "lat": 52.446346, "lon": 13.2858671}, {"type": "node", "id": 10748488354, "lat": 52.4462663, "lon": 13.2856732}, {"type": "node", "id": 10748488358, "lat": 52.4459937, "lon": 13.2850097}, {"type": "node", "id": 10748488365, "lat": 52.4458718, "lon": 13.2847132}, {"type": "node", "id": 10748488369, "lat": 52.4461172, "lon": 13.2845072}, {"type": "node", "id": 10748488381, "lat": 52.4458458, "lon": 13.2846501}, {"type": "node", "id": 10748488382, "lat": 52.4465273, "lon": 13.2846671}, {"type": "node", "id": 10748488383, "lat": 52.4464087, "lon": 13.2846209}, {"type": "node", "id": 10748488389, "lat": 52.4465604, "lon": 13.2846806}, {"type": "node", "id": 10748488395, "lat": 52.4467002, "lon": 13.2847346}, {"type": "node", "id": 10748488401, "lat": 52.4470132, "lon": 13.2848567}, {"type": "node", "id": 10748488402, "lat": 52.4468924, "lon": 13.2848096}, {"type": "node", "id": 10748508536, "lat": 52.4464109, "lon": 13.2859161}, {"type": "node", "id": 10748508539, "lat": 52.4467497, "lon": 13.2855273}, {"type": "node", "id": 10748508557, "lat": 52.4470461, "lon": 13.2848695}, {"type": "node", "id": 10748508558, "lat": 52.4469998, "lon": 13.2851969}, {"type": "node", "id": 10794932605, "lat": 52.4477443, "lon": 13.2695023, "tags": {"amenity": "cafe", "name": "Casa Carlotta UG", "website": "https://www.casa-carlotta.com"}}, {"type": "node", "id": 10810976311, "lat": 52.4585775, "lon": 13.3042472}, {"type": "node", "id": 10810976313, "lat": 52.4584727, "lon": 13.3041708}, {"type": "node", "id": 10810976314, "lat": 52.4583307, "lon": 13.3037145}, {"type": "node", "id": 10827952428, "lat": 52.4630657, "lon": 13.2817717}, {"type": "node", "id": 10837742758, "lat": 52.4717936, "lon": 13.2830406}, {"type": "node", "id": 10837742760, "lat": 52.4721923, "lon": 13.2824946}, {"type": "node", "id": 10866009429, "lat": 52.4697991, "lon": 13.2847433}, {"type": "node", "id": 10866009436, "lat": 52.4706596, "lon": 13.2835608}, {"type": "node", "id": 10866009445, "lat": 52.4721631, "lon": 13.2813978}, {"type": "node", "id": 10866039212, "lat": 52.4739165, "lon": 13.2792151}, {"type": "node", "id": 10866039213, "lat": 52.4739309, "lon": 13.2791794}, {"type": "node", "id": 10866039215, "lat": 52.474151, "lon": 13.2787943}, {"type": "node", "id": 10866039230, "lat": 52.4720398, "lon": 13.2826965}, {"type": "node", "id": 10867790900, "lat": 52.4671391, "lon": 13.3086229}, {"type": "node", "id": 10867790901, "lat": 52.4671205, "lon": 13.30859}, {"type": "node", "id": 10867790902, "lat": 52.4671757, "lon": 13.3087442}, {"type": "node", "id": 10867885452, "lat": 52.4670216, "lon": 13.3091167}, {"type": "node", "id": 10867885462, "lat": 52.466567, "lon": 13.308662}, {"type": "node", "id": 10867885497, "lat": 52.4662474, "lon": 13.3074597}, {"type": "node", "id": 10867885501, "lat": 52.4665413, "lon": 13.3086259}, {"type": "node", "id": 10867885519, "lat": 52.4670925, "lon": 13.3083207}, {"type": "node", "id": 10867885528, "lat": 52.4662717, "lon": 13.3074305}, {"type": "node", "id": 10921059014, "lat": 52.448056, "lon": 13.2796699}, {"type": "node", "id": 10921059015, "lat": 52.4490531, "lon": 13.2801887}, {"type": "node", "id": 10921059016, "lat": 52.4491035, "lon": 13.2801948}, {"type": "node", "id": 10921059017, "lat": 52.4491382, "lon": 13.2801776}, {"type": "node", "id": 10921059018, "lat": 52.4493544, "lon": 13.2799709}, {"type": "node", "id": 10921059019, "lat": 52.4494139, "lon": 13.2799204}, {"type": "node", "id": 10921059020, "lat": 52.449194, "lon": 13.2794537}, {"type": "node", "id": 10921059021, "lat": 52.4491589, "lon": 13.2793504}, {"type": "node", "id": 10921059022, "lat": 52.4491262, "lon": 13.2792029}, {"type": "node", "id": 10921059023, "lat": 52.4490657, "lon": 13.2791372}, {"type": "node", "id": 10921059024, "lat": 52.449006, "lon": 13.2791372}, {"type": "node", "id": 10921059025, "lat": 52.4489542, "lon": 13.2788777}, {"type": "node", "id": 10921059026, "lat": 52.4487458, "lon": 13.2788928}, {"type": "node", "id": 10921059027, "lat": 52.4487384, "lon": 13.2786192}, {"type": "node", "id": 10995780638, "lat": 52.4653117, "lon": 13.2870941}, {"type": "node", "id": 10995780649, "lat": 52.4653865, "lon": 13.2875213}, {"type": "node", "id": 10995780650, "lat": 52.4653222, "lon": 13.2871491}, {"type": "node", "id": 10995780662, "lat": 52.4660353, "lon": 13.2867449}, {"type": "node", "id": 10995780664, "lat": 52.4660601, "lon": 13.2867119}, {"type": "node", "id": 10995780666, "lat": 52.4662514, "lon": 13.2862442}, {"type": "node", "id": 10995780681, "lat": 52.4662409, "lon": 13.2861667}, {"type": "node", "id": 10995780682, "lat": 52.4661376, "lon": 13.285488}, {"type": "node", "id": 10995780684, "lat": 52.4654281, "lon": 13.2834506}, {"type": "node", "id": 10995780685, "lat": 52.4655523, "lon": 13.2837322}, {"type": "node", "id": 10995780689, "lat": 52.4653943, "lon": 13.283372}, {"type": "node", "id": 10995797139, "lat": 52.4652108, "lon": 13.2918799}, {"type": "node", "id": 10995814318, "lat": 52.4647639, "lon": 13.2813439}, {"type": "node", "id": 10995814323, "lat": 52.4646621, "lon": 13.2781965}, {"type": "node", "id": 10995814327, "lat": 52.4646995, "lon": 13.2775889}, {"type": "node", "id": 11007175777, "lat": 52.4662579, "lon": 13.3074471, "tags": {"barrier": "kerb", "kerb": "lowered", "tactile_paving": "no"}}, {"type": "node", "id": 11007175783, "lat": 52.4668161, "lon": 13.3078333}, {"type": "node", "id": 11007175784, "lat": 52.4667071, "lon": 13.3076925}, {"type": "node", "id": 11007175785, "lat": 52.4666035, "lon": 13.3075936}, {"type": "node", "id": 11007175786, "lat": 52.4664497, "lon": 13.307481}, {"type": "node", "id": 11007175787, "lat": 52.4663398, "lon": 13.3074109}, {"type": "node", "id": 11007175788, "lat": 52.466227, "lon": 13.3075014}, {"type": "node", "id": 11007175789, "lat": 52.4662144, "lon": 13.307603}, {"type": "node", "id": 11007175790, "lat": 52.4662307, "lon": 13.3077401}, {"type": "node", "id": 11007175791, "lat": 52.466262, "lon": 13.3079292}, {"type": "node", "id": 11007175792, "lat": 52.4663102, "lon": 13.3081237}, {"type": "node", "id": 11007175793, "lat": 52.466378, "lon": 13.3083171}, {"type": "node", "id": 11007175794, "lat": 52.4664436, "lon": 13.3084593}, {"type": "node", "id": 11007175795, "lat": 52.4664691, "lon": 13.3085072}, {"type": "node", "id": 11007175799, "lat": 52.4672036, "lon": 13.3085253}, {"type": "node", "id": 11036951977, "lat": 52.4586095, "lon": 13.2994645}, {"type": "node", "id": 11036951978, "lat": 52.4585834, "lon": 13.2994772}, {"type": "node", "id": 11037023064, "lat": 52.4579267, "lon": 13.2940588}, {"type": "node", "id": 11037023065, "lat": 52.4579026, "lon": 13.2940105}, {"type": "node", "id": 11037023066, "lat": 52.4578987, "lon": 13.2944833}, {"type": "node", "id": 11039620678, "lat": 52.4598411, "lon": 13.2773627}, {"type": "node", "id": 11039620679, "lat": 52.4596697, "lon": 13.2772692}, {"type": "node", "id": 11039620680, "lat": 52.4595855, "lon": 13.2772301}, {"type": "node", "id": 11039620681, "lat": 52.4594662, "lon": 13.2772251}, {"type": "node", "id": 11039620682, "lat": 52.4593365, "lon": 13.277213}, {"type": "node", "id": 11039620683, "lat": 52.459225, "lon": 13.277181}, {"type": "node", "id": 11039620684, "lat": 52.4590554, "lon": 13.2771083}, {"type": "node", "id": 11039620685, "lat": 52.4591435, "lon": 13.2766406}, {"type": "node", "id": 11039620686, "lat": 52.4592528, "lon": 13.2767025}, {"type": "node", "id": 11039620687, "lat": 52.4593656, "lon": 13.2767844}, {"type": "node", "id": 11039620688, "lat": 52.4594628, "lon": 13.2768755}, {"type": "node", "id": 11039620689, "lat": 52.4596211, "lon": 13.2770421}, {"type": "node", "id": 11039620690, "lat": 52.4596779, "lon": 13.2770863}, {"type": "node", "id": 11310738233, "lat": 52.4517084, "lon": 13.2694583}, {"type": "node", "id": 11329278763, "lat": 52.4571768, "lon": 13.3076225, "tags": {"barrier": "gate"}}, {"type": "node", "id": 11346481293, "lat": 52.4537821, "lon": 13.2717286}, {"type": "node", "id": 11346700506, "lat": 52.4518968, "lon": 13.2701496, "tags": {"description": "Eingang zu Edeka", "entrance": "yes"}}, {"type": "node", "id": 11346711691, "lat": 52.4519121, "lon": 13.2700782, "tags": {"description": "Eingang zu Clays Fitness, Tiefgarage", "entrance": "yes"}}, {"type": "node", "id": 11364549639, "lat": 52.4508768, "lon": 13.2636868}, {"type": "node", "id": 11364549640, "lat": 52.4508642, "lon": 13.2638445}, {"type": "node", "id": 11364549641, "lat": 52.4508302, "lon": 13.2638372}, {"type": "node", "id": 11364549642, "lat": 52.4508427, "lon": 13.2636795}, {"type": "node", "id": 11364549643, "lat": 52.4509342, "lon": 13.2643262}, {"type": "node", "id": 11364549644, "lat": 52.4507961, "lon": 13.264231}, {"type": "node", "id": 11364549645, "lat": 52.4507446, "lon": 13.2645663}, {"type": "node", "id": 11364549646, "lat": 52.4507245, "lon": 13.2648633}, {"type": "node", "id": 11364549647, "lat": 52.4508034, "lon": 13.2648459}, {"type": "node", "id": 11364549648, "lat": 52.4508516, "lon": 13.264579}, {"type": "node", "id": 11371282348, "lat": 52.4468906, "lon": 13.2697397, "tags": {"leisure": "playground"}}, {"type": "node", "id": 11494332995, "lat": 52.4629304, "lon": 13.2815451}, {"type": "node", "id": 11494332996, "lat": 52.4629438, "lon": 13.2815412}, {"type": "node", "id": 11494332997, "lat": 52.4629553, "lon": 13.2815463}, {"type": "node", "id": 11494332998, "lat": 52.4630664, "lon": 13.2817875}, {"type": "node", "id": 11494332999, "lat": 52.4630654, "lon": 13.2818025}, {"type": "node", "id": 11494333000, "lat": 52.4627427, "lon": 13.2821487}, {"type": "node", "id": 11494333001, "lat": 52.4627324, "lon": 13.2821528}, {"type": "node", "id": 11494333002, "lat": 52.4627206, "lon": 13.2821557}, {"type": "node", "id": 11494333003, "lat": 52.4626647, "lon": 13.2817924}, {"type": "node", "id": 11494333004, "lat": 52.4626798, "lon": 13.2817897}, {"type": "node", "id": 11494468024, "lat": 52.4679379, "lon": 13.2871742}, {"type": "node", "id": 11494468025, "lat": 52.4686373, "lon": 13.2862603}, {"type": "node", "id": 11495510234, "lat": 52.4604362, "lon": 13.2810674}, {"type": "node", "id": 11495510235, "lat": 52.4606039, "lon": 13.281147}, {"type": "node", "id": 11495510236, "lat": 52.4606217, "lon": 13.2811936}, {"type": "node", "id": 11495510237, "lat": 52.4606114, "lon": 13.281182}, {"type": "node", "id": 11495510238, "lat": 52.4606467, "lon": 13.2809202}, {"type": "node", "id": 11495510239, "lat": 52.4606717, "lon": 13.2808853}, {"type": "node", "id": 11495510240, "lat": 52.4606619, "lon": 13.2808912}, {"type": "node", "id": 11495510241, "lat": 52.4606534, "lon": 13.2809021}, {"type": "node", "id": 11495510427, "lat": 52.4556506, "lon": 13.2768305}, {"type": "node", "id": 11495510433, "lat": 52.4551116, "lon": 13.2765265}, {"type": "node", "id": 11495510434, "lat": 52.4552405, "lon": 13.2760731}, {"type": "node", "id": 11495510435, "lat": 52.4552806, "lon": 13.2759796}, {"type": "node", "id": 11495510436, "lat": 52.4553138, "lon": 13.2759124}, {"type": "node", "id": 11495510442, "lat": 52.4554893, "lon": 13.2757638}, {"type": "node", "id": 11496788766, "lat": 52.4548076, "lon": 13.2795252}, {"type": "node", "id": 11496802495, "lat": 52.455357, "lon": 13.2757176}, {"type": "node", "id": 11496802496, "lat": 52.4553524, "lon": 13.2756996}, {"type": "node", "id": 11514138142, "lat": 52.4563667, "lon": 13.2502077}, {"type": "node", "id": 11514138144, "lat": 52.4547762, "lon": 13.2503708}, {"type": "node", "id": 11516205100, "lat": 52.4426888, "lon": 13.271237}, {"type": "node", "id": 11516205101, "lat": 52.4456196, "lon": 13.2711994}, {"type": "node", "id": 11516205102, "lat": 52.4494997, "lon": 13.273859}, {"type": "node", "id": 11516205103, "lat": 52.4494839, "lon": 13.2738359}, {"type": "node", "id": 11516205104, "lat": 52.4489311, "lon": 13.2738936}, {"type": "node", "id": 11516205105, "lat": 52.4494766, "lon": 13.2741818}, {"type": "node", "id": 11516205106, "lat": 52.4494591, "lon": 13.2742015}, {"type": "node", "id": 11516205107, "lat": 52.4495029, "lon": 13.2739847}, {"type": "node", "id": 11516205190, "lat": 52.4464233, "lon": 13.2711479}, {"type": "node", "id": 11516205191, "lat": 52.4464417, "lon": 13.2709765}, {"type": "node", "id": 11516205192, "lat": 52.4464536, "lon": 13.2709456}, {"type": "node", "id": 11516205193, "lat": 52.4464674, "lon": 13.2709287}, {"type": "node", "id": 11516205194, "lat": 52.446509, "lon": 13.2709189}, {"type": "node", "id": 11516205195, "lat": 52.4467628, "lon": 13.2709778}, {"type": "node", "id": 11516252597, "lat": 52.4497857, "lon": 13.2841993}, {"type": "node", "id": 11516252625, "lat": 52.4509436, "lon": 13.2838519}, {"type": "node", "id": 11516252626, "lat": 52.4508465, "lon": 13.2840648}, {"type": "node", "id": 11516252627, "lat": 52.4507269, "lon": 13.2842372}, {"type": "node", "id": 11516276176, "lat": 52.448211, "lon": 13.2849437}, {"type": "node", "id": 11517669430, "lat": 52.4539139, "lon": 13.3081953}, {"type": "node", "id": 11517669432, "lat": 52.4539296, "lon": 13.3081921}, {"type": "node", "id": 11517691500, "lat": 52.4541368, "lon": 13.3081326}, {"type": "node", "id": 11517691514, "lat": 52.4539057, "lon": 13.3082792}, {"type": "node", "id": 11521307980, "lat": 52.4655754, "lon": 13.2876251}, {"type": "node", "id": 11528561243, "lat": 52.4578865, "lon": 13.2897424}, {"type": "node", "id": 11529252277, "lat": 52.4578245, "lon": 13.2944854}, {"type": "node", "id": 11529252278, "lat": 52.4577195, "lon": 13.2942597}, {"type": "node", "id": 11529252279, "lat": 52.4577271, "lon": 13.2942369}, {"type": "node", "id": 11529252280, "lat": 52.4579215, "lon": 13.2941358}, {"type": "node", "id": 11529252281, "lat": 52.4579188, "lon": 13.2941837}, {"type": "node", "id": 11529252282, "lat": 52.4579139, "lon": 13.2942653}, {"type": "node", "id": 11529252283, "lat": 52.4579071, "lon": 13.2943479}, {"type": "node", "id": 11529252284, "lat": 52.4578956, "lon": 13.2943458}, {"type": "node", "id": 11529252285, "lat": 52.4579005, "lon": 13.2942645}, {"type": "node", "id": 11529252286, "lat": 52.4579144, "lon": 13.294134}, {"type": "node", "id": 11529252287, "lat": 52.4579119, "lon": 13.2941819}, {"type": "node", "id": 11529252319, "lat": 52.4578962, "lon": 13.2943353}, {"type": "node", "id": 11529252320, "lat": 52.4579001, "lon": 13.2942708}, {"type": "node", "id": 11529252329, "lat": 52.4578322, "lon": 13.2941013}, {"type": "node", "id": 11529252339, "lat": 52.4578632, "lon": 13.2944843}, {"type": "node", "id": 11532112795, "lat": 52.4528715, "lon": 13.2993614}, {"type": "node", "id": 11577101371, "lat": 52.4526093, "lon": 13.2879703, "tags": {"amenity": "cafe", "level": "1", "name": "GalileA", "operator": "Galilea Kollektiv", "wheelchair": "yes"}}, {"type": "node", "id": 11579810210, "lat": 52.4554675, "lon": 13.2522475}, {"type": "node", "id": 11612850133, "lat": 52.4496589, "lon": 13.2692982, "tags": {"addr:city": "Berlin", "addr:housenumber": "225", "addr:postcode": "14195", "addr:street": "Clayallee", "amenity": "doctors", "healthcare": "doctor", "healthcare:speciality": "proctology;surgery", "name": "COPV Berlin - Chirurgie und Proktologie", "operator": "PD Dr. Dietmar Jacob"}}, {"type": "node", "id": 11630269589, "lat": 52.4567567, "lon": 13.3012964, "tags": {"addr:city": "Berlin", "addr:housenumber": "7", "addr:postcode": "14195", "addr:street": "Gustav-Meyer-Stra\u00dfe", "healthcare": "counselling", "name": "Anonyme Alkoholkrankenhilfe Berlin (AKB) e.V.", "opening_hours": "09:00-21:00", "phone": "+49 030 / 84109444", "website": "https://akb-ev.de/"}}, {"type": "node", "id": 11652287838, "lat": 52.4530453, "lon": 13.288103}, {"type": "node", "id": 11652287839, "lat": 52.4532958, "lon": 13.2887048}, {"type": "node", "id": 11652287840, "lat": 52.4533604, "lon": 13.2886413}, {"type": "node", "id": 11652287841, "lat": 52.453455, "lon": 13.2888848}, {"type": "node", "id": 11652287842, "lat": 52.4534184, "lon": 13.2889307}, {"type": "node", "id": 11652287843, "lat": 52.4534582, "lon": 13.2889836}, {"type": "node", "id": 11652287844, "lat": 52.4535012, "lon": 13.288996}, {"type": "node", "id": 11652287845, "lat": 52.4535378, "lon": 13.2889801}, {"type": "node", "id": 11652287846, "lat": 52.4537928, "lon": 13.2887236}, {"type": "node", "id": 11742877136, "lat": 52.4559222, "lon": 13.3090252}, {"type": "node", "id": 11778876508, "lat": 52.4654083, "lon": 13.2897917}, {"type": "node", "id": 11778884939, "lat": 52.4657112, "lon": 13.287287}, {"type": "node", "id": 11778884940, "lat": 52.4655133, "lon": 13.2878625}, {"type": "node", "id": 11778884941, "lat": 52.4655526, "lon": 13.2877037}, {"type": "node", "id": 11825865786, "lat": 52.4561191, "lon": 13.2730674}, {"type": "node", "id": 11955266529, "lat": 52.4537271, "lon": 13.2984654}, {"type": "node", "id": 11955266530, "lat": 52.4537337, "lon": 13.2984479}, {"type": "node", "id": 11955266531, "lat": 52.4537594, "lon": 13.2984744}, {"type": "node", "id": 11955266532, "lat": 52.4537521, "lon": 13.2984928}, {"type": "node", "id": 11955266533, "lat": 52.4539578, "lon": 13.2987086}, {"type": "node", "id": 11955266534, "lat": 52.4539683, "lon": 13.298682}, {"type": "node", "id": 11955266535, "lat": 52.4540079, "lon": 13.2987239}, {"type": "node", "id": 11955266536, "lat": 52.4539974, "lon": 13.2987505}, {"type": "node", "id": 11955266537, "lat": 52.4543247, "lon": 13.2989823}, {"type": "node", "id": 11955266538, "lat": 52.4543411, "lon": 13.2990251}, {"type": "node", "id": 11955266539, "lat": 52.4543582, "lon": 13.2990081}, {"type": "node", "id": 11955266550, "lat": 52.4539265, "lon": 13.2979914}, {"type": "node", "id": 11955266551, "lat": 52.4539173, "lon": 13.2980283}, {"type": "node", "id": 11955266552, "lat": 52.4539069, "lon": 13.2980649}, {"type": "node", "id": 11955266553, "lat": 52.4538964, "lon": 13.2980986}, {"type": "node", "id": 11955266554, "lat": 52.4538706, "lon": 13.2981685}, {"type": "node", "id": 11955266555, "lat": 52.4538584, "lon": 13.2981968}, {"type": "node", "id": 11955266556, "lat": 52.4538446, "lon": 13.2982255}, {"type": "node", "id": 11955266557, "lat": 52.4538132, "lon": 13.2982849}, {"type": "node", "id": 11955266558, "lat": 52.4537967, "lon": 13.2983117}, {"type": "node", "id": 11955266559, "lat": 52.4537627, "lon": 13.2983611}, {"type": "node", "id": 11955266560, "lat": 52.4537312, "lon": 13.2983989}, {"type": "node", "id": 12046022422, "lat": 52.4635076, "lon": 13.2982899}, {"type": "node", "id": 12062867263, "lat": 52.4670784, "lon": 13.3084974, "tags": {"barrier": "gate"}}, {"type": "node", "id": 12062867264, "lat": 52.4671183, "lon": 13.3088248, "tags": {"barrier": "gate"}}, {"type": "node", "id": 12063200735, "lat": 52.4655987, "lon": 13.2875575}, {"type": "node", "id": 12063200736, "lat": 52.4656676, "lon": 13.2873836}, {"type": "node", "id": 12068577121, "lat": 52.4511733, "lon": 13.2830728}, {"type": "node", "id": 12068577122, "lat": 52.4511327, "lon": 13.2831783}, {"type": "node", "id": 12068577123, "lat": 52.4511043, "lon": 13.2832618}, {"type": "node", "id": 12339067385, "lat": 52.4499066, "lon": 13.2745278}, {"type": "node", "id": 12600045729, "lat": 52.4467527, "lon": 13.281973, "tags": {"addr:city": "Berlin", "addr:housenumber": "21", "addr:postcode": "14195", "addr:street": "Garystra\u00dfe", "amenity": "cafe", "internet_access": "yes", "internet_access:fee": "no", "name": "Caf\u00e9 Schwarzer Freitag", "website": "https://fsiwiwiss.org/schwarzer-freitag/"}}, {"type": "node", "id": 12626490474, "lat": 52.4523383, "lon": 13.3104939}, {"type": "node", "id": 12645814772, "lat": 52.4532306, "lon": 13.3089906}, {"type": "way", "id": 13700405, "nodes": [126363482, 5703016575, 126363550, 126363538, 126363520, 5703017161, 9723738790, 126363510, 5703017160, 126363500, 126363494, 5703016576, 126363482], "tags": {"intermittent": "no", "name": "Messelteich", "natural": "water", "water": "pond"}}, {"type": "way", "id": 22495098, "nodes": [241485763, 241485764, 241485766, 241485767, 241485763], "tags": {"addr:city": "Berlin", "addr:country": "DE", "addr:housenumber": "39", "addr:postcode": "14195", "addr:street": "Im Winkel", "addr:suburb": "Dahlem", "brand": "Rewe", "brand:wikidata": "Q16968817", "brand:wikipedia": "de:Rewe", "building": "retail", "building:levels": "1", "check_date:opening_hours": "2024-10-18", "name": "REWE City", "opening_hours": "Mo-Sa 06:00-22:00", "operator": "REWE Group", "payment:cash": "yes", "payment:contactless": "yes", "payment:credit_cards": "yes", "payment:debit_cards": "yes", "payment:edenred_ticket": "yes", "payment:girocard": "yes", "roof:levels": "0", "shop": "supermarket", "wheelchair": "yes"}}, {"type": "way", "id": 22495099, "nodes": [7563615871, 7563615872, 241485722, 241485924, 241485724, 4674506178, 241485926, 7563615868, 7563615871], "tags": {"leisure": "park", "protection_title": "Gesch\u00fctzte Gr\u00fcnanlage"}}, {"type": "way", "id": 22697253, "nodes": [7563861733, 9741643478, 9741643479, 7563861732, 7563861730, 7563861921, 1068973684, 1068973688, 11495510433, 7563861922, 1068973660, 11495510434, 11495510435, 11495510436, 1068973701, 9741643497, 1068973678, 11495510442, 1068973704, 9741643505, 1068973645, 1068973659, 11495510427, 7563861733]}, {"type": "way", "id": 25325965, "nodes": [9979372628, 9979372627, 275919981, 9979365915, 9979372626, 9979372625, 9979372624, 275919984, 275919983, 9979372619, 9979372617, 9979365913, 9979365914, 9979365916, 9979372618, 9979372623, 9979372622, 275919982, 9979372621, 9979372620, 9979372628], "tags": {"addr:city": "Berlin", "addr:country": "DE", "addr:housenumber": "90", "addr:postcode": "14193", "addr:street": "H\u00fcttenweg", "addr:suburb": "Grunewald", "amenity": "restaurant", "building": "yes", "contact:website": "https://www.12-apostel.com/", "heritage": "4", "heritage:operator": "lda", "heritage:website": "https://denkmaldatenbank.berlin.de/daobj.php?obj_dok_nr=09075450", "lda:criteria": "Baudenkmal", "name": "Locanda 12 Apostoli", "old_name": "Forsthaus Paulsborn", "ref:lda": "09075450", "start_date": "1905..1906", "tourism": "hotel", "website": "https://forst-grunewald.de/?page_id=2764", "wheelchair": "limited", "wikimedia_commons": "File:H\u00fcttenweg 90 Berlin-Dahlem.jpg"}}, {"type": "way", "id": 25362058, "nodes": [276397521, 5590521655, 5309406266, 9855830878, 276397522, 5309406258, 5309406267, 5309406259, 5309406260, 5309406261, 5309406262, 5309406263, 5590521662, 276397523, 276397524, 5590521671, 5309406264, 5309406265, 9855830881, 9855830880, 276397521], "tags": {"description": "nicht wirklich ein Park, nur ein Hauptweg (Schotter und schlammig)", "leisure": "park"}}, {"type": "way", "id": 25363187, "nodes": [3907202450, 10707943228, 10707943278, 10707943279, 10707943280, 10707943281, 10707943254, 10707943284, 3907202501, 11516205101, 6251077779, 10707943291, 324245147, 324245166, 324245170, 3907202354, 324245171, 324245168, 324245173, 324245176, 324245174, 324245153, 3907201857, 3907071286, 10707943229, 3907071285, 11516205100, 324245154, 10707943194, 10707943195, 324245159, 324245152, 324245161, 324245163, 7027349868, 324245165, 3907202450]}, {"type": "way", "id": 29491686, "nodes": [11007175777, 10867885528, 618262270, 5147573242, 11007175787, 325096177, 11007175786, 325096181, 11007175785, 325096183, 11007175784, 325096186, 11007175783, 4605994625, 10867885519, 11007175799, 325096190, 10867885452]}, {"type": "way", "id": 30789089, "nodes": [3484060212, 3484060186, 3484060183, 3484060148, 3484060151, 3484060139, 3484060133, 3484060095, 3484060097, 3484060071, 3484060069, 3484060030, 3484060004, 3484060073, 3484060081, 3484060171, 3484060195, 3484060198, 3484060212], "tags": {"addr:city": "Berlin", "addr:housenumber": "146", "addr:postcode": "14195", "addr:street": "Clayallee", "amenity": "restaurant", "building": "yes", "cuisine": "italian", "indoor_seating": "yes", "name": "Trattoria Toscana", "opening_hours": "Mo-Su 11:30-00:00", "outdoor_seating": "yes", "phone": "+49 30 84316144", "source": "Geoportal Berlin / k5_2012_sw_sued.zip", "toilets:wheelchair": "no", "website": "https://trattoria-toscana.berlin/", "website:menu": "https://trattoria-toscana.berlin/cms/wp-content/uploads/2021/06/Speisekarte-Trattoria-Toscana.pdf", "wheelchair": "yes"}}, {"type": "way", "id": 30842683, "nodes": [2383638716, 10748488369, 10748488383, 10748488382, 10748488389, 10748488395, 10748488402, 10748488401, 10748508557, 2383638723, 10748508558, 2383638720, 10748508539, 10748508536, 2383638718, 10748488353, 10748488354, 10748488358, 10748488365, 10748488381, 2383638714, 2383638716], "tags": {"leisure": "park", "protection_title": "Gesch\u00fctzte Gr\u00fcnanlage"}}, {"type": "way", "id": 35464629, "nodes": [415917223, 415917226, 1204024314, 1204023375, 415917228, 415917231, 11036951978, 11036951977, 415917223], "tags": {"amenity": "cafe", "building": "yes"}}, {"type": "way", "id": 37067707, "nodes": [1616141260, 1616141317, 1616141308, 1616141249, 1616141260], "tags": {"leisure": "park"}}, {"type": "way", "id": 51209441, "nodes": [734877524, 7554401025, 7554401024, 734877508, 734877505, 11532112795, 734877524], "tags": {"leisure": "park"}}, {"type": "way", "id": 53774167, "nodes": [678901085, 11528561243, 678901082, 678901083, 678901084, 678901085], "tags": {"addr:city": "Berlin", "addr:housenumber": "48", "addr:postcode": "14195", "addr:street": "K\u00f6nigin-Luise-Stra\u00dfe", "amenity": "fast_food", "building": "yes", "check_date": "2023-06-30", "cuisine": "kebab", "delivery": "no", "drive_through": "no", "indoor_seating": "no", "name": "Best Of Kebab", "opening_hours": "Mo-Su 08:00-24:00", "outdoor_seating": "yes", "payment:cash": "yes", "phone": "+49 176 80799836", "smoking": "outside", "source": "Geoportal Berlin / Hausumringe", "wheelchair": "yes"}}, {"type": "way", "id": 54781806, "nodes": [5309757479, 5309757478, 3102173860, 5309757475, 3102173864, 3102173863, 3102177054, 3102177053, 3102177060, 3103218330, 5309757476, 5309757477, 3102177148, 5309757481, 5309757480, 5309757479], "tags": {"addr:city": "Berlin", "addr:country": "DE", "addr:housenumber": "50", "addr:postcode": "14195", "addr:street": "H\u00fcttenweg", "addr:suburb": "Dahlem", "brand": "Lidl", "brand:wikidata": "Q151954", "brand:wikipedia": "en:Lidl", "building": "retail", "building:levels": "1", "name": "Lidl", "opening_hours": "Mo-Sa 07:00-21:00", "roof:shape": "flat", "shop": "supermarket", "source": "Geoportal Berlin / k5_2012_sw_sued.zip", "toilets:wheelchair": "no", "website": "https://www.lidl.de/", "wheelchair": "yes"}}, {"type": "way", "id": 84404922, "nodes": [5316667442, 5316667441, 5316667440, 126363683, 5316667478, 11778876508, 5316667392, 9723738759, 9737708507, 5316667450, 9737710433, 5316667449, 9737710434, 5316667471, 5316667457, 5316667455, 5316667466, 9737710423, 5316667448, 5316667464, 9737710420, 5316667456, 5316667463, 5316667461, 5316667465, 9737708515, 9737708513, 5316667444, 5316667445, 5316667468, 5316667447, 5316667446, 5316667443, 5316667472, 5316667454, 5316667460, 9735038939, 9735038935, 5319055131, 5316667481, 5319055130, 5316667477, 5316667473, 5316667474, 10995797139, 5316667467, 5316667459, 9735038921, 5316667480, 5316667476, 5316667491, 9735038919, 5316667488, 5316667487, 5316667486, 5316667485, 5316667484, 5316667483, 9735018709, 5316667482, 5316667452, 5316667462, 5316667458, 5316667479, 5316667475, 5316667451, 5316667470, 5316667453, 126363682, 9723738778, 5316667469, 5316667442]}, {"type": "way", "id": 90131937, "nodes": [1044889062, 10304713603, 3368095432, 3368095434, 3368095433, 3368095431, 3368095430, 1044890274, 10304713601, 10304713602, 3368095429, 1044890646, 359073692, 1044889780, 1404604249, 3368095427, 1044889062], "tags": {"addr:city": "Berlin", "addr:country": "DE", "addr:housenumber": "121", "addr:postcode": "14195", "addr:street": "Clayallee", "addr:suburb": "Dahlem", "amenity": "fast_food", "brand": "McDonald's", "brand:wikidata": "Q38076", "brand:wikipedia": "en:McDonald's", "building": "retail", "building:colour": "orange", "building:levels": "1", "contact:phone": "+49 30 8134035", "contact:website": "http://www.mcdonalds.de/restaurant?id=212", "cuisine": "burger", "indoor_seating": "yes", "name": "McDonald's", "opening_hours": "Mo-Th 07:00-01:00, Fr,Sa 07:00-03:00, Su 08:00-01:00", "outdoor_seating": "terrace", "roof:levels": "1", "takeaway": "yes", "wheelchair": "limited"}}, {"type": "way", "id": 92020277, "nodes": [1068973702, 9741643507, 1068973666, 1068973683, 1068973700, 1068973707, 11496802495, 11496802496, 1068973722, 9741643506, 1068973657, 1068973702], "tags": {"leisure": "park", "protection_title": "Gesch\u00fctzte Gr\u00fcnanlage"}}, {"type": "way", "id": 94445292, "nodes": [1097069311, 6302257547, 6302257543, 6302257542, 6302257546, 1097069312, 1204024083, 6302257550, 1204023874, 1204023136, 1204023001, 1204024301, 1097069314, 6302257548, 6302257545, 6302257544, 6302257549, 1097069316, 1204023758, 1204024294, 1204023795, 1204024371, 1097069311], "tags": {"addr:city": "Berlin", "addr:country": "DE", "addr:housenumber": "89", "addr:postcode": "14195", "addr:street": "Podbielskiallee", "addr:suburb": "Dahlem", "amenity": "dentist", "building": "yes", "description": "Zahnklinik", "healthcare": "dentist", "healthcare:speciality": "dentistry", "name": "MVZ Medeco Berlin Dahlem", "opening_hours": "Mo-Fr 07:00-21:00; Sa,Su 09:00-18:00", "phone": "+49 30 8419100", "website": "https://www.mvzmedeco.berlin/standort-dahlem"}}, {"type": "way", "id": 116752397, "nodes": [1315432354, 1315432355, 1315432356, 1315432357, 7798246783, 1315432359, 1315432361, 1315432363, 1315432365, 1315432367, 1315432368, 1315432370, 9170221511, 9170221510, 9170221509, 1315432384, 8507851269, 1315432354], "tags": {"leisure": "park", "name": "J\u00fcrgen-Fuchs-Platz", "name:etymology:wikidata": "Q90750", "protection_title": "Gesch\u00fctzte Gr\u00fcnanlage", "source": "Bing"}}, {"type": "way", "id": 118447554, "nodes": [1332267901, 1332267900, 1332267898, 1332267902, 1332267901], "tags": {"access": "yes", "leisure": "playground"}}, {"type": "way", "id": 125194752, "nodes": [274234893, 10810976314, 6135636928, 274234892, 343015557, 274234891, 10810976313, 274234890, 10810976311, 6135636926, 1635716679, 7058724388, 6135636927, 298262888, 6513497222, 6513497215, 6513497216, 6513497217, 6513497218, 6513497219, 6513497220, 6513497221, 298262890, 298262891, 6513497228, 6513497229, 298262894, 6513497230, 6513497231, 6513497233, 6854488175, 6854488179, 6854488182, 5922530386, 2319180079, 2319180077, 6853840081, 6854488178, 5922530390, 31138253, 1391115682, 5846555347, 5846555337, 2255239723, 2255239719, 11329278763, 2255239712, 2255239706, 5846559610, 5846559604, 5846559609, 5846591142, 11742877136, 5325418890, 237858681, 31138254, 1408402532, 2255239552, 503360984, 2255239247, 2255239164, 2255239141, 2255239139, 2255239131, 2255239129, 503360981, 503360978, 11517691500, 4404131274, 4404131268, 5873378696, 11517669432, 11517669430, 11517691514, 503360971, 7537218143, 12645814772, 2255239053, 2255239042, 503360969, 503360967, 5873377383, 5873378712, 12626490474, 653256983, 5873377354, 5873378730, 5873378687, 343314980, 6222367531, 5873378702, 5873378719, 5873377368, 653256980, 653256896, 7093891130, 653256903, 653256895, 653256971, 6135638347, 2255239665, 7141564304, 503360870, 7141526649, 274234893], "tags": {"barrier": "fence", "contact:website": "https://bo.berlin", "fee": "yes", "garden:type": "botanical", "leisure": "park", "name": "Botanischer Garten", "name:fa": "\u0628\u0627\u063a \u06af\u06cc\u0627\u0647\u0634\u0646\u0627\u0633\u06cc", "name:ru": "\u0411\u043e\u0442\u0430\u043d\u0438\u0447\u0435\u0441\u043a\u0438\u0439 \u0441\u0430\u0434", "opening_hours": "Jan 09:00-16:00; Feb 09:00-17:00; Mar 09:00-18:00; Apr 09:00-20:00; May-Jul 09:00-21:00; Aug 09:00-20:00; Sep 09:00-19:00; Oct 09:00-18:00; Nov,Dec 09:00-16:00", "protection_title": "Gesch\u00fctzte Gr\u00fcnanlage", "tourism": "attraction", "wheelchair": "limited", "wikidata": "Q163255", "wikipedia": "de:Botanischer Garten und Botanisches Museum Berlin-Dahlem"}}, {"type": "way", "id": 140383525, "nodes": [1538131173, 12062867264, 1538131180, 1538131182, 10867790902, 4605994602, 10867790900, 10867790901, 4605994604, 4605994605, 12062867263, 1538131173], "tags": {"access": "yes", "barrier": "fence", "leisure": "playground", "surface": "sand"}}, {"type": "way", "id": 142596561, "nodes": [1560580831, 1560580832, 1560580830, 1560580829, 1560580831], "tags": {"access:covid19": "no", "addr:housenumber": "2", "addr:street": "Breitenbachplatz", "amenity": "fast_food", "building": "retail", "cuisine": "sausage;kebab", "delivery:covid19": "no", "drive_through:covid19": "no", "indoor_seating": "no", "internet_access": "no", "noname": "yes", "opening_hours": "Mo-Fr 10:00-22:00; Sa,Su 13:00-21:00", "outdoor_seating": "yes", "sausage": "curry", "smoking": "yes", "takeaway:covid19": "yes", "wheelchair": "yes"}}, {"type": "way", "id": 151033693, "nodes": [3955492666, 10681160525, 8259096931, 10681160531, 6302439495, 8259096930, 10681160608, 3955492665, 10681160623, 479146731, 10681160607, 10681160591, 10681160573, 10681160562, 10681154996, 7556762713, 7556762714, 10681154974, 10681154997, 10681160524, 3955492666], "tags": {"leisure": "park", "name": "Gustav-Mahler-Platz", "name:etymology:wikidata": "Q7304", "protection_title": "Gesch\u00fctzte Gr\u00fcnanlage", "wikidata": "Q116140743"}}, {"type": "way", "id": 151039042, "nodes": [9271884415, 9271884416, 9271884428, 9271884427, 9271884417, 10706655972, 9271884418, 10706656011, 7554431539, 6645857794, 6645857793, 10706656005, 10706656004, 10706656000, 10706655999, 7554431505, 9271884433, 9271884432, 9271884419, 9271884420, 9271884431, 9271884430, 9271884429, 10706655980, 10706655981, 9271884421, 9271884422, 9271884423, 9271884424, 9271884425, 9271884426, 9271884415], "tags": {"image": "https://commons.wikimedia.org/wiki/File:Dahlem_Triest-Park-2.JPG", "leisure": "park", "name": "Triest-Park", "name:etymology:wikidata": "Q546", "name:etymology:wikipedia": "de:Triest", "wikimedia_commons": "Category:Triest-Park (Berlin-Dahlem)"}}, {"type": "way", "id": 151324200, "nodes": [5316667309, 265950552, 3486386218, 3486386374, 927076449, 265950553, 3486387121, 3486387223, 3486387269, 265950554, 3486387408, 3486387448, 265950555, 3486387474, 1563585513, 1563585512, 422527941, 3486387183, 10995780638, 10995780650, 10995780649, 3486387271, 3486387298, 11778884940, 3486387309, 11778884941, 11521307980, 12063200735, 3486387382, 12063200736, 11778884939, 3486387458, 3486387503, 10995780662, 3486387561, 10995780664, 3486387628, 3486387639, 10995780666, 10995780681, 3486387600, 10995780682, 3486387579, 3486387559, 3486387537, 3486387494, 3486387470, 3486387428, 10995780685, 3486387300, 10995780684, 10995780689, 3486387235, 5316667310, 3486387143, 3486386964, 5316667311, 3486386725, 3486386558, 5316667312, 9741547579, 9741547576, 5316667309], "tags": {"leisure": "park", "name": "Finkenpark", "name:etymology:wikidata": "Q160835", "name:etymology:wikipedia": "de:Finken", "protection_title": "Gesch\u00fctzte Gr\u00fcnanlage"}}, {"type": "way", "id": 151324206, "nodes": [3295655654, 9711955937, 9711955938, 3295655655, 3295655657, 10308393335, 10308393334, 10308393332, 11495510234, 10308393333, 3295655659, 3295655654], "tags": {"leisure": "park", "name": "Vogelsang", "name:etymology:wikidata": "Q1126556"}}, {"type": "way", "id": 151324207, "nodes": [3295657162, 3486382474, 11494333003, 11494333004, 3486382639, 11494332995, 11494332996, 11494332997, 3486383331, 10827952428, 11494332998, 11494332999, 3486383594, 11494333000, 11494333001, 11494333002, 3486382658, 11495510236, 11495510237, 3295657161, 11495510235, 11495510238, 11495510241, 11495510240, 11495510239, 3295657162], "tags": {"landuse": "grass", "leisure": "park", "name": "Vogelsang", "name:etymology:wikidata": "Q1126556"}}, {"type": "way", "id": 151328924, "nodes": [5316667698, 5316667682, 5316667691, 9735809158, 9735809146, 5316667693, 5316667700, 5316667701, 5316667696, 5316667689, 5316667675, 5316667685, 5316667686, 5316667688, 5316667687, 5316667676, 11494468024, 11494468025, 5316667694, 5316667699, 9735809166, 5316667671, 5316667698]}, {"type": "way", "id": 183383745, "nodes": [1937560190, 1937560197, 1937560199, 1937560196, 1937560193, 11516205195, 11516205194, 1937560192, 11516205193, 11516205192, 11516205191, 11516205190, 1937560189, 1200981827, 1937560190], "tags": {"access": "yes", "leisure": "playground"}}, {"type": "way", "id": 183383765, "nodes": [1937560365, 1937560364, 1937560358, 1937560361, 1937560359, 1937560360, 1937560362, 1937560363, 1937560365], "tags": {"access": "private", "leisure": "playground", "wheelchair": "yes"}}, {"type": "way", "id": 192647256, "nodes": [2262896921, 2264160369, 2031923539, 2262896308, 2262896304, 2031923549, 9648069932, 2031923564, 2262896921], "tags": {"addr:city": "Berlin", "addr:country": "DE", "addr:housenumber": "177", "addr:postcode": "14195", "addr:street": "Clayallee", "addr:suburb": "Dahlem", "building": "commercial", "building:levels": "3", "name": "\u00c4rztehaus 1"}}, {"type": "way", "id": 192647258, "nodes": [2264152244, 2031923570, 9648069935, 2031923578, 2031923575, 9648069934, 2264152244], "tags": {"addr:city": "Berlin", "addr:country": "DE", "addr:housenumber": "175", "addr:postcode": "14195", "addr:street": "Clayallee", "addr:suburb": "Dahlem", "building": "commercial", "building:levels": "3", "name": "\u00c4rztehaus 2"}}, {"type": "way", "id": 192647261, "nodes": [2031923579, 9648105828, 3368095398, 11346700506, 11346711691, 2031923583, 2031923608, 2031923598, 9648105837, 2031923621, 9648105829, 2031923613, 3179341000, 2264160371, 9648105831, 9648105832, 10114791992, 2031923579], "tags": {"addr:city": "Berlin", "addr:country": "DE", "addr:housenumber": "171", "addr:postcode": "14195", "addr:street": "Clayallee", "addr:suburb": "Dahlem", "brand": "Edeka", "brand:wikidata": "Q701755", "brand:wikipedia": "de:Edeka", "building": "retail", "building:levels": "1", "check_date:opening_hours": "2024-08-06", "contact:phone": "+49 30 81003995", "name": "EDEKA", "opening_hours": "Mo-Fr 07:00-24:00, Sa 07:00-23:00", "operator": "Vierte E Reichelt Supermarkt GmbH", "ref": "Filiale 5520", "roof:shape": "flat", "shop": "supermarket", "toilets:wheelchair": "yes", "wheelchair": "yes", "wheelchair:description": "Rollstuhlgerechtes WC im Untergeschoss, mit Fahrstuhl zu erreichen. WC abgeschlossen, Schl\u00fcssel muss erfragt werden."}}, {"type": "way", "id": 208507097, "nodes": [2187988490, 2187988491, 2187988495, 2187988496, 2187988493, 2187988494, 2187988492, 2187988489, 2187988487, 2187988485, 2187988486, 2187988488, 2187988490], "tags": {"access": "yes", "leisure": "playground", "source": "Bing"}}, {"type": "way", "id": 237484637, "nodes": [2453777640, 2453777641, 2453777649, 2453777653, 2453777656, 2453777658, 2453777660, 2453777661, 2453777659, 2453777657, 2453777655, 2453777654, 2453777652, 2453777650, 2453777648, 2453777647, 2453777646, 2453777645, 2453777643, 2453777642, 2453777640], "tags": {"access": "private", "leisure": "playground"}}, {"type": "way", "id": 265338882, "nodes": [2710036516, 2710036520, 2710036526, 2710036524, 2710036516], "tags": {"amenity": "fast_food", "building": "yes", "drive_through": "no", "name": "Ch\u00e2let Suisse", "outdoor_seating": "yes", "source": "Geoportal Berlin / Hausumringe"}}, {"type": "way", "id": 309737502, "nodes": [3150720891, 3041547705, 3150720890, 3150720892, 3368148500, 3150720891], "tags": {"leisure": "park"}}, {"type": "way", "id": 309737504, "nodes": [3150720896, 8246249185, 3150720894, 3150720893, 11346481293, 9245797061, 8246249184, 8114081981, 3484060193, 3150720898, 975764325, 975764058, 3150720899, 5309730279, 5309730275, 5309730274, 3150720897, 3150720896], "tags": {"leisure": "park"}}, {"type": "way", "id": 318581439, "nodes": [3249819420, 3249819431, 3249819429, 3249819425, 3249819423, 3249819428, 3249819427, 3249819415, 3249819417, 3249819421, 3249819422, 3249819416, 3249819420], "tags": {"addr:city": "Berlin", "addr:country": "DE", "addr:housenumber": "225A", "addr:postcode": "14195", "addr:street": "Clayallee", "addr:suburb": "Dahlem", "amenity": "clinic", "building": "yes", "healthcare": "clinic"}}, {"type": "way", "id": 318581458, "nodes": [3249819669, 3249819670, 3249819677, 3249819667, 3249819661, 3249819455, 3249819457, 3249819669], "tags": {"addr:city": "Berlin", "addr:country": "DE", "addr:housenumber": "225C", "addr:postcode": "14195", "addr:street": "Clayallee", "addr:suburb": "Dahlem", "amenity": "clinic", "building": "yes", "healthcare": "clinic", "name": "Sport-Gesundheitspark", "website": "https://www.sportgesundheitspark.de/ueber-uns/standorte/zehlendorf"}}, {"type": "way", "id": 318581473, "nodes": [3249819452, 3249819445, 3249819438, 3249819443, 3249819439, 3249819446, 3249819448, 3249819458, 3249819452], "tags": {"addr:city": "Berlin", "addr:country": "DE", "addr:housenumber": "225B", "addr:postcode": "14195", "addr:street": "Clayallee", "addr:suburb": "Dahlem", "amenity": "clinic", "building": "yes", "healthcare": "clinic"}}, {"type": "way", "id": 318581474, "nodes": [3249819671, 3249819666, 3249819441, 4076067690, 4076067692, 3029540004, 3249819449, 3249819450, 3249819453, 3249819671], "tags": {"addr:city": "Berlin", "addr:country": "DE", "addr:housenumber": "225", "addr:postcode": "14195", "addr:street": "Clayallee", "addr:suburb": "Dahlem", "amenity": "clinic", "building": "yes", "healthcare": "clinic"}}, {"type": "way", "id": 329866301, "nodes": [1577132747, 9855741801, 6685043739, 9855741800, 9855741799, 370000505, 9855741798, 1577132725, 9855741797, 9855741796, 1577132732, 9855741795, 9855741794, 8418110824, 8418110823, 9855741803, 6685043738, 9855741802, 1577132747], "tags": {"leisure": "playground"}}, {"type": "way", "id": 341194837, "nodes": [3484066428, 3484066303, 9855689058, 3484065992, 3484065769, 9855689057, 3484065780, 3484066312, 3484066324, 3484066332, 3484066433, 3484066434, 3484066428], "tags": {"landuse": "grass", "leisure": "park"}}, {"type": "way", "id": 369910032, "nodes": [9271782873, 9271782880, 10706680157, 9271782871, 10706680160, 3736494739, 9271884414, 10706680191, 3736494733, 11516276176, 10706680189, 10706680188, 10706680133, 10706680148, 3736494741, 9271884408, 3736494742, 10706680144, 3736494743, 3736494744, 9271884403, 10706680130, 9271884404, 9271884405, 9271884406, 9271782873]}, {"type": "way", "id": 387407642, "nodes": [3907071256, 1610888220, 1610888213, 3907071247, 3907071251, 3907071256], "tags": {"landuse": "grass", "leisure": "park", "protection_title": "Gesch\u00fctzte Gr\u00fcnanlage"}}, {"type": "way", "id": 396891228, "nodes": [3997359836, 3997359837, 3997359838, 3997359839, 3997359836], "tags": {"leisure": "playground", "playground": "sandpit"}}, {"type": "way", "id": 401830679, "nodes": [4042353567, 4042353568, 4042353569, 4042353570, 4042353567], "tags": {"leisure": "playground"}}, {"type": "way", "id": 447015519, "nodes": [4406745053, 4442174759, 5008481029, 4442174758, 4442174760, 4442174762, 5008481026, 5008481025, 5008481027, 5008481028, 4406745053], "tags": {"barrier": "fence", "fence_type": "metal", "height": "1", "leisure": "playground"}}, {"type": "way", "id": 460878460, "nodes": [4095033690, 2462994574, 3907471766, 2462994576, 4095033690], "tags": {"leisure": "park"}}, {"type": "way", "id": 469583788, "nodes": [293465520, 4638839521, 4638839443, 4638839808, 4638839482, 4638839767, 293465520], "tags": {"addr:city": "Berlin", "addr:housenumber": "14", "addr:postcode": "14195", "addr:street": "Arnimallee", "amenity": "cafe", "check_date": "2024-11-22", "drink:club-mate": "yes", "drink:coffee": "yes", "indoor": "room", "indoor_seating": "yes", "level": "0", "name": "Cafe XX", "opening_hours": "\"It's a student caf\u00e9, it is open when the university is open and somebody with a key opens it, until somebody decides to close up again\"", "outdoor_seating": "no", "ref": "0.3.02", "website": "https://www.physik.fu-berlin.de/studium/fsi"}}, {"type": "way", "id": 513223405, "nodes": [5017435634, 5017435633, 5017435632, 416852364, 10706680192, 10706681314, 10706681313, 5017435631, 10706681350, 10706681351, 9644830475, 5017435634], "tags": {"leisure": "playground", "name": "Zirkus", "playground:theme": "circus"}}, {"type": "way", "id": 545602464, "nodes": [5273066715, 5273066716, 5273066717, 5275122579, 5275122578, 5275122577, 5275122576, 5275122580, 5273066718, 5273066719, 5273066720, 5273066821, 5273066822, 5273066715], "tags": {"access": "yes", "leisure": "playground", "wheelchair": "no"}}, {"type": "way", "id": 545832133, "nodes": [5275142135, 5275142136, 5275142137, 5275142138, 5275142135], "tags": {"access": "yes", "leisure": "playground"}}, {"type": "way", "id": 546870086, "nodes": [5284357177, 5284357180, 5284357181, 5284357182, 5284357183, 5284357184, 5284357177], "tags": {"access": "yes", "leisure": "playground", "operator": "Forsthaus Paulsborn", "wheelchair": "no"}}, {"type": "way", "id": 549676895, "nodes": [5309729115, 5309729114, 5309729113, 5309729112, 5309729115], "tags": {"access": "yes", "leisure": "playground"}}, {"type": "way", "id": 549679781, "nodes": [5309757503, 5309757502, 5309757501, 5590521692, 5590521691, 5309757500, 5309757499, 5309757503], "tags": {"access": "yes", "barrier": "fence", "leisure": "playground"}}, {"type": "way", "id": 549989975, "nodes": [5312660630, 5312660631, 5570784779, 5453466849, 5520514280, 5312660632, 5401887551, 5312660633, 5312660634, 5312660630], "tags": {"access": "yes", "leisure": "playground", "min_age": "0-12", "name": "Spielplatz Spiderpark", "opening_hours": "24/7", "operator": "Parkviertel Dahlem", "surface": "ground"}}, {"type": "way", "id": 550457057, "nodes": [3486386525, 3486386498, 3486386456, 3486386428, 3486386424, 3486386397, 3486386393, 3486386364, 3486386345, 10995814323, 3486386341, 3486386365, 3486386387, 10995814327, 3486386353, 3486386253, 3486386223, 265950550, 927076479, 1563629913, 9741547580, 9741547581, 10995814318, 3486386525], "tags": {"leisure": "park", "name": "Finkenpark", "name:etymology:wikidata": "Q160835", "name:etymology:wikipedia": "de:Finken", "protection_title": "Gesch\u00fctzte Gr\u00fcnanlage"}}, {"type": "way", "id": 550457068, "nodes": [5316667697, 10866009429, 5316667692, 10866009436, 5316667695, 10866009445, 5316667678, 9741526807, 5316404207, 5316404206, 5316667679, 10837742760, 10866039230, 10837742758, 9741526798, 9741526813, 9741526810, 5316667702, 5316667681, 9741526814, 5316667697]}, {"type": "way", "id": 550457069, "nodes": [5316404324, 4337839795, 4337839797, 4337839800, 10866039212, 10866039213, 5316404215, 4337839805, 10866039215, 9741538338, 4337839809, 5316404216, 4337839810, 5316404217, 5316404218, 4337839811, 5316404219, 9741538336, 5316404212, 5316404210, 5316404204, 5316404202, 9741538335, 5316404324]}, {"type": "way", "id": 556588046, "nodes": [5309730722, 5309730298, 5309730306, 5309730297, 5309730705, 5309730703, 5309730726, 5309730722], "tags": {"leisure": "playground"}}, {"type": "way", "id": 560148783, "nodes": [3150720898, 3368095402, 11825865786, 7276865213, 7276865218, 7276865219, 7276865211, 7276865220, 975764325, 3150720898], "tags": {"leisure": "park"}}, {"type": "way", "id": 582388057, "nodes": [5570016009, 5570016010, 5570016011, 5570016012, 5570016009], "tags": {"access": "yes", "leisure": "playground"}}, {"type": "way", "id": 584919136, "nodes": [5590521663, 5590521664, 5590521665, 5590521666, 5590521663], "tags": {"access": "yes", "leisure": "playground", "surface": "grass"}}, {"type": "way", "id": 652854649, "nodes": [6119366682, 6119366683, 6119366684, 6119371385, 6119366682], "tags": {"addr:housenumber": "47", "addr:street": "K\u00f6nigin-Luise-Stra\u00dfe", "amenity": "fast_food", "building": "commercial", "cuisine": "asian;german", "indoor_seating": "no", "name": "Dai Mai Imbiss", "outdoor_seating": "yes", "payment:cash": "yes", "payment:others": "no", "takeaway": "yes"}}, {"type": "way", "id": 711088301, "nodes": [6482050551, 6482050552, 6685067022, 6685067021, 6685067020, 6685067019, 6482050551], "tags": {"leisure": "playground"}}, {"type": "way", "id": 749235645, "nodes": [2394142526, 7006486716, 7006486715, 7006486714, 7006486713, 7006486712, 2394142526], "tags": {"access": "yes", "barrier": "fence", "leisure": "playground", "lit": "no"}}, {"type": "way", "id": 807839554, "nodes": [7554401048, 11955266560, 11955266559, 7554401049, 11955266558, 11955266557, 7554401050, 11955266556, 11955266555, 11955266554, 7554401051, 11955266553, 11955266552, 11955266551, 11955266550, 7554401052, 7554401053, 7554401058, 11955266537, 11955266538, 11955266539, 7554401059, 11955266536, 11955266535, 11955266534, 11955266533, 11955266532, 11955266531, 11955266530, 11955266529, 7554401048], "tags": {"de:strassenschluessel": "11000000000011296", "leisure": "park", "name": "Hans-S\u00f6hnker-Platz", "name:etymology:wikidata": "Q76383"}}, {"type": "way", "id": 808555559, "nodes": [7560770515, 10681180270, 10681180254, 10681180251, 7560770524, 7560770505, 5275392236, 5275392239, 5275392238, 126429099, 7560770506, 10695006685, 7560770507, 10681180211, 7560770508, 7560770509, 10681174597, 10681180299, 7560770510, 7560770511, 7560770512, 7560770513, 10681180288, 10681180275, 7560770514, 10681180287, 7560770515]}, {"type": "way", "id": 808555560, "nodes": [7560770497, 7560770496, 7560770495, 7560770494, 8507843759, 7560770493, 7560770492, 7560770521, 10695006657, 10695006656, 10695006647, 10695006646, 7560770522, 1629319867, 1629319865, 7560770504, 10695006639, 10695006653, 10695006654, 10695006660, 7560770497]}, {"type": "way", "id": 808902983, "nodes": [1068973643, 9741643464, 9741643476, 9741643426, 7563861734, 7563861790, 7563861791, 7563861792, 1194230891, 1194229412, 7563861794, 9741643446, 7530051494, 7530051496, 7563861823, 7530051498, 7563861824, 7530051499, 7530051501, 7530051504, 7530051506, 7530051508, 9741872068, 7563861795, 7563861796, 7563861797, 7563861798, 7563861799, 7563861800, 7563861801, 7563861802, 7563861803, 7563861804, 7563861805, 7563861806, 3486372250, 6645866627, 7563861810, 7563861811, 7563861812, 7563861813, 7563861814, 7563861815, 7563861816, 9741872050, 7563861789, 7563861788, 3484188142, 7563861787, 7563861786, 3484188122, 7563861785, 3484188115, 7563861738, 3484188099, 7563861739, 7563861740, 7563861744, 7563861745, 6645856243, 6645856242, 7563861749, 7563861750, 9741585902, 7563861751, 7563861752, 7563861753, 11496788766, 7563861876, 1068973705, 7563861737, 1068973663, 3484061073, 1068973725, 7563861735, 1068973643]}, {"type": "way", "id": 834912376, "nodes": [7793517111, 9855830894, 9855830892, 9855830895, 7793517110, 9855830879, 9855830893, 9855830886, 7793517109, 7793517108, 9855830891, 9855830890, 9855830889, 7793517107, 9855830888, 7793517106, 9855830877, 7793517111], "tags": {"access": "yes", "leisure": "playground", "name": "W\u00fcste"}}, {"type": "way", "id": 881081572, "nodes": [8194834019, 8194834018, 8194834017, 8194800316, 8194800315, 8194800314, 8194800313, 8194800312, 8194800311, 8194800310, 8194800309, 8194800308, 8194800307, 8194800306, 8194800305, 8194800304, 8194800303, 8194800302, 8194834019], "tags": {"access": "yes", "leisure": "playground"}}, {"type": "way", "id": 881081573, "nodes": [8194834024, 8194834023, 1200981327, 1200981578, 8194834022, 8194834021, 8194834020, 8194834024], "tags": {"leisure": "park"}}, {"type": "way", "id": 881086893, "nodes": [8194871219, 8194871218, 8194871217, 8194851416, 8194851415, 8194851414, 10726422238, 7681371629, 7681371628, 7681371627, 7681371626, 7681371625, 8194851395, 7681371624, 7681371623, 7681371622, 7681371621, 7681371620, 7681371618, 12339067385, 7681371633, 7681371641, 7681371640, 8194851392, 8194851391, 7681371639, 7681371638, 8194851413, 8194851412, 8194851411, 8194851410, 8194851409, 8194851408, 8194851407, 8194851406, 8194851405, 8194851404, 8194851403, 8194851402, 8194851401, 10726422240, 8194851400, 1496086442, 8194851399, 8194851398, 8194851397, 8194851396, 8194871219], "tags": {"leisure": "park", "protection_title": "Gesch\u00fctzte Gr\u00fcnanlage"}}, {"type": "way", "id": 886959046, "nodes": [4430734888, 8247572499, 8247572498, 8247572497, 8247572496, 11310738233, 4430734888], "tags": {"access": "private", "barrier": "fence", "leisure": "playground"}}, {"type": "way", "id": 915956842, "nodes": [8507877035, 10695006486, 10695006500, 10695006487, 10695006328, 10694913203, 8507877021, 10694913198, 10695006309, 10695006319, 8507877020, 10695006421, 10695006430, 10695006431, 10695006439, 10695006459, 8507877031, 8507877035], "tags": {"leisure": "park", "name": "Kaiser-Wilhelm-Platz", "protection_title": "Gesch\u00fctzte Gr\u00fcnanlage", "wikidata": "Q105045254"}}, {"type": "way", "id": 915956843, "nodes": [7925854068, 10695006575, 10695006557, 10695006558, 10695006550, 10695006531, 8507877024, 10695006618, 12046022422, 10695006623, 8507877023, 10695006635, 8507877022, 10695006617, 10695006604, 10695006603, 8507877025, 7925854074, 7925854068], "tags": {"leisure": "park", "name": "Kaiser-Wilhelm-Platz", "protection_title": "Gesch\u00fctzte Gr\u00fcnanlage", "wikidata": "Q105045254"}}, {"type": "way", "id": 961374599, "nodes": [8893019255, 8893019254, 8893019253, 8893019252, 8893019251, 8893019250, 8893019249, 8893019248, 8893019247, 8893019246, 8893019245, 8893019244, 8893019243, 8893019242, 8893019241, 8893019240, 8893019255], "tags": {"leisure": "park"}}, {"type": "way", "id": 1004926465, "nodes": [9271884398, 9271884402, 11516252597, 9271884401, 9271884400, 10706700340, 10706700359, 9271884399, 782950200, 10706700351, 10706700352, 10706700353, 10706700354, 10706700355, 10706700350, 10706700349, 10706700348, 5217515907, 5535477506, 3736494773, 9271884365, 9271884392, 12068577121, 12068577122, 12068577123, 9271884369, 9271884366, 11516252625, 9271884370, 11516252626, 9271884367, 11516252627, 9271884368, 9271884371, 10706700325, 9271884372, 9271782877, 9271782875, 9271884398]}, {"type": "way", "id": 1036710129, "nodes": [9550968269, 9550968270, 9573949656, 9573949657, 9550968271, 9573949658, 9550968272, 9550968273, 11579810210, 9550968274, 9550968275, 9550968276, 9550968277, 9550968278, 5484328009, 5484328136, 5484328010, 5484328011, 5484328012, 9550968280, 5484328013, 5484328014, 4305457723, 11514138142, 11514138144, 9550968269], "tags": {"leisure": "park", "protection_title": "Gesch\u00fctzte Gr\u00fcnanlage"}}, {"type": "way", "id": 1041756726, "nodes": [9590525894, 9590525893, 9590525892, 9590525891, 9590525894], "tags": {"landuse": "grass", "leisure": "park"}}, {"type": "way", "id": 1041756727, "nodes": [9590525898, 9590497057, 9590525897, 9590525896, 9590525895, 9590497055, 9590525898], "tags": {"leisure": "park"}}, {"type": "way", "id": 1058210234, "nodes": [9723754473, 9723754472, 9723754471, 9723754470, 9723754469, 9723754468, 9723754467, 9723754466, 9723754465, 9723754473], "tags": {"access": "yes", "leisure": "playground"}}, {"type": "way", "id": 1150945136, "nodes": [10706681345, 10706681344, 10706681343, 10706681342, 10706681341, 10706681340, 10706681339, 10706681338, 10706681337, 10706681336, 10706681335, 10706681334, 10706681333, 10706681332, 10706681331, 10706681330, 10706681345], "tags": {"leisure": "playground"}}, {"type": "way", "id": 1175252399, "nodes": [9271803101, 10921059014, 10921059015, 10921059016, 10921059017, 10921059018, 10921059019, 10921059020, 10921059021, 10921059022, 10921059023, 10921059024, 10921059025, 10921059026, 10921059027, 9271803099, 9271803098, 9271803097, 9271803096, 9271803101], "tags": {"leisure": "park"}}, {"type": "way", "id": 1188608473, "nodes": [11037023066, 11529252339, 11529252277, 11529252278, 11529252279, 11529252329, 11037023065, 11037023064, 11529252280, 11529252286, 11529252287, 11529252281, 11529252282, 11529252285, 11529252320, 11529252319, 11529252284, 11529252283, 11037023066], "tags": {"leisure": "park"}}, {"type": "way", "id": 1188913346, "nodes": [7530032784, 11039620690, 11039620689, 11039620688, 11039620687, 11039620686, 11039620685, 11039620684, 11039620683, 11039620682, 11039620681, 11039620680, 11039620679, 11039620678, 7530032784], "tags": {"leisure": "park"}}, {"type": "way", "id": 1201408114, "nodes": [10867885452, 325096193, 10867885462, 10867885501, 4605994624, 11007175795, 11007175794, 4605994623, 11007175793, 325096198, 11007175792, 325096202, 11007175791, 325096206, 11007175790, 5147573239, 11007175789, 325096210, 5147573240, 11007175788, 412834467, 10867885497, 11007175777]}, {"type": "way", "id": 1225475861, "nodes": [11364549639, 11364549640, 11364549641, 11364549642, 11364549639], "tags": {"leisure": "playground"}}, {"type": "way", "id": 1225475862, "nodes": [11364549643, 11364549644, 11364549645, 11364549646, 11364549647, 11364549648, 11364549643], "tags": {"access": "yes", "leisure": "playground"}}, {"type": "way", "id": 1239620040, "nodes": [10707943029, 324245149, 3907202471, 3907202474, 3907202503, 276421770, 3907202570, 3907202582, 3907202595, 3907202625, 3907202631, 3907203040, 276421771, 3907203204, 3907203210, 3907203225, 276421772, 3907203241, 3907203253, 276421773, 10707943015, 3907470748, 11516205104, 10726381751, 734473516, 3907471205, 11516205106, 11516205105, 734473521, 11516205107, 734473556, 11516205102, 11516205103, 10726381753, 3907470977, 3907470980, 276421763, 3907203398, 3907203394, 276421765, 3907203387, 3907203375, 3907203255, 3907203239, 276421766, 10726381771, 10726381788, 10726422314, 534667998, 276421767, 1937560197, 1937560190, 1200981827, 1937560189, 10707943177, 10707943091, 10707943089, 10707943088, 10707943087, 10707943085, 10707943029]}, {"type": "way", "id": 1253542706, "nodes": [7563590470, 11652287838, 11652287839, 11652287840, 11652287841, 11652287842, 11652287843, 11652287844, 11652287845, 11652287846, 7563590470], "tags": {"leisure": "park"}}, {"type": "relation", "id": 3085365, "members": [{"type": "way", "ref": 84404922, "role": "outer"}, {"type": "way", "ref": 13700405, "role": "inner"}], "tags": {"leisure": "park", "name": "Messelpark", "protection_title": "Gesch\u00fctzte Gr\u00fcnanlage", "type": "multipolygon"}}, {"type": "relation", "id": 4844791, "members": [{"type": "way", "ref": 22697253, "role": "outer"}, {"type": "way", "ref": 808902983, "role": "outer"}, {"type": "way", "ref": 369910032, "role": "outer"}, {"type": "way", "ref": 1004926465, "role": "outer"}], "tags": {"leisure": "park", "name": "Thielpark", "protection_title": "Gesch\u00fctzte Gr\u00fcnanlage", "type": "multipolygon", "wikidata": "Q19933519", "wikipedia": "de:Thielpark"}}, {"type": "relation", "id": 11146040, "members": [{"type": "way", "ref": 808555559, "role": "outer"}, {"type": "way", "ref": 808555560, "role": "outer"}], "tags": {"leisure": "park", "name": "Erlenbusch", "protection_title": "Gesch\u00fctzte Gr\u00fcnanlage", "type": "multipolygon"}}, {"type": "relation", "id": 12224432, "members": [{"type": "way", "ref": 192647256, "role": "outer"}, {"type": "way", "ref": 192647258, "role": "outer"}], "tags": {"addr:city": "Berlin", "addr:country": "DE", "addr:housenumber": "175-177", "addr:postcode": "14195", "addr:street": "Clayallee", "addr:suburb": "Dahlem", "amenity": "clinic", "healthcare": "clinic", "name": "\u00c4rztezentrum 5Morgen", "type": "multipolygon", "website": "http://www.aerztehaus-5morgen.de", "wheelchair": "yes"}}, {"type": "relation", "id": 13650360, "members": [{"type": "way", "ref": 550457068, "role": "outer"}, {"type": "way", "ref": 550457069, "role": "outer"}, {"type": "way", "ref": 151328924, "role": "outer"}], "tags": {"leisure": "park", "name": "Messelpark", "name:etymology:wikidata": "Q73131", "name:etymology:wikipedia": "de:Alfred Messel", "postal_code": "14195", "protection_title": "Gesch\u00fctzte Gr\u00fcnanlage", "type": "multipolygon", "wikidata": "Q28931462", "wikipedia": "de:Messelpark"}}, {"type": "relation", "id": 16234662, "members": [{"type": "way", "ref": 29491686, "role": "outer"}, {"type": "way", "ref": 1201408114, "role": "outer"}], "tags": {"leisure": "park", "type": "multipolygon"}}, {"type": "relation", "id": 17024002, "members": [{"type": "way", "ref": 25363187, "role": "outer"}, {"type": "way", "ref": 1239620040, "role": "outer"}], "tags": {"heritage": "4", "heritage:operator": "lda", "lda:criteria": "Gartendenkmal", "leisure": "park", "name": "Dreipfuhlpark", "name:etymology:wikidata": "Q291099", "name:etymology:wikipedia": "de:T\u00fcmpel", "protection_title": "Gesch\u00fctzte Gr\u00fcnanlage", "ref:lda": "09045639", "start_date": "1939", "type": "multipolygon", "wikidata": "Q111355369", "wikimedia_commons": "File:Dreipfuhlpark.JPG"}}]}