{"version": 0.6, "generator": "Overpass API 0.7.62.7 375dc00a", "osm3s": {"timestamp_osm_base": "2025-08-05T15:15:21Z", "copyright": "The data included in this document is from www.openstreetmap.org. The data is made available under ODbL."}, "elements": [{"type": "node", "id": 539466865, "lat": 52.575032, "lon": 13.2242449, "tags": {"amenity": "cafe", "name": "Zur Sonne"}}, {"type": "node", "id": 539466869, "lat": 52.5730024, "lon": 13.2267306, "tags": {"addr:city": "Berlin", "addr:housenumber": "14", "addr:postcode": "13505", "addr:street": "J\u00f6rsstra\u00dfe", "addr:suburb": "Konradsh\u00f6he", "amenity": "restaurant", "check_date": "2024-03-08", "contact:phone": "+49 30 4362070", "cuisine": "chinese", "name": "Pong's", "opening_hours": "12:00-21:30", "outdoor_seating": "yes", "wheelchair": "no"}}, {"type": "node", "id": 1347365381, "lat": 52.5856287, "lon": 13.2321382, "tags": {"addr:city": "Berlin", "addr:housenumber": "14", "addr:postcode": "13505", "addr:street": "Habichtstra\u00dfe", "amenity": "restaurant", "cuisine": "italian", "name": "Caffe Trattoria Nisi", "opening_hours": "Tu-Su 12:00-21:00", "phone": "+49 3040 501037", "website": "https://caffe-trattoria-nisi.jimdosite.com/", "wheelchair": "limited"}}, {"type": "node", "id": 2696783348, "lat": 52.570691, "lon": 13.2306512, "tags": {"access": "yes", "leisure": "playground"}}, {"type": "node", "id": 2947843271, "lat": 52.5854359, "lon": 13.228967, "tags": {"addr:city": "Berlin", "addr:country": "DE", "addr:housenumber": "3", "addr:postcode": "13505", "addr:street": "Habichtstra\u00dfe", "addr:suburb": "Konradsh\u00f6he", "amenity": "dentist", "healthcare": "dentist", "name": "Zahnarztpraxis Kathrin Sp\u00e4the", "opening_hours": "Mo 08:00-16:00, Tu-We 12:00-18:00, Th 08:00-16:00, Fr 08:00-12:00", "phone": "+49 30 430049-10", "source": "survey", "website": "https://zahnarztpraxis-spaethe.de/"}}, {"type": "node", "id": 2947871228, "lat": 52.5847084, "lon": 13.2265239}, {"type": "node", "id": 2947875227, "lat": 52.5846336, "lon": 13.2268028}, {"type": "node", "id": 2947879802, "lat": 52.5849017, "lon": 13.2267408}, {"type": "node", "id": 2947880793, "lat": 52.5849138, "lon": 13.2265486}, {"type": "node", "id": 2947882390, "lat": 52.5856839, "lon": 13.2336633}, {"type": "node", "id": 2947882398, "lat": 52.585762, "lon": 13.2331666}, {"type": "node", "id": 2947883243, "lat": 52.5846439, "lon": 13.2265816}, {"type": "node", "id": 2947883651, "lat": 52.5847041, "lon": 13.226593}, {"type": "node", "id": 2947883669, "lat": 52.5848966, "lon": 13.2268198}, {"type": "node", "id": 2947884934, "lat": 52.5847389, "lon": 13.2268365}, {"type": "node", "id": 2947885285, "lat": 52.5856423, "lon": 13.2336555}, {"type": "node", "id": 2947885293, "lat": 52.5856905, "lon": 13.233644}, {"type": "node", "id": 2947885706, "lat": 52.5856472, "lon": 13.2336414}, {"type": "node", "id": 2947885708, "lat": 52.5856698, "lon": 13.2336504}, {"type": "node", "id": 2947885726, "lat": 52.5858015, "lon": 13.2331486}, {"type": "node", "id": 2947885972, "lat": 52.5856667, "lon": 13.2336594}, {"type": "node", "id": 2947886568, "lat": 52.5856064, "lon": 13.2336223}, {"type": "node", "id": 2947890847, "lat": 52.5857127, "lon": 13.2336632}, {"type": "node", "id": 2947891945, "lat": 52.5858039, "lon": 13.2333955}, {"type": "node", "id": 2947892334, "lat": 52.5858388, "lon": 13.2333807}, {"type": "node", "id": 2947897603, "lat": 52.5870079, "lon": 13.2257559}, {"type": "node", "id": 2947897618, "lat": 52.5870437, "lon": 13.2259081}, {"type": "node", "id": 2947897727, "lat": 52.5871274, "lon": 13.2256764}, {"type": "node", "id": 2947898949, "lat": 52.5871562, "lon": 13.2257977}, {"type": "node", "id": 2947899254, "lat": 52.5871552, "lon": 13.2258551}, {"type": "node", "id": 2947899257, "lat": 52.5871722, "lon": 13.2258195}, {"type": "node", "id": 2947899462, "lat": 52.5871675, "lon": 13.2258469}, {"type": "node", "id": 2947899465, "lat": 52.5871685, "lon": 13.225807}, {"type": "node", "id": 2947900236, "lat": 52.5871423, "lon": 13.2258442}, {"type": "node", "id": 3891440329, "lat": 52.5760479, "lon": 13.2250227}, {"type": "node", "id": 3891463247, "lat": 52.5760337, "lon": 13.2250369}, {"type": "node", "id": 3891463249, "lat": 52.576047, "lon": 13.2250738}, {"type": "node", "id": 3891463250, "lat": 52.5760496, "lon": 13.2250811}, {"type": "node", "id": 3891465303, "lat": 52.5758858, "lon": 13.2250121}, {"type": "node", "id": 3891465305, "lat": 52.5759486, "lon": 13.2251808}, {"type": "node", "id": 3891465306, "lat": 52.5759878, "lon": 13.2249097}, {"type": "node", "id": 3891465307, "lat": 52.5760616, "lon": 13.2250602}, {"type": "node", "id": 3978229464, "lat": 52.570599, "lon": 13.2311395}, {"type": "node", "id": 3978229465, "lat": 52.570615, "lon": 13.2292806}, {"type": "node", "id": 3978229469, "lat": 52.5709744, "lon": 13.2292767}, {"type": "node", "id": 3978229471, "lat": 52.5709611, "lon": 13.2311486}, {"type": "node", "id": 3978229488, "lat": 52.5845298, "lon": 13.2281637}, {"type": "node", "id": 3978229489, "lat": 52.5845503, "lon": 13.2273988}, {"type": "node", "id": 3978229490, "lat": 52.5845443, "lon": 13.2277479}, {"type": "node", "id": 3978229492, "lat": 52.5847986, "lon": 13.2272427}, {"type": "node", "id": 3978229494, "lat": 52.5849367, "lon": 13.2270891}, {"type": "node", "id": 3978229497, "lat": 52.5851192, "lon": 13.2278924}, {"type": "node", "id": 3978229500, "lat": 52.584997, "lon": 13.2281011}, {"type": "node", "id": 3978229505, "lat": 52.5857507, "lon": 13.2277764}, {"type": "node", "id": 5047369126, "lat": 52.5845792, "lon": 13.2273679}, {"type": "node", "id": 5047369128, "lat": 52.5856191, "lon": 13.2277034}, {"type": "node", "id": 5047369129, "lat": 52.5855111, "lon": 13.2278308}, {"type": "node", "id": 5047369130, "lat": 52.5851644, "lon": 13.2278308}, {"type": "node", "id": 5047369131, "lat": 52.5851323, "lon": 13.2277282}, {"type": "node", "id": 5047369132, "lat": 52.5851522, "lon": 13.2276665}, {"type": "node", "id": 5047369133, "lat": 52.5851877, "lon": 13.2276101}, {"type": "node", "id": 5047369134, "lat": 52.5852451, "lon": 13.2275552}, {"type": "node", "id": 5047369135, "lat": 52.5853229, "lon": 13.2275196}, {"type": "node", "id": 5047369136, "lat": 52.5854211, "lon": 13.2275658}, {"type": "node", "id": 5047369137, "lat": 52.5854916, "lon": 13.2276068}, {"type": "node", "id": 5047369138, "lat": 52.585574, "lon": 13.2276489}, {"type": "node", "id": 5047369139, "lat": 52.5856423, "lon": 13.2277905}, {"type": "node", "id": 5047369151, "lat": 52.5857894, "lon": 13.2271126}, {"type": "node", "id": 5047369152, "lat": 52.5848165, "lon": 13.2270804}, {"type": "node", "id": 5047369153, "lat": 52.5847855, "lon": 13.2272024}, {"type": "node", "id": 5047369154, "lat": 52.5847908, "lon": 13.2271273}, {"type": "node", "id": 5047369155, "lat": 52.584997, "lon": 13.2276021}, {"type": "node", "id": 5047369156, "lat": 52.5846117, "lon": 13.2273645}, {"type": "node", "id": 5047369157, "lat": 52.5849627, "lon": 13.227964}, {"type": "node", "id": 5744378385, "lat": 52.586062, "lon": 13.2324716, "tags": {"addr:city": "Berlin", "addr:country": "DE", "addr:housenumber": "37", "addr:postcode": "13505", "addr:street": "Dohlenstra\u00dfe", "addr:suburb": "Konradsh\u00f6he", "amenity": "fast_food", "name": "Susi's Hexenhaus", "website": "http://www.susishexenhaus.de/"}}, {"type": "node", "id": 7858528547, "lat": 52.5846771, "lon": 13.2289448, "tags": {"addr:city": "Berlin", "addr:housenumber": "25", "addr:postcode": "13505", "addr:street": "Turmfalkenstra\u00dfe", "amenity": "pharmacy", "dispensing": "yes", "healthcare": "pharmacy", "name": "Falken-Apotheke", "phone": "030 4313733"}}, {"type": "node", "id": 7858528548, "lat": 52.5849218, "lon": 13.2282808, "tags": {"amenity": "doctors", "healthcare": "doctor"}}, {"type": "node", "id": 7858591237, "lat": 52.5797421, "lon": 13.2197804}, {"type": "node", "id": 7858591238, "lat": 52.5799479, "lon": 13.2197946}, {"type": "node", "id": 7858591239, "lat": 52.5801084, "lon": 13.2198399}, {"type": "node", "id": 7858591240, "lat": 52.5806106, "lon": 13.2201911}, {"type": "node", "id": 7858591241, "lat": 52.581046, "lon": 13.2204258}, {"type": "node", "id": 7858591242, "lat": 52.5813152, "lon": 13.2205184}, {"type": "node", "id": 7858591243, "lat": 52.5817514, "lon": 13.2203973}, {"type": "node", "id": 7858591244, "lat": 52.581865, "lon": 13.2205129}, {"type": "node", "id": 9913281945, "lat": 52.5721236, "lon": 13.2275945, "tags": {"addr:city": "Berlin", "addr:country": "DE", "addr:housenumber": "19", "addr:postcode": "13505", "addr:street": "Marlenestra\u00dfe", "addr:suburb": "Konradsh\u00f6he", "amenity": "restaurant", "contact:website": "https://www.joersfelder-segel-club.de/club/die-joersfelder-schifferstube/", "indoor_seating": "yes", "name": "Schifferstube Joersfelde", "opening_hours": "We 14:00-22:00; Fr 14:00-21:00; Sa-Su 12:00-21:00", "outdoor_seating": "yes", "smoking": "outside", "wheelchair": "limited"}}, {"type": "node", "id": 10060753192, "lat": 52.5852412, "lon": 13.2267717, "tags": {"email": "sbbraun@gmx.de", "healthcare": "physiotherapist", "name": "Physitotherapie Sandra-Barbara Braun", "phone": "+49 30 43 66 84 04", "website": "http://www.physiotherapie-sbbraun.de/"}}, {"type": "node", "id": 10060753193, "lat": 52.5866917, "lon": 13.2266067, "tags": {"addr:city": "Berlin", "addr:housenumber": "8D", "addr:postcode": "13505", "addr:street": "Sandhauser Stra\u00dfe", "healthcare": "physiotherapist", "name": "Praxis Adventicius", "operator": "Stefan Schmidt", "phone": "+493092273912", "website": "https://www.adventicius.de/"}}, {"type": "node", "id": 11127295622, "lat": 52.5761371, "lon": 13.2280306}, {"type": "node", "id": 11127295623, "lat": 52.5762286, "lon": 13.2285569}, {"type": "node", "id": 11127295626, "lat": 52.5756929, "lon": 13.2287828}, {"type": "node", "id": 11127295627, "lat": 52.5757312, "lon": 13.2286296}, {"type": "node", "id": 11127348362, "lat": 52.579342, "lon": 13.219501}, {"type": "node", "id": 11127348376, "lat": 52.579464, "lon": 13.219516}, {"type": "node", "id": 11127348382, "lat": 52.579502, "lon": 13.219506}, {"type": "node", "id": 11127357726, "lat": 52.5797383, "lon": 13.2228471}, {"type": "node", "id": 11127357727, "lat": 52.5796966, "lon": 13.2228454}, {"type": "node", "id": 11127357728, "lat": 52.579718, "lon": 13.2226861}, {"type": "node", "id": 11127357729, "lat": 52.5796936, "lon": 13.2224246}, {"type": "node", "id": 11127357730, "lat": 52.5796151, "lon": 13.2221908}, {"type": "node", "id": 11127357731, "lat": 52.5794873, "lon": 13.2220189}, {"type": "node", "id": 11127357732, "lat": 52.579336, "lon": 13.2219368}, {"type": "node", "id": 11127357733, "lat": 52.5793824, "lon": 13.2194817}, {"type": "node", "id": 11127357734, "lat": 52.579415, "lon": 13.2194805}, {"type": "node", "id": 11127357735, "lat": 52.5796067, "lon": 13.2194619}, {"type": "node", "id": 11127357736, "lat": 52.5796631, "lon": 13.2194511}, {"type": "node", "id": 11127357737, "lat": 52.5797163, "lon": 13.2194397}, {"type": "node", "id": 11127357738, "lat": 52.5797661, "lon": 13.2194034}, {"type": "node", "id": 11127357739, "lat": 52.5798044, "lon": 13.2194015}, {"type": "node", "id": 11127357740, "lat": 52.579858, "lon": 13.2194174}, {"type": "node", "id": 11127357741, "lat": 52.5800097, "lon": 13.219548}, {"type": "node", "id": 11127357742, "lat": 52.5802441, "lon": 13.2197705}, {"type": "node", "id": 11127357743, "lat": 52.5811936, "lon": 13.2202582}, {"type": "node", "id": 11127357744, "lat": 52.5816896, "lon": 13.2202559}, {"type": "node", "id": 11127357745, "lat": 52.581876, "lon": 13.2200921}, {"type": "node", "id": 11127357746, "lat": 52.5819435, "lon": 13.2200616}, {"type": "node", "id": 11127357747, "lat": 52.5819373, "lon": 13.2202249}, {"type": "node", "id": 11127357748, "lat": 52.5818995, "lon": 13.2202528}, {"type": "node", "id": 11127357749, "lat": 52.5818795, "lon": 13.2203011}, {"type": "node", "id": 11127357750, "lat": 52.5816837, "lon": 13.2204467}, {"type": "node", "id": 11127357751, "lat": 52.5815396, "lon": 13.2204987}, {"type": "node", "id": 11127357752, "lat": 52.5813888, "lon": 13.2205138}, {"type": "node", "id": 11127357753, "lat": 52.5811958, "lon": 13.2204945}, {"type": "node", "id": 11127357754, "lat": 52.5807389, "lon": 13.2202699}, {"type": "node", "id": 11127357755, "lat": 52.5815243, "lon": 13.2202741}, {"type": "node", "id": 11127357756, "lat": 52.5814948, "lon": 13.2202636}, {"type": "node", "id": 11127357757, "lat": 52.5814693, "lon": 13.2202445}, {"type": "node", "id": 11127357758, "lat": 52.5813214, "lon": 13.2202729}, {"type": "node", "id": 11127357759, "lat": 52.5812594, "lon": 13.2202695}, {"type": "node", "id": 11127357760, "lat": 52.5811025, "lon": 13.2202135}, {"type": "node", "id": 11127357761, "lat": 52.5810492, "lon": 13.2202037}, {"type": "node", "id": 11127357762, "lat": 52.5808029, "lon": 13.2200747}, {"type": "node", "id": 11127357763, "lat": 52.5806947, "lon": 13.2200592}, {"type": "node", "id": 11127357764, "lat": 52.5803815, "lon": 13.2198453}, {"type": "node", "id": 11127357765, "lat": 52.5801598, "lon": 13.2196559}, {"type": "node", "id": 12188036538, "lat": 52.5853893, "lon": 13.2275431}, {"type": "node", "id": 12188036539, "lat": 52.5853608, "lon": 13.2275277}, {"type": "node", "id": 12188036540, "lat": 52.5852997, "lon": 13.2275277}, {"type": "node", "id": 12188036541, "lat": 52.5853771, "lon": 13.2275417}, {"type": "node", "id": 12188036542, "lat": 52.5856431, "lon": 13.2277443}, {"type": "node", "id": 12188036543, "lat": 52.5856297, "lon": 13.227824}, {"type": "node", "id": 12188036544, "lat": 52.5852406, "lon": 13.2278482}, {"type": "node", "id": 12188036545, "lat": 52.5851913, "lon": 13.2278435}, {"type": "node", "id": 12188036546, "lat": 52.5851359, "lon": 13.2277811}, {"type": "node", "id": 12188036550, "lat": 52.5857055, "lon": 13.2278536}, {"type": "node", "id": 12188036551, "lat": 52.58516, "lon": 13.22793}, {"type": "node", "id": 12188036552, "lat": 52.5851131, "lon": 13.227818}, {"type": "node", "id": 12188036553, "lat": 52.5847835, "lon": 13.2271609}, {"type": "node", "id": 12188036554, "lat": 52.5848654, "lon": 13.227073}, {"type": "node", "id": 12188036555, "lat": 52.5848691, "lon": 13.2271012}, {"type": "node", "id": 12188036556, "lat": 52.5857091, "lon": 13.2270201}, {"type": "node", "id": 12188036557, "lat": 52.5857364, "lon": 13.2270274}, {"type": "node", "id": 12188036558, "lat": 52.5857589, "lon": 13.2270569}, {"type": "node", "id": 12188036559, "lat": 52.5857707, "lon": 13.2270791}, {"type": "way", "id": 51869991, "nodes": [5047369157, 3978229500, 3978229488, 3978229490, 3978229489, 5047369126, 5047369156, 5047369157]}, {"type": "way", "id": 68693225, "nodes": [3978229469, 3978229465, 3978229464, 3978229471, 3978229469], "tags": {"leisure": "park", "protection_title": "Gesch\u00fctzte Gr\u00fcnanlage"}}, {"type": "way", "id": 75071437, "nodes": [2947897727, 2947897603, 2947897618, 2947900236, 2947899254, 2947899462, 2947899257, 2947899465, 2947898949, 2947897727], "tags": {"addr:city": "Berlin", "addr:country": "DE", "addr:housenumber": "11", "addr:postcode": "13505", "addr:street": "Sandhauser Stra\u00dfe", "addr:suburb": "Konradsh\u00f6he", "amenity": "restaurant", "building": "yes", "cuisine": "italian", "name": "Al Castagno", "opening_hours": "Mo-Fr 16:00-23:00, Sa-Su 12:00-23:00", "phone": "+49 30 43 60 46 14", "website": "https://al-castagno.de/", "wheelchair": "no"}}, {"type": "way", "id": 118557993, "nodes": [2947880793, 2947871228, 2947883651, 2947883243, 2947875227, 2947884934, 2947883669, 2947879802, 2947880793], "tags": {"brand": "EDEKA", "brand:wikidata": "Q701755", "building": "yes", "name": "EDEKA Ulrich", "opening_hours": "Mo-Sa 07:00-21:00; Su,PH off", "operator": "Edeka", "shop": "supermarket", "wheelchair": "yes"}}, {"type": "way", "id": 121660188, "nodes": [2947885726, 2947882398, 2947886568, 2947885285, 2947885706, 2947885972, 2947885708, 2947882390, 2947885293, 2947890847, 2947891945, 2947892334, 2947885726], "tags": {"addr:city": "Berlin", "addr:housenumber": "16", "addr:postcode": "13505", "addr:street": "Habichtstra\u00dfe", "brand": "Nahkauf", "brand:wikidata": "Q57515238", "building": "supermarket", "name": "Nahkauf", "opening_hours": "Mo-Sa 08:00-21:00", "shop": "supermarket", "wheelchair": "yes"}}, {"type": "way", "id": 263958010, "nodes": [3891440329, 3891463247, 3891465306, 3891465303, 3891465305, 3891463250, 3891463249, 3891465307, 3891440329], "tags": {"addr:city": "Berlin", "addr:country": "DE", "addr:housenumber": "21", "addr:postcode": "13505", "addr:street": "Luisenstra\u00dfe", "addr:suburb": "Konradsh\u00f6he", "building": "office", "contact:website": "https://www.kg-alte-schule.com/", "healthcare": "physiotherapist", "heritage": "4", "heritage:operator": "lda", "lda:criteria": "Baudenkmal", "name": "Therapiezentrum Alte Schule", "ref:lda": "09012135", "start_date": "1905"}}, {"type": "way", "id": 517163236, "nodes": [5047369139, 12188036542, 5047369128, 5047369138, 5047369137, 5047369136, 12188036538, 12188036541, 12188036539, 5047369135, 12188036540, 5047369134, 5047369133, 5047369132, 5047369131, 12188036546, 5047369130, 12188036545, 12188036544, 5047369129, 12188036543, 5047369139], "tags": {"access": "yes", "leisure": "playground"}}, {"type": "way", "id": 517163242, "nodes": [3978229492, 5047369153, 12188036553, 5047369154, 5047369152, 12188036554, 12188036555, 3978229494, 12188036556, 12188036557, 12188036558, 12188036559, 5047369151, 3978229505, 12188036550, 12188036551, 3978229497, 12188036552, 5047369155, 3978229492]}, {"type": "way", "id": 1199750844, "nodes": [11127295623, 11127295626, 11127295627, 11127295622, 11127295623], "tags": {"leisure": "park", "protection_title": "Gesch\u00fctzte Gr\u00fcnanlage"}}, {"type": "way", "id": 1199761192, "nodes": [11127357726, 11127357727, 11127357728, 11127357729, 11127357730, 11127357731, 11127357732, 11127348362, 11127357733, 11127357734, 11127348376, 11127348382, 11127357735, 11127357736, 11127357737, 11127357738, 11127357739, 11127357740, 11127357741, 11127357765, 11127357742, 11127357764, 11127357763, 11127357762, 11127357761, 11127357760, 11127357743, 11127357759, 11127357758, 11127357757, 11127357756, 11127357755, 11127357744, 11127357745, 11127357746, 11127357747, 11127357748, 11127357749, 7858591244, 7858591243, 11127357750, 11127357751, 11127357752, 7858591242, 11127357753, 7858591241, 11127357754, 7858591240, 7858591239, 7858591238, 7858591237, 11127357726], "tags": {"leisure": "park", "protection_title": "Gesch\u00fctzte Gr\u00fcnanlage"}}, {"type": "relation", "id": 13653042, "members": [{"type": "way", "ref": 517163242, "role": "outer"}, {"type": "way", "ref": 51869991, "role": "outer"}], "tags": {"leisure": "park", "name": "Falkenplatz", "name:etymology:wikidata": "Q43489", "protection_title": "Gesch\u00fctzte Gr\u00fcnanlage", "type": "multipolygon", "wikidata": "Q91399145"}}]}