{"version": 0.6, "generator": "Overpass API 0.7.62.7 375dc00a", "osm3s": {"timestamp_osm_base": "2025-08-05T14:16:51Z", "copyright": "The data included in this document is from www.openstreetmap.org. The data is made available under ODbL."}, "elements": [{"type": "node", "id": 35973391, "lat": 52.5103223, "lon": 13.2829535, "tags": {"addr:city": "Berlin", "addr:country": "DE", "addr:housenumber": "24", "addr:postcode": "14057", "addr:street": "Kaiserdamm", "addr:suburb": "Westend", "amenity": "restaurant", "cuisine": "mexican", "name": "Canc\u00fan", "opening_hours": "Mo-Su 11:00-03:00", "phone": "+493030111105", "toilets:wheelchair": "no", "website": "https://www.cancun-restaurant.de/", "wheelchair": "limited"}}, {"type": "node", "id": 46494611, "lat": 52.5185, "lon": 13.2786608}, {"type": "node", "id": 59861545, "lat": 52.5240795, "lon": 13.2614256}, {"type": "node", "id": 59861548, "lat": 52.523482, "lon": 13.2572102}, {"type": "node", "id": 79801175, "lat": 52.5096794, "lon": 13.2733532}, {"type": "node", "id": 79801179, "lat": 52.5096598, "lon": 13.2734391}, {"type": "node", "id": 79801184, "lat": 52.5096375, "lon": 13.2735063}, {"type": "node", "id": 79801189, "lat": 52.5095591, "lon": 13.2736121}, {"type": "node", "id": 79801193, "lat": 52.5094731, "lon": 13.2736547}, {"type": "node", "id": 79801197, "lat": 52.5091237, "lon": 13.2735102}, {"type": "node", "id": 79801198, "lat": 52.509076, "lon": 13.2734746}, {"type": "node", "id": 79801200, "lat": 52.508979, "lon": 13.2733358}, {"type": "node", "id": 79801202, "lat": 52.5089545, "lon": 13.2732727}, {"type": "node", "id": 79801203, "lat": 52.5089086, "lon": 13.2730293}, {"type": "node", "id": 79801204, "lat": 52.5089274, "lon": 13.2726111}, {"type": "node", "id": 79801208, "lat": 52.5090271, "lon": 13.2719162}, {"type": "node", "id": 79801211, "lat": 52.5090718, "lon": 13.2717522}, {"type": "node", "id": 79801214, "lat": 52.5091423, "lon": 13.2716007}, {"type": "node", "id": 79801217, "lat": 52.5092681, "lon": 13.2715013}, {"type": "node", "id": 79801226, "lat": 52.5097398, "lon": 13.2716858}, {"type": "node", "id": 79801229, "lat": 52.5098343, "lon": 13.2718314}, {"type": "node", "id": 79801232, "lat": 52.5098761, "lon": 13.272021}, {"type": "node", "id": 79801235, "lat": 52.5080557, "lon": 13.2686772}, {"type": "node", "id": 79801237, "lat": 52.5078549, "lon": 13.2699348}, {"type": "node", "id": 79801239, "lat": 52.5077834, "lon": 13.2700003}, {"type": "node", "id": 79801240, "lat": 52.5071219, "lon": 13.2695438}, {"type": "node", "id": 79801242, "lat": 52.5073258, "lon": 13.2683927}, {"type": "node", "id": 79801245, "lat": 52.5080385, "lon": 13.2686373}, {"type": "node", "id": 79808386, "lat": 52.5096736, "lon": 13.2707607, "tags": {"addr:city": "Berlin", "addr:country": "DE", "addr:housenumber": "12", "addr:postcode": "14052", "addr:street": "Theodor-Heuss-Platz", "addr:suburb": "Westend", "amenity": "restaurant", "brand": "BLOCK HOUSE", "brand:wikidata": "Q320430", "brand:wikipedia": "de:Block House", "check_date:opening_hours": "2025-04-23", "cuisine": "steak_house", "indoor_seating": "yes", "name": "BLOCK HOUSE", "opening_hours": "Mo-Sa 12:00-23:00; Su 12:00-22:00", "outdoor_seating": "yes", "phone": "+49 30 3017091", "smoking": "no", "toilets:access": "customers", "toilets:wheelchair": "no", "website": "https://www.block-house.de/restaurants/berlin/theodor-heuss-platz/", "wheelchair": "yes"}}, {"type": "node", "id": 81362508, "lat": 52.5089075, "lon": 13.2708507, "tags": {"addr:city": "Berlin", "addr:country": "DE", "addr:housenumber": "1", "addr:postcode": "14052", "addr:street": "Heerstra\u00dfe", "addr:suburb": "Westend", "amenity": "cafe", "check_date": "2025-01-08", "check_date:opening_hours": "2025-01-08", "name": "Caf\u00e9 & Reiseb\u00fcro - Eishandwerk", "opening_hours": "Mo-Fr 10:00-17:00", "shop": "travel_agency", "wheelchair": "yes"}}, {"type": "node", "id": 81362518, "lat": 52.509874, "lon": 13.2708833, "tags": {"addr:city": "Berlin", "addr:country": "DE", "addr:housenumber": "10", "addr:postcode": "14052", "addr:street": "Theodor-Heuss-Platz", "addr:suburb": "Westend", "amenity": "restaurant", "cuisine": "german", "email": "info@joes-berlin.de", "indoor_seating": "yes", "name": "JOE'S Restaurant & Wirtshaus", "opening_hours": "10:00-24:00", "opening_hours:kitchen": "10:00-23:00", "operator": "Joe's Restaurant & Wirtshaus GmbH", "outdoor_seating": "yes", "phone": "+49 30 262 10 20", "toilets:wheelchair": "no", "website": "https://www.joes-berlin.de", "wheelchair": "limited"}}, {"type": "node", "id": 81362602, "lat": 52.5104923, "lon": 13.2716035, "tags": {"addr:city": "Berlin", "addr:country": "DE", "addr:housenumber": "28", "addr:postcode": "14050", "addr:street": "Lindenallee", "addr:suburb": "Westend", "amenity": "pharmacy", "check_date:opening_hours": "2023-06-28", "dispensing": "yes", "healthcare": "pharmacy", "name": "Kranich-Apotheke", "opening_hours": "Mo-Fr 08:30-19:00; Sa 08:30-14:00", "phone": "+49 30 3015073", "website": "https://www.kranich-apotheke-berlin.de/", "wheelchair": "yes"}}, {"type": "node", "id": 81362605, "lat": 52.5106205, "lon": 13.2716607, "tags": {"addr:city": "Berlin", "addr:country": "DE", "addr:housenumber": "28", "addr:postcode": "14050", "addr:street": "Lindenallee", "addr:suburb": "Westend", "amenity": "restaurant", "check_date:opening_hours": "2023-06-10", "cuisine": "regional", "indoor_seating": "yes", "name": "Lindenwirtin", "opening_hours": "Mo-Su,PH 15:00+", "outdoor_seating": "yes", "phone": "+49 30 3027747", "toilets:wheelchair": "yes", "wheelchair": "yes"}}, {"type": "node", "id": 128355990, "lat": 52.5116186, "lon": 13.2775029}, {"type": "node", "id": 128356002, "lat": 52.5117247, "lon": 13.279308}, {"type": "node", "id": 240472780, "lat": 52.5157086, "lon": 13.2526079}, {"type": "node", "id": 250061570, "lat": 52.5223971, "lon": 13.2568738}, {"type": "node", "id": 250061573, "lat": 52.5217762, "lon": 13.2603411}, {"type": "node", "id": 253839777, "lat": 52.5049913, "lon": 13.2505801, "tags": {"barrier": "gate"}}, {"type": "node", "id": 253839780, "lat": 52.5050447, "lon": 13.2514533, "tags": {"barrier": "gate"}}, {"type": "node", "id": 253898993, "lat": 52.5049789, "lon": 13.2503734}, {"type": "node", "id": 253899012, "lat": 52.5050546, "lon": 13.2516114}, {"type": "node", "id": 255542319, "lat": 52.5219057, "lon": 13.279515}, {"type": "node", "id": 255542320, "lat": 52.5219581, "lon": 13.2760146}, {"type": "node", "id": 259855794, "lat": 52.5085368, "lon": 13.2716801, "tags": {"addr:city": "Berlin", "addr:country": "DE", "addr:housenumber": "7", "addr:postcode": "14052", "addr:street": "Theodor-Heuss-Platz", "addr:suburb": "Westend", "brand": "Aldi Nord", "brand:wikidata": "Q41171373", "brand:wikipedia": "de:Aldi", "contact:phone": "+49800 7234870", "contact:website": "https://www.aldi-nord.de/tools/filialen-und-oeffnungszeiten/berlin/westend/theodor-heuss-platz-7.html", "name": "Aldi", "opening_hours": "Mo-Sa 07:00-22:00", "operator": "ALDI Einkauf GmbH & Co. oHG", "operator:wikidata": "Q41171373", "shop": "supermarket", "wheelchair": "yes"}}, {"type": "node", "id": 291238046, "lat": 52.5060944, "lon": 13.2281071}, {"type": "node", "id": 297317730, "lat": 52.5258979, "lon": 13.2599821}, {"type": "node", "id": 297317731, "lat": 52.52591, "lon": 13.2600895}, {"type": "node", "id": 297317732, "lat": 52.5258966, "lon": 13.2602147}, {"type": "node", "id": 297317733, "lat": 52.5258686, "lon": 13.2602575}, {"type": "node", "id": 297317734, "lat": 52.5258202, "lon": 13.2602712}, {"type": "node", "id": 297317735, "lat": 52.5257766, "lon": 13.2602647}, {"type": "node", "id": 297317736, "lat": 52.5257336, "lon": 13.2602441}, {"type": "node", "id": 297317737, "lat": 52.5256886, "lon": 13.2602195}, {"type": "node", "id": 297317738, "lat": 52.5256533, "lon": 13.26019}, {"type": "node", "id": 297317739, "lat": 52.5256368, "lon": 13.2601687}, {"type": "node", "id": 297317740, "lat": 52.5256078, "lon": 13.2600233}, {"type": "node", "id": 297317741, "lat": 52.5256278, "lon": 13.2598923}, {"type": "node", "id": 297317742, "lat": 52.5256594, "lon": 13.2598329}, {"type": "node", "id": 297317743, "lat": 52.5256934, "lon": 13.2597671}, {"type": "node", "id": 297317746, "lat": 52.5257361, "lon": 13.2596875}, {"type": "node", "id": 297317747, "lat": 52.5257933, "lon": 13.2596758}, {"type": "node", "id": 297317748, "lat": 52.5258505, "lon": 13.2597444}, {"type": "node", "id": 297317750, "lat": 52.5258762, "lon": 13.2598487}, {"type": "node", "id": 304367339, "lat": 52.5287997, "lon": 13.281752, "tags": {"addr:city": "Berlin", "addr:country": "DE", "addr:housenumber": "92", "addr:postcode": "14050", "addr:street": "F\u00fcrstenbrunner Weg", "addr:suburb": "Westend", "amenity": "pub", "name": "Gastst\u00e4tte Tunnel-Eck"}}, {"type": "node", "id": 354690094, "lat": 52.5031561, "lon": 13.2771218}, {"type": "node", "id": 354690095, "lat": 52.5031941, "lon": 13.2771627}, {"type": "node", "id": 354690096, "lat": 52.5037131, "lon": 13.2776093}, {"type": "node", "id": 354690097, "lat": 52.5037541, "lon": 13.2774971}, {"type": "node", "id": 354690098, "lat": 52.5038247, "lon": 13.2775607}, {"type": "node", "id": 354690099, "lat": 52.503868, "lon": 13.2774522}, {"type": "node", "id": 354690100, "lat": 52.5039476, "lon": 13.2774559}, {"type": "node", "id": 354690101, "lat": 52.5039863, "lon": 13.2770857}, {"type": "node", "id": 354690102, "lat": 52.5040865, "lon": 13.2765247}, {"type": "node", "id": 354690103, "lat": 52.5035925, "lon": 13.2761058}, {"type": "node", "id": 354690104, "lat": 52.5034665, "lon": 13.2764056}, {"type": "node", "id": 354690107, "lat": 52.503394, "lon": 13.2765643}, {"type": "node", "id": 354690108, "lat": 52.5033409, "lon": 13.2767052}, {"type": "node", "id": 354690109, "lat": 52.5032874, "lon": 13.2768201}, {"type": "node", "id": 354690110, "lat": 52.5032419, "lon": 13.2769211}, {"type": "node", "id": 356306526, "lat": 52.5203387, "lon": 13.2808083}, {"type": "node", "id": 356306527, "lat": 52.5198175, "lon": 13.2807934}, {"type": "node", "id": 370400278, "lat": 52.5103092, "lon": 13.271345, "tags": {"addr:city": "Berlin", "addr:country": "DE", "addr:housenumber": "1", "addr:postcode": "14052", "addr:street": "Reichsstra\u00dfe", "addr:suburb": "Westend", "amenity": "fast_food", "cuisine": "kebab", "name": "Prime Kebab", "wheelchair": "limited"}}, {"type": "node", "id": 430181450, "lat": 52.5172176, "lon": 13.2794606, "tags": {"addr:city": "Berlin", "addr:country": "DE", "addr:housenumber": "85", "addr:postcode": "14050", "addr:street": "Soorstra\u00dfe", "addr:suburb": "Westend", "amenity": "restaurant", "check_date:opening_hours": "2023-06-13", "contact:website": "https://www.rigpa.de/lotus-lounge/", "diet:vegan": "yes", "diet:vegetarian": "only", "name": "Lotus Lounge", "opening_hours": "Sa 12:00-15:00", "organic": "yes", "outdoor_seating": "yes", "smoking": "outside"}}, {"type": "node", "id": 435136437, "lat": 52.5103572, "lon": 13.2428791}, {"type": "node", "id": 435136438, "lat": 52.5103574, "lon": 13.243563}, {"type": "node", "id": 435136439, "lat": 52.5098734, "lon": 13.2435699}, {"type": "node", "id": 435136440, "lat": 52.5098919, "lon": 13.2430275}, {"type": "node", "id": 444758082, "lat": 52.5212505, "lon": 13.2756417}, {"type": "node", "id": 444758083, "lat": 52.5195618, "lon": 13.274882}, {"type": "node", "id": 444758088, "lat": 52.5192206, "lon": 13.2747145}, {"type": "node", "id": 530557759, "lat": 52.5015112, "lon": 13.2604007, "tags": {"amenity": "cafe", "name": "Bistro Waldschulallee", "opening_hours": "Mo-Fr 17:00-23:00; Sa 10:00-19:00; Su 10:00-17:00", "website": "https://www.tu-berlin.de/menue/service/campus_leben/mensen_cafes/"}}, {"type": "node", "id": 565459046, "lat": 52.5118687, "lon": 13.2407404}, {"type": "node", "id": 565459047, "lat": 52.5118736, "lon": 13.2407804}, {"type": "node", "id": 565459048, "lat": 52.5118858, "lon": 13.2408634}, {"type": "node", "id": 565459049, "lat": 52.5118925, "lon": 13.2409112}, {"type": "node", "id": 565459059, "lat": 52.5119685, "lon": 13.2408838}, {"type": "node", "id": 565459060, "lat": 52.5119428, "lon": 13.2407116}, {"type": "node", "id": 598809912, "lat": 52.5090163, "lon": 13.2424338}, {"type": "node", "id": 598809913, "lat": 52.5090431, "lon": 13.2426221}, {"type": "node", "id": 598809947, "lat": 52.5115415, "lon": 13.2508357}, {"type": "node", "id": 598809949, "lat": 52.5113272, "lon": 13.2509258}, {"type": "node", "id": 598809951, "lat": 52.5109661, "lon": 13.2523911}, {"type": "node", "id": 627735823, "lat": 52.5087225, "lon": 13.2681911, "tags": {"addr:city": "Berlin", "addr:country": "DE", "addr:housenumber": "11", "addr:postcode": "14052", "addr:street": "Heerstra\u00dfe", "addr:suburb": "Westend", "amenity": "restaurant", "cuisine": "italian", "indoor_seating": "yes", "name": "Tutti Gusti", "opening_hours": "Mo-Su 12:00-23:00", "outdoor_seating": "yes", "phone": "+49 30 30614749", "source": "local knowledge", "toilets:wheelchair": "no", "website": "http://www.tutti-gusti.de", "wheelchair": "limited"}}, {"type": "node", "id": 630481251, "lat": 52.5189603, "lon": 13.2760982, "tags": {"access": "private", "barrier": "gate", "colour": "grey", "emergency": "yes", "locked": "yes", "material": "metal"}}, {"type": "node", "id": 630481274, "lat": 52.5184824, "lon": 13.2786656}, {"type": "node", "id": 630481280, "lat": 52.5185345, "lon": 13.2796644}, {"type": "node", "id": 630481296, "lat": 52.5199364, "lon": 13.2812384}, {"type": "node", "id": 630481335, "lat": 52.5217857, "lon": 13.2774483}, {"type": "node", "id": 630481340, "lat": 52.5220423, "lon": 13.2773992}, {"type": "node", "id": 630481357, "lat": 52.5204047, "lon": 13.2811768}, {"type": "node", "id": 653129939, "lat": 52.5073858, "lon": 13.2262988}, {"type": "node", "id": 653129940, "lat": 52.5076705, "lon": 13.2263736}, {"type": "node", "id": 664026521, "lat": 52.5123494, "lon": 13.2678849, "tags": {"addr:city": "Berlin", "addr:country": "DE", "addr:housenumber": "9", "addr:postcode": "14052", "addr:street": "Reichsstra\u00dfe", "addr:suburb": "Westend", "amenity": "restaurant", "cuisine": "italian", "indoor_seating": "yes", "name": "Piccolo Mondo", "opening_hours": "Mo-Sa 12:00-01:00", "outdoor_seating": "yes", "phone": "+49303044734", "smoking": "outside", "toilets:wheelchair": "yes", "website": "https://www.piccolo-mondo.de", "wheelchair": "no"}}, {"type": "node", "id": 667211327, "lat": 52.5120994, "lon": 13.2643913, "tags": {"addr:city": "Berlin", "addr:country": "DE", "addr:housenumber": "42", "addr:postcode": "14052", "addr:street": "Bayernallee", "addr:suburb": "Westend", "amenity": "restaurant", "cuisine": "indian", "diet:vegetarian": "yes", "fax": "+49-30-33772942", "indoor_seating": "yes", "name": "Rasas", "opening_hours": "Mo-Su 12:00-22:00", "outdoor_seating": "yes", "phone": "+49-30-33772941", "smoking": "outside", "toilets:wheelchair": "no", "wheelchair": "yes", "wheelchair:description": "ebenerdig, das Beh.-WC ist leider nicht als solches nutzbar, da es als Abstellkammer verwendet wird. Es besteht keinerlei Bewegungsfreiheit. Die installierte Energiesparlampe ist viel zu dunkel, man kann so gut wie gar nichts sehen."}}, {"type": "node", "id": 667211329, "lat": 52.5123167, "lon": 13.2653691, "tags": {"amenity": "pharmacy", "check_date:opening_hours": "2024-05-05", "dispensing": "yes", "healthcare": "pharmacy", "name": "F\u00fcrstenplatz-Apotheke", "opening_hours": "Mo,Tu,Th,Fr 08:00-19:30; Sa 09:00-14:00; We 08:00-14:00", "wheelchair": "yes"}}, {"type": "node", "id": 667211334, "lat": 52.5129578, "lon": 13.2656846, "tags": {"addr:city": "Berlin", "addr:country": "DE", "addr:housenumber": "94", "addr:postcode": "14052", "addr:street": "Reichsstra\u00dfe", "addr:suburb": "Westend", "brand": "Edeka", "brand:wikidata": "Q701755", "check_date:opening_hours": "2024-02-19", "name": "Edeka Reichsstra\u00dfe", "opening_hours": "Mo-Sa 07:00-22:00", "shop": "supermarket", "website": "https://www.edeka.de", "wheelchair": "yes"}}, {"type": "node", "id": 667211338, "lat": 52.5135416, "lon": 13.264929, "tags": {"amenity": "restaurant", "cuisine": "thai", "indoor_seating": "yes", "name": "Thai Food Orchidee", "opening_hours": "Su-Fr 12:00-22:00", "outdoor_seating": "yes", "smoking": "outside", "wheelchair": "no"}}, {"type": "node", "id": 667211342, "lat": 52.5114996, "lon": 13.2683306, "tags": {"addr:city": "Berlin", "addr:country": "DE", "addr:housenumber": "102", "addr:postcode": "14052", "addr:street": "Reichsstra\u00dfe", "addr:suburb": "Westend", "amenity": "restaurant", "check_date": "2023-08-07", "cuisine": "sushi", "name": "m.looi", "opening_hours": "Tu-Fr 12:00-22:00; Sa,Su,PH 13:00-22:00", "phone": "+49 30 32598538", "smoking": "no", "website": "http://www.mlooi-sushi.com/", "wheelchair": "limited"}}, {"type": "node", "id": 667211344, "lat": 52.5113062, "lon": 13.2686117, "tags": {"amenity": "cafe", "check_date:opening_hours": "2021-09-09", "indoor_seating": "yes", "level": "0", "name": "Caf\u00e9 Thiel", "opening_hours": "Mo-Fr 08:00-19:00; Sa 08:00-18:00; Su 10:00-18:00", "outdoor_seating": "yes", "toilets:wheelchair": "yes", "wheelchair": "yes"}}, {"type": "node", "id": 667211352, "lat": 52.510638, "lon": 13.2698479, "tags": {"addr:city": "Berlin", "addr:country": "DE", "addr:housenumber": "105", "addr:postcode": "14052", "addr:street": "Reichsstra\u00dfe", "addr:suburb": "Westend", "amenity": "pharmacy", "check_date:opening_hours": "2021-01-23", "dispensing": "yes", "healthcare": "pharmacy", "name": "Quant Apotheke", "opening_hours": "Mo,Tu,Th 08:00-19:00; We,Fr 08:00-18:00; Sa 09:00-13:00", "phone": "+493030823363", "website": "https://www.quant-apotheke.de/", "wheelchair": "yes"}}, {"type": "node", "id": 667211357, "lat": 52.5113359, "lon": 13.2695868, "tags": {"amenity": "restaurant", "fixme": "resurvey", "name": "Charlottenburger Botschaft", "note": "Does it still exist? Domain name amplio.berlin no longer exists."}}, {"type": "node", "id": 667211359, "lat": 52.510693, "lon": 13.2707094, "tags": {"addr:city": "Berlin", "addr:country": "DE", "addr:postcode": "14052", "addr:street": "Reichsstra\u00dfe", "addr:suburb": "Westend", "amenity": "restaurant", "name": "Pho Reis"}}, {"type": "node", "id": 667211364, "lat": 52.5125406, "lon": 13.2675793, "tags": {"addr:city": "Berlin", "addr:country": "DE", "addr:housenumber": "10", "addr:postcode": "14052", "addr:street": "Reichsstra\u00dfe", "addr:suburb": "Westend", "brand": "Bio Company", "brand:wikidata": "Q864179", "brand:wikipedia": "de:Bio Company", "name": "Bio Company", "opening_hours": "Mo-Sa 08:00-20:00,07:30-20:00 open \"backshop\"", "organic": "only", "phone": "+4930810332620", "shop": "supermarket", "website": "https://www.biocompany.de", "wheelchair": "yes"}}, {"type": "node", "id": 667211368, "lat": 52.5159551, "lon": 13.2604129, "tags": {"amenity": "cafe", "indoor_seating": "yes", "name": "Wiener Caffeehaus", "opening_hours": "Mo-Su 07:30-18:30", "outdoor_seating": "yes", "toilets:wheelchair": "no", "wheelchair": "no"}}, {"type": "node", "id": 667211370, "lat": 52.5165569, "lon": 13.2599006, "tags": {"addr:city": "Berlin", "addr:country": "DE", "addr:housenumber": "80b", "addr:postcode": "14052", "addr:street": "Reichsstra\u00dfe", "addr:suburb": "Westend", "amenity": "pub", "contact:email": "marion.lennartsson@t-online.de", "contact:phone": "+49 30 30328471", "contact:website": "https://www.westend-klause.de", "indoor_seating": "yes", "name": "Westend-Klause", "opening_hours": "Mo-Fr 16:00-02:00, Sa 12:00-02:00, Su 14:00-24:00", "outdoor_seating": "yes", "wheelchair": "no"}}, {"type": "node", "id": 667211371, "lat": 52.5164118, "lon": 13.2598493, "tags": {"addr:city": "Berlin", "addr:housenumber": "2", "addr:postcode": "14052", "addr:street": "Olympische Stra\u00dfe", "amenity": "restaurant", "contact:email": "info@osteriamia.de", "cuisine": "italian", "indoor_seating": "yes", "name": "Osteria Mia", "opening_hours": "We-Su 15:00-21:00", "outdoor_seating": "yes", "phone": "+49 30 323 83 05", "toilets:wheelchair": "no", "website": "https://ilcardinale.de", "wheelchair": "limited"}}, {"type": "node", "id": 667211372, "lat": 52.5185318, "lon": 13.2571181, "tags": {"brand": "Edeka", "brand:wikidata": "Q701755", "brand:wikipedia": "de:Edeka", "name": "Edeka", "opening_hours": "Mo-Sa 07:00-20:00", "shop": "supermarket", "toilets:wheelchair": "no", "wheelchair": "yes"}}, {"type": "node", "id": 667211375, "lat": 52.5191931, "lon": 13.2572734, "tags": {"addr:city": "Berlin", "addr:country": "DE", "addr:housenumber": "36", "addr:postcode": "14052", "addr:street": "Reichsstra\u00dfe", "addr:suburb": "Westend", "amenity": "pharmacy", "contact:phone": "+49 30 30099080", "contact:website": "https://www.raphael-apo.de", "drive_through": "no", "email": "info@raphael-apo.de", "healthcare": "pharmacy", "name": "Raphael-Apotheke", "opening_hours": "Mo-Fr 08:30-18:30,Sa 08:30-13:00", "operator": "Inh. Kristin Kneu\u00df e.K.", "payment:cash": "yes", "payment:credit_cards": "yes", "website": "https://www.raphael-apo.de", "wheelchair": "yes"}}, {"type": "node", "id": 667211382, "lat": 52.5179788, "lon": 13.2588529, "tags": {"healthcare": "physiotherapist", "name": "Imelius Physiotherapie & Heilpraktik", "wheelchair": "yes"}}, {"type": "node", "id": 667211384, "lat": 52.5159467, "lon": 13.2606416, "tags": {"amenity": "fast_food", "name": "Westend Grill", "wheelchair": "limited"}}, {"type": "node", "id": 667211386, "lat": 52.5158753, "lon": 13.2609904, "tags": {"amenity": "pharmacy", "check_date:opening_hours": "2024-02-19", "dispensing": "yes", "health_facility:type": "pharmacy", "healthcare": "pharmacy", "medical_system:western": "yes", "name": "Reichs-Apotheke", "opening_hours": "Mo-Fr 08:00-19:00; Sa 08:00-14:00", "wheelchair": "limited"}}, {"type": "node", "id": 667211390, "lat": 52.5157916, "lon": 13.2622288, "tags": {"amenity": "cafe", "name": "Caf\u00e9 Kuhn", "wheelchair": "limited"}}, {"type": "node", "id": 667211398, "lat": 52.5160655, "lon": 13.2616014, "tags": {"amenity": "pharmacy", "dispensing": "yes", "health_facility:type": "pharmacy", "healthcare": "pharmacy", "medical_system:western": "yes", "name": "Apotheke am Steubenplatz", "opening_hours": "Mo-Fr 08:30-19:00; Sa 08:30-14:00", "wheelchair": "yes"}}, {"type": "node", "id": 667211402, "lat": 52.5169689, "lon": 13.2615696, "tags": {"addr:city": "Berlin", "addr:country": "DE", "addr:housenumber": "4", "addr:postcode": "14050", "addr:street": "Steubenplatz", "addr:suburb": "Westend", "brand": "Edeka", "brand:wikidata": "Q701755", "name": "Edeka Laurman", "opening_hours": "Mo-Sa 07:00-22:00", "shop": "supermarket", "wheelchair": "yes"}}, {"type": "node", "id": 671696766, "lat": 52.5191071, "lon": 13.2769091}, {"type": "node", "id": 671696775, "lat": 52.5184866, "lon": 13.2789151}, {"type": "node", "id": 671696778, "lat": 52.5184942, "lon": 13.2790467}, {"type": "node", "id": 671696780, "lat": 52.5185444, "lon": 13.2787702, "tags": {"addr:city": "Berlin", "addr:housenumber": "130", "addr:postcode": "14050", "addr:street": "Spandauer Damm", "amenity": "pharmacy", "check_date:opening_hours": "2025-03-22", "dispensing": "yes", "healthcare": "pharmacy", "name": "Westend - Apotheke", "opening_hours": "Mo-Fr 08:30-18:00; Sa 09:00-12:00", "wheelchair": "yes"}}, {"type": "node", "id": 671696787, "lat": 52.5190305, "lon": 13.2773511}, {"type": "node", "id": 671696846, "lat": 52.5202594, "lon": 13.2774615}, {"type": "node", "id": 671696851, "lat": 52.5205928, "lon": 13.2776255}, {"type": "node", "id": 671696856, "lat": 52.5201813, "lon": 13.2779026}, {"type": "node", "id": 671696859, "lat": 52.5205126, "lon": 13.2780302}, {"type": "node", "id": 671696879, "lat": 52.5212127, "lon": 13.2783711}, {"type": "node", "id": 671696880, "lat": 52.521285, "lon": 13.2779529}, {"type": "node", "id": 671797192, "lat": 52.5114304, "lon": 13.263664}, {"type": "node", "id": 671797194, "lat": 52.5110058, "lon": 13.2644136}, {"type": "node", "id": 671797197, "lat": 52.5116267, "lon": 13.2654656}, {"type": "node", "id": 671797198, "lat": 52.5120478, "lon": 13.2647054}, {"type": "node", "id": 682127517, "lat": 52.5206686, "lon": 13.2391163}, {"type": "node", "id": 682127526, "lat": 52.5209758, "lon": 13.2395874}, {"type": "node", "id": 682127540, "lat": 52.5208446, "lon": 13.2394562}, {"type": "node", "id": 682127552, "lat": 52.5206547, "lon": 13.2388244}, {"type": "node", "id": 682127585, "lat": 52.520652, "lon": 13.2391327}, {"type": "node", "id": 682127600, "lat": 52.5209063, "lon": 13.2393974}, {"type": "node", "id": 682127603, "lat": 52.5206953, "lon": 13.2388188}, {"type": "node", "id": 682127627, "lat": 52.5205865, "lon": 13.2388918}, {"type": "node", "id": 682127661, "lat": 52.52079, "lon": 13.2395102}, {"type": "node", "id": 682127679, "lat": 52.520664, "lon": 13.2388498}, {"type": "node", "id": 682127687, "lat": 52.5209147, "lon": 13.2396478}, {"type": "node", "id": 696361885, "lat": 52.5072704, "lon": 13.2689675}, {"type": "node", "id": 696361887, "lat": 52.5073906, "lon": 13.2684986}, {"type": "node", "id": 696361889, "lat": 52.5075129, "lon": 13.2687677}, {"type": "node", "id": 696361890, "lat": 52.5071306, "lon": 13.2695872}, {"type": "node", "id": 696361896, "lat": 52.5073941, "lon": 13.2694386}, {"type": "node", "id": 696361904, "lat": 52.5075459, "lon": 13.2685552}, {"type": "node", "id": 696361906, "lat": 52.5072501, "lon": 13.2689594}, {"type": "node", "id": 696361919, "lat": 52.5074398, "lon": 13.2694559}, {"type": "node", "id": 696361920, "lat": 52.5073769, "lon": 13.2683439}, {"type": "node", "id": 696361924, "lat": 52.5072107, "lon": 13.2695529}, {"type": "node", "id": 696361933, "lat": 52.507321, "lon": 13.2686822}, {"type": "node", "id": 696361939, "lat": 52.5073499, "lon": 13.2683596}, {"type": "node", "id": 696361949, "lat": 52.5073646, "lon": 13.2696441}, {"type": "node", "id": 696361959, "lat": 52.5072023, "lon": 13.2693566}, {"type": "node", "id": 696361973, "lat": 52.5073604, "lon": 13.2686973}, {"type": "node", "id": 696361982, "lat": 52.5072444, "lon": 13.2693739}, {"type": "node", "id": 696361992, "lat": 52.5072311, "lon": 13.2690575}, {"type": "node", "id": 696362001, "lat": 52.5075178, "lon": 13.268545}, {"type": "node", "id": 696362013, "lat": 52.507553, "lon": 13.2687839}, {"type": "node", "id": 696362026, "lat": 52.5072522, "lon": 13.2690668}, {"type": "node", "id": 718143686, "lat": 52.515696, "lon": 13.2527384, "tags": {"addr:city": "Berlin", "addr:housenumber": "31", "addr:postcode": "14052", "addr:street": "Olympische Stra\u00dfe", "amenity": "fast_food", "name": "Imbiss Olympische Br\u00fccke", "opening_hours": "Mo-Fr 10:00-18:00", "website": "https://currywurst.berlin/de/finder/place/imbiss-olympische-bruecke"}}, {"type": "node", "id": 718143757, "lat": 52.5067146, "lon": 13.2802194, "tags": {"amenity": "restaurant", "cuisine": "american", "name": "Andy's Diner & Bar (closed permanently)", "website": "https://andysdiner-messe.de/", "wheelchair": "yes"}}, {"type": "node", "id": 718143866, "lat": 52.5078425, "lon": 13.2582233, "tags": {"addr:city": "Berlin", "addr:country": "DE", "addr:housenumber": "22A", "addr:postcode": "14055", "addr:street": "Soldauer Allee", "addr:suburb": "Westend", "amenity": "cafe", "contact:email": "mail@adiks-reistafel.de", "contact:phone": "+49 30 30129020", "cuisine": "coffee_shop;german;asian", "indoor_seating": "yes", "name": "Adiks Stehcaf\u00e9", "opening_hours": "Mo-Sa 07:00-20:00; Su,PH 08:00-20:00", "outdoor_seating": "yes", "smoking": "outside"}}, {"type": "node", "id": 718143893, "lat": 52.516232, "lon": 13.2545284, "tags": {"addr:city": "Berlin", "addr:country": "DE", "addr:housenumber": "30", "addr:postcode": "14052", "addr:street": "Olympische Stra\u00dfe", "addr:suburb": "Westend", "amenity": "restaurant", "contact:phone": "+49 30 30103950", "cuisine": "greek", "name": "Epavlis", "opening_hours": "Mo-Fr 16:00-24:00; Sa,Su,PH 12:00-24:00", "source": "http://www.epavlis.de/", "toilets:wheelchair": "no", "website": "http://www.epavlis.de/", "wheelchair": "limited"}}, {"type": "node", "id": 724442392, "lat": 52.5197516, "lon": 13.2808006}, {"type": "node", "id": 724442398, "lat": 52.5238222, "lon": 13.2804404}, {"type": "node", "id": 724442436, "lat": 52.5238789, "lon": 13.2805187}, {"type": "node", "id": 724442442, "lat": 52.5234302, "lon": 13.2805957}, {"type": "node", "id": 724442449, "lat": 52.5236648, "lon": 13.2801667}, {"type": "node", "id": 724442466, "lat": 52.5238751, "lon": 13.2804343}, {"type": "node", "id": 741577145, "lat": 52.5205374, "lon": 13.2648941, "tags": {"addr:city": "Berlin", "addr:housenumber": "181-183", "addr:postcode": "14050", "addr:street": "Spandauer Damm", "amenity": "restaurant", "cuisine": "chinese", "name": "China-Haus Lin's Mandarin", "opening_hours": "Mo-Su,PH 12:00-22:00", "opening_hours:covid19": "Mo,We-Su,PH 12:00-22:00", "phone": "+49 30 31999885", "toilets:wheelchair": "yes", "website": "https://www.lins-spandau.de", "wheelchair": "limited"}}, {"type": "node", "id": 769711632, "lat": 52.5082633, "lon": 13.2576743}, {"type": "node", "id": 769711639, "lat": 52.5082603, "lon": 13.2576241}, {"type": "node", "id": 769711657, "lat": 52.5082704, "lon": 13.2576734}, {"type": "node", "id": 769711663, "lat": 52.5082571, "lon": 13.2575558}, {"type": "node", "id": 769711678, "lat": 52.5082681, "lon": 13.2576232}, {"type": "node", "id": 769711684, "lat": 52.5082664, "lon": 13.2577425}, {"type": "node", "id": 775766590, "lat": 52.5062093, "lon": 13.2282601}, {"type": "node", "id": 775766592, "lat": 52.5061968, "lon": 13.2280184}, {"type": "node", "id": 775766595, "lat": 52.50609, "lon": 13.2280248}, {"type": "node", "id": 775766596, "lat": 52.5060544, "lon": 13.2282826}, {"type": "node", "id": 811044684, "lat": 52.5093021, "lon": 13.2602217}, {"type": "node", "id": 858011034, "lat": 52.5113581, "lon": 13.2521934}, {"type": "node", "id": 858011066, "lat": 52.5155827, "lon": 13.2526462}, {"type": "node", "id": 858011073, "lat": 52.515773, "lon": 13.2532777}, {"type": "node", "id": 858011078, "lat": 52.5151276, "lon": 13.2534166}, {"type": "node", "id": 858011083, "lat": 52.5118098, "lon": 13.2514028}, {"type": "node", "id": 892846127, "lat": 52.5050698, "lon": 13.2780645, "tags": {"amenity": "restaurant", "check_date:website": "2023-02-25", "cuisine": "german", "disused:website": "https://www.funkturm-messeberlin.de/Restaurant/", "ele": "52", "email": "funkturm@capital-catering.de", "fax": "+493030381997", "name": "Funkturm-Restaurant", "note:website": "Die Website scheint ein tempor\u00e4res Problem zu haben, aber prinzipiell noch die richtige zu sein.", "opening_hours": "Mo off;Tu 18:00-23:00;We-Su 11:30-23:00", "operator": "Capital Catering GmbH", "phone": "+493030382900", "smoking": "no", "toilets:wheelchair": "no", "wheelchair": "yes"}}, {"type": "node", "id": 974393040, "lat": 52.5059555, "lon": 13.2772492, "tags": {"amenity": "cafe", "indoor_seating": "yes", "location": "Kleiner Stern unten", "name": "Messesnack Kleiner Stern", "opening_hours": "\"Nur zu Messen\"", "outdoor_seating": "no", "smoking": "no", "wheelchair": "yes"}}, {"type": "node", "id": 1026507201, "lat": 52.5137412, "lon": 13.2775919, "tags": {"addr:city": "Berlin", "addr:country": "DE", "addr:housenumber": "28", "addr:postcode": "14050", "addr:street": "Haeselerstra\u00dfe", "addr:suburb": "Westend", "amenity": "restaurant", "check_date": "2025-03-28", "indoor_seating": "yes", "name": "Kochstudio Cookeria", "opening_hours": "\"Siehe Programm\"", "outdoor_seating": "no", "phone": "+49 30 30107011", "website": "https://cookeria.de/", "wheelchair": "limited"}}, {"type": "node", "id": 1084078629, "lat": 52.4958171, "lon": 13.2662201}, {"type": "node", "id": 1095093671, "lat": 52.5203997, "lon": 13.2810566}, {"type": "node", "id": 1095093700, "lat": 52.5203501, "lon": 13.2810622}, {"type": "node", "id": 1114011619, "lat": 52.5111015, "lon": 13.2661996}, {"type": "node", "id": 1168888723, "lat": 52.5194948, "lon": 13.2705696, "tags": {"addr:city": "Berlin", "addr:country": "DE", "addr:housenumber": "157", "addr:postcode": "14050", "addr:street": "Spandauer Damm", "addr:suburb": "Westend", "amenity": "restaurant", "contact:website": "http://www.mendoza-berlin.de/spandau/mendoza-spandau.html", "cuisine": "steak_house", "name": "Mendoza - Argentinisches Steakhaus", "opening_hours": "Su-Th 11:00-24:00, Fr,Sa 11:00-01:00", "phone": "+49 30 3051515", "toilets:wheelchair": "no", "website": "http://www.mendoza-berlin.de/spandau/mendoza-spandau.html", "wheelchair": "limited"}}, {"type": "node", "id": 1168898031, "lat": 52.5180444, "lon": 13.2788969, "tags": {"amenity": "doctors", "healthcare": "psychotherapist", "healthcare:speciality": "behavior", "name": "Oliver von Berg"}}, {"type": "node", "id": 1168905946, "lat": 52.5181423, "lon": 13.279605, "tags": {"addr:city": "Berlin", "addr:country": "DE", "addr:housenumber": "115", "addr:postcode": "14050", "addr:street": "Spandauer Damm", "amenity": "cafe", "name": "La Manife (& DHL/DPD Pakete)", "name:en": "La Manife (& DHL/DPD drop-off)", "opening_hours": "Mo-Su 08:00-16:00", "wheelchair": "yes"}}, {"type": "node", "id": 1169738012, "lat": 52.5173307, "lon": 13.2748604}, {"type": "node", "id": 1169738014, "lat": 52.5166127, "lon": 13.274522}, {"type": "node", "id": 1169738016, "lat": 52.5165567, "lon": 13.2748423}, {"type": "node", "id": 1169738021, "lat": 52.5172749, "lon": 13.275182}, {"type": "node", "id": 1200964313, "lat": 52.5104038, "lon": 13.2820568, "tags": {"addr:city": "Berlin", "addr:country": "DE", "addr:housenumber": "2", "addr:postcode": "14059", "addr:street": "K\u00f6nigin-Elisabeth-Stra\u00dfe", "addr:suburb": "Westend", "amenity": "fast_food", "contact:phone": "+49 30 38 10 55 88", "cuisine": "kebab;pizza;thai", "noname": "yes", "opening_hours": "09:00-22:30", "outdoor_seating": "yes", "wheelchair": "yes"}}, {"type": "node", "id": 1200964352, "lat": 52.5103854, "lon": 13.2840724, "tags": {"addr:city": "Berlin", "addr:country": "DE", "addr:housenumber": "22", "addr:postcode": "14057", "addr:street": "Kaiserdamm", "addr:suburb": "Westend", "amenity": "fast_food", "cuisine": "kebab", "name": "Kaiser Bistro"}}, {"type": "node", "id": 1200964445, "lat": 52.5103117, "lon": 13.2827609, "tags": {"addr:city": "Berlin", "addr:country": "DE", "addr:housenumber": "24", "addr:postcode": "14057", "addr:street": "Kaiserdamm", "addr:suburb": "Westend", "amenity": "pharmacy", "check_date:opening_hours": "2024-03-21", "dispensing": "yes", "email": "info@witzleben-apotheke.de", "healthcare": "pharmacy", "name": "WitzlebenApotheke24", "opening_hours": "Mo,Tu,Th 08:00-19:00; We,Fr 08:00-18:30", "operator": "Witzleben Apotheke", "phone": "+493093952030", "website": "https://witzleben-apotheke.de", "wheelchair": "yes"}}, {"type": "node", "id": 1200964491, "lat": 52.5102306, "lon": 13.2814283, "tags": {"addr:city": "Berlin", "addr:country": "DE", "addr:housenumber": "26", "addr:postcode": "14057", "addr:street": "Kaiserdamm", "addr:suburb": "Westend", "amenity": "pharmacy", "check_date:opening_hours": "2024-03-21", "dispensing": "yes", "email": "info@witzleben-apotheke26.de", "healthcare": "pharmacy", "name": "WitzlebenApotheke26", "opening_hours": "Mo-Fr 08:00-19:00; Sa 09:00-14:00", "operator": "Witzleben Apotheke", "phone": "+493093952000", "toilets:wheelchair": "no", "website": "https://witzleben-apotheke.de/", "wheelchair": "yes"}}, {"type": "node", "id": 1200964544, "lat": 52.5111413, "lon": 13.2820069, "tags": {"addr:city": "Berlin", "addr:country": "DE", "addr:housenumber": "8", "addr:postcode": "14059", "addr:street": "K\u00f6nigin-Elisabeth-Stra\u00dfe", "amenity": "restaurant", "cuisine": "vietnamese", "name": "L\u00e1ng Ku'a", "opening_hours": "Mo-Fr 11:00-22:00; Sa,Su,PH 12:00-22:00"}}, {"type": "node", "id": 1285681132, "lat": 52.5110076, "lon": 13.2660287}, {"type": "node", "id": 1285681192, "lat": 52.5094527, "lon": 13.2694085, "tags": {"addr:city": "Berlin", "addr:country": "DE", "addr:housenumber": "8", "addr:postcode": "14052", "addr:street": "Heerstra\u00dfe", "addr:suburb": "Westend", "amenity": "bar", "indoor_seating": "yes", "name": "Greentree", "opening_hours": "We-Sa 18:00-01:00", "outdoor_seating": "yes", "smoking": "no", "wheelchair": "limited"}}, {"type": "node", "id": 1285681206, "lat": 52.5098903, "lon": 13.261588, "tags": {"addr:city": "Berlin", "addr:country": "DE", "addr:housenumber": "10", "addr:postcode": "14052", "addr:street": "L\u00e4nderallee", "addr:suburb": "Westend", "amenity": "dentist", "check_date:opening_hours": "2024-05-05", "fax": "+49-30- 304 9306", "healthcare": "dentist", "healthcare:speciality": "orthodontics", "name": "Dr. Saskia Herbst-Liebmann Kieferorthop\u00e4die", "opening_hours": "Mo-Th 08:00-18:00; Fr 08:00-13:00; Sa,Su,PH off", "phone": "+49-30- 304 5891", "website": "https://www.kieferorthopaedin.berlin/"}}, {"type": "node", "id": 1285681215, "lat": 52.5114262, "lon": 13.2642416}, {"type": "node", "id": 1285681250, "lat": 52.5112944, "lon": 13.2640246}, {"type": "node", "id": 1356495756, "lat": 52.5112867, "lon": 13.2579084}, {"type": "node", "id": 1356495763, "lat": 52.5112658, "lon": 13.2576107}, {"type": "node", "id": 1356495770, "lat": 52.5114523, "lon": 13.2578841}, {"type": "node", "id": 1387147245, "lat": 52.5239688, "lon": 13.2600969}, {"type": "node", "id": 1387147253, "lat": 52.5241123, "lon": 13.2598302}, {"type": "node", "id": 1387147344, "lat": 52.5239428, "lon": 13.2599615}, {"type": "node", "id": 1387147351, "lat": 52.5241643, "lon": 13.2599427}, {"type": "node", "id": 1387147374, "lat": 52.5240055, "lon": 13.2601365}, {"type": "node", "id": 1387147401, "lat": 52.5240667, "lon": 13.2598041}, {"type": "node", "id": 1387147419, "lat": 52.5240474, "lon": 13.2601574}, {"type": "node", "id": 1387147469, "lat": 52.5241136, "lon": 13.2601276}, {"type": "node", "id": 1387147478, "lat": 52.5239488, "lon": 13.2600422}, {"type": "node", "id": 1387147537, "lat": 52.5218283, "lon": 13.2600401}, {"type": "node", "id": 1387147549, "lat": 52.5240236, "lon": 13.2598088}, {"type": "node", "id": 1387147561, "lat": 52.5237395, "lon": 13.2608533}, {"type": "node", "id": 1387147578, "lat": 52.5240775, "lon": 13.2601521}, {"type": "node", "id": 1387147631, "lat": 52.5240887, "lon": 13.2598093}, {"type": "node", "id": 1387147716, "lat": 52.523984, "lon": 13.2598396}, {"type": "node", "id": 1387147718, "lat": 52.5236954, "lon": 13.2607538}, {"type": "node", "id": 1387147731, "lat": 52.5241323, "lon": 13.2601068}, {"type": "node", "id": 1387147789, "lat": 52.5241437, "lon": 13.259876}, {"type": "node", "id": 1387147845, "lat": 52.5239431, "lon": 13.2600141}, {"type": "node", "id": 1387147856, "lat": 52.5239504, "lon": 13.2599073}, {"type": "node", "id": 1387147881, "lat": 52.5241646, "lon": 13.2600276}, {"type": "node", "id": 1387168354, "lat": 52.5254554, "lon": 13.256111}, {"type": "node", "id": 1387168359, "lat": 52.5238924, "lon": 13.2607069}, {"type": "node", "id": 1387168378, "lat": 52.5260009, "lon": 13.2594031}, {"type": "node", "id": 1387168394, "lat": 52.523988, "lon": 13.2610507}, {"type": "node", "id": 1387168417, "lat": 52.5256178, "lon": 13.2601286}, {"type": "node", "id": 1387168418, "lat": 52.5234457, "lon": 13.2572099}, {"type": "node", "id": 1387168439, "lat": 52.52378, "lon": 13.2608137}, {"type": "node", "id": 1387168456, "lat": 52.5256187, "lon": 13.2599362}, {"type": "node", "id": 1387168483, "lat": 52.5259121, "lon": 13.2601279}, {"type": "node", "id": 1387168487, "lat": 52.5230982, "lon": 13.2603615}, {"type": "node", "id": 1387168510, "lat": 52.5229739, "lon": 13.2609123}, {"type": "node", "id": 1387168543, "lat": 52.523788, "lon": 13.2611967}, {"type": "node", "id": 1387168576, "lat": 52.5257612, "lon": 13.2596772}, {"type": "node", "id": 1387168588, "lat": 52.5258149, "lon": 13.2583052}, {"type": "node", "id": 1387168614, "lat": 52.5235976, "lon": 13.2607022}, {"type": "node", "id": 1387168650, "lat": 52.522674, "lon": 13.256967}, {"type": "node", "id": 1387168661, "lat": 52.5235566, "lon": 13.2605551}, {"type": "node", "id": 1387168665, "lat": 52.5244961, "lon": 13.2566499}, {"type": "node", "id": 1387168726, "lat": 52.5256074, "lon": 13.2600682}, {"type": "node", "id": 1387168728, "lat": 52.526195, "lon": 13.2604905}, {"type": "node", "id": 1387168761, "lat": 52.5258267, "lon": 13.2597033}, {"type": "node", "id": 1387168766, "lat": 52.5237658, "lon": 13.2612784}, {"type": "node", "id": 1387168781, "lat": 52.5256107, "lon": 13.2599831}, {"type": "node", "id": 1387168811, "lat": 52.5256116, "lon": 13.2600994}, {"type": "node", "id": 1387168887, "lat": 52.5237813, "lon": 13.2612849, "tags": {"bicycle": "yes", "entrance": "yes", "foot": "yes"}}, {"type": "node", "id": 1387168891, "lat": 52.5256364, "lon": 13.2598785}, {"type": "node", "id": 1396738369, "lat": 52.5089982, "lon": 13.2222587, "tags": {"amenity": "restaurant", "cuisine": "italian", "name": "Il Porto", "toilets:wheelchair": "no", "wheelchair": "limited"}}, {"type": "node", "id": 1429725489, "lat": 52.5064113, "lon": 13.2413505}, {"type": "node", "id": 1429725490, "lat": 52.506445, "lon": 13.2413093}, {"type": "node", "id": 1429725491, "lat": 52.5064548, "lon": 13.2415317}, {"type": "node", "id": 1429725492, "lat": 52.5065184, "lon": 13.2414351}, {"type": "node", "id": 1429725493, "lat": 52.5065071, "lon": 13.2415181}, {"type": "node", "id": 1515167724, "lat": 52.507227, "lon": 13.2319872}, {"type": "node", "id": 1515167726, "lat": 52.5073897, "lon": 13.235229}, {"type": "node", "id": 1515167729, "lat": 52.5081257, "lon": 13.2318369}, {"type": "node", "id": 1515167731, "lat": 52.5084024, "lon": 13.2349869}, {"type": "node", "id": 1515676194, "lat": 52.5101997, "lon": 13.2812688, "tags": {"addr:city": "Berlin", "addr:country": "DE", "addr:housenumber": "26", "addr:postcode": "14057", "addr:street": "Kaiserdamm", "addr:suburb": "Westend", "amenity": "doctors", "fax": "+49 30 24536430", "healthcare": "doctor", "healthcare:speciality": "dermatology", "name": "Dermatologie am Kaiserdamm", "opening_hours": "Mo,Tu,Th 09:00-12:00,16:00-18:00; Fr 09:00-12:00", "phone": "+49 30 4937925", "website": "https://www.derma-kaiserdamm.de/", "wheelchair": "yes"}}, {"type": "node", "id": 1580370348, "lat": 52.5207597, "lon": 13.2413911}, {"type": "node", "id": 1580370351, "lat": 52.5207704, "lon": 13.2414213}, {"type": "node", "id": 1580370354, "lat": 52.52042, "lon": 13.2417174}, {"type": "node", "id": 1580370357, "lat": 52.5204296, "lon": 13.2417443}, {"type": "node", "id": 1580370374, "lat": 52.5205158, "lon": 13.2404421}, {"type": "node", "id": 1580370376, "lat": 52.5206186, "lon": 13.2406441}, {"type": "node", "id": 1580370377, "lat": 52.5203346, "lon": 13.2418354}, {"type": "node", "id": 1580370379, "lat": 52.5208633, "lon": 13.2413321}, {"type": "node", "id": 1580370381, "lat": 52.5200347, "lon": 13.2409088}, {"type": "node", "id": 1580370384, "lat": 52.5201113, "lon": 13.2411298}, {"type": "node", "id": 1580370387, "lat": 52.5200907, "lon": 13.2411495}, {"type": "node", "id": 1580370389, "lat": 52.5205955, "lon": 13.2406663}, {"type": "node", "id": 1646685351, "lat": 52.503509, "lon": 13.2604605}, {"type": "node", "id": 1646685353, "lat": 52.5035931, "lon": 13.2606081}, {"type": "node", "id": 1646685354, "lat": 52.5035977, "lon": 13.2604684}, {"type": "node", "id": 1753051385, "lat": 52.5091155, "lon": 13.2716408}, {"type": "node", "id": 1753051387, "lat": 52.5091965, "lon": 13.2715415}, {"type": "node", "id": 1753051408, "lat": 52.5093452, "lon": 13.2714955}, {"type": "node", "id": 1753078659, "lat": 52.5089121, "lon": 13.2728827}, {"type": "node", "id": 1753078661, "lat": 52.5089142, "lon": 13.2731391}, {"type": "node", "id": 1753078666, "lat": 52.5090043, "lon": 13.2733898}, {"type": "node", "id": 1753078667, "lat": 52.5090509, "lon": 13.2718225}, {"type": "node", "id": 1753078670, "lat": 52.5091683, "lon": 13.2715691}, {"type": "node", "id": 1753078675, "lat": 52.5093943, "lon": 13.2715096}, {"type": "node", "id": 1753078676, "lat": 52.5094303, "lon": 13.2736521}, {"type": "node", "id": 1753078681, "lat": 52.5096025, "lon": 13.2735676}, {"type": "node", "id": 1753078683, "lat": 52.5097047, "lon": 13.2716549}, {"type": "node", "id": 1753078685, "lat": 52.5097934, "lon": 13.2717508}, {"type": "node", "id": 1753078686, "lat": 52.5098611, "lon": 13.2719192}, {"type": "node", "id": 1753078688, "lat": 52.5098698, "lon": 13.2721823}, {"type": "node", "id": 1753097245, "lat": 52.5092315, "lon": 13.2715171}, {"type": "node", "id": 1766338470, "lat": 52.5095102, "lon": 13.2704127, "tags": {"addr:city": "Berlin", "addr:country": "DE", "addr:postcode": "14052", "addr:street": "Heerstra\u00dfe", "addr:suburb": "Westend", "check_date:opening_hours": "2025-01-08", "name": "Ledo", "opening_hours": "Mo-Sa 09:00-20:00", "shop": "supermarket", "website": "https://www.ledo-supermarkt.de/", "wheelchair": "yes"}}, {"type": "node", "id": 1818905544, "lat": 52.5113173, "lon": 13.2775548}, {"type": "node", "id": 1818905545, "lat": 52.5114501, "lon": 13.2793548}, {"type": "node", "id": 1819309505, "lat": 52.5103787, "lon": 13.2712112, "tags": {"addr:city": "Berlin", "addr:country": "DE", "addr:postcode": "14052", "addr:street": "Reichsstra\u00dfe", "addr:suburb": "Westend", "amenity": "fast_food", "cuisine": "burger", "name": "Prime Chicken", "wheelchair": "no"}}, {"type": "node", "id": 1874205670, "lat": 52.5178327, "lon": 13.2806206, "tags": {"amenity": "restaurant", "cuisine": "asian", "name": "Pho 1977", "opening_hours": "We-Mo 11:30-22:00"}}, {"type": "node", "id": 1876027477, "lat": 52.5217621, "lon": 13.2645675, "tags": {"amenity": "restaurant", "cuisine": "german", "name": "Gastst\u00e4tte Bolivar", "wheelchair": "yes"}}, {"type": "node", "id": 1958758658, "lat": 52.5202338, "lon": 13.2797927, "tags": {"barrier": "lift_gate"}}, {"type": "node", "id": 2088547960, "lat": 52.5210709, "lon": 13.275083}, {"type": "node", "id": 2088547962, "lat": 52.5209066, "lon": 13.2750034}, {"type": "node", "id": 2088547963, "lat": 52.5211119, "lon": 13.2748548}, {"type": "node", "id": 2088547965, "lat": 52.5209475, "lon": 13.2747752}, {"type": "node", "id": 2089221788, "lat": 52.5210854, "lon": 13.2755684}, {"type": "node", "id": 2181613476, "lat": 52.5257294, "lon": 13.2312739}, {"type": "node", "id": 2181613477, "lat": 52.5257793, "lon": 13.2312188}, {"type": "node", "id": 2181613478, "lat": 52.5259973, "lon": 13.2364642}, {"type": "node", "id": 2181613479, "lat": 52.525992, "lon": 13.2335011}, {"type": "node", "id": 2181613480, "lat": 52.5260886, "lon": 13.2364997}, {"type": "node", "id": 2251295174, "lat": 52.5093116, "lon": 13.2223259, "tags": {"addr:city": "Berlin", "addr:country": "DE", "addr:housenumber": "45", "addr:postcode": "14055", "addr:street": "Angerburger Allee", "addr:suburb": "Westend", "brand": "REWE", "brand:wikidata": "Q16968817", "brand:wikipedia": "de:Rewe", "name": "REWE City", "opening_hours": "Mo-Sa 07:00-22:00; Su,PH off", "operator": "Rewe", "shop": "supermarket", "wheelchair": "yes"}}, {"type": "node", "id": 2251295178, "lat": 52.5094033, "lon": 13.2223693, "tags": {"addr:city": "Berlin", "addr:country": "DE", "addr:housenumber": "45", "addr:postcode": "14055", "addr:street": "Angerburger Allee", "addr:suburb": "Westend", "amenity": "pharmacy", "dispensing": "yes", "healthcare": "pharmacy", "name": "Masuren-Apotheke", "operator": "Jutta Krebs eKfr", "phone": "+49 30 3045968", "website": "https://www.masuren-apotheke.de/", "wheelchair": "yes"}}, {"type": "node", "id": 2296386934, "lat": 52.5200997, "lon": 13.2807692}, {"type": "node", "id": 2296386935, "lat": 52.5201027, "lon": 13.2808361}, {"type": "node", "id": 2332033781, "lat": 52.5113453, "lon": 13.277935}, {"type": "node", "id": 2377979255, "lat": 52.5197641, "lon": 13.2812006}, {"type": "node", "id": 2377979256, "lat": 52.5199326, "lon": 13.2811839}, {"type": "node", "id": 2439759130, "lat": 52.5100798, "lon": 13.2729593, "tags": {"amenity": "fast_food", "check_date:opening_hours": "2025-08-01", "cuisine": "asian", "indoor_seating": "yes", "name": "VietFood \u2013 Asia Street Food", "opening_hours": "Mo-Sa 11:00-20:00", "outdoor_seating": "yes"}}, {"type": "node", "id": 2439759145, "lat": 52.5099415, "lon": 13.273803, "tags": {"addr:city": "Berlin", "addr:country": "DE", "addr:housenumber": "2", "addr:postcode": "14052", "addr:street": "Theodor-Heuss-Platz", "addr:suburb": "Westend", "amenity": "restaurant", "cuisine": "italian", "indoor_seating": "yes", "name": "mama trattoria", "opening_hours": "Mo-Su 12:00-21:00", "outdoor_seating": "yes", "toilets:wheelchair": "yes", "website": "https://www.mama.eu/", "wheelchair": "yes"}}, {"type": "node", "id": 2439759151, "lat": 52.5099931, "lon": 13.2735201, "tags": {"addr:city": "Berlin", "addr:country": "DE", "addr:housenumber": "2", "addr:postcode": "14052", "addr:street": "Theodor-Heuss-Platz", "amenity": "cafe", "check_date:opening_hours": "2022-09-02", "cuisine": "ice_cream", "indoor_seating": "yes", "name": "Eiscaf\u00e9 Mauritius", "opening_hours:signed": "no", "outdoor_seating": "yes", "wheelchair": "yes"}}, {"type": "node", "id": 2439759173, "lat": 52.5101504, "lon": 13.2727188, "tags": {"addr:city": "Berlin", "addr:country": "DE", "addr:housenumber": "6", "addr:postcode": "14052", "addr:street": "Theodor-Heuss-Platz", "addr:suburb": "Westend", "brand": "Rewe", "brand:wikidata": "Q16968817", "brand:wikipedia": "de:Rewe", "check_date:opening_hours": "2025-08-01", "internet_access": "wlan", "name": "REWE City", "opening_hours": "Mo-Sa 07:00-22:00", "shop": "supermarket", "website": "https://www.rewe.de/", "wheelchair": "yes"}}, {"type": "node", "id": 2439759182, "lat": 52.5101677, "lon": 13.2724807, "tags": {"addr:city": "Berlin", "addr:country": "DE", "addr:housenumber": "6", "addr:postcode": "14052", "addr:street": "Theodor-Heuss-Platz", "addr:suburb": "Westend", "amenity": "pharmacy", "check_date:opening_hours": "2024-05-20", "dispensing": "yes", "fax": "030 221943829", "healthcare": "pharmacy", "name": "Lilien-Apotheke", "opening_hours": "Mo-Fr 08:00-19:30; Sa 08:00-16:00", "phone": "030 22194380", "wheelchair": "limited"}}, {"type": "node", "id": 2439759197, "lat": 52.5097763, "lon": 13.2743919, "tags": {"addr:city": "Berlin", "addr:country": "DE", "addr:housenumber": "40", "addr:postcode": "14057", "addr:street": "Kaiserdamm", "addr:suburb": "Westend", "amenity": "restaurant", "cuisine": "italian", "indoor_seating": "yes", "name": "Pizzeria I Due", "opening_hours": "Mo-Su 12:00-24:00", "outdoor_seating": "yes", "phone": "+49 30 3022077", "website": "https://i-due.eatbu.com/", "website:menu": "https://cdn.website.dish.co/media/e2/68/765875/I-DUE-i-due-spk.pdf"}}, {"type": "node", "id": 2439759266, "lat": 52.5100372, "lon": 13.2783352, "tags": {"addr:city": "Berlin", "addr:country": "DE", "addr:housenumber": "32", "addr:postcode": "14057", "addr:street": "Kaiserdamm", "addr:suburb": "Westend", "amenity": "restaurant", "cuisine": "japanese", "indoor_seating": "yes", "name": "Sakura II", "opening_hours": "Mo-Su,PH 12:00-22:00", "outdoor_seating": "sidewalk", "phone": "+49 30 3024955", "toilets:wheelchair": "no", "website": "http://www.sakura-berlin.de/index2", "wheelchair": "limited"}}, {"type": "node", "id": 2439759291, "lat": 52.5094377, "lon": 13.2774619, "tags": {"addr:city": "Berlin", "addr:country": "DE", "addr:housenumber": "80", "addr:postcode": "14057", "addr:street": "Kaiserdamm", "addr:suburb": "Westend", "amenity": "pub", "name": "The Moonlight"}}, {"type": "node", "id": 2459293519, "lat": 52.5234075, "lon": 13.2802077}, {"type": "node", "id": 2459293523, "lat": 52.5236619, "lon": 13.2801239}, {"type": "node", "id": 2459293528, "lat": 52.523804, "lon": 13.2801014}, {"type": "node", "id": 2469997083, "lat": 52.5118596, "lon": 13.25054}, {"type": "node", "id": 2722864598, "lat": 52.5110164, "lon": 13.2449381}, {"type": "node", "id": 2722864599, "lat": 52.5110328, "lon": 13.2454342}, {"type": "node", "id": 2722864600, "lat": 52.5110034, "lon": 13.2451393}, {"type": "node", "id": 2722864601, "lat": 52.5111536, "lon": 13.2452627}, {"type": "node", "id": 2722864602, "lat": 52.5108686, "lon": 13.2410978}, {"type": "node", "id": 2722864604, "lat": 52.5110752, "lon": 13.244981}, {"type": "node", "id": 2722864608, "lat": 52.511523, "lon": 13.2449464}, {"type": "node", "id": 2722864609, "lat": 52.5109903, "lon": 13.2451822}, {"type": "node", "id": 2722864610, "lat": 52.5110132, "lon": 13.2449623}, {"type": "node", "id": 2722864611, "lat": 52.5112091, "lon": 13.2449408}, {"type": "node", "id": 2722864612, "lat": 52.5110687, "lon": 13.2452734}, {"type": "node", "id": 2722864614, "lat": 52.5113924, "lon": 13.2443429}, {"type": "node", "id": 2722864615, "lat": 52.510884, "lon": 13.2453186}, {"type": "node", "id": 2722864616, "lat": 52.5110981, "lon": 13.2449784}, {"type": "node", "id": 2722864617, "lat": 52.511023, "lon": 13.245032}, {"type": "node", "id": 2722864619, "lat": 52.511196, "lon": 13.2452198}, {"type": "node", "id": 2722864620, "lat": 52.5116307, "lon": 13.2455419}, {"type": "node", "id": 2722864622, "lat": 52.5111144, "lon": 13.2452734}, {"type": "node", "id": 2722864623, "lat": 52.5110328, "lon": 13.2449381}, {"type": "node", "id": 2722864624, "lat": 52.5103636, "lon": 13.2441359, "tags": {"addr:city": "Berlin", "addr:country": "DE", "addr:housenumber": "16", "addr:postcode": "14055", "addr:street": "Flatowallee", "addr:suburb": "Westend", "amenity": "bar", "description": "Sieht eher nach einer Privat Kneipe aus.", "name": "Die kleine Kneipe"}}, {"type": "node", "id": 2722864626, "lat": 52.51142, "lon": 13.244942}, {"type": "node", "id": 2722864627, "lat": 52.511023, "lon": 13.2450803}, {"type": "node", "id": 2722864629, "lat": 52.5099922, "lon": 13.2429337}, {"type": "node", "id": 2722864631, "lat": 52.5108807, "lon": 13.24486}, {"type": "node", "id": 2722864632, "lat": 52.5114369, "lon": 13.245621}, {"type": "node", "id": 2722864633, "lat": 52.5110132, "lon": 13.2452573}, {"type": "node", "id": 2722864634, "lat": 52.5098763, "lon": 13.2431184}, {"type": "node", "id": 2722864637, "lat": 52.5099406, "lon": 13.2429667}, {"type": "node", "id": 2722864640, "lat": 52.5109969, "lon": 13.2452251}, {"type": "node", "id": 2722868481, "lat": 52.5099084, "lon": 13.2429996}, {"type": "node", "id": 2722868484, "lat": 52.510047, "lon": 13.242923}, {"type": "node", "id": 2722953768, "lat": 52.5088764, "lon": 13.2511133}, {"type": "node", "id": 2722953771, "lat": 52.5083711, "lon": 13.251206}, {"type": "node", "id": 2722953773, "lat": 52.5083913, "lon": 13.2511678}, {"type": "node", "id": 2722953776, "lat": 52.5091837, "lon": 13.2511506}, {"type": "node", "id": 2722953778, "lat": 52.5092656, "lon": 13.2525438}, {"type": "node", "id": 2722970663, "lat": 52.5098242, "lon": 13.255277, "tags": {"addr:city": "Berlin", "addr:country": "DE", "addr:housenumber": "26", "addr:postcode": "14055", "addr:street": "Sensburger Allee", "addr:suburb": "Westend", "air_conditioning": "yes", "amenity": "cafe", "contact:email": "cafe.benjamine@gmail.com", "contact:phone": "+49 30 23592503", "contact:website": "https://www.cafebenjamine.de/", "cuisine": "coffee_shop", "indoor_seating": "yes", "internet_access": "no", "name": "Caf\u00e9 Benjamine", "opening_hours": "We-Mo 10:00-18:00, Tu closed", "operator": "JAMAMA GmbH", "outdoor_seating": "yes", "payment:credit_cards": "yes", "payment:debit_cards": "yes", "smoking": "no", "wheelchair": "limited"}}, {"type": "node", "id": 2723150857, "lat": 52.5023234, "lon": 13.2583776}, {"type": "node", "id": 2723150859, "lat": 52.5024072, "lon": 13.2582078}, {"type": "node", "id": 2723150860, "lat": 52.5025609, "lon": 13.2584125}, {"type": "node", "id": 2723150862, "lat": 52.5024771, "lon": 13.2585822}, {"type": "node", "id": 2822029842, "lat": 52.5165273, "lon": 13.2582009, "tags": {"addr:city": "Berlin", "addr:country": "DE", "addr:housenumber": "10", "addr:postcode": "14052", "addr:street": "Olympische Stra\u00dfe", "addr:suburb": "Westend", "amenity": "doctors", "fax": "+49 30 30108103", "healthcare": "doctor", "healthcare:speciality": "general", "name": "Praxis Neuweiler", "phone": "+49 30 3051003", "website": "https://www.praxis-neuweiler.de/"}}, {"type": "node", "id": 2896332940, "lat": 52.512812, "lon": 13.2439419, "tags": {"addr:city": "Berlin", "addr:postcode": "14053", "addr:street": "Trakehner Allee", "addr:suburb": "Westend", "amenity": "fast_food", "name": "Wurstmax", "name:ja": "\u30f4\u30eb\u30b9\u30c8\u30de\u30c3\u30af\u30b9", "opening_hours": "\"extremly unsteady\""}}, {"type": "node", "id": 2917780974, "lat": 52.5096681, "lon": 13.2664777, "tags": {"addr:city": "Berlin", "addr:country": "DE", "addr:housenumber": "1", "addr:postcode": "14052", "addr:street": "W\u00fcrttembergallee", "addr:suburb": "Westend", "amenity": "dentist", "check_date:opening_hours": "2022-09-02", "healthcare": "dentist", "name": "G\u00f6pner + G\u00f6pner | Stefan Gerlach", "opening_hours": "Mo-Th 09:00-18:00; Fr 08:00-13:00", "source": "Geoportal Berlin / Hauskoordinaten", "wheelchair": "no"}}, {"type": "node", "id": 2969408837, "lat": 52.5205622, "lon": 13.2675229, "tags": {"addr:city": "Berlin", "addr:country": "DE", "addr:housenumber": "170", "addr:postcode": "14050", "addr:street": "Spandauer Damm", "addr:suburb": "Westend", "amenity": "restaurant", "cuisine": "pizza", "name": "Pizzeria da Matteo", "opening_hours": "Tu-Sa 13:00-20:00; Su 12:00-20:00", "phone": "+49 3024356301", "source": "Geoportal Berlin / Hauskoordinaten"}}, {"type": "node", "id": 3046728113, "lat": 52.5207515, "lon": 13.2555742}, {"type": "node", "id": 3046728139, "lat": 52.5208081, "lon": 13.2554747}, {"type": "node", "id": 3046728177, "lat": 52.5209187, "lon": 13.2558584}, {"type": "node", "id": 3046728195, "lat": 52.5209783, "lon": 13.2557641}, {"type": "node", "id": 3046799216, "lat": 52.5168281, "lon": 13.2713033}, {"type": "node", "id": 3046799223, "lat": 52.5169477, "lon": 13.27062}, {"type": "node", "id": 3046799227, "lat": 52.5170202, "lon": 13.2713934}, {"type": "node", "id": 3046799230, "lat": 52.5170619, "lon": 13.2713541}, {"type": "node", "id": 3046799340, "lat": 52.5171755, "lon": 13.2707258}, {"type": "node", "id": 3046902040, "lat": 52.5186148, "lon": 13.2798599}, {"type": "node", "id": 3046902044, "lat": 52.5185327, "lon": 13.2797071}, {"type": "node", "id": 3046902046, "lat": 52.5185406, "lon": 13.2797399}, {"type": "node", "id": 3046902047, "lat": 52.5185409, "lon": 13.2797614}, {"type": "node", "id": 3046902048, "lat": 52.5185419, "lon": 13.2797056}, {"type": "node", "id": 3046902049, "lat": 52.5185427, "lon": 13.2797187}, {"type": "node", "id": 3046902050, "lat": 52.5185438, "lon": 13.2797824}, {"type": "node", "id": 3046902052, "lat": 52.518549, "lon": 13.2798021}, {"type": "node", "id": 3046902053, "lat": 52.5185565, "lon": 13.2798198}, {"type": "node", "id": 3046902055, "lat": 52.5185658, "lon": 13.279835}, {"type": "node", "id": 3046902059, "lat": 52.5185768, "lon": 13.2798469}, {"type": "node", "id": 3046902062, "lat": 52.5185889, "lon": 13.2798552}, {"type": "node", "id": 3046902067, "lat": 52.5186017, "lon": 13.2798596}, {"type": "node", "id": 3046902076, "lat": 52.5186277, "lon": 13.2798562}, {"type": "node", "id": 3046902081, "lat": 52.51864, "lon": 13.2798486}, {"type": "node", "id": 3046902086, "lat": 52.5186472, "lon": 13.2798469}, {"type": "node", "id": 3046902087, "lat": 52.5186482, "lon": 13.2798627}, {"type": "node", "id": 3046902097, "lat": 52.5186748, "lon": 13.2798586}, {"type": "node", "id": 3046935982, "lat": 52.5172887, "lon": 13.2799283}, {"type": "node", "id": 3046935987, "lat": 52.5173515, "lon": 13.2802641}, {"type": "node", "id": 3047048626, "lat": 52.518826, "lon": 13.2798322}, {"type": "node", "id": 3047048636, "lat": 52.5195308, "lon": 13.2798304}, {"type": "node", "id": 3047048644, "lat": 52.5198383, "lon": 13.2798634}, {"type": "node", "id": 3059314271, "lat": 52.5105924, "lon": 13.270895, "tags": {"amenity": "dentist", "healthcare": "dentist", "name": "Dr. med. dent. Marcus Nowak", "opening_hours": "Mo 08:00-19:00; Tu-Th 08:00-20:00; Fr 08:00-16:00; Sa 10:00-15:00"}}, {"type": "node", "id": 3062758737, "lat": 52.503239, "lon": 13.2640451}, {"type": "node", "id": 3062758738, "lat": 52.503274, "lon": 13.2642909}, {"type": "node", "id": 3062758739, "lat": 52.5034394, "lon": 13.2639681}, {"type": "node", "id": 3062758740, "lat": 52.5034744, "lon": 13.2642139}, {"type": "node", "id": 3062860284, "lat": 52.502687, "lon": 13.263174, "tags": {"addr:city": "Berlin", "addr:housenumber": "14", "addr:postcode": "14055", "addr:street": "Harbigstra\u00dfe", "amenity": "bar", "name": "Barkamp", "website": "https://eichkamp.rocks/events"}}, {"type": "node", "id": 3166299957, "lat": 52.5103982, "lon": 13.2712122, "tags": {"addr:city": "Berlin", "addr:country": "DE", "addr:housenumber": "1", "addr:postcode": "14052", "addr:street": "Reichsstra\u00dfe", "addr:suburb": "Westend", "check_date:opening_hours": "2024-06-07", "contact:phone": "+49 30 46601717", "contact:website": "http://www.blasenzentrum.de/", "description": "Facharztpraxis f\u00fcr Urologie - Dr. med Elke He\u00dfd\u00f6rfer", "healthcare": "doctor", "healthcare:speciality": "urology", "name": "Blasenzentrum Westend", "opening_hours:signed": "no"}}, {"type": "node", "id": 3211608034, "lat": 52.5118987, "lon": 13.2409092}, {"type": "node", "id": 3220715909, "lat": 52.5138071, "lon": 13.2788139, "tags": {"addr:city": "Berlin", "addr:country": "DE", "addr:housenumber": "20", "addr:postcode": "14050", "addr:street": "Haeselerstra\u00dfe", "addr:suburb": "Westend", "amenity": "cafe", "name": "Caf\u00e9 September", "phone": "+49 30 98365094", "wheelchair": "limited"}}, {"type": "node", "id": 3330737658, "lat": 52.520984, "lon": 13.2771597, "tags": {"amenity": "cafe", "name": "Caf\u00e9 Bistro", "opening_hours": "Mo-Fr 08:00-17:00; Sa,Su 13:00-17:00; PH 13:00-17:00", "wheelchair": "yes"}}, {"type": "node", "id": 3330737659, "lat": 52.521081, "lon": 13.2771878, "tags": {"amenity": "doctors", "healthcare": "doctor", "name": "Durchgangsarzt"}}, {"type": "node", "id": 3553751718, "lat": 52.5055489, "lon": 13.2418157}, {"type": "node", "id": 3553751719, "lat": 52.50555, "lon": 13.2418262}, {"type": "node", "id": 3553751720, "lat": 52.5055504, "lon": 13.2418053}, {"type": "node", "id": 3553751721, "lat": 52.5055534, "lon": 13.2418353}, {"type": "node", "id": 3553751722, "lat": 52.5055542, "lon": 13.2417967}, {"type": "node", "id": 3553751725, "lat": 52.5055587, "lon": 13.2418416}, {"type": "node", "id": 3553751726, "lat": 52.5055598, "lon": 13.241791}, {"type": "node", "id": 3553751727, "lat": 52.505565, "lon": 13.2418441}, {"type": "node", "id": 3553751729, "lat": 52.5055662, "lon": 13.2417893}, {"type": "node", "id": 3553751731, "lat": 52.5055714, "lon": 13.2418424}, {"type": "node", "id": 3553751732, "lat": 52.5055725, "lon": 13.2417918}, {"type": "node", "id": 3553751735, "lat": 52.5055769, "lon": 13.2418367}, {"type": "node", "id": 3553751736, "lat": 52.5055778, "lon": 13.2417981}, {"type": "node", "id": 3553751737, "lat": 52.5055807, "lon": 13.2418281}, {"type": "node", "id": 3553751738, "lat": 52.5055812, "lon": 13.2418072}, {"type": "node", "id": 3553751739, "lat": 52.5055822, "lon": 13.2418177}, {"type": "node", "id": 3664889046, "lat": 52.5076338, "lon": 13.2577989}, {"type": "node", "id": 3664889049, "lat": 52.5077821, "lon": 13.2576162}, {"type": "node", "id": 3664889051, "lat": 52.5080005, "lon": 13.2582817}, {"type": "node", "id": 3664889052, "lat": 52.5081089, "lon": 13.2580615}, {"type": "node", "id": 3665698579, "lat": 52.5004886, "lon": 13.2635093}, {"type": "node", "id": 3665698588, "lat": 52.5011149, "lon": 13.2621804}, {"type": "node", "id": 3665698589, "lat": 52.5012379, "lon": 13.2631283}, {"type": "node", "id": 3665698594, "lat": 52.5014671, "lon": 13.2626361}, {"type": "node", "id": 3724189398, "lat": 52.5087667, "lon": 13.2584086}, {"type": "node", "id": 3792270138, "lat": 52.508934, "lon": 13.2732183}, {"type": "node", "id": 3792270139, "lat": 52.5090408, "lon": 13.2734396}, {"type": "node", "id": 3792270140, "lat": 52.5095192, "lon": 13.2736389}, {"type": "node", "id": 3792273963, "lat": 52.5098774, "lon": 13.2721039}, {"type": "node", "id": 3792342200, "lat": 52.5089504, "lon": 13.2723631}, {"type": "node", "id": 3792342201, "lat": 52.509004, "lon": 13.2720212}, {"type": "node", "id": 3792342202, "lat": 52.5090932, "lon": 13.2716934}, {"type": "node", "id": 3792342203, "lat": 52.5093067, "lon": 13.2714949}, {"type": "node", "id": 3816959383, "lat": 52.5093108, "lon": 13.2735968}, {"type": "node", "id": 3816959421, "lat": 52.5096743, "lon": 13.2733798, "tags": {"barrier": "kerb", "kerb": "lowered", "tactile_paving": "yes"}}, {"type": "node", "id": 3816959430, "lat": 52.5090921, "lon": 13.2734866}, {"type": "node", "id": 3816966889, "lat": 52.5096815, "lon": 13.2733405}, {"type": "node", "id": 3816966894, "lat": 52.509801, "lon": 13.2717658}, {"type": "node", "id": 3817027991, "lat": 52.5097695, "lon": 13.2717161}, {"type": "node", "id": 4118559155, "lat": 52.5109612, "lon": 13.283, "tags": {"addr:city": "Berlin", "addr:housenumber": "29", "addr:postcode": "14059", "addr:street": "Fredericiastra\u00dfe", "healthcare": "physiotherapist", "level": "0", "name": "Karin Drongowski Physiotherapie", "note": "Krankengymnastik", "opening_hours": "\"nach Vereinbahrung\"", "phone": "+49 30 3027892", "website": "http://www.drongowski.com/", "wheelchair": "yes"}}, {"type": "node", "id": 4218709865, "lat": 52.5099434, "lon": 13.2435689}, {"type": "node", "id": 4218709866, "lat": 52.5100915, "lon": 13.2435667}, {"type": "node", "id": 4218709867, "lat": 52.510122, "lon": 13.2429022}, {"type": "node", "id": 4218709869, "lat": 52.5102438, "lon": 13.2435646}, {"type": "node", "id": 4218709870, "lat": 52.5103572, "lon": 13.2429748}, {"type": "node", "id": 4231726902, "lat": 52.5122367, "lon": 13.2680681, "tags": {"addr:city": "Berlin", "addr:country": "DE", "addr:housenumber": "9", "addr:postcode": "14052", "addr:street": "Reichsstra\u00dfe", "addr:suburb": "Westend", "amenity": "restaurant", "cuisine": "italian", "name": "Via Vai", "opening_hours": "Mo-Fr 09:00-20:00; Sa 09:00-16:00", "phone": "+49 30 3047741", "wheelchair": "no"}}, {"type": "node", "id": 4259417431, "lat": 52.510268, "lon": 13.2822504, "tags": {"amenity": "cafe", "name": "Caf\u00e9 Non", "opening_hours": "Mo-Fr 07:00-19:00; Sa 08:30-17:30"}}, {"type": "node", "id": 4259417432, "lat": 52.5102778, "lon": 13.2823556, "tags": {"addr:city": "Berlin", "addr:postcode": "14057", "addr:street": "Kaiserdamm", "amenity": "restaurant", "cuisine": "vietnamese", "diet:vegan": "yes", "diet:vegetarian": "yes", "indoor_seating": "yes", "name": "T. Viet", "opening_hours": "Mo-Fr 11:00-22:00; Sa,Su,PH 12:00-22:00", "outdoor_seating": "yes", "payment:credit_cards": "yes", "payment:debit_cards": "yes", "toilets:wheelchair": "yes", "wheelchair": "limited"}}, {"type": "node", "id": 4286770645, "lat": 52.5114409, "lon": 13.2575907}, {"type": "node", "id": 4301002392, "lat": 52.5159575, "lon": 13.2606877, "tags": {"addr:housenumber": "81", "addr:postcode": "14052", "addr:street": "Reichsstra\u00dfe", "amenity": "doctors", "healthcare": "doctor", "healthcare:speciality": "general", "name": "Dr. med. Petra Sandow", "opening_hours": "Mo,Tu,Th 09:00-13:00,15:00-18:00; We 09:00-12:00; Fr 09:00-13:00", "phone": "+49 30 3042823", "wheelchair": "no"}}, {"type": "node", "id": 4368477789, "lat": 52.5098553, "lon": 13.2832082, "tags": {"addr:city": "Berlin", "addr:housenumber": "90", "addr:postcode": "14057", "addr:street": "Kaiserdamm", "amenity": "cafe", "name": "chicco di caffe", "toilets:wheelchair": "yes", "website": "https://www.chicco-di-caffe.de/", "wheelchair": "yes", "wheelchair:description": "Caf\u00e9bar in der BMW Niederlassung Berlin, Snacks und Getr\u00e4nke, Pl\u00e4tze drau\u00dfen bei sch\u00f6nem Wetter"}}, {"type": "node", "id": 4543892499, "lat": 52.5087803, "lon": 13.258648}, {"type": "node", "id": 4543892503, "lat": 52.5087829, "lon": 13.2586939}, {"type": "node", "id": 4543892504, "lat": 52.5087897, "lon": 13.258814}, {"type": "node", "id": 4543892507, "lat": 52.5087926, "lon": 13.2588663}, {"type": "node", "id": 4543892508, "lat": 52.5087994, "lon": 13.2589859}, {"type": "node", "id": 4543892509, "lat": 52.5088778, "lon": 13.2589714}, {"type": "node", "id": 4543892512, "lat": 52.5089519, "lon": 13.2589578}, {"type": "node", "id": 4543892513, "lat": 52.5090311, "lon": 13.2589431}, {"type": "node", "id": 4750521349, "lat": 52.5100946, "lon": 13.2778045, "tags": {"amenity": "fast_food", "cuisine": "kebab", "diet:halal": "yes", "name": "Eat&GO"}}, {"type": "node", "id": 4855467147, "lat": 52.5236903, "lon": 13.2413203}, {"type": "node", "id": 4855467148, "lat": 52.5237704, "lon": 13.2416537}, {"type": "node", "id": 4855467149, "lat": 52.5237957, "lon": 13.2416465}, {"type": "node", "id": 4855467150, "lat": 52.5239221, "lon": 13.2412256}, {"type": "node", "id": 4855467151, "lat": 52.5239627, "lon": 13.241418}, {"type": "node", "id": 4927315477, "lat": 52.5109245, "lon": 13.2792909, "tags": {"addr:city": "Berlin", "addr:housenumber": "11", "addr:postcode": "14050", "addr:street": "Fredericiastra\u00dfe", "amenity": "restaurant", "name": "Bierstube Zur Elf", "opening_hours": "Mo-Sa 11:00-23:00"}}, {"type": "node", "id": 4951233738, "lat": 52.4957862, "lon": 13.2662903}, {"type": "node", "id": 4951233739, "lat": 52.4957213, "lon": 13.2662098}, {"type": "node", "id": 4951233740, "lat": 52.4957569, "lon": 13.2661416}, {"type": "node", "id": 4951233743, "lat": 52.4963267, "lon": 13.2642487}, {"type": "node", "id": 4951233744, "lat": 52.4960763, "lon": 13.2638955}, {"type": "node", "id": 4951233745, "lat": 52.496132, "lon": 13.26378}, {"type": "node", "id": 4951233746, "lat": 52.4961541, "lon": 13.2637843}, {"type": "node", "id": 4951233747, "lat": 52.4962094, "lon": 13.2638608}, {"type": "node", "id": 4951233748, "lat": 52.4962673, "lon": 13.2639519}, {"type": "node", "id": 4951233749, "lat": 52.4963693, "lon": 13.2641492}, {"type": "node", "id": 5005890283, "lat": 52.5209804, "lon": 13.2560197, "tags": {"amenity": "restaurant", "cuisine": "regional;german", "delivery": "no", "name": "Der Balken", "opening_hours": "Mo 13:00-24:00; We-Fr 13:00-24:00; Sa-Su 12:00-24:00", "outdoor_seating": "yes"}}, {"type": "node", "id": 5022310299, "lat": 52.509235, "lon": 13.2226002}, {"type": "node", "id": 5022310300, "lat": 52.5092366, "lon": 13.2225342}, {"type": "node", "id": 5022310301, "lat": 52.509193, "lon": 13.2226603}, {"type": "node", "id": 5022310302, "lat": 52.5091733, "lon": 13.222754}, {"type": "node", "id": 5022310303, "lat": 52.5091017, "lon": 13.222731}, {"type": "node", "id": 5022310304, "lat": 52.5091193, "lon": 13.2226308}, {"type": "node", "id": 5022310305, "lat": 52.5090325, "lon": 13.2225976}, {"type": "node", "id": 5022310306, "lat": 52.5090517, "lon": 13.2224746}, {"type": "node", "id": 5022310307, "lat": 52.5091328, "lon": 13.2225168}, {"type": "node", "id": 5022310308, "lat": 52.5091469, "lon": 13.2224481}, {"type": "node", "id": 5022310309, "lat": 52.5092201, "lon": 13.2224895}, {"type": "node", "id": 5257308475, "lat": 52.5108086, "lon": 13.241122}, {"type": "node", "id": 5257308477, "lat": 52.5107722, "lon": 13.2411277}, {"type": "node", "id": 5257308478, "lat": 52.5107867, "lon": 13.2411344}, {"type": "node", "id": 5320567561, "lat": 52.4894054, "lon": 13.2615368}, {"type": "node", "id": 5320567562, "lat": 52.4893988, "lon": 13.2615492}, {"type": "node", "id": 5320567563, "lat": 52.4893467, "lon": 13.2614739}, {"type": "node", "id": 5320567564, "lat": 52.4892946, "lon": 13.2615711}, {"type": "node", "id": 5320567565, "lat": 52.4893691, "lon": 13.2616787}, {"type": "node", "id": 5320567566, "lat": 52.4894278, "lon": 13.2615691}, {"type": "node", "id": 5372922668, "lat": 52.5184789, "lon": 13.2543921}, {"type": "node", "id": 5372922669, "lat": 52.5183112, "lon": 13.2547976}, {"type": "node", "id": 5372922670, "lat": 52.5182551, "lon": 13.2548144}, {"type": "node", "id": 5372922671, "lat": 52.5183033, "lon": 13.2543293}, {"type": "node", "id": 5372922672, "lat": 52.5184697, "lon": 13.2542782}, {"type": "node", "id": 5372922970, "lat": 52.5181577, "lon": 13.2543804}, {"type": "node", "id": 5372922971, "lat": 52.5181557, "lon": 13.2543549}, {"type": "node", "id": 5372922972, "lat": 52.518161, "lon": 13.2543356}, {"type": "node", "id": 5372922973, "lat": 52.5181735, "lon": 13.2543209}, {"type": "node", "id": 5372922974, "lat": 52.5191954, "lon": 13.2539636}, {"type": "node", "id": 5372922975, "lat": 52.5192135, "lon": 13.2539707}, {"type": "node", "id": 5372922976, "lat": 52.5192283, "lon": 13.2539933}, {"type": "node", "id": 5372922977, "lat": 52.5192314, "lon": 13.2540135}, {"type": "node", "id": 5372922978, "lat": 52.5192383, "lon": 13.2540826}, {"type": "node", "id": 5372922979, "lat": 52.5192551, "lon": 13.2542317}, {"type": "node", "id": 5372922980, "lat": 52.5192752, "lon": 13.2543917}, {"type": "node", "id": 5372922981, "lat": 52.5192949, "lon": 13.2545274}, {"type": "node", "id": 5372922982, "lat": 52.5193298, "lon": 13.254734}, {"type": "node", "id": 5372922983, "lat": 52.5193726, "lon": 13.2549447}, {"type": "node", "id": 5372922984, "lat": 52.5194259, "lon": 13.2551663}, {"type": "node", "id": 5372922985, "lat": 52.519472, "lon": 13.2553351}, {"type": "node", "id": 5372922986, "lat": 52.5195332, "lon": 13.2555349}, {"type": "node", "id": 5372922987, "lat": 52.5196132, "lon": 13.2557687}, {"type": "node", "id": 5372922988, "lat": 52.5196316, "lon": 13.2558202}, {"type": "node", "id": 5372922989, "lat": 52.5196339, "lon": 13.2558445}, {"type": "node", "id": 5372922990, "lat": 52.5196308, "lon": 13.2558725}, {"type": "node", "id": 5372922991, "lat": 52.5196285, "lon": 13.2558839}, {"type": "node", "id": 5372922992, "lat": 52.5188016, "lon": 13.2569655}, {"type": "node", "id": 5372922993, "lat": 52.5187881, "lon": 13.2569667}, {"type": "node", "id": 5372922994, "lat": 52.5187772, "lon": 13.2569604}, {"type": "node", "id": 5372922995, "lat": 52.518767, "lon": 13.256942}, {"type": "node", "id": 5372922996, "lat": 52.5187455, "lon": 13.2568905}, {"type": "node", "id": 5372922997, "lat": 52.5186449, "lon": 13.2566203}, {"type": "node", "id": 5372922998, "lat": 52.518559, "lon": 13.2563685}, {"type": "node", "id": 5372922999, "lat": 52.5184623, "lon": 13.2560447}, {"type": "node", "id": 5372923000, "lat": 52.5183943, "lon": 13.2557833}, {"type": "node", "id": 5372923001, "lat": 52.5183448, "lon": 13.255573}, {"type": "node", "id": 5372923002, "lat": 52.5182898, "lon": 13.2553062}, {"type": "node", "id": 5372923003, "lat": 52.5182411, "lon": 13.2550272}, {"type": "node", "id": 5372923004, "lat": 52.5182113, "lon": 13.2548245}, {"type": "node", "id": 5372923044, "lat": 52.5199263, "lon": 13.2560208}, {"type": "node", "id": 5372923045, "lat": 52.5199104, "lon": 13.2560385}, {"type": "node", "id": 5372923333, "lat": 52.5183071, "lon": 13.2543599}, {"type": "node", "id": 5372923334, "lat": 52.5182518, "lon": 13.2543779}, {"type": "node", "id": 5372923335, "lat": 52.5182299, "lon": 13.2546225}, {"type": "node", "id": 5372923336, "lat": 52.5181858, "lon": 13.2546351}, {"type": "node", "id": 5372923337, "lat": 52.5181677, "lon": 13.2544705}, {"type": "node", "id": 5372923338, "lat": 52.5182136, "lon": 13.2544759}, {"type": "node", "id": 5372931359, "lat": 52.5215593, "lon": 13.2522851}, {"type": "node", "id": 5372931360, "lat": 52.5215928, "lon": 13.2521892}, {"type": "node", "id": 5372931361, "lat": 52.5216201, "lon": 13.2521215}, {"type": "node", "id": 5372931362, "lat": 52.5216505, "lon": 13.2520538}, {"type": "node", "id": 5372931363, "lat": 52.5216836, "lon": 13.2519884}, {"type": "node", "id": 5372931364, "lat": 52.5217081, "lon": 13.2519512}, {"type": "node", "id": 5372931365, "lat": 52.5217219, "lon": 13.2519364}, {"type": "node", "id": 5372931366, "lat": 52.5217364, "lon": 13.2519314}, {"type": "node", "id": 5372931367, "lat": 52.5217509, "lon": 13.2519324}, {"type": "node", "id": 5372931368, "lat": 52.5217652, "lon": 13.2519431}, {"type": "node", "id": 5372931369, "lat": 52.5217766, "lon": 13.2519619}, {"type": "node", "id": 5372931370, "lat": 52.5217831, "lon": 13.2519874}, {"type": "node", "id": 5372931371, "lat": 52.5217815, "lon": 13.2520176}, {"type": "node", "id": 5372931372, "lat": 52.5217772, "lon": 13.2520363}, {"type": "node", "id": 5372931373, "lat": 52.5217631, "lon": 13.2520819}, {"type": "node", "id": 5372931374, "lat": 52.5210134, "lon": 13.2544722}, {"type": "node", "id": 5372931375, "lat": 52.520993, "lon": 13.2545234}, {"type": "node", "id": 5372931377, "lat": 52.5209592, "lon": 13.2546033}, {"type": "node", "id": 5372931378, "lat": 52.5209345, "lon": 13.2546538}, {"type": "node", "id": 5372931388, "lat": 52.5208535, "lon": 13.2545174}, {"type": "node", "id": 5372931389, "lat": 52.5208671, "lon": 13.2544845}, {"type": "node", "id": 5372931390, "lat": 52.5208776, "lon": 13.2544577}, {"type": "node", "id": 5372931391, "lat": 52.5208884, "lon": 13.2544255}, {"type": "node", "id": 5372931392, "lat": 52.521214, "lon": 13.2533842}, {"type": "node", "id": 5372931406, "lat": 52.5213237, "lon": 13.2534874}, {"type": "node", "id": 5373733708, "lat": 52.5071593, "lon": 13.2422644}, {"type": "node", "id": 5373733709, "lat": 52.5070139, "lon": 13.2422154}, {"type": "node", "id": 5373733710, "lat": 52.5065189, "lon": 13.2417148}, {"type": "node", "id": 5373733711, "lat": 52.5067959, "lon": 13.242024}, {"type": "node", "id": 5373733712, "lat": 52.5072801, "lon": 13.2422718}, {"type": "node", "id": 5373733713, "lat": 52.5065378, "lon": 13.2418688}, {"type": "node", "id": 5373733714, "lat": 52.5069037, "lon": 13.2421352}, {"type": "node", "id": 5373733716, "lat": 52.5065251, "lon": 13.2426923}, {"type": "node", "id": 5373733717, "lat": 52.5065517, "lon": 13.2421322}, {"type": "node", "id": 5373733718, "lat": 52.5066902, "lon": 13.2418502}, {"type": "node", "id": 5373733719, "lat": 52.5064981, "lon": 13.2428923}, {"type": "node", "id": 5373733720, "lat": 52.5065881, "lon": 13.2416507}, {"type": "node", "id": 5373734822, "lat": 52.506543, "lon": 13.2425158}, {"type": "node", "id": 5373734851, "lat": 52.5060375, "lon": 13.2281127}, {"type": "node", "id": 5373734852, "lat": 52.5060365, "lon": 13.2280929}, {"type": "node", "id": 5373734853, "lat": 52.5060124, "lon": 13.2280939}, {"type": "node", "id": 5373734854, "lat": 52.5060138, "lon": 13.2281488}, {"type": "node", "id": 5373734855, "lat": 52.506021, "lon": 13.2281782}, {"type": "node", "id": 5373734856, "lat": 52.5060405, "lon": 13.2282269}, {"type": "node", "id": 5448630032, "lat": 52.5234273, "lon": 13.2805463}, {"type": "node", "id": 5472908388, "lat": 52.5119062, "lon": 13.2409606}, {"type": "node", "id": 5472908389, "lat": 52.5119682, "lon": 13.2409328}, {"type": "node", "id": 5472908390, "lat": 52.5119611, "lon": 13.2408874}, {"type": "node", "id": 5472908398, "lat": 52.5117488, "lon": 13.2409184}, {"type": "node", "id": 5472908399, "lat": 52.5117379, "lon": 13.2408369}, {"type": "node", "id": 5472935297, "lat": 52.5119482, "lon": 13.2407479}, {"type": "node", "id": 5472935298, "lat": 52.5119212, "lon": 13.24072}, {"type": "node", "id": 5542479187, "lat": 52.4985122, "lon": 13.2572863, "tags": {"addr:city": "Berlin", "addr:country": "DE", "addr:housenumber": "40", "addr:postcode": "14055", "addr:street": "Harbigstra\u00dfe", "addr:suburb": "Westend", "amenity": "restaurant", "capacity": "100", "name": "Makkabi Club", "source": "Geoportal Berlin / Hauskoordinaten"}}, {"type": "node", "id": 5564869063, "lat": 52.5117232, "lon": 13.2691915, "tags": {"amenity": "pub", "check_date:opening_hours": "2024-05-05", "indoor_seating": "yes", "name": "Westend-Pinte", "opening_hours": "Mo-Su 11:00-03:00", "outdoor_seating": "yes", "smoking": "yes"}}, {"type": "node", "id": 5619070387, "lat": 52.5140478, "lon": 13.2640212, "tags": {"addr:city": "Berlin", "addr:country": "DE", "addr:housenumber": "89", "addr:postcode": "14052", "addr:street": "Reichsstra\u00dfe", "addr:suburb": "Westend", "amenity": "cafe", "cuisine": "bistro", "diet:vegetarian": "yes", "email": "info@annastogo.de", "indoor_seating": "yes", "name": "ANNA`s ToGo", "opening_hours": "Mo-Fr 09:00-15:00", "outdoor_seating": "yes", "phone": "+493050965903", "smoking": "no", "website": "https://www.annastogo.de/", "wheelchair": "no"}}, {"type": "node", "id": 5639479998, "lat": 52.5135131, "lon": 13.2805668}, {"type": "node", "id": 5639479999, "lat": 52.5135242, "lon": 13.2807757}, {"type": "node", "id": 5639480000, "lat": 52.5133348, "lon": 13.2808007}, {"type": "node", "id": 5639480001, "lat": 52.5133251, "lon": 13.2805918}, {"type": "node", "id": 5727115591, "lat": 52.5071986, "lon": 13.2319918}, {"type": "node", "id": 5727115592, "lat": 52.5071696, "lon": 13.2320211}, {"type": "node", "id": 5727115593, "lat": 52.5071503, "lon": 13.2320907}, {"type": "node", "id": 5727115744, "lat": 52.5082071, "lon": 13.2319573}, {"type": "node", "id": 5727115746, "lat": 52.5083641, "lon": 13.2350599}, {"type": "node", "id": 5727115747, "lat": 52.5073831, "lon": 13.2350881}, {"type": "node", "id": 5727115748, "lat": 52.5073746, "lon": 13.2350881}, {"type": "node", "id": 5727115749, "lat": 52.5073729, "lon": 13.2350593}, {"type": "node", "id": 5727115750, "lat": 52.5073643, "lon": 13.2350573}, {"type": "node", "id": 5727115751, "lat": 52.5073431, "lon": 13.2346711}, {"type": "node", "id": 5727115752, "lat": 52.5073072, "lon": 13.2346684}, {"type": "node", "id": 5727116200, "lat": 52.5102818, "lon": 13.2401475}, {"type": "node", "id": 5727116205, "lat": 52.5102837, "lon": 13.2401604}, {"type": "node", "id": 5727116206, "lat": 52.5102663, "lon": 13.240046}, {"type": "node", "id": 5727116209, "lat": 52.5103429, "lon": 13.2405552}, {"type": "node", "id": 5727116210, "lat": 52.5103163, "lon": 13.2403776}, {"type": "node", "id": 5782596487, "lat": 52.5168054, "lon": 13.2617468, "tags": {"amenity": "cafe", "indoor_seating": "yes", "name": "a modo tuo", "outdoor_seating": "yes"}}, {"type": "node", "id": 5782596489, "lat": 52.5181314, "lon": 13.258688, "tags": {"healthcare": "physiotherapist", "name": "Melius"}}, {"type": "node", "id": 5859194719, "lat": 52.5108926, "lon": 13.2572527}, {"type": "node", "id": 5859194720, "lat": 52.5108926, "lon": 13.2573524}, {"type": "node", "id": 5859194721, "lat": 52.5107055, "lon": 13.2574988}, {"type": "node", "id": 5859194722, "lat": 52.5106148, "lon": 13.2574771}, {"type": "node", "id": 5859194723, "lat": 52.5105905, "lon": 13.2573974}, {"type": "node", "id": 5859194724, "lat": 52.5106343, "lon": 13.2572467}, {"type": "node", "id": 5859194725, "lat": 52.5107218, "lon": 13.2570578}, {"type": "node", "id": 5859194726, "lat": 52.5108679, "lon": 13.257186}, {"type": "node", "id": 5859194727, "lat": 52.5109812, "lon": 13.2570959}, {"type": "node", "id": 5859194728, "lat": 52.5110092, "lon": 13.2575239}, {"type": "node", "id": 5859194729, "lat": 52.5104877, "lon": 13.257607}, {"type": "node", "id": 5859194730, "lat": 52.5104835, "lon": 13.257484}, {"type": "node", "id": 5859194731, "lat": 52.5104851, "lon": 13.2574165}, {"type": "node", "id": 5859194732, "lat": 52.510494, "lon": 13.2573316}, {"type": "node", "id": 5859194733, "lat": 52.5105099, "lon": 13.2572345}, {"type": "node", "id": 5859194734, "lat": 52.5105352, "lon": 13.2571427}, {"type": "node", "id": 5859194735, "lat": 52.5105615, "lon": 13.2570665}, {"type": "node", "id": 5859194736, "lat": 52.5106, "lon": 13.2569928}, {"type": "node", "id": 5859194737, "lat": 52.5106575, "lon": 13.2568923}, {"type": "node", "id": 5859194738, "lat": 52.5107197, "lon": 13.2568239}, {"type": "node", "id": 5859194739, "lat": 52.5107798, "lon": 13.2567771}, {"type": "node", "id": 5859194740, "lat": 52.5108884, "lon": 13.2567087}, {"type": "node", "id": 5859210129, "lat": 52.5094498, "lon": 13.2416535}, {"type": "node", "id": 5859210131, "lat": 52.5095348, "lon": 13.2422286}, {"type": "node", "id": 5859243376, "lat": 52.5096629, "lon": 13.2429003}, {"type": "node", "id": 5859243377, "lat": 52.5096206, "lon": 13.2429426}, {"type": "node", "id": 5859243378, "lat": 52.5095585, "lon": 13.2429875}, {"type": "node", "id": 5859243379, "lat": 52.5094641, "lon": 13.2430508}, {"type": "node", "id": 5859243380, "lat": 52.5093647, "lon": 13.2430753}, {"type": "node", "id": 5859243381, "lat": 52.5093187, "lon": 13.2430222}, {"type": "node", "id": 5859243382, "lat": 52.5093349, "lon": 13.2429018}, {"type": "node", "id": 5859243383, "lat": 52.5093871, "lon": 13.242814}, {"type": "node", "id": 5859243384, "lat": 52.5094691, "lon": 13.242665}, {"type": "node", "id": 5859243985, "lat": 52.5095933, "lon": 13.2426528}, {"type": "node", "id": 5859243986, "lat": 52.5096778, "lon": 13.2427651}, {"type": "node", "id": 5859243987, "lat": 52.5113788, "lon": 13.2447827}, {"type": "node", "id": 5859243988, "lat": 52.5113481, "lon": 13.2456203}, {"type": "node", "id": 5859243989, "lat": 52.5113468, "lon": 13.2455054}, {"type": "node", "id": 5859243990, "lat": 52.5111429, "lon": 13.2454968}, {"type": "node", "id": 5859244015, "lat": 52.5094548, "lon": 13.2448633}, {"type": "node", "id": 5859244071, "lat": 52.5093274, "lon": 13.2445755}, {"type": "node", "id": 5859244072, "lat": 52.5090692, "lon": 13.2439914}, {"type": "node", "id": 5859244073, "lat": 52.5087163, "lon": 13.2431898}, {"type": "node", "id": 5859257566, "lat": 52.5088905, "lon": 13.2443417}, {"type": "node", "id": 5859257567, "lat": 52.5088413, "lon": 13.2443865}, {"type": "node", "id": 5859257568, "lat": 52.5087879, "lon": 13.2443624}, {"type": "node", "id": 5859257569, "lat": 52.5086958, "lon": 13.244242}, {"type": "node", "id": 5859257570, "lat": 52.5086173, "lon": 13.2441147}, {"type": "node", "id": 5859257571, "lat": 52.5085482, "lon": 13.2439548}, {"type": "node", "id": 5859257572, "lat": 52.5085168, "lon": 13.2436882}, {"type": "node", "id": 5859257573, "lat": 52.5085263, "lon": 13.2435283}, {"type": "node", "id": 5859257574, "lat": 52.5086037, "lon": 13.2435696}, {"type": "node", "id": 5859257575, "lat": 52.5087126, "lon": 13.2438206}, {"type": "node", "id": 5859257576, "lat": 52.5089125, "lon": 13.2442833}, {"type": "node", "id": 5909733349, "lat": 52.5060705, "lon": 13.2510916}, {"type": "node", "id": 5909733350, "lat": 52.5063381, "lon": 13.2504816}, {"type": "node", "id": 5909733351, "lat": 52.5061399, "lon": 13.2509995}, {"type": "node", "id": 5909733352, "lat": 52.506265, "lon": 13.2504487}, {"type": "node", "id": 5909733353, "lat": 52.5062309, "lon": 13.2509141}, {"type": "node", "id": 5909733354, "lat": 52.5061512, "lon": 13.2504999}, {"type": "node", "id": 5909733355, "lat": 52.5063343, "lon": 13.250833}, {"type": "node", "id": 5909733356, "lat": 52.506045, "lon": 13.2505009}, {"type": "node", "id": 5909733357, "lat": 52.5064257, "lon": 13.2507677}, {"type": "node", "id": 5909733358, "lat": 52.5058884, "lon": 13.2504968}, {"type": "node", "id": 5909733359, "lat": 52.5057454, "lon": 13.2505615}, {"type": "node", "id": 5909733360, "lat": 52.5064151, "lon": 13.2505867}, {"type": "node", "id": 5909733361, "lat": 52.5057904, "lon": 13.2512407}, {"type": "node", "id": 5909733362, "lat": 52.5059278, "lon": 13.251251}, {"type": "node", "id": 5909733363, "lat": 52.5059977, "lon": 13.251194}, {"type": "node", "id": 6164004610, "lat": 52.5097113, "lon": 13.2814631, "tags": {"addr:city": "Berlin", "addr:housenumber": "89", "addr:postcode": "14057", "addr:street": "Kaiserdamm", "addr:suburb": "Westend", "amenity": "restaurant", "cuisine": "thai", "name": "Papa Thai", "website": "https://www.quandoo.de/en/place/dinos-fusion-grill-86350?aid=63", "wheelchair": "yes"}}, {"type": "node", "id": 6187468665, "lat": 52.5116346, "lon": 13.2516347}, {"type": "node", "id": 6200355874, "lat": 52.5101972, "lon": 13.2810553, "tags": {"alt_name": "Dunkin' Donuts", "amenity": "fast_food", "brand": "Dunkin'", "brand:wikidata": "Q847743", "brand:wikipedia": "en:Dunkin' Donuts", "cuisine": "donut;coffee_shop", "indoor_seating": "yes", "name": "Dunkin'", "opening_hours": "Mo-Fr 07:00-19:30; Sa 08:00-19:30; Su 10:00-18:00", "outdoor_seating": "no", "takeaway": "yes", "wheelchair": "yes"}}, {"type": "node", "id": 6238296987, "lat": 52.5208098, "lon": 13.2548568}, {"type": "node", "id": 6238296988, "lat": 52.5208366, "lon": 13.2548086}, {"type": "node", "id": 6238296989, "lat": 52.5208354, "lon": 13.2547709}, {"type": "node", "id": 6238296990, "lat": 52.5207318, "lon": 13.2546939}, {"type": "node", "id": 6238296991, "lat": 52.5209053, "lon": 13.2546851}, {"type": "node", "id": 6238296992, "lat": 52.5208465, "lon": 13.2545301}, {"type": "node", "id": 6238296993, "lat": 52.5214471, "lon": 13.2530944}, {"type": "node", "id": 6238296994, "lat": 52.5213225, "lon": 13.2530432}, {"type": "node", "id": 6238296995, "lat": 52.5213307, "lon": 13.2534655}, {"type": "node", "id": 6238296996, "lat": 52.521337, "lon": 13.2534396}, {"type": "node", "id": 6238296997, "lat": 52.5213247, "lon": 13.2533332}, {"type": "node", "id": 6238296998, "lat": 52.5212664, "lon": 13.2533025}, {"type": "node", "id": 6238296999, "lat": 52.5212229, "lon": 13.2533526}, {"type": "node", "id": 6985643116, "lat": 52.5124347, "lon": 13.284538}, {"type": "node", "id": 6985643117, "lat": 52.51233, "lon": 13.284556}, {"type": "node", "id": 6985643118, "lat": 52.512318, "lon": 13.2843679}, {"type": "node", "id": 6985643119, "lat": 52.5124227, "lon": 13.2843499}, {"type": "node", "id": 6990281508, "lat": 52.5169403, "lon": 13.280453}, {"type": "node", "id": 6990281509, "lat": 52.5170055, "lon": 13.2804396}, {"type": "node", "id": 6990281510, "lat": 52.5170512, "lon": 13.2804253}, {"type": "node", "id": 6990281511, "lat": 52.5170904, "lon": 13.2804106}, {"type": "node", "id": 6990281512, "lat": 52.5171519, "lon": 13.2803825}, {"type": "node", "id": 6990281513, "lat": 52.5173045, "lon": 13.2798392}, {"type": "node", "id": 6990281514, "lat": 52.5168778, "lon": 13.2796352}, {"type": "node", "id": 6990281515, "lat": 52.5168809, "lon": 13.2796801}, {"type": "node", "id": 6990281516, "lat": 52.5168467, "lon": 13.2796851}, {"type": "node", "id": 6990281517, "lat": 52.5168948, "lon": 13.2804601}, {"type": "node", "id": 7063271157, "lat": 52.5157133, "lon": 13.2526581}, {"type": "node", "id": 7063271158, "lat": 52.5156555, "lon": 13.2526745}, {"type": "node", "id": 7063271159, "lat": 52.5156677, "lon": 13.252813}, {"type": "node", "id": 7063271160, "lat": 52.5157269, "lon": 13.2528012}, {"type": "node", "id": 7140959754, "lat": 52.5209011, "lon": 13.2394026}, {"type": "node", "id": 7140959755, "lat": 52.5207632, "lon": 13.2390254}, {"type": "node", "id": 7140959756, "lat": 52.5207688, "lon": 13.2390198}, {"type": "node", "id": 7457273095, "lat": 52.5212983, "lon": 13.2793689, "tags": {"addr:city": "Berlin", "addr:country": "DE", "addr:housenumber": "130", "addr:postcode": "14059", "addr:street": "Spandauer Damm", "addr:suburb": "Westend", "amenity": "doctors", "contact:phone": "+49 30 3035-5903", "contact:website": "http://www.proepi-institut.de/", "healthcare": "doctor", "healthcare:speciality:de": "Epithetik;chirurgische Prothetik", "name": "pro epi institut", "operator": "Dr. Carsten Matuschek"}}, {"type": "node", "id": 7482826439, "lat": 52.5090679, "lon": 13.2589363}, {"type": "node", "id": 7501452478, "lat": 52.5080524, "lon": 13.2686484}, {"type": "node", "id": 7501452479, "lat": 52.5078268, "lon": 13.2699839}, {"type": "node", "id": 7501452480, "lat": 52.5071572, "lon": 13.2696178}, {"type": "node", "id": 7501461268, "lat": 52.5055922, "lon": 13.2515277}, {"type": "node", "id": 7501461269, "lat": 52.5055151, "lon": 13.2502883}, {"type": "node", "id": 7501461282, "lat": 52.5066033, "lon": 13.2513572}, {"type": "node", "id": 7501461283, "lat": 52.5077125, "lon": 13.2498156}, {"type": "node", "id": 7501461284, "lat": 52.5077328, "lon": 13.2498225}, {"type": "node", "id": 7501491485, "lat": 52.507747, "lon": 13.2498527}, {"type": "node", "id": 7501491486, "lat": 52.5078162, "lon": 13.2510027}, {"type": "node", "id": 7501491487, "lat": 52.507824, "lon": 13.2511632}, {"type": "node", "id": 7501491489, "lat": 52.50652, "lon": 13.2500212}, {"type": "node", "id": 7501491490, "lat": 52.5063855, "lon": 13.2500435}, {"type": "node", "id": 7501491491, "lat": 52.5064675, "lon": 13.2513775}, {"type": "node", "id": 7501491492, "lat": 52.5057072, "lon": 13.2515047}, {"type": "node", "id": 7501491493, "lat": 52.5056253, "lon": 13.2501695}, {"type": "node", "id": 7501491495, "lat": 52.5073619, "lon": 13.2436139}, {"type": "node", "id": 7501491496, "lat": 52.5064596, "lon": 13.2430767}, {"type": "node", "id": 7501632019, "lat": 52.5106504, "lon": 13.2522699}, {"type": "node", "id": 7501632020, "lat": 52.5102771, "lon": 13.2513769}, {"type": "node", "id": 7501632021, "lat": 52.5100324, "lon": 13.2512545}, {"type": "node", "id": 7501632022, "lat": 52.5097354, "lon": 13.251154}, {"type": "node", "id": 7501632023, "lat": 52.5091305, "lon": 13.251024}, {"type": "node", "id": 7501632025, "lat": 52.5089183, "lon": 13.2509986}, {"type": "node", "id": 7501632026, "lat": 52.5087367, "lon": 13.2509935}, {"type": "node", "id": 7501632027, "lat": 52.5110481, "lon": 13.250835}, {"type": "node", "id": 7501659501, "lat": 52.5083612, "lon": 13.2510479}, {"type": "node", "id": 7501659502, "lat": 52.5082771, "lon": 13.2496693}, {"type": "node", "id": 7501659504, "lat": 52.5083718, "lon": 13.2496315}, {"type": "node", "id": 7501659506, "lat": 52.5086926, "lon": 13.2496422}, {"type": "node", "id": 7501659508, "lat": 52.5091327, "lon": 13.249641}, {"type": "node", "id": 7501659510, "lat": 52.5097621, "lon": 13.2497514}, {"type": "node", "id": 7501659512, "lat": 52.5102332, "lon": 13.249927}, {"type": "node", "id": 7501659514, "lat": 52.5106602, "lon": 13.2501299}, {"type": "node", "id": 7501659516, "lat": 52.5109931, "lon": 13.2503341}, {"type": "node", "id": 7501659517, "lat": 52.5109772, "lon": 13.2504133}, {"type": "node", "id": 7501659518, "lat": 52.5109016, "lon": 13.2507471}, {"type": "node", "id": 7501659520, "lat": 52.5095329, "lon": 13.2450203}, {"type": "node", "id": 7501659522, "lat": 52.50962, "lon": 13.2451803}, {"type": "node", "id": 7501659524, "lat": 52.509735, "lon": 13.2453687}, {"type": "node", "id": 7501659526, "lat": 52.5098317, "lon": 13.2455094}, {"type": "node", "id": 7501659528, "lat": 52.5099866, "lon": 13.2456827}, {"type": "node", "id": 7501659530, "lat": 52.5102585, "lon": 13.2459258}, {"type": "node", "id": 7501659532, "lat": 52.5104655, "lon": 13.2460696}, {"type": "node", "id": 7501659534, "lat": 52.5106326, "lon": 13.2461676}, {"type": "node", "id": 7501659538, "lat": 52.5113326, "lon": 13.2463054}, {"type": "node", "id": 7501659541, "lat": 52.5117622, "lon": 13.2463482}, {"type": "node", "id": 7502918180, "lat": 52.510486, "lon": 13.2399412}, {"type": "node", "id": 7502918181, "lat": 52.5103698, "lon": 13.240737}, {"type": "node", "id": 7503172023, "lat": 52.5035044, "lon": 13.2606001}, {"type": "node", "id": 7765151009, "lat": 52.5185552, "lon": 13.2789197, "tags": {"addr:city": "Berlin", "addr:housenumber": "130", "addr:postcode": "14050", "addr:street": "Spandauer Damm", "check_date": "2025-03-22", "healthcare": "birthing_centre", "name": "Geburtshaus Charlottenburg"}}, {"type": "node", "id": 8147262995, "lat": 52.5226412, "lon": 13.2679135}, {"type": "node", "id": 8412327361, "lat": 52.5230144, "lon": 13.2609108}, {"type": "node", "id": 8412327362, "lat": 52.5230093, "lon": 13.2609123}, {"type": "node", "id": 8412327363, "lat": 52.522977, "lon": 13.2608963}, {"type": "node", "id": 8521486445, "lat": 52.5089965, "lon": 13.2525831}, {"type": "node", "id": 8521486446, "lat": 52.5084601, "lon": 13.2526643}, {"type": "node", "id": 8521584069, "lat": 52.5090478, "lon": 13.2511274}, {"type": "node", "id": 8521584072, "lat": 52.5085834, "lon": 13.2511305}, {"type": "node", "id": 8521584075, "lat": 52.5087254, "lon": 13.2511138}, {"type": "node", "id": 8521584080, "lat": 52.5084496, "lon": 13.2524923, "tags": {"access": "private", "barrier": "gate"}}, {"type": "node", "id": 8698775800, "lat": 52.5108514, "lon": 13.2666651, "tags": {"entrance": "yes"}}, {"type": "node", "id": 8698896062, "lat": 52.5111337, "lon": 13.2662549}, {"type": "node", "id": 8698896063, "lat": 52.5108307, "lon": 13.2657115}, {"type": "node", "id": 8698896064, "lat": 52.5104089, "lon": 13.2663116}, {"type": "node", "id": 8698896065, "lat": 52.5106903, "lon": 13.2668809}, {"type": "node", "id": 8768926317, "lat": 52.5207047, "lon": 13.278643}, {"type": "node", "id": 8768926318, "lat": 52.5209002, "lon": 13.2787347}, {"type": "node", "id": 8768926319, "lat": 52.5207912, "lon": 13.2781695}, {"type": "node", "id": 8768926320, "lat": 52.5209801, "lon": 13.2782725}, {"type": "node", "id": 8779473467, "lat": 52.5173232, "lon": 13.2461546}, {"type": "node", "id": 8779473468, "lat": 52.516939, "lon": 13.2461684}, {"type": "node", "id": 8779473469, "lat": 52.5169429, "lon": 13.2464662}, {"type": "node", "id": 8779473470, "lat": 52.5173272, "lon": 13.2464524}, {"type": "node", "id": 8829028994, "lat": 52.5100356, "lon": 13.2420459}, {"type": "node", "id": 8829028995, "lat": 52.5104004, "lon": 13.2420474}, {"type": "node", "id": 8829028996, "lat": 52.5107939, "lon": 13.2418906}, {"type": "node", "id": 8829028997, "lat": 52.5106809, "lon": 13.2411649}, {"type": "node", "id": 8829028998, "lat": 52.5099471, "lon": 13.2414562}, {"type": "node", "id": 8829028999, "lat": 52.5103796, "lon": 13.2419066}, {"type": "node", "id": 8829029004, "lat": 52.5094968, "lon": 13.244273}, {"type": "node", "id": 8829029006, "lat": 52.5108826, "lon": 13.244238}, {"type": "node", "id": 8829029008, "lat": 52.50949, "lon": 13.2435828}, {"type": "node", "id": 8829029009, "lat": 52.5108763, "lon": 13.2435795}, {"type": "node", "id": 8829469592, "lat": 52.5105193, "lon": 13.2431299}, {"type": "node", "id": 8829469593, "lat": 52.5109101, "lon": 13.2425966}, {"type": "node", "id": 8829469594, "lat": 52.5105357, "lon": 13.2434854}, {"type": "node", "id": 8829469595, "lat": 52.511032, "lon": 13.2434681}, {"type": "node", "id": 8829501680, "lat": 52.5103624, "lon": 13.2428201}, {"type": "node", "id": 8829501681, "lat": 52.5099431, "lon": 13.2429029}, {"type": "node", "id": 8829501682, "lat": 52.5099042, "lon": 13.242602}, {"type": "node", "id": 8829501683, "lat": 52.5101198, "lon": 13.2425458}, {"type": "node", "id": 8829501684, "lat": 52.5103553, "lon": 13.2424958}, {"type": "node", "id": 8829501685, "lat": 52.5105423, "lon": 13.2426746}, {"type": "node", "id": 8829501686, "lat": 52.510789, "lon": 13.245073}, {"type": "node", "id": 8829501687, "lat": 52.5108469, "lon": 13.2451531}, {"type": "node", "id": 8829501688, "lat": 52.5108633, "lon": 13.2451861}, {"type": "node", "id": 8829501690, "lat": 52.5107669, "lon": 13.2450585}, {"type": "node", "id": 8829501691, "lat": 52.5108542, "lon": 13.2451863}, {"type": "node", "id": 8829501692, "lat": 52.5107359, "lon": 13.2450298}, {"type": "node", "id": 8829501694, "lat": 52.5108711, "lon": 13.2443028}, {"type": "node", "id": 8829501696, "lat": 52.5109278, "lon": 13.2443014}, {"type": "node", "id": 8829501697, "lat": 52.5112876, "lon": 13.2447617}, {"type": "node", "id": 8829501698, "lat": 52.511071, "lon": 13.2436606}, {"type": "node", "id": 8829501699, "lat": 52.5109217, "lon": 13.2436644}, {"type": "node", "id": 8829501700, "lat": 52.5105074, "lon": 13.2434032}, {"type": "node", "id": 8829501701, "lat": 52.5104948, "lon": 13.2432842}, {"type": "node", "id": 8829501702, "lat": 52.5106474, "lon": 13.2428825}, {"type": "node", "id": 8829501703, "lat": 52.5105746, "lon": 13.242931}, {"type": "node", "id": 8829501704, "lat": 52.5107641, "lon": 13.242813}, {"type": "node", "id": 8829501705, "lat": 52.510599, "lon": 13.242999}, {"type": "node", "id": 8829552888, "lat": 52.5096327, "lon": 13.2435792}, {"type": "node", "id": 8829553484, "lat": 52.5103111, "lon": 13.2449975}, {"type": "node", "id": 8829553485, "lat": 52.510315, "lon": 13.2448495}, {"type": "node", "id": 8829553486, "lat": 52.5103181, "lon": 13.2447815}, {"type": "node", "id": 8829553487, "lat": 52.5104232, "lon": 13.2449437}, {"type": "node", "id": 8829553488, "lat": 52.5104329, "lon": 13.2447289}, {"type": "node", "id": 8829553489, "lat": 52.5104201, "lon": 13.2450108}, {"type": "node", "id": 8829553490, "lat": 52.5101473, "lon": 13.2446194}, {"type": "node", "id": 8829553491, "lat": 52.5104363, "lon": 13.2446545}, {"type": "node", "id": 8829553492, "lat": 52.5097168, "lon": 13.2445671}, {"type": "node", "id": 8829553493, "lat": 52.5105824, "lon": 13.2446723}, {"type": "node", "id": 8829553494, "lat": 52.5107056, "lon": 13.2442448}, {"type": "node", "id": 8829553495, "lat": 52.5095646, "lon": 13.2442729}, {"type": "node", "id": 8829553496, "lat": 52.510708, "lon": 13.2444891}, {"type": "node", "id": 8829553497, "lat": 52.5108728, "lon": 13.2444847}, {"type": "node", "id": 8829553498, "lat": 52.5108607, "lon": 13.244834}, {"type": "node", "id": 9013052669, "lat": 52.5260482, "lon": 13.2365024}, {"type": "node", "id": 9107476838, "lat": 52.5238213, "lon": 13.2579215}, {"type": "node", "id": 9107476859, "lat": 52.5235191, "lon": 13.2573725}, {"type": "node", "id": 9107476860, "lat": 52.5234782, "lon": 13.2573802}, {"type": "node", "id": 9107476861, "lat": 52.5233823, "lon": 13.2573975}, {"type": "node", "id": 9107476862, "lat": 52.5232372, "lon": 13.2573946}, {"type": "node", "id": 9107476863, "lat": 52.5231091, "lon": 13.2573821}, {"type": "node", "id": 9107476864, "lat": 52.5229301, "lon": 13.2573513}, {"type": "node", "id": 9107476865, "lat": 52.522943, "lon": 13.2573879}, {"type": "node", "id": 9107476866, "lat": 52.5229716, "lon": 13.2573821}, {"type": "node", "id": 9107476867, "lat": 52.523005, "lon": 13.257433}, {"type": "node", "id": 9107476868, "lat": 52.5230126, "lon": 13.2574879}, {"type": "node", "id": 9107476869, "lat": 52.5229827, "lon": 13.2575273}, {"type": "node", "id": 9107476870, "lat": 52.5229225, "lon": 13.2575148}, {"type": "node", "id": 9107476871, "lat": 52.5229043, "lon": 13.2574725}, {"type": "node", "id": 9107476872, "lat": 52.5228628, "lon": 13.2574629}, {"type": "node", "id": 9107476873, "lat": 52.5228482, "lon": 13.2573879}, {"type": "node", "id": 9107476874, "lat": 52.5228309, "lon": 13.2573504}, {"type": "node", "id": 9107476875, "lat": 52.5228029, "lon": 13.2573547}, {"type": "node", "id": 9107476876, "lat": 52.5227455, "lon": 13.2574032}, {"type": "node", "id": 9107476877, "lat": 52.5227096, "lon": 13.2574576}, {"type": "node", "id": 9107476878, "lat": 52.5226809, "lon": 13.2575244}, {"type": "node", "id": 9107476879, "lat": 52.5226546, "lon": 13.2576128}, {"type": "node", "id": 9107476880, "lat": 52.5226198, "lon": 13.2577623}, {"type": "node", "id": 9107476881, "lat": 52.5226247, "lon": 13.2577705}, {"type": "node", "id": 9107476882, "lat": 52.5226388, "lon": 13.2577907}, {"type": "node", "id": 9107476883, "lat": 52.5226467, "lon": 13.2578128}, {"type": "node", "id": 9107476884, "lat": 52.5226516, "lon": 13.2578383}, {"type": "node", "id": 9107476885, "lat": 52.523005, "lon": 13.2578517}, {"type": "node", "id": 9107476886, "lat": 52.5232559, "lon": 13.2578652}, {"type": "node", "id": 9107476887, "lat": 52.5233989, "lon": 13.2578686}, {"type": "node", "id": 9107476888, "lat": 52.5234139, "lon": 13.25782}, {"type": "node", "id": 9107476889, "lat": 52.5234299, "lon": 13.2577994}, {"type": "node", "id": 9107476890, "lat": 52.5234507, "lon": 13.25777}, {"type": "node", "id": 9107476891, "lat": 52.5234726, "lon": 13.2577071}, {"type": "node", "id": 9107476892, "lat": 52.5235168, "lon": 13.2576869}, {"type": "node", "id": 9107476893, "lat": 52.5235317, "lon": 13.257745}, {"type": "node", "id": 9107476894, "lat": 52.5235563, "lon": 13.2577397}, {"type": "node", "id": 9107476895, "lat": 52.5235888, "lon": 13.2577796}, {"type": "node", "id": 9107476896, "lat": 52.5236069, "lon": 13.2577931}, {"type": "node", "id": 9107476897, "lat": 52.5236262, "lon": 13.2578085}, {"type": "node", "id": 9107476898, "lat": 52.5236338, "lon": 13.2577989}, {"type": "node", "id": 9107476899, "lat": 52.5235598, "lon": 13.2573773}, {"type": "node", "id": 9107476900, "lat": 52.5235537, "lon": 13.2573643}, {"type": "node", "id": 9107476901, "lat": 52.5235452, "lon": 13.2573619}, {"type": "node", "id": 9107476902, "lat": 52.5233937, "lon": 13.2579162}, {"type": "node", "id": 9107476903, "lat": 52.5234071, "lon": 13.2579614}, {"type": "node", "id": 9107476904, "lat": 52.5234267, "lon": 13.2579791}, {"type": "node", "id": 9107476905, "lat": 52.5234431, "lon": 13.2579503}, {"type": "node", "id": 9107476906, "lat": 52.5234513, "lon": 13.2579157}, {"type": "node", "id": 9107476907, "lat": 52.5234955, "lon": 13.25792}, {"type": "node", "id": 9107476908, "lat": 52.5235016, "lon": 13.2579623}, {"type": "node", "id": 9107476909, "lat": 52.5235098, "lon": 13.2579883}, {"type": "node", "id": 9107476910, "lat": 52.5235218, "lon": 13.2580287}, {"type": "node", "id": 9107476911, "lat": 52.5235572, "lon": 13.2580339}, {"type": "node", "id": 9107476912, "lat": 52.5235867, "lon": 13.2579729}, {"type": "node", "id": 9107476913, "lat": 52.5235996, "lon": 13.2579215}, {"type": "node", "id": 9107476914, "lat": 52.5236177, "lon": 13.2579186}, {"type": "node", "id": 9107476915, "lat": 52.5236399, "lon": 13.257921}, {"type": "node", "id": 9107476916, "lat": 52.523666, "lon": 13.2579455}, {"type": "node", "id": 9107480417, "lat": 52.5236949, "lon": 13.2580628}, {"type": "node", "id": 9107480418, "lat": 52.5236844, "lon": 13.258069}, {"type": "node", "id": 9107480419, "lat": 52.5236867, "lon": 13.2581147}, {"type": "node", "id": 9107480420, "lat": 52.5236797, "lon": 13.2581657}, {"type": "node", "id": 9107480421, "lat": 52.5236639, "lon": 13.2581599}, {"type": "node", "id": 9107480422, "lat": 52.5236285, "lon": 13.2581455}, {"type": "node", "id": 9107480423, "lat": 52.5235914, "lon": 13.2581642}, {"type": "node", "id": 9107480424, "lat": 52.5236031, "lon": 13.2582224}, {"type": "node", "id": 9107480425, "lat": 52.5236475, "lon": 13.2582181}, {"type": "node", "id": 9107480426, "lat": 52.5236786, "lon": 13.2581863}, {"type": "node", "id": 9107480427, "lat": 52.5236961, "lon": 13.2582041}, {"type": "node", "id": 9107480428, "lat": 52.5237312, "lon": 13.2582123}, {"type": "node", "id": 9107480429, "lat": 52.5237447, "lon": 13.2582671}, {"type": "node", "id": 9107480430, "lat": 52.5237198, "lon": 13.2582729}, {"type": "node", "id": 9107480431, "lat": 52.5236952, "lon": 13.2582772}, {"type": "node", "id": 9107480432, "lat": 52.523663, "lon": 13.2583065}, {"type": "node", "id": 9107480433, "lat": 52.5236516, "lon": 13.2583546}, {"type": "node", "id": 9107480434, "lat": 52.5236736, "lon": 13.2584204}, {"type": "node", "id": 9107480435, "lat": 52.5237134, "lon": 13.2584469}, {"type": "node", "id": 9107480436, "lat": 52.523752, "lon": 13.2584546}, {"type": "node", "id": 9107480437, "lat": 52.5237789, "lon": 13.2583954}, {"type": "node", "id": 9107480438, "lat": 52.5238125, "lon": 13.2585276}, {"type": "node", "id": 9107480439, "lat": 52.5238935, "lon": 13.258818}, {"type": "node", "id": 9107480440, "lat": 52.523931, "lon": 13.258942}, {"type": "node", "id": 9107480441, "lat": 52.5239046, "lon": 13.2590088}, {"type": "node", "id": 9107480442, "lat": 52.5238616, "lon": 13.2589862}, {"type": "node", "id": 9107480443, "lat": 52.5238461, "lon": 13.2589223}, {"type": "node", "id": 9107480444, "lat": 52.5237961, "lon": 13.2589069}, {"type": "node", "id": 9107480445, "lat": 52.5237683, "lon": 13.2589473}, {"type": "node", "id": 9107480446, "lat": 52.5237596, "lon": 13.2590295}, {"type": "node", "id": 9107480447, "lat": 52.5237806, "lon": 13.2590929}, {"type": "node", "id": 9107480448, "lat": 52.5238148, "lon": 13.2591093}, {"type": "node", "id": 9107480449, "lat": 52.5238514, "lon": 13.2591021}, {"type": "node", "id": 9107480450, "lat": 52.5238748, "lon": 13.2591194}, {"type": "node", "id": 9107480451, "lat": 52.5239, "lon": 13.2591554}, {"type": "node", "id": 9107480452, "lat": 52.5239469, "lon": 13.259142}, {"type": "node", "id": 9107480453, "lat": 52.5239587, "lon": 13.2591761}, {"type": "node", "id": 9107480454, "lat": 52.523982, "lon": 13.2591826}, {"type": "node", "id": 9107480455, "lat": 52.5240111, "lon": 13.2591706}, {"type": "node", "id": 9107480456, "lat": 52.5240281, "lon": 13.2592189}, {"type": "node", "id": 9107480457, "lat": 52.5240159, "lon": 13.2592225}, {"type": "node", "id": 9107480458, "lat": 52.523995, "lon": 13.2592316}, {"type": "node", "id": 9107480459, "lat": 52.52398, "lon": 13.2592797}, {"type": "node", "id": 9107480460, "lat": 52.5239827, "lon": 13.2593427}, {"type": "node", "id": 9107480461, "lat": 52.5239959, "lon": 13.2593898}, {"type": "node", "id": 9107480462, "lat": 52.5240187, "lon": 13.259415}, {"type": "node", "id": 9107480463, "lat": 52.5240352, "lon": 13.2594679}, {"type": "node", "id": 9107480464, "lat": 52.5240079, "lon": 13.2595073}, {"type": "node", "id": 9107480465, "lat": 52.5240177, "lon": 13.2595412}, {"type": "node", "id": 9107480466, "lat": 52.5240624, "lon": 13.2595398}, {"type": "node", "id": 9107480467, "lat": 52.5240134, "lon": 13.2595914}, {"type": "node", "id": 9107480468, "lat": 52.5239941, "lon": 13.2595578}, {"type": "node", "id": 9107480469, "lat": 52.5239561, "lon": 13.2595078}, {"type": "node", "id": 9107480470, "lat": 52.5238748, "lon": 13.2593347}, {"type": "node", "id": 9107480471, "lat": 52.5238309, "lon": 13.2592569}, {"type": "node", "id": 9107480472, "lat": 52.5237795, "lon": 13.259179}, {"type": "node", "id": 9107480473, "lat": 52.5237514, "lon": 13.2591146}, {"type": "node", "id": 9107480474, "lat": 52.5237169, "lon": 13.2591415}, {"type": "node", "id": 9107480475, "lat": 52.5237134, "lon": 13.2592146}, {"type": "node", "id": 9107480476, "lat": 52.5237268, "lon": 13.2592857}, {"type": "node", "id": 9107480477, "lat": 52.5236747, "lon": 13.2592876}, {"type": "node", "id": 9107480478, "lat": 52.523618, "lon": 13.2593203}, {"type": "node", "id": 9107480479, "lat": 52.5235566, "lon": 13.2592636}, {"type": "node", "id": 9107480480, "lat": 52.5235016, "lon": 13.2591713}, {"type": "node", "id": 9107480481, "lat": 52.5234776, "lon": 13.2590848}, {"type": "node", "id": 9107480482, "lat": 52.5234326, "lon": 13.2590867}, {"type": "node", "id": 9107480483, "lat": 52.5233741, "lon": 13.2591857}, {"type": "node", "id": 9107480484, "lat": 52.523353, "lon": 13.2593049}, {"type": "node", "id": 9107480485, "lat": 52.5233887, "lon": 13.2593636}, {"type": "node", "id": 9107480486, "lat": 52.5234279, "lon": 13.2594117}, {"type": "node", "id": 9107480487, "lat": 52.5234343, "lon": 13.259528}, {"type": "node", "id": 9107480488, "lat": 52.5234022, "lon": 13.2596184}, {"type": "node", "id": 9107480489, "lat": 52.5233758, "lon": 13.2595934}, {"type": "node", "id": 9107480490, "lat": 52.5233191, "lon": 13.2596155}, {"type": "node", "id": 9107480491, "lat": 52.5232729, "lon": 13.2596039}, {"type": "node", "id": 9107480492, "lat": 52.5232208, "lon": 13.2595366}, {"type": "node", "id": 9107480493, "lat": 52.5231746, "lon": 13.2594511}, {"type": "node", "id": 9107480494, "lat": 52.5231261, "lon": 13.2594117}, {"type": "node", "id": 9107480495, "lat": 52.5230553, "lon": 13.2594299}, {"type": "node", "id": 9107480496, "lat": 52.5230102, "lon": 13.2593713}, {"type": "node", "id": 9107480497, "lat": 52.5230055, "lon": 13.2593097}, {"type": "node", "id": 9107480498, "lat": 52.5230518, "lon": 13.2593011}, {"type": "node", "id": 9107480499, "lat": 52.5230301, "lon": 13.2592069}, {"type": "node", "id": 9107480500, "lat": 52.5230594, "lon": 13.2591896}, {"type": "node", "id": 9107480501, "lat": 52.5231266, "lon": 13.2591357}, {"type": "node", "id": 9107480502, "lat": 52.5231828, "lon": 13.259153}, {"type": "node", "id": 9107480503, "lat": 52.5232144, "lon": 13.2590771}, {"type": "node", "id": 9107480504, "lat": 52.523184, "lon": 13.2589925}, {"type": "node", "id": 9107480505, "lat": 52.5231301, "lon": 13.2588963}, {"type": "node", "id": 9107480506, "lat": 52.523091, "lon": 13.2588521}, {"type": "node", "id": 9107480507, "lat": 52.5230512, "lon": 13.2589617}, {"type": "node", "id": 9107480508, "lat": 52.5230506, "lon": 13.2590146}, {"type": "node", "id": 9107480509, "lat": 52.523019, "lon": 13.2590482}, {"type": "node", "id": 9107480510, "lat": 52.5229751, "lon": 13.2591453}, {"type": "node", "id": 9107480511, "lat": 52.5229781, "lon": 13.2591819}, {"type": "node", "id": 9107480512, "lat": 52.5229517, "lon": 13.2591876}, {"type": "node", "id": 9107480513, "lat": 52.5229383, "lon": 13.259178}, {"type": "node", "id": 9107480514, "lat": 52.5228681, "lon": 13.2590704}, {"type": "node", "id": 9107480515, "lat": 52.5227774, "lon": 13.2591992}, {"type": "node", "id": 9107480516, "lat": 52.5225996, "lon": 13.2592357}, {"type": "node", "id": 9107480517, "lat": 52.5224949, "lon": 13.2591925}, {"type": "node", "id": 9107480518, "lat": 52.5223907, "lon": 13.2591569}, {"type": "node", "id": 9107480519, "lat": 52.5224533, "lon": 13.2588319}, {"type": "node", "id": 9107480520, "lat": 52.5225148, "lon": 13.2584762}, {"type": "node", "id": 9107480521, "lat": 52.522589, "lon": 13.2579666}, {"type": "node", "id": 9107480522, "lat": 52.522606, "lon": 13.2579638}, {"type": "node", "id": 9107480523, "lat": 52.522623, "lon": 13.2579522}, {"type": "node", "id": 9107480524, "lat": 52.5226417, "lon": 13.2579157}, {"type": "node", "id": 9107480525, "lat": 52.5226516, "lon": 13.2578868}, {"type": "node", "id": 9107636288, "lat": 52.5250555, "lon": 13.2585365}, {"type": "node", "id": 9107636289, "lat": 52.5250909, "lon": 13.2584679}, {"type": "node", "id": 9107636290, "lat": 52.5251122, "lon": 13.2584089}, {"type": "node", "id": 9107636291, "lat": 52.5251289, "lon": 13.2583581}, {"type": "node", "id": 9107636292, "lat": 52.5251473, "lon": 13.2582847}, {"type": "node", "id": 9107636293, "lat": 52.5251623, "lon": 13.2581804}, {"type": "node", "id": 9107636294, "lat": 52.5251673, "lon": 13.2580837}, {"type": "node", "id": 9107636295, "lat": 52.5251882, "lon": 13.2581832}, {"type": "node", "id": 9107636296, "lat": 52.5252216, "lon": 13.258234}, {"type": "node", "id": 9107636297, "lat": 52.5252675, "lon": 13.2582106}, {"type": "node", "id": 9107636298, "lat": 52.5252875, "lon": 13.2583128}, {"type": "node", "id": 9107636299, "lat": 52.5253585, "lon": 13.258343}, {"type": "node", "id": 9107636300, "lat": 52.5253743, "lon": 13.258426}, {"type": "node", "id": 9107636301, "lat": 52.5255162, "lon": 13.2584576}, {"type": "node", "id": 9107636302, "lat": 52.5255145, "lon": 13.2587841}, {"type": "node", "id": 9107636303, "lat": 52.5254778, "lon": 13.2588259}, {"type": "node", "id": 9107636304, "lat": 52.5253827, "lon": 13.2589172}, {"type": "node", "id": 9107636305, "lat": 52.5252575, "lon": 13.2590228}, {"type": "node", "id": 9107636306, "lat": 52.5251673, "lon": 13.2590866}, {"type": "node", "id": 9107636307, "lat": 52.5250989, "lon": 13.2591264}, {"type": "node", "id": 9107636308, "lat": 52.5249753, "lon": 13.259184}, {"type": "node", "id": 9107636309, "lat": 52.5248864, "lon": 13.2592176}, {"type": "node", "id": 9107636310, "lat": 52.5248731, "lon": 13.2592176}, {"type": "node", "id": 9107636311, "lat": 52.5248668, "lon": 13.2592046}, {"type": "node", "id": 9107636312, "lat": 52.5248485, "lon": 13.259066}, {"type": "node", "id": 9107636313, "lat": 52.5248414, "lon": 13.2590015}, {"type": "node", "id": 9107636314, "lat": 52.5248597, "lon": 13.2589947}, {"type": "node", "id": 9107636315, "lat": 52.5248272, "lon": 13.258804}, {"type": "node", "id": 9107636316, "lat": 52.5248293, "lon": 13.2587827}, {"type": "node", "id": 9107645417, "lat": 52.5248727, "lon": 13.2587436}, {"type": "node", "id": 9107645418, "lat": 52.5249753, "lon": 13.2586455}, {"type": "node", "id": 9107645419, "lat": 52.5250221, "lon": 13.2585913}, {"type": "node", "id": 9107645420, "lat": 52.5256546, "lon": 13.2598624}, {"type": "node", "id": 9107645421, "lat": 52.5258816, "lon": 13.2602421}, {"type": "node", "id": 9107645422, "lat": 52.5258451, "lon": 13.2602695}, {"type": "node", "id": 9107645423, "lat": 52.5259056, "lon": 13.2601773}, {"type": "node", "id": 9107645424, "lat": 52.5256591, "lon": 13.2598501}, {"type": "node", "id": 9107645429, "lat": 52.5244411, "lon": 13.2599049}, {"type": "node", "id": 9107645430, "lat": 52.524444, "lon": 13.2599564}, {"type": "node", "id": 9107645431, "lat": 52.5244808, "lon": 13.2600298}, {"type": "node", "id": 9107645432, "lat": 52.524535, "lon": 13.2601272}, {"type": "node", "id": 9107645433, "lat": 52.5245705, "lon": 13.2601807}, {"type": "node", "id": 9107645434, "lat": 52.5246318, "lon": 13.2601937}, {"type": "node", "id": 9107645435, "lat": 52.5246803, "lon": 13.260167}, {"type": "node", "id": 9107645436, "lat": 52.5247099, "lon": 13.2601224}, {"type": "node", "id": 9107645437, "lat": 52.5247391, "lon": 13.2600414}, {"type": "node", "id": 9107645438, "lat": 52.5247871, "lon": 13.2600998}, {"type": "node", "id": 9107645439, "lat": 52.5248288, "lon": 13.2601176}, {"type": "node", "id": 9107645440, "lat": 52.5248547, "lon": 13.2600325}, {"type": "node", "id": 9107645441, "lat": 52.5248743, "lon": 13.2599591}, {"type": "node", "id": 9107645442, "lat": 52.5248885, "lon": 13.25999}, {"type": "node", "id": 9107645443, "lat": 52.524899, "lon": 13.2602212}, {"type": "node", "id": 9107645444, "lat": 52.5248739, "lon": 13.2602363}, {"type": "node", "id": 9107645445, "lat": 52.5248472, "lon": 13.2602856}, {"type": "node", "id": 9107645446, "lat": 52.5247988, "lon": 13.2603542}, {"type": "node", "id": 9107645447, "lat": 52.524752, "lon": 13.260309}, {"type": "node", "id": 9107645448, "lat": 52.5247053, "lon": 13.2602143}, {"type": "node", "id": 9107645449, "lat": 52.5246327, "lon": 13.2602404}, {"type": "node", "id": 9107645450, "lat": 52.5246352, "lon": 13.2603721}, {"type": "node", "id": 9107645451, "lat": 52.5246836, "lon": 13.2604667}, {"type": "node", "id": 9107645452, "lat": 52.5246502, "lon": 13.2605641}, {"type": "node", "id": 9107645453, "lat": 52.5246753, "lon": 13.2607219}, {"type": "node", "id": 9107645454, "lat": 52.524752, "lon": 13.260748}, {"type": "node", "id": 9107645455, "lat": 52.524794, "lon": 13.2607274}, {"type": "node", "id": 9107645456, "lat": 52.5246773, "lon": 13.2608992}, {"type": "node", "id": 9107645457, "lat": 52.5246385, "lon": 13.2609325}, {"type": "node", "id": 9107645458, "lat": 52.5245857, "lon": 13.2609514}, {"type": "node", "id": 9107645459, "lat": 52.5245546, "lon": 13.2609545}, {"type": "node", "id": 9107645460, "lat": 52.5245384, "lon": 13.2609524}, {"type": "node", "id": 9107645461, "lat": 52.5245179, "lon": 13.2609455}, {"type": "node", "id": 9107645462, "lat": 52.5244516, "lon": 13.2609078}, {"type": "node", "id": 9107645463, "lat": 52.524187, "lon": 13.2607151}, {"type": "node", "id": 9107645464, "lat": 52.5241857, "lon": 13.2606828}, {"type": "node", "id": 9107645465, "lat": 52.5243188, "lon": 13.2598562}, {"type": "node", "id": 9107645466, "lat": 52.5243263, "lon": 13.259835}, {"type": "node", "id": 9107645467, "lat": 52.5243468, "lon": 13.2598254}, {"type": "node", "id": 9107645468, "lat": 52.5243635, "lon": 13.2598336}, {"type": "node", "id": 9107758749, "lat": 52.5241672, "lon": 13.2599781}, {"type": "node", "id": 9107758750, "lat": 52.5241282, "lon": 13.2598469}, {"type": "node", "id": 9107758751, "lat": 52.5240455, "lon": 13.2598021}, {"type": "node", "id": 9107758752, "lat": 52.5239548, "lon": 13.2600677}, {"type": "node", "id": 9107758753, "lat": 52.5241523, "lon": 13.2600698}, {"type": "node", "id": 9107762261, "lat": 52.5243475, "lon": 13.2578507}, {"type": "node", "id": 9107762262, "lat": 52.5243526, "lon": 13.2579309}, {"type": "node", "id": 9107762263, "lat": 52.5241916, "lon": 13.2579882}, {"type": "node", "id": 9107762264, "lat": 52.5241922, "lon": 13.2580861}, {"type": "node", "id": 9107762265, "lat": 52.5242588, "lon": 13.2581268}, {"type": "node", "id": 9107762266, "lat": 52.524319, "lon": 13.2581247}, {"type": "node", "id": 9107762267, "lat": 52.5243183, "lon": 13.2582039}, {"type": "node", "id": 9107762268, "lat": 52.524286, "lon": 13.2582091}, {"type": "node", "id": 9107762269, "lat": 52.5242239, "lon": 13.258183}, {"type": "node", "id": 9107762270, "lat": 52.5241789, "lon": 13.2581143}, {"type": "node", "id": 9107762271, "lat": 52.5241434, "lon": 13.2580747}, {"type": "node", "id": 9107762272, "lat": 52.5241104, "lon": 13.2581091}, {"type": "node", "id": 9107762273, "lat": 52.5240794, "lon": 13.2580903}, {"type": "node", "id": 9107762274, "lat": 52.5240432, "lon": 13.2581236}, {"type": "node", "id": 9107762275, "lat": 52.5240464, "lon": 13.258207}, {"type": "node", "id": 9107762276, "lat": 52.5240172, "lon": 13.2582112}, {"type": "node", "id": 9107762277, "lat": 52.5239894, "lon": 13.2583133}, {"type": "node", "id": 9107762278, "lat": 52.5238905, "lon": 13.2583039}, {"type": "node", "id": 9107762279, "lat": 52.5241615, "lon": 13.2577213}, {"type": "node", "id": 9107762280, "lat": 52.5241897, "lon": 13.2577663}, {"type": "node", "id": 9107762281, "lat": 52.5242277, "lon": 13.2577579}, {"type": "node", "id": 9107762282, "lat": 52.5242569, "lon": 13.2578069}, {"type": "node", "id": 9107762283, "lat": 52.5243006, "lon": 13.2578538}, {"type": "node", "id": 9124216389, "lat": 52.5097369, "lon": 13.2729969}, {"type": "node", "id": 9124248949, "lat": 52.5097599, "lon": 13.2728611}, {"type": "node", "id": 9124248971, "lat": 52.5089637, "lon": 13.2722784}, {"type": "node", "id": 9289123753, "lat": 52.5004245, "lon": 13.2638997, "tags": {"addr:city": "Berlin", "addr:housenumber": "34", "addr:postcode": "14055", "addr:street": "Waldschulallee", "amenity": "restaurant", "cuisine": "snack", "name": "Casino Mommsenstadion", "outdoor_seating": "bench"}}, {"type": "node", "id": 9289123754, "lat": 52.5013691, "lon": 13.2634598, "tags": {"addr:city": "Berlin", "addr:housenumber": "34", "addr:postcode": "14055", "addr:street": "Waldschulallee", "amenity": "fast_food", "cuisine": "sausage;snack;steak", "drive_through": "no", "opening_hours": "\"match day\"", "operator": "Kr\u00fcger\u2019s"}}, {"type": "node", "id": 9289123755, "lat": 52.5017593, "lon": 13.2650061, "tags": {"amenity": "fast_food", "cuisine": "snack;pretzel", "drive_through": "no", "name": "Biberstand", "opening_hours": "\"match day\"", "outdoor_seating": "no"}}, {"type": "node", "id": 9289123762, "lat": 52.5003935, "lon": 13.2656163, "tags": {"amenity": "fast_food", "drive_through": "no", "opening_hours": "\"match day\""}}, {"type": "node", "id": 9378878739, "lat": 52.5082714, "lon": 13.2577989}, {"type": "node", "id": 9378878740, "lat": 52.5082281, "lon": 13.2578056}, {"type": "node", "id": 9378878741, "lat": 52.5079856, "lon": 13.257446}, {"type": "node", "id": 9378878742, "lat": 52.5082495, "lon": 13.2574115}, {"type": "node", "id": 9507195864, "lat": 52.5105888, "lon": 13.2698254, "tags": {"healthcare": "yes", "name": "medzentrum Westend"}}, {"type": "node", "id": 9507460409, "lat": 52.5109655, "lon": 13.2659543}, {"type": "node", "id": 9507460412, "lat": 52.5109237, "lon": 13.2658806}, {"type": "node", "id": 9507493626, "lat": 52.5114069, "lon": 13.2638243}, {"type": "node", "id": 9507493627, "lat": 52.5114722, "lon": 13.2638168}, {"type": "node", "id": 9507493628, "lat": 52.5116075, "lon": 13.2640465}, {"type": "node", "id": 9507493629, "lat": 52.5114867, "lon": 13.2642451}, {"type": "node", "id": 9507493630, "lat": 52.5114707, "lon": 13.2642182}, {"type": "node", "id": 9527151896, "lat": 52.5182947, "lon": 13.2818004, "tags": {"amenity": "fast_food", "name": "La Famiglia", "opening_hours": "Tu-Su 12:00-23:00"}}, {"type": "node", "id": 9547000438, "lat": 52.5107437, "lon": 13.2683353, "tags": {"healthcare": "psychotherapist", "name": "Dr. med. Julia Shababi Klein"}}, {"type": "node", "id": 9547000788, "lat": 52.5102198, "lon": 13.2680697, "tags": {"amenity": "restaurant", "name": "Schumanns Marron", "opening_hours:signed": "no"}}, {"type": "node", "id": 9553855581, "lat": 52.5113126, "lon": 13.2640545, "tags": {"entrance": "yes"}}, {"type": "node", "id": 9573559572, "lat": 52.5072719, "lon": 13.2790331, "tags": {"addr:city": "Berlin", "addr:housenumber": "4-6", "addr:postcode": "14057", "addr:street": "Masurenallee", "amenity": "restaurant", "bar": "yes", "brewery": "yes", "capacity": "40", "cuisine": "persian;kebab;regional;chicken;ice_cream;fries;burger;salad", "diet:halal": "yes", "diet:healthy": "yes", "diet:local": "yes", "diet:meat": "yes", "diet:vegetarian": "yes", "email": "service@casasimorgh.de", "highchair": "yes", "image": "https://www.casasimorgh.de/images/hero_bg_d_w_2166.jpg", "internet_access": "wlan", "internet_access:fee": "no", "level": "1", "min_age": "0", "name": "Simorgh", "opening_hours": "Mo-Su 10:00-00:00", "outdoor_seating": "yes", "payment:american_express": "yes", "payment:cash": "yes", "payment:coins": "yes", "payment:contactless": "yes", "payment:credit_cards": "yes", "payment:debit_cards": "yes", "payment:diners_club": "yes", "payment:discover_card": "yes", "payment:jcb": "yes", "payment:maestro": "yes", "payment:mastercard": "yes", "payment:visa_debit": "yes", "phone": "+49 1521 2204101", "reservation": "yes", "smoking": "outside", "source": "local knowledge;survey", "stars": "4", "takeaway": "yes", "toilets": "yes", "website": "https://casasimorgh.de", "wheelchair": "yes"}}, {"type": "node", "id": 9587639165, "lat": 52.5113289, "lon": 13.2685159, "tags": {"amenity": "dentist", "healthcare": "dentist", "healthcare:speciality": "orthodontics", "level": "1", "name": "Mund-Kiefer-Gesicht-Chirurgie Westend", "source": "survey", "survey:date": "2022-03-17"}}, {"type": "node", "id": 9602686605, "lat": 52.5134026, "lon": 13.2651652, "tags": {"healthcare": "alternative", "name": "Heilpraxis Westend"}}, {"type": "node", "id": 9650229357, "lat": 52.5098345, "lon": 13.227255, "tags": {"access": "customers", "leisure": "playground"}}, {"type": "node", "id": 9660604214, "lat": 52.5172786, "lon": 13.2751604}, {"type": "node", "id": 9660641410, "lat": 52.5156813, "lon": 13.2709749}, {"type": "node", "id": 9660641413, "lat": 52.5157057, "lon": 13.2708222}, {"type": "node", "id": 9660641415, "lat": 52.5157161, "lon": 13.2707798}, {"type": "node", "id": 9660667417, "lat": 52.5162019, "lon": 13.2703496}, {"type": "node", "id": 9660667419, "lat": 52.5162284, "lon": 13.2703577}, {"type": "node", "id": 9660667421, "lat": 52.5162929, "lon": 13.2703889}, {"type": "node", "id": 9660667423, "lat": 52.5163167, "lon": 13.270406}, {"type": "node", "id": 9660667425, "lat": 52.516582, "lon": 13.2711808}, {"type": "node", "id": 9660667429, "lat": 52.5165497, "lon": 13.2713795}, {"type": "node", "id": 9660667431, "lat": 52.5160621, "lon": 13.2718265}, {"type": "node", "id": 9660667433, "lat": 52.5160353, "lon": 13.2718185}, {"type": "node", "id": 9660667435, "lat": 52.5159714, "lon": 13.2717875}, {"type": "node", "id": 9660667437, "lat": 52.5159475, "lon": 13.2717728}, {"type": "node", "id": 9660667490, "lat": 52.5165599, "lon": 13.2713347}, {"type": "node", "id": 9660667491, "lat": 52.516578, "lon": 13.2712236}, {"type": "node", "id": 9660667547, "lat": 52.5156889, "lon": 13.271269}, {"type": "node", "id": 9660667548, "lat": 52.5157437, "lon": 13.2706934}, {"type": "node", "id": 9660667549, "lat": 52.5158081, "lon": 13.2705596}, {"type": "node", "id": 9660667550, "lat": 52.5159349, "lon": 13.2704121}, {"type": "node", "id": 9660667551, "lat": 52.5160331, "lon": 13.2703568}, {"type": "node", "id": 9660667552, "lat": 52.5161364, "lon": 13.2703395}, {"type": "node", "id": 9660667553, "lat": 52.5164234, "lon": 13.2705144}, {"type": "node", "id": 9660667554, "lat": 52.5165236, "lon": 13.2707093}, {"type": "node", "id": 9660667555, "lat": 52.5165656, "lon": 13.2708653}, {"type": "node", "id": 9660667556, "lat": 52.5165857, "lon": 13.2711184}, {"type": "node", "id": 9660667557, "lat": 52.5165308, "lon": 13.2714452}, {"type": "node", "id": 9660667558, "lat": 52.5164345, "lon": 13.2716453}, {"type": "node", "id": 9660667559, "lat": 52.5163497, "lon": 13.2717439}, {"type": "node", "id": 9660667560, "lat": 52.5162536, "lon": 13.2718083}, {"type": "node", "id": 9660667561, "lat": 52.5161511, "lon": 13.2718353}, {"type": "node", "id": 9660667562, "lat": 52.515997, "lon": 13.2718031}, {"type": "node", "id": 9660667564, "lat": 52.5158187, "lon": 13.2716327}, {"type": "node", "id": 9660667565, "lat": 52.5157517, "lon": 13.2715024}, {"type": "node", "id": 9660667566, "lat": 52.5156856, "lon": 13.27093}, {"type": "node", "id": 9660667567, "lat": 52.5157044, "lon": 13.2713506}, {"type": "node", "id": 9660667568, "lat": 52.5156994, "lon": 13.2708477}, {"type": "node", "id": 9660667569, "lat": 52.5157189, "lon": 13.2707684}, {"type": "node", "id": 9660667570, "lat": 52.5156754, "lon": 13.2710998}, {"type": "node", "id": 9660667571, "lat": 52.5156792, "lon": 13.271185}, {"type": "node", "id": 9660667572, "lat": 52.5156775, "lon": 13.2710144}, {"type": "node", "id": 9660667573, "lat": 52.5165697, "lon": 13.271287}, {"type": "node", "id": 9660667574, "lat": 52.5165807, "lon": 13.2712034}, {"type": "node", "id": 9660667575, "lat": 52.5165849, "lon": 13.271033}, {"type": "node", "id": 9660667576, "lat": 52.5165034, "lon": 13.2715178}, {"type": "node", "id": 9660667577, "lat": 52.5165473, "lon": 13.2707853}, {"type": "node", "id": 9660667578, "lat": 52.516553, "lon": 13.2713679}, {"type": "node", "id": 9660667579, "lat": 52.5165781, "lon": 13.2709482}, {"type": "node", "id": 9660667580, "lat": 52.5164948, "lon": 13.2706382}, {"type": "node", "id": 9660667581, "lat": 52.5164612, "lon": 13.2705729}, {"type": "node", "id": 9660667582, "lat": 52.5164712, "lon": 13.2715848}, {"type": "node", "id": 9660667583, "lat": 52.5163817, "lon": 13.2704633}, {"type": "node", "id": 9660667584, "lat": 52.5163938, "lon": 13.2716986}, {"type": "node", "id": 9660667585, "lat": 52.5162695, "lon": 13.270375}, {"type": "node", "id": 9660667586, "lat": 52.5163028, "lon": 13.2717806}, {"type": "node", "id": 9660667587, "lat": 52.5163367, "lon": 13.2704203}, {"type": "node", "id": 9660667588, "lat": 52.5161883, "lon": 13.2703454}, {"type": "node", "id": 9660667589, "lat": 52.5162394, "lon": 13.270361}, {"type": "node", "id": 9660667590, "lat": 52.5162028, "lon": 13.2718266}, {"type": "node", "id": 9660667591, "lat": 52.5160845, "lon": 13.2703433}, {"type": "node", "id": 9660667592, "lat": 52.5160991, "lon": 13.2718343}, {"type": "node", "id": 9660667593, "lat": 52.515983, "lon": 13.2703799}, {"type": "node", "id": 9660667594, "lat": 52.5160475, "lon": 13.2718235}, {"type": "node", "id": 9660667595, "lat": 52.5158893, "lon": 13.2704532}, {"type": "node", "id": 9660667596, "lat": 52.5159019, "lon": 13.2717347}, {"type": "node", "id": 9660667597, "lat": 52.5158469, "lon": 13.2705026}, {"type": "node", "id": 9660667598, "lat": 52.5158585, "lon": 13.2716876}, {"type": "node", "id": 9660667599, "lat": 52.5157254, "lon": 13.2714287}, {"type": "node", "id": 9660667600, "lat": 52.5157736, "lon": 13.2706235}, {"type": "node", "id": 9660667601, "lat": 52.5157829, "lon": 13.2715707}, {"type": "node", "id": 9660687137, "lat": 52.5173274, "lon": 13.2748792}, {"type": "node", "id": 9660687171, "lat": 52.5167586, "lon": 13.2745909}, {"type": "node", "id": 9660687178, "lat": 52.5167062, "lon": 13.2749129}, {"type": "node", "id": 9660687185, "lat": 52.5171618, "lon": 13.2751281}, {"type": "node", "id": 9660687196, "lat": 52.5172114, "lon": 13.2748047}, {"type": "node", "id": 9660687197, "lat": 52.516694, "lon": 13.2745604}, {"type": "node", "id": 9660687198, "lat": 52.5166428, "lon": 13.2748829}, {"type": "node", "id": 9660687199, "lat": 52.5172034, "lon": 13.2751477}, {"type": "node", "id": 9660687200, "lat": 52.5172583, "lon": 13.2748269}, {"type": "node", "id": 9660730756, "lat": 52.509024, "lon": 13.2581947}, {"type": "node", "id": 9660730757, "lat": 52.5089103, "lon": 13.2583764}, {"type": "node", "id": 9660730758, "lat": 52.5087661, "lon": 13.258397}, {"type": "node", "id": 9725150469, "lat": 52.5010614, "lon": 13.2623206}, {"type": "node", "id": 9725150470, "lat": 52.5005389, "lon": 13.2634485}, {"type": "node", "id": 9725150471, "lat": 52.5005487, "lon": 13.2634579}, {"type": "node", "id": 9725150472, "lat": 52.5009079, "lon": 13.2632701}, {"type": "node", "id": 9725150473, "lat": 52.5009022, "lon": 13.2632487}, {"type": "node", "id": 9725150474, "lat": 52.5009022, "lon": 13.2632259}, {"type": "node", "id": 9725150475, "lat": 52.5009055, "lon": 13.2631977}, {"type": "node", "id": 9725150476, "lat": 52.5009145, "lon": 13.2631749}, {"type": "node", "id": 9725150477, "lat": 52.5009324, "lon": 13.2631561}, {"type": "node", "id": 9725150478, "lat": 52.501099, "lon": 13.2630274}, {"type": "node", "id": 9725150479, "lat": 52.5011178, "lon": 13.2630113}, {"type": "node", "id": 9725150480, "lat": 52.5011308, "lon": 13.2629643}, {"type": "node", "id": 9725150481, "lat": 52.5011349, "lon": 13.2629254}, {"type": "node", "id": 9725150482, "lat": 52.5010982, "lon": 13.2623582}, {"type": "node", "id": 9737038590, "lat": 52.5112064, "lon": 13.2830347, "tags": {"addr:city": "Berlin", "addr:country": "DE", "addr:housenumber": "5", "addr:postcode": "14059", "addr:street": "Fredericiastra\u00dfe", "addr:suburb": "Westend", "contact:website": "https://logopaedieinberlin.de", "health_facility:type": "office", "healthcare": "speech_therapist", "name": "Logop\u00e4die in Berlin", "opening_hours": "\"nach Vereinbahrung\"", "operator": "Navina Weidemann-Noack;Sandra Scheidle"}}, {"type": "node", "id": 9737039022, "lat": 52.5113162, "lon": 13.2843046, "tags": {"addr:city": "Berlin", "addr:country": "DE", "addr:housenumber": "3", "addr:postcode": "14059", "addr:street": "Fredericiastra\u00dfe", "addr:suburb": "Westend", "contact:website": "https://physionique.de", "healthcare": "physiotherapist", "name": "Physionique", "opening_hours": "Mo,Tu 08:00-19:00; We 08:00-20:00; Th 11:30-19:00; Fr 08:00-15:00"}}, {"type": "node", "id": 9816548453, "lat": 52.5097043, "lon": 13.2809304, "tags": {"healthcare": "podiatrist", "name": "Sabine Hintze"}}, {"type": "node", "id": 9854594811, "lat": 52.5198298, "lon": 13.2558813}, {"type": "node", "id": 9854594812, "lat": 52.5208295, "lon": 13.2548299}, {"type": "node", "id": 9854594813, "lat": 52.5207866, "lon": 13.2546755}, {"type": "node", "id": 9854594814, "lat": 52.5208379, "lon": 13.2547918}, {"type": "node", "id": 9854594815, "lat": 52.5207746, "lon": 13.2546634}, {"type": "node", "id": 9854594816, "lat": 52.5207597, "lon": 13.2546647}, {"type": "node", "id": 9854625801, "lat": 52.5145378, "lon": 13.2641462}, {"type": "node", "id": 9854625802, "lat": 52.5146253, "lon": 13.2642873}, {"type": "node", "id": 9854625803, "lat": 52.5146447, "lon": 13.264279}, {"type": "node", "id": 9854625804, "lat": 52.5147149, "lon": 13.263885}, {"type": "node", "id": 9854625805, "lat": 52.514701, "lon": 13.2638713}, {"type": "node", "id": 9854637817, "lat": 52.5208359, "lon": 13.2545506}, {"type": "node", "id": 9854637818, "lat": 52.5208347, "lon": 13.2545925}, {"type": "node", "id": 9854637819, "lat": 52.5208835, "lon": 13.254681}, {"type": "node", "id": 9854637820, "lat": 52.5209212, "lon": 13.254679}, {"type": "node", "id": 9854637821, "lat": 52.5213362, "lon": 13.2533583}, {"type": "node", "id": 9854637822, "lat": 52.5213415, "lon": 13.2533843}, {"type": "node", "id": 9854637823, "lat": 52.521342, "lon": 13.2534105}, {"type": "node", "id": 9854637824, "lat": 52.521291, "lon": 13.2533018}, {"type": "node", "id": 9854637825, "lat": 52.5212424, "lon": 13.2533171}, {"type": "node", "id": 9854637826, "lat": 52.5214371, "lon": 13.2531257}, {"type": "node", "id": 9854637827, "lat": 52.5214265, "lon": 13.2531475}, {"type": "node", "id": 9854637828, "lat": 52.5214108, "lon": 13.2531662}, {"type": "node", "id": 9854637829, "lat": 52.5213967, "lon": 13.2531763}, {"type": "node", "id": 9854637830, "lat": 52.5213721, "lon": 13.2531766}, {"type": "node", "id": 9854637831, "lat": 52.5213572, "lon": 13.2531696}, {"type": "node", "id": 9854637832, "lat": 52.5213417, "lon": 13.2531488}, {"type": "node", "id": 9854637833, "lat": 52.5213276, "lon": 13.2531213}, {"type": "node", "id": 9854637834, "lat": 52.5213229, "lon": 13.2530975}, {"type": "node", "id": 9867335578, "lat": 52.5206129, "lon": 13.2748776, "tags": {"amenity": "bar", "level": "-1", "name": "uni keller"}}, {"type": "node", "id": 9991310083, "lat": 52.5227016, "lon": 13.2679422}, {"type": "node", "id": 9991310084, "lat": 52.5227504, "lon": 13.2675938}, {"type": "node", "id": 9991310085, "lat": 52.5226835, "lon": 13.2675633}, {"type": "node", "id": 9991310086, "lat": 52.5226891, "lon": 13.2676437}, {"type": "node", "id": 10001315668, "lat": 52.5114215, "lon": 13.2694648, "tags": {"amenity": "restaurant", "check_date": "2022-09-05", "name": "Vino Greco", "wheelchair": "no"}}, {"type": "node", "id": 10001315670, "lat": 52.5115478, "lon": 13.2692747, "tags": {"check_date": "2022-09-05", "healthcare": "occupational_therapist", "level": "0", "name": "Ergotherapeutische Praxis", "operator": "E. Hartz-Hoffmann", "phone": "+49 30 28408"}}, {"type": "node", "id": 10001315672, "lat": 52.5115689, "lon": 13.269243, "tags": {"addr:floor": "1", "check_date": "2022-09-05", "healthcare": "physiotherapist", "name": "Physiotherapiepraxis K1", "opening_hours": "\"Termine nur nach Vereinbarung\"", "operator": "Keiwan Farkiesch", "phone": "+49 30 30100188"}}, {"type": "node", "id": 10001315675, "lat": 52.5136214, "lon": 13.2633229, "tags": {"amenity": "doctors", "check_date": "2022-09-05", "description": "Praxis f\u00fcr Verdauungs- und Stoffwechselkrankheiten", "healthcare": "doctor", "healthcare:speciality": "gastroenterology", "name": "Gastroenterologie Westend", "opening_hours": "Mo-Tu 08:00-16:30; We-Fr 08:00-14:00", "operator": "Dr. med. Christoph Sollenb\u00f6hmer", "phone": "+49 30 3043240"}}, {"type": "node", "id": 10001315678, "lat": 52.512455, "lon": 13.2655453, "tags": {"amenity": "cafe", "name": "LIEBO", "opening_hours": "We-Mo,PH 09:00-17:00", "smoking": "outside", "website": "https://www.cafeliebo.de/"}}, {"type": "node", "id": 10002244226, "lat": 52.5186279, "lon": 13.2805527, "tags": {"amenity": "fast_food", "check_date": "2022-09-05", "name": "Meshur K\u00f6fteci", "wheelchair": "no"}}, {"type": "node", "id": 10121306717, "lat": 52.5218766, "lon": 13.2717769, "tags": {"leisure": "playground"}}, {"type": "node", "id": 10295706770, "lat": 52.505367, "lon": 13.2503118}, {"type": "node", "id": 10295706771, "lat": 52.5051194, "lon": 13.2503511}, {"type": "node", "id": 10295763328, "lat": 52.5072199, "lon": 13.2422728}, {"type": "node", "id": 10295763329, "lat": 52.5070872, "lon": 13.242247}, {"type": "node", "id": 10295763330, "lat": 52.5069582, "lon": 13.2421782}, {"type": "node", "id": 10295763347, "lat": 52.5065534, "lon": 13.2422322}, {"type": "node", "id": 10295763348, "lat": 52.5065513, "lon": 13.2423314}, {"type": "node", "id": 10295838025, "lat": 52.5118463, "lon": 13.2507214}, {"type": "node", "id": 10313350721, "lat": 52.5085296, "lon": 13.2747911, "tags": {"addr:city": "Berlin", "addr:housenumber": "20", "addr:postcode": "14057", "addr:street": "Masurenallee", "air_conditioning": "yes", "amenity": "restaurant", "description": "Broadcast Studio, Restaurant, Bar, Eventlocation", "indoor_seating": "yes", "name": "Studio 14 - Die rbb Dachlounge", "opening_hours": "Mo-Th 16:00-22:00,Fr-Sa 16:00-24:00", "outdoor_seating": "yes", "website": "https://studio14-dierbbdachlounge.de"}}, {"type": "node", "id": 10678335954, "lat": 52.5185304, "lon": 13.2796658}, {"type": "node", "id": 10860563913, "lat": 52.5060753, "lon": 13.2277439, "tags": {"access": "customers", "indoor": "no", "leisure": "playground", "operator": "Tiroler Stuben", "playground:sandpit": "yes", "playground:slide": "yes", "playground:structure": "yes", "playground:swing": "yes", "surface": "sand"}}, {"type": "node", "id": 11068993369, "lat": 52.5089572, "lon": 13.2723195, "tags": {"barrier": "kerb", "kerb": "lowered", "tactile_paving": "yes"}}, {"type": "node", "id": 11078136007, "lat": 52.5206608, "lon": 13.2634062, "tags": {"leisure": "playground"}}, {"type": "node", "id": 11158319186, "lat": 52.5212837, "lon": 13.2522937}, {"type": "node", "id": 11158319187, "lat": 52.5212069, "lon": 13.2522381}, {"type": "node", "id": 11158319188, "lat": 52.5212017, "lon": 13.252206}, {"type": "node", "id": 11158319189, "lat": 52.5212322, "lon": 13.2521053}, {"type": "node", "id": 11158319190, "lat": 52.5212334, "lon": 13.2520396}, {"type": "node", "id": 11158319191, "lat": 52.5213036, "lon": 13.2518782}, {"type": "node", "id": 11158319192, "lat": 52.5213334, "lon": 13.2518441}, {"type": "node", "id": 11158319193, "lat": 52.5213536, "lon": 13.2518416}, {"type": "node", "id": 11158319194, "lat": 52.5214152, "lon": 13.2519008}, {"type": "node", "id": 11158773911, "lat": 52.5186032, "lon": 13.2780902}, {"type": "node", "id": 11158773912, "lat": 52.5186493, "lon": 13.2778328}, {"type": "node", "id": 11158773913, "lat": 52.5185551, "lon": 13.2783561}, {"type": "node", "id": 11178559418, "lat": 52.5226236, "lon": 13.2572879}, {"type": "node", "id": 11178559419, "lat": 52.5226382, "lon": 13.2569741}, {"type": "node", "id": 11178559420, "lat": 52.5228602, "lon": 13.2570519}, {"type": "node", "id": 11178559421, "lat": 52.5228553, "lon": 13.257245}, {"type": "node", "id": 11215294182, "lat": 52.5097078, "lon": 13.225913}, {"type": "node", "id": 11215294183, "lat": 52.5095347, "lon": 13.2256689}, {"type": "node", "id": 11215294184, "lat": 52.5093649, "lon": 13.2248857}, {"type": "node", "id": 11264656069, "lat": 52.5138066, "lon": 13.2787407, "tags": {"addr:housenumber": "20", "addr:postcode": "14050", "addr:street": "Haeselerstra\u00dfe", "amenity": "cafe", "cuisine": "cake;coffee_shop", "name": "Caf\u00e9 September Berlin", "opening_hours": "Sa-Su 09:00-17:00; We-Fr 02:30-18:00", "phone": "+4930 98365094"}}, {"type": "node", "id": 11400126691, "lat": 52.5104901, "lon": 13.2834109, "tags": {"addr:city": "Berlin", "addr:country": "DE", "addr:housenumber": "2", "addr:postcode": "14059", "addr:street": "St\u00fclpnagelstra\u00dfe", "addr:suburb": "Westend", "amenity": "restaurant", "cuisine": "italian", "name": "La Trattoria Berlin", "opening_hours": "Mo-Su 11:00-03:00", "phone": "+493063429143", "toilets:wheelchair": "no", "website": "https://www.cancun-restaurant.de/", "wheelchair": "limited"}}, {"type": "node", "id": 11664637043, "lat": 52.508048, "lon": 13.2584971, "tags": {"amenity": "fast_food", "cuisine": "sausage", "indoor_seating": "no", "name": "W\u00fcrst'l Stand", "outdoor_seating": "no", "takeaway": "only"}}, {"type": "node", "id": 11752645379, "lat": 52.5072293, "lon": 13.2789975, "tags": {"amenity": "fast_food", "cuisine": "indian", "name": "India Express"}}, {"type": "node", "id": 11752645380, "lat": 52.507266, "lon": 13.2789927, "tags": {"amenity": "fast_food", "name": "Fritten Mafia"}}, {"type": "node", "id": 11774335461, "lat": 52.5060899, "lon": 13.2514407}, {"type": "node", "id": 11947101471, "lat": 52.5096342, "lon": 13.2705511, "tags": {"addr:housenumber": "2", "addr:postcode": "14052", "addr:street": "Heerstra\u00dfe", "amenity": "doctors", "email": "mail@berlin-fusschirurg.de", "healthcare": "doctor", "healthcare:speciality": "orthopaedics", "name": "Praxis f\u00fcr Orthop\u00e4die - Dr. med. Alexander Lemm\u00e9", "opening_hours": "Tu, Th 08:30-13:00, 14:30-18:00; Mo 08:30-13:00, 15:00-18:00; Fr 08:30-14:00", "operator": "Dr. med. Alexander Lemm\u00e9", "phone": "+49303023091", "website": "https://berlin-fusschirurg.de/praxis-orthopaedie/"}}, {"type": "node", "id": 12091767236, "lat": 52.5086581, "lon": 13.2511217}, {"type": "node", "id": 12091767237, "lat": 52.5085559, "lon": 13.2511358}, {"type": "node", "id": 12091795999, "lat": 52.5092339, "lon": 13.2510463, "tags": {"barrier": "kerb", "kerb": "raised", "tactile_paving": "no"}}, {"type": "node", "id": 12091796005, "lat": 52.5090861, "lon": 13.2510187, "tags": {"barrier": "kerb", "kerb": "lowered", "tactile_paving": "no"}}, {"type": "node", "id": 12091796009, "lat": 52.508488, "lon": 13.2510188}, {"type": "node", "id": 12091796011, "lat": 52.5099673, "lon": 13.2512325}, {"type": "node", "id": 12091796012, "lat": 52.5086153, "lon": 13.2509974}, {"type": "node", "id": 12092006827, "lat": 52.5205809, "lon": 13.2780669}, {"type": "node", "id": 12092006828, "lat": 52.5204174, "lon": 13.2785366}, {"type": "node", "id": 12092006829, "lat": 52.5204992, "lon": 13.2785656}, {"type": "node", "id": 12092006830, "lat": 52.5211874, "lon": 13.2783628}, {"type": "node", "id": 12092006831, "lat": 52.5212406, "lon": 13.2784873}, {"type": "node", "id": 12092006832, "lat": 52.5210905, "lon": 13.2788721}, {"type": "node", "id": 12092006833, "lat": 52.52117, "lon": 13.2789054}, {"type": "node", "id": 12095938831, "lat": 52.5105715, "lon": 13.2406595}, {"type": "node", "id": 12095938832, "lat": 52.5105904, "lon": 13.2406086}, {"type": "node", "id": 12095939018, "lat": 52.5102644, "lon": 13.2400335}, {"type": "node", "id": 12151617886, "lat": 52.5110677, "lon": 13.2845373, "tags": {"healthcare": "alternative", "healthcare:speciality": "naturopathy", "name": "Emine Timurdars", "opening_hours": "\"nach Vereinbarung\"", "phone": "+49 30 30 34 33 26"}}, {"type": "node", "id": 12192808086, "lat": 52.5191796, "lon": 13.2798161}, {"type": "node", "id": 12196937216, "lat": 52.5073788, "lon": 13.2263332, "tags": {"barrier": "gate"}}, {"type": "node", "id": 12196937217, "lat": 52.5073328, "lon": 13.2265579, "tags": {"barrier": "gate"}}, {"type": "node", "id": 12196937218, "lat": 52.50754, "lon": 13.2270253}, {"type": "node", "id": 12196937219, "lat": 52.507269, "lon": 13.2268703}, {"type": "node", "id": 12204716743, "lat": 52.5074871, "lon": 13.2319437}, {"type": "node", "id": 12204716744, "lat": 52.507187, "lon": 13.2326936}, {"type": "node", "id": 12204716783, "lat": 52.5071558, "lon": 13.2320542}, {"type": "node", "id": 12206063398, "lat": 52.5093056, "lon": 13.2256908}, {"type": "node", "id": 12206063399, "lat": 52.5094555, "lon": 13.2266176}, {"type": "node", "id": 12206063400, "lat": 52.5094997, "lon": 13.2264403}, {"type": "node", "id": 12206063401, "lat": 52.5095776, "lon": 13.2262149}, {"type": "node", "id": 12206063402, "lat": 52.5096429, "lon": 13.2260499}, {"type": "node", "id": 12206063403, "lat": 52.5092676, "lon": 13.2254983}, {"type": "node", "id": 12206063405, "lat": 52.5093281, "lon": 13.2258468}, {"type": "node", "id": 12206063406, "lat": 52.5093453, "lon": 13.2259908}, {"type": "node", "id": 12206063407, "lat": 52.5093641, "lon": 13.2262137}, {"type": "node", "id": 12206063408, "lat": 52.5093716, "lon": 13.2264427}, {"type": "node", "id": 12206063409, "lat": 52.5093686, "lon": 13.2266755}, {"type": "node", "id": 12206063410, "lat": 52.5093558, "lon": 13.2268873}, {"type": "node", "id": 12206063411, "lat": 52.5093228, "lon": 13.2271803}, {"type": "node", "id": 12206063412, "lat": 52.5092891, "lon": 13.2273687}, {"type": "node", "id": 12206063417, "lat": 52.5091441, "lon": 13.225329}, {"type": "node", "id": 12218907397, "lat": 52.5206715, "lon": 13.2759727, "tags": {"addr:housenumber": "130", "addr:street": "Spandauer Damm", "amenity": "clinic", "healthcare": "clinic", "healthcare:speciality": "fertility", "name": "Fertility Center Berlin", "opening_hours": "Mo-Th 07:00-19:00; Fr 07:00-18:00", "phone": "+4930233208110", "website": "https://fertilitycenterberlin.de/"}}, {"type": "node", "id": 12241368367, "lat": 52.5104355, "lon": 13.277197, "tags": {"addr:housenumber": "26", "addr:street": "Soorstra\u00dfe", "amenity": "dentist", "email": "info@zahnarzt-siebers.de", "healthcare": "dentist", "healthcare:speciality": "implantology", "level": "0", "name": "MVZ Dr. Siebers", "opening_hours": "Mo-Do 07:00-19:00; Fr 07:00-14:00", "phone": "+493031802300", "website": "https://www.zahnarzt-siebers.de/"}}, {"type": "node", "id": 12279429153, "lat": 52.517132, "lon": 13.2810331, "tags": {"amenity": "restaurant", "cuisine": "japanese;barbecue", "email": "nikuya.berlin@outlook.com", "name": "Nikuya Takiniku", "opening_hours": "Su-Th 17:00-22:30; Fr-Sa 17:00-23:00", "phone": "+49 30 76289968", "website": "https://www.nikuyayakiniku.de/"}}, {"type": "node", "id": 12400804018, "lat": 52.510536, "lon": 13.2834044, "tags": {"amenity": "dentist", "healthcare": "dentist", "name": "Dr. Jain"}}, {"type": "node", "id": 12401154035, "lat": 52.5133763, "lon": 13.2810084, "tags": {"healthcare": "physiotherapist"}}, {"type": "node", "id": 12419562721, "lat": 52.5070893, "lon": 13.2792683, "tags": {"amenity": "fast_food", "name": "Bacca"}}, {"type": "node", "id": 12554063616, "lat": 52.5181884, "lon": 13.2667166, "tags": {"access": "private", "leisure": "playground"}}, {"type": "node", "id": 12645314561, "lat": 52.507822, "lon": 13.2685413}, {"type": "node", "id": 12645519693, "lat": 52.5106677, "lon": 13.2516191}, {"type": "node", "id": 12645582884, "lat": 52.5064331, "lon": 13.2413025}, {"type": "node", "id": 12645582885, "lat": 52.5064197, "lon": 13.2413088}, {"type": "node", "id": 12645582886, "lat": 52.5064101, "lon": 13.2413288}, {"type": "node", "id": 12645582887, "lat": 52.506527, "lon": 13.2414674}, {"type": "node", "id": 12645582888, "lat": 52.5065229, "lon": 13.2414919}, {"type": "node", "id": 12645582889, "lat": 52.5064876, "lon": 13.2415423}, {"type": "node", "id": 12645582890, "lat": 52.5064678, "lon": 13.241545}, {"type": "node", "id": 12673203083, "lat": 52.5166261, "lon": 13.2581307, "tags": {"addr:housenumber": "10", "addr:street": "Olympische Stra\u00dfe", "amenity": "dentist", "healthcare": "dentist", "name": "Dr.med.dent. Stefan Rattunde", "phone": "0303042313", "website": "https://www.zahnarzt-rattunde.de/"}}, {"type": "node", "id": 12736656530, "lat": 52.5091162, "lon": 13.2594676}, {"type": "node", "id": 12736656531, "lat": 52.5094651, "lon": 13.2594124}, {"type": "node", "id": 12736656532, "lat": 52.509518, "lon": 13.2601657}, {"type": "node", "id": 12736656533, "lat": 52.5094747, "lon": 13.260383}, {"type": "node", "id": 12736656534, "lat": 52.509452, "lon": 13.2605184}, {"type": "node", "id": 12736656535, "lat": 52.5094264, "lon": 13.2606466}, {"type": "node", "id": 12736656536, "lat": 52.5093211, "lon": 13.2605982}, {"type": "node", "id": 12736656537, "lat": 52.5092383, "lon": 13.2605685}, {"type": "node", "id": 12736656538, "lat": 52.5091817, "lon": 13.2605775}, {"type": "node", "id": 12736656570, "lat": 52.509214, "lon": 13.2602357}, {"type": "node", "id": 12736656572, "lat": 52.5092207, "lon": 13.2603497}, {"type": "node", "id": 12736656573, "lat": 52.5093088, "lon": 13.2603356}, {"type": "node", "id": 12925447713, "lat": 52.5183562, "lon": 13.2508725}, {"type": "node", "id": 12925447714, "lat": 52.5184064, "lon": 13.2512495}, {"type": "node", "id": 12925447715, "lat": 52.5185229, "lon": 13.2512076}, {"type": "node", "id": 12925447716, "lat": 52.5184727, "lon": 13.2508307}, {"type": "node", "id": 12947333477, "lat": 52.5190156, "lon": 13.2588004}, {"type": "node", "id": 12947333478, "lat": 52.5190642, "lon": 13.2589584}, {"type": "node", "id": 12947333479, "lat": 52.5191345, "lon": 13.2589}, {"type": "node", "id": 12947333480, "lat": 52.5190859, "lon": 13.258742}, {"type": "node", "id": 12947333485, "lat": 52.5198879, "lon": 13.2595191}, {"type": "node", "id": 12947333486, "lat": 52.5197966, "lon": 13.2595582}, {"type": "node", "id": 12947333487, "lat": 52.5197702, "lon": 13.2593916}, {"type": "node", "id": 12947333488, "lat": 52.5198615, "lon": 13.2593525}, {"type": "node", "id": 12947333493, "lat": 52.5188083, "lon": 13.2581636}, {"type": "node", "id": 12947333494, "lat": 52.5188538, "lon": 13.2582651}, {"type": "node", "id": 12947333495, "lat": 52.5187717, "lon": 13.2583645}, {"type": "node", "id": 12947333496, "lat": 52.5187262, "lon": 13.2582632}, {"type": "way", "id": 9873833, "nodes": [79801232, 3792273963, 1753078688, 9124248949, 9124216389, 3816966889, 79801175, 3816959421, 79801179, 79801184, 1753078681, 79801189, 3792270140, 79801193, 1753078676, 3816959383, 79801197, 3816959430, 79801198, 3792270139, 1753078666, 79801200, 79801202, 3792270138, 1753078661, 79801203, 1753078659, 79801204, 3792342200, 11068993369, 9124248971, 3792342201, 79801208, 1753078667, 79801211, 3792342202, 1753051385, 79801214, 1753078670, 1753051387, 1753097245, 79801217, 3792342203, 1753051408, 1753078675, 1753078683, 79801226, 3817027991, 1753078685, 3816966894, 79801229, 1753078686, 79801232], "tags": {"barrier": "kerb", "leisure": "park", "protection_title": "Gesch\u00fctzte Gr\u00fcnanlage"}}, {"type": "way", "id": 9873834, "nodes": [79801235, 79801237, 7501452479, 79801239, 7501452480, 696361890, 79801240, 79801242, 696361939, 696361920, 12645314561, 79801245, 7501452478, 79801235], "tags": {"boundary": "protected_area", "heritage": "4", "heritage:operator": "lda", "lda:criteria": "Gartendenkmal", "leisure": "park", "protect_class": "22", "ref:lda": "09046340,T", "start_date": "1913"}}, {"type": "way", "id": 23148091, "nodes": [59861545, 1387168887, 1387168766, 1387168543, 1387168394, 1387168359, 1387168439, 1387147561, 1387147718, 1387168614, 1387168661, 1387168487, 8412327361, 8412327362, 8412327363, 1387168510, 250061573, 1387147537, 250061570, 1387168650, 1387168418, 59861548, 1387168665, 1387168354, 1387168588, 1387168378, 1387168728, 59861545]}, {"type": "way", "id": 23444476, "nodes": [253899012, 253839780, 253839777, 253898993, 10295706771, 10295706770, 7501461269, 7501461268, 253899012], "tags": {"leisure": "park"}}, {"type": "way", "id": 27097953, "nodes": [297317730, 297317731, 1387168483, 9107645423, 297317732, 9107645421, 297317733, 9107645422, 297317734, 297317735, 297317736, 297317737, 297317738, 297317739, 1387168417, 1387168811, 1387168726, 297317740, 1387168781, 1387168456, 297317741, 1387168891, 9107645420, 9107645424, 297317742, 297317743, 297317746, 1387168576, 297317747, 1387168761, 297317748, 297317750, 297317730], "tags": {"natural": "water"}}, {"type": "way", "id": 31696428, "nodes": [354690094, 354690110, 354690109, 354690108, 354690107, 354690104, 354690103, 354690102, 354690101, 354690100, 354690099, 354690098, 354690097, 354690096, 354690095, 354690094], "tags": {"leisure": "park"}}, {"type": "way", "id": 37331967, "nodes": [435136438, 4218709869, 4218709866, 4218709865, 435136439, 2722864634, 435136440, 2722868481, 2722864637, 2722864629, 2722868484, 4218709867, 435136437, 4218709870, 435136438], "tags": {"access": "permissive", "amenity": "parking", "lit": "yes", "note:capacity:disabled": "unknown", "parking": "surface", "surface": "asphalt"}}, {"type": "way", "id": 44504868, "nodes": [5472908398, 5472908399, 565459047, 565459046, 5472935298, 565459060, 5472935297, 565459059, 5472908390, 5472908389, 5472908388, 3211608034, 565459049, 565459048, 5472908398], "tags": {"addr:city": "Berlin", "addr:country": "DE", "addr:housenumber": "28", "addr:postcode": "14055", "addr:street": "Flatowallee", "addr:suburb": "Westend", "amenity": "cafe", "building": "yes", "building:levels": "1", "capacity": "50", "email": "info@olympia-eck.de", "layer": "1", "name": "Olympia-Eck", "opening_hours": "Mo-Fr 10:00-18:00", "phone": "+49 30 3044207", "toilets:wheelchair": "no", "website": "http://www.olympia-eck.de/", "wheelchair": "yes"}}, {"type": "way", "id": 49576668, "nodes": [356306526, 1095093700, 1095093671, 630481357, 630481296, 2377979256, 2377979255, 724442392, 356306527, 2296386934, 2296386935, 356306526], "tags": {"addr:city": "Berlin", "addr:country": "DE", "addr:housenumber": "14-18", "addr:postcode": "14059", "addr:street": "F\u00fcrstenbrunner Weg", "addr:suburb": "Westend", "brand": "Lidl", "brand:wikidata": "Q151954", "brand:wikipedia": "en:Lidl", "building": "retail", "name": "Lidl", "opening_hours": "Mo-Sa 07:00-22:00; Su,PH off", "phone": "+49 800 4353361", "shop": "supermarket", "source": "Geoportal Berlin / Hausumringe", "website": "https://www.lidl.de/filialen/berlin-charlottenburg-wilmersdorf/westend-fuerstenbrunner-weg-14-18.html", "wheelchair": "yes"}}, {"type": "way", "id": 53038853, "nodes": [630481251, 11158773912, 11158773911, 11158773913, 46494611, 630481274, 671696775, 671696778, 630481280, 10678335954, 3046902044, 3046902048, 3046902049, 3046902046, 3046902047, 3046902050, 3046902052, 3046902053, 3046902055, 3046902059, 3046902062, 3046902067, 3046902040, 3046902076, 3046902081, 3046902086, 3046902087, 3046902097, 3047048626, 12192808086, 3047048636, 3047048644, 1958758658, 255542319, 630481335, 630481340, 255542320, 444758082, 2089221788, 444758083, 444758088, 630481251], "tags": {"addr:city": "Berlin", "addr:country": "DE", "addr:housenumber": "130", "addr:postcode": "14050", "addr:street": "Spandauer Damm", "addr:suburb": "Westend", "amenity": "hospital", "brand": "Deutsches Rotes Kreuz", "brand:wikidata": "Q694104", "brand:wikipedia": "de:Deutsches Rotes Kreuz", "contact:email": "email@drk-kliniken-westend.de", "contact:fax": "+49 30 3035-4849", "contact:phone": "+49 30 3035-0", "contact:website": "http://www.drk-kliniken-berlin.de/westend/lageplan-der-drk-kliniken-berlin-westend/", "emergency": "yes", "healthcare": "hospital", "name": "DRK Kliniken Berlin Westend", "opening_hours": "24/7", "operator": "Deutsches Rotes Kreuz Schwesternschaft Berlin Gemeinn\u00fctzige Krankenhaus GmbH", "wheelchair": "yes", "wikidata": "Q88891389", "wikipedia": "de:DRK Kliniken Berlin Westend"}}, {"type": "way", "id": 53038854, "nodes": [671696846, 671696856, 671696787, 671696766, 671696846], "tags": {"leisure": "park"}}, {"type": "way", "id": 53038873, "nodes": [671696851, 671696859, 12092006828, 12092006829, 12092006827, 8768926319, 8768926317, 8768926318, 8768926320, 12092006830, 12092006832, 12092006833, 12092006831, 671696879, 671696880, 671696851], "tags": {"leisure": "park"}}, {"type": "way", "id": 53050416, "nodes": [671797198, 671797192, 671797194, 671797197, 671797198], "tags": {"leisure": "park"}}, {"type": "way", "id": 54065474, "nodes": [682127687, 682127540, 682127661, 682127585, 682127517, 682127627, 682127552, 682127679, 682127603, 7140959756, 7140959755, 7140959754, 682127600, 682127526, 682127687], "tags": {"amenity": "restaurant", "building": "yes", "name": "Wasserfreunde Spandau 04 e.v."}}, {"type": "way", "id": 55414175, "nodes": [696361904, 696362001, 696361887, 696361973, 696361933, 696361885, 696361906, 696361992, 696362026, 696361959, 696361982, 696361924, 696361949, 696361896, 696361919, 696362013, 696361889, 696361904], "tags": {"access": "yes", "leisure": "playground"}}, {"type": "way", "id": 58436378, "nodes": [724442442, 5448630032, 2459293519, 724442449, 2459293523, 2459293528, 724442398, 724442466, 724442436, 724442442], "tags": {"addr:city": "Berlin", "addr:housenumber": "50", "addr:street": "F\u00fcrstenbrunner Weg", "brand": "ALDI Nord", "brand:wikidata": "Q41171373", "brand:wikipedia": "en:Aldi", "building": "retail", "check_date:opening_hours": "2024-08-18", "name": "ALDI Nord", "opening_hours": "Mo-Sa 07:00-21:00", "shop": "supermarket", "website": "https://www.aldi-nord.de/tools/filialen-und-oeffnungszeiten/berlin/westend/fuerstenbrunner-weg-50.html", "wheelchair": "yes"}}, {"type": "way", "id": 62187838, "nodes": [775766592, 775766590, 775766596, 5373734856, 5373734855, 5373734854, 5373734853, 5373734852, 5373734851, 291238046, 775766595, 775766592], "tags": {"addr:city": "Berlin", "addr:country": "DE", "addr:housenumber": "137", "addr:postcode": "14055", "addr:street": "Heerstra\u00dfe", "addr:suburb": "Westend", "amenity": "restaurant", "biergarten": "yes", "building": "restaurant", "contact:phone": "+49 30 30099466", "contact:website": "https://www.tiroler-stuben.com/", "indoor_seating": "yes", "name": "Tiroler Stuben", "opening_hours": "Mo-Su 11:00-23:00", "outdoor_seating": "yes", "toilets:wheelchair": "no", "wheelchair": "yes"}}, {"type": "way", "id": 72175163, "nodes": [858011073, 858011078, 858011066, 240472780, 7063271157, 7063271158, 7063271159, 7063271160, 858011073], "tags": {"leisure": "park", "protection_title": "Gesch\u00fctzte Gr\u00fcnanlage"}}, {"type": "way", "id": 72175171, "nodes": [12645519693, 7501632020, 7501632021, 12091796011, 7501632022, 12091795999, 7501632023, 12091796005, 7501632025, 7501632026, 12091796012, 12091796009, 7501659501, 7501659502, 7501659504, 7501659506, 7501659508, 7501659510, 7501659512, 7501659514, 7501659516, 7501659517, 7501659518, 12645519693]}, {"type": "way", "id": 97862390, "nodes": [7501659538, 7501659534, 7501659532, 7501659530, 7501659528, 7501659526, 7501659524, 7501659522, 7501659520, 5859244015, 5859244071, 5859244072, 5859244073, 598809913, 598809912, 5859210131, 5859210129, 8829028998, 8829028994, 8829028999, 8829028995, 8829028996, 8829028997, 5257308477, 5257308478, 5257308475, 2722864602, 2722864614, 2722864608, 2722864620, 7501659541, 7501659538]}, {"type": "way", "id": 101322375, "nodes": [1169738012, 9660687200, 9660687196, 9660687171, 9660687197, 1169738014, 1169738016, 9660687198, 9660687178, 9660687185, 9660687199, 1169738021, 9660604214, 9660687137, 1169738012], "tags": {"leisure": "park", "protection_title": "Gesch\u00fctzte Gr\u00fcnanlage"}}, {"type": "way", "id": 124700085, "nodes": [1387147374, 1387147245, 9107758752, 1387147478, 1387147845, 1387147344, 1387147856, 1387147716, 1387147549, 9107758751, 1387147401, 1387147631, 1387147253, 9107758750, 1387147789, 1387147351, 9107758749, 1387147881, 9107758753, 1387147731, 1387147469, 1387147578, 1387147419, 1387147374], "tags": {"access": "yes", "leisure": "playground"}}, {"type": "way", "id": 129614760, "nodes": [1429725491, 1429725489, 12645582886, 12645582885, 12645582884, 1429725490, 1429725492, 12645582887, 12645582888, 1429725493, 12645582889, 12645582890, 1429725491], "tags": {"leisure": "park"}}, {"type": "way", "id": 138215763, "nodes": [1515167729, 12204716743, 1515167724, 5727115591, 5727115592, 12204716783, 5727115593, 12204716744, 5727115752, 5727115751, 5727115750, 5727115749, 5727115748, 5727115747, 1515167726, 5727115746, 1515167731, 5727115744, 1515167729], "tags": {"addr:city": "Berlin", "addr:country": "DE", "addr:housenumber": "25-39", "addr:postcode": "14055", "addr:street": "Dickensweg", "addr:suburb": "Westend", "amenity": "hospital", "contact:email": "info@paulinenkrankenhaus.de", "contact:fax": "+49 30 30008-220", "contact:phone": "+49 30 30008-0", "contact:website": "http://www.paulinenkrankenhaus.de/", "healthcare": "hospital", "name": "Paulinen Krankenhaus", "operator": "Paulinenhaus Krankenanstalt e.V.", "phone": "+49 30 300080", "website": "https://www.paulinenkrankenhaus.de/", "wheelchair": "limited", "wikidata": "Q29793946"}}, {"type": "way", "id": 144480867, "nodes": [1580370374, 1580370381, 1580370384, 1580370387, 1580370377, 1580370357, 1580370354, 1580370348, 1580370351, 1580370379, 1580370376, 1580370389, 1580370374], "tags": {"leisure": "park", "name": "Jahnplatz", "name:etymology:wikidata": "Q77098", "source": "bing", "wikidata": "Q109907523"}}, {"type": "way", "id": 151822601, "nodes": [1646685354, 1646685353, 7503172023, 1646685351, 1646685354], "tags": {"access": "yes", "leisure": "playground"}}, {"type": "way", "id": 168904177, "nodes": [3046728139, 3046728113, 3046728177, 3046728195, 3046728139], "tags": {"amenity": "cafe", "building": "yes", "cuisine": "ice_cream", "name": "Eis-Emporio", "wheelchair": "limited"}}, {"type": "way", "id": 170745163, "nodes": [128355990, 1818905544, 2332033781, 1818905545, 128356002, 128355990], "tags": {"addr:city": "Berlin", "addr:country": "DE", "addr:housenumber": "9a", "addr:postcode": "14059", "addr:street": "K\u00f6nigin-Elisabeth-Stra\u00dfe", "addr:suburb": "Westend", "brand": "Edeka", "brand:wikidata": "Q701755", "brand:wikipedia": "de:Edeka", "building:levels": "1", "building:part": "retail", "name": "EDEKA", "opening_hours": "Mo-Sa 07:00-22:00", "operator": "EDEKA ZENTRALE AG & Co. KG", "roof:levels": "0", "shop": "supermarket", "website": "https://www.edeka.de", "wheelchair": "yes"}}, {"type": "way", "id": 198756373, "nodes": [2088547960, 2088547962, 2088547965, 2088547963, 2088547960], "tags": {"leisure": "playground"}}, {"type": "way", "id": 207915632, "nodes": [2181613478, 2181613476, 2181613477, 2181613479, 2181613480, 9013052669, 2181613478], "tags": {"leisure": "park"}}, {"type": "way", "id": 209288855, "nodes": [7501491495, 7501491496, 5373733719, 5373733716, 5373734822, 10295763348, 10295763347, 5373733717, 5373733713, 5373733710, 5373733720, 5373733718, 5373733711, 5373733714, 10295763330, 5373733709, 10295763329, 5373733708, 10295763328, 5373733712, 7501491495], "tags": {"leisure": "park"}}, {"type": "way", "id": 266772102, "nodes": [2722864611, 2722864619, 2722864601, 2722864622, 2722864612, 2722864633, 2722864640, 2722864609, 2722864600, 2722864627, 2722864617, 2722864610, 2722864598, 2722864623, 2722864604, 2722864616, 2722864611], "tags": {"access": "permissive", "leisure": "playground"}}, {"type": "way", "id": 266772107, "nodes": [5859243987, 2722864626, 2722864632, 5859243988, 5859243989, 5859243990, 2722864599, 2722864615, 2722864631, 5859243987], "tags": {"addr:city": "Berlin", "addr:country": "DE", "addr:housenumber": "16", "addr:postcode": "14055", "addr:street": "Flatowallee", "addr:suburb": "Westend", "amenity": "kindergarten", "contact:email": "kita@die-wilden-westender.de", "contact:fax": "+49 30 3011 1769", "contact:phone": "+49 30 3083 4998", "contact:website": "http://www.die-wilden-westender.de/", "name": "Die wilden Westender", "operator": "EKT - Die wilden Westender e.V."}}, {"type": "way", "id": 266782475, "nodes": [8521486446, 8521486445, 2722953778, 2722953776, 8521584069, 2722953768, 8521584075, 12091767236, 8521584072, 12091767237, 2722953773, 2722953771, 8521584080, 8521486446], "tags": {"addr:city": "Berlin", "addr:country": "DE", "addr:housenumber": "1", "addr:postcode": "14055", "addr:street": "Pillkaller Allee", "addr:suburb": "Westend", "amenity": "hospital", "contact:email": "verwaltung@malteser-krankenhaus-berlin.de", "contact:fax": "+49 30 30001437", "contact:phone": "+49 30 300010", "contact:website": "https://malteser-krankenhaus-berlin.de/", "healthcare": "hospital", "name": "Malteser-Krankenhaus", "operator": "Malteser-Werk Berlin e.V.", "operator:type": "religious", "religion": "christian", "wheelchair": "yes", "wikidata": "Q77078238"}}, {"type": "way", "id": 266804712, "nodes": [2723150859, 2723150860, 2723150862, 2723150857, 2723150859], "tags": {"access": "permissive", "leisure": "playground"}}, {"type": "way", "id": 300600630, "nodes": [3046799340, 3046799223, 3046799216, 3046799227, 3046799230, 3046799340], "tags": {"access": "yes", "leisure": "playground", "protection_title": "Gesch\u00fctzte Gr\u00fcnanlage"}}, {"type": "way", "id": 300824936, "nodes": [9660667567, 9660667599, 9660667565, 9660667601, 9660667564, 9660667598, 9660667596, 9660667437, 9660667435, 9660667562, 9660667433, 9660667594, 9660667431, 9660667592, 9660667561, 9660667590, 9660667560, 9660667586, 9660667559, 9660667584, 9660667558, 9660667582, 9660667576, 9660667557, 9660667429, 9660667578, 9660667490, 9660667573, 9660667491, 9660667574, 9660667425, 9660667556, 9660667575, 9660667579, 9660667555, 9660667577, 9660667554, 9660667580, 9660667581, 9660667553, 9660667583, 9660667587, 9660667423, 9660667421, 9660667585, 9660667589, 9660667419, 9660667417, 9660667588, 9660667552, 9660667591, 9660667551, 9660667593, 9660667550, 9660667595, 9660667597, 9660667549, 9660667600, 9660667548, 9660667569, 9660641415, 9660641413, 9660667568, 9660667566, 9660641410, 9660667572, 9660667570, 9660667571, 9660667547, 9660667567], "tags": {"leisure": "park", "protection_title": "Gesch\u00fctzte Gr\u00fcnanlage"}}, {"type": "way", "id": 302039642, "nodes": [3062758739, 3062758740, 3062758738, 3062758737, 3062758739], "tags": {"leisure": "playground"}}, {"type": "way", "id": 323329250, "nodes": [3664889049, 3664889046, 3664889051, 3664889052, 3664889049], "tags": {"leisure": "park", "name": "Martha-Jacob-Platz", "name:etymology:wikidata": "Q16218271"}}, {"type": "way", "id": 349526270, "nodes": [3553751718, 3553751719, 3553751721, 3553751725, 3553751727, 3553751731, 3553751735, 3553751737, 3553751739, 3553751738, 3553751736, 3553751732, 3553751729, 3553751726, 3553751722, 3553751720, 3553751718], "tags": {"access": "yes", "leisure": "playground", "playground": "sandpit"}}, {"type": "way", "id": 362222483, "nodes": [3665698594, 3665698589, 3665698579, 3665698588, 3665698594], "tags": {"leisure": "park", "protection_title": "Gesch\u00fctzte Gr\u00fcnanlage"}}, {"type": "way", "id": 429526580, "nodes": [4286770645, 1356495763, 1356495756, 1356495770, 4286770645], "tags": {"access": "private", "leisure": "playground"}}, {"type": "way", "id": 493661564, "nodes": [4855467150, 4855467147, 4855467148, 4855467149, 4855467151, 4855467150], "tags": {"access": "yes", "leisure": "playground"}}, {"type": "way", "id": 505092309, "nodes": [4951233740, 4951233739, 4951233738, 1084078629, 4951233740], "tags": {"access": "private", "leisure": "playground"}}, {"type": "way", "id": 505092311, "nodes": [4951233749, 4951233748, 4951233747, 4951233746, 4951233745, 4951233744, 4951233743, 4951233749], "tags": {"access": "private", "leisure": "playground"}}, {"type": "way", "id": 513949555, "nodes": [5022310309, 5022310308, 5022310307, 5022310306, 5022310305, 5022310304, 5022310303, 5022310302, 5022310301, 5022310299, 5022310300, 5022310309], "tags": {"leisure": "playground", "wheelchair": "no"}}, {"type": "way", "id": 550912618, "nodes": [5320567566, 5320567565, 5320567564, 5320567563, 5320567562, 5320567561, 5320567566], "tags": {"addr:city": "Berlin", "addr:housenumber": "153", "addr:postcode": "14055", "addr:street": "Eichkampstra\u00dfe", "amenity": "restaurant", "building": "yes", "contact:email": "info@sarajevo-inn-grunewald.com", "contact:fax": "+49 30 89541182", "contact:phone": "+49 30 89541181", "contact:website": "http://www.sarajevo-inn-grunewald.com/", "cuisine": "bosnian", "diet:vegetarian": "yes", "name": "Sarajevo Inn Grunewald", "opening_hours": "Mo-Su 12:00-23:00", "outdoor_seating": "yes"}}, {"type": "way", "id": 557070566, "nodes": [5372922672, 5372922671, 5372923333, 5372923334, 5372923338, 5372923335, 5372922670, 5372922669, 5372922668, 5372922672], "tags": {"access": "yes", "leisure": "playground", "wheelchair": "limited"}}, {"type": "way", "id": 557070573, "nodes": [5372923336, 5372923004, 5372923003, 5372923002, 5372923001, 5372923000, 5372922999, 5372922998, 5372922997, 5372922996, 5372922995, 5372922994, 5372922993, 5372922992, 5372922991, 5372922990, 5372922989, 5372922988, 5372922987, 5372922986, 5372922985, 5372922984, 5372922983, 5372922982, 5372922981, 5372922980, 5372922979, 5372922978, 5372922977, 5372922976, 5372922975, 5372922974, 5372922973, 5372922972, 5372922971, 5372922970, 5372923337, 5372923336], "tags": {"heritage": "4", "heritage:operator": "lda", "lda:criteria": "Gartendenkmal", "leisure": "park", "name": "Brixplatz", "name:etymology:wikidata": "Q1500009", "ref:lda": "09046323", "wikidata": "Q921431"}}, {"type": "way", "id": 557071789, "nodes": [6238296993, 5372931373, 5372931372, 5372931371, 5372931370, 5372931369, 5372931368, 5372931367, 5372931366, 5372931365, 5372931364, 5372931363, 5372931362, 5372931361, 5372931360, 5372931359, 6238296994, 9854637834, 9854637833, 9854637832, 9854637831, 9854637830, 9854637829, 9854637828, 9854637827, 9854637826, 6238296993], "tags": {"barrier": "kerb", "landuse": "grass", "leisure": "park"}}, {"type": "way", "id": 557071791, "nodes": [6238296991, 9854637820, 5372931378, 5372931377, 5372931375, 5372931374, 5372931406, 6238296995, 6238296996, 9854637823, 9854637822, 9854637821, 6238296997, 9854637824, 6238296998, 9854637825, 6238296999, 5372931392, 5372931391, 5372931390, 5372931389, 5372931388, 6238296992, 9854637817, 9854637818, 9854637819, 6238296991], "tags": {"barrier": "kerb", "landuse": "grass", "leisure": "park"}}, {"type": "way", "id": 590752562, "nodes": [5639479998, 5639479999, 5639480000, 5639480001, 5639479998], "tags": {"access": "yes", "leisure": "playground", "surface": "sand"}}, {"type": "way", "id": 620121750, "nodes": [5859194726, 5859194725, 5859194724, 5859194723, 5859194722, 5859194721, 5859194720, 5859194719, 5859194726], "tags": {"access": "yes", "leisure": "playground"}}, {"type": "way", "id": 620121751, "nodes": [5859194740, 5859194739, 5859194738, 5859194737, 5859194736, 5859194735, 5859194734, 5859194733, 5859194732, 5859194731, 5859194730, 5859194729, 5859194728, 5859194727, 5859194740], "tags": {"leisure": "park"}}, {"type": "way", "id": 620127159, "nodes": [5859243986, 5859243985, 5859243384, 5859243383, 5859243382, 5859243381, 5859243380, 5859243379, 5859243378, 5859243377, 5859243376, 5859243986], "tags": {"leisure": "playground"}}, {"type": "way", "id": 620128109, "nodes": [5859257576, 5859257575, 5859257574, 5859257573, 5859257572, 5859257571, 5859257570, 5859257569, 5859257568, 5859257567, 5859257566, 5859257576], "tags": {"access": "yes", "leisure": "playground"}}, {"type": "way", "id": 625953808, "nodes": [5909733360, 5909733357, 5909733355, 5909733353, 5909733351, 5909733349, 5909733363, 5909733362, 5909733361, 5909733359, 5909733358, 5909733356, 5909733354, 5909733352, 5909733350, 5909733360], "tags": {"access": "yes", "leisure": "playground"}}, {"type": "way", "id": 666324858, "nodes": [5372923045, 5372923044, 6238296987, 9854594812, 6238296988, 9854594814, 6238296989, 9854594813, 9854594815, 9854594816, 6238296990, 9854594811, 5372923045], "tags": {"barrier": "kerb", "landuse": "grass", "leisure": "park"}}, {"type": "way", "id": 746474569, "nodes": [6985643119, 6985643118, 6985643117, 6985643116, 6985643119], "tags": {"leisure": "playground"}}, {"type": "way", "id": 747042866, "nodes": [6990281517, 6990281516, 6990281515, 6990281514, 6990281513, 3046935982, 3046935987, 6990281512, 6990281511, 6990281510, 6990281509, 6990281508, 6990281517], "tags": {"access": "yes", "leisure": "playground", "protection_title": "Gesch\u00fctzte Gr\u00fcnanlage"}}, {"type": "way", "id": 801979878, "nodes": [7501461282, 7501491489, 7501461283, 7501461284, 7501491485, 7501491486, 7501491487, 7501461282], "tags": {"leisure": "park"}}, {"type": "way", "id": 801979879, "nodes": [7501491490, 7501491491, 11774335461, 7501491492, 7501491493, 7501491490], "tags": {"leisure": "park"}}, {"type": "way", "id": 939030624, "nodes": [8698896062, 1114011619, 1285681132, 9507460409, 9507460412, 8698896063, 8698896064, 8698896065, 8698775800, 8698896062], "tags": {"access": "permissive", "leisure": "park", "name": "Schulgarten", "operator": "Heinz-Berggruen-Gymnasium"}}, {"type": "way", "id": 948494980, "nodes": [8779473467, 8779473468, 8779473469, 8779473470, 8779473467], "tags": {"access": "yes", "leisure": "playground", "name": "Spielplatz Sportforumstra\u00dfe", "surface": "grass"}}, {"type": "way", "id": 953907243, "nodes": [8829029009, 8829029006, 8829029004, 8829029008, 8829552888, 8829029009], "tags": {"area": "yes"}}, {"type": "way", "id": 953960554, "nodes": [8829469595, 8829469594, 8829501700, 8829501701, 8829469592, 8829501705, 8829501703, 8829501702, 8829501704, 8829469593, 8829469595], "tags": {"landuse": "meadow"}}, {"type": "way", "id": 953966414, "nodes": [8829501685, 8829501684, 8829501683, 8829501682, 8829501681, 8829501680, 8829501685], "tags": {"landuse": "grass"}}, {"type": "way", "id": 953966415, "nodes": [8829553498, 8829501688, 8829501691, 8829501687, 8829501686, 8829501690, 8829501692, 8829553493, 8829553491, 8829553488, 8829553486, 8829553485, 8829553487, 8829553489, 8829553484, 8829553490, 8829553492, 8829553495, 8829553494, 8829553496, 8829553497, 8829501694, 8829501696, 8829501699, 8829501698, 8829501697, 8829553498], "tags": {"landuse": "grass"}}, {"type": "way", "id": 985100549, "nodes": [9107476901, 9107476900, 9107476899, 9107476898, 9107476897, 9107476896, 9107476895, 9107476894, 9107476893, 9107476892, 9107476891, 9107476890, 9107476889, 9107476888, 9107476887, 9107476886, 9107476885, 9107476884, 9107476883, 9107476882, 9107476881, 9107476880, 9107476879, 9107476878, 9107476877, 9107476876, 9107476875, 9107476874, 9107476873, 9107476872, 9107476871, 9107476870, 9107476869, 9107476868, 9107476867, 9107476866, 9107476865, 9107476864, 9107476863, 9107476862, 9107476861, 9107476860, 9107476859, 9107476901], "tags": {"landuse": "grass"}}, {"type": "way", "id": 985100550, "nodes": [9107480525, 9107480524, 9107480523, 9107480522, 9107480521, 9107480520, 9107480519, 9107480518, 9107480517, 9107480516, 9107480515, 9107480514, 9107480513, 9107480512, 9107480511, 9107480510, 9107480509, 9107480508, 9107480507, 9107480506, 9107480505, 9107480504, 9107480503, 9107480502, 9107480501, 9107480500, 9107480499, 9107480498, 9107480497, 9107480496, 9107480495, 9107480494, 9107480493, 9107480492, 9107480491, 9107480490, 9107480489, 9107480488, 9107480487, 9107480486, 9107480485, 9107480484, 9107480483, 9107480482, 9107480481, 9107480480, 9107480479, 9107480478, 9107480477, 9107480476, 9107480475, 9107480474, 9107480473, 9107480472, 9107480471, 9107480470, 9107480469, 9107480468, 9107480467, 9107480466, 9107480465, 9107480464, 9107480463, 9107480462, 9107480461, 9107480460, 9107480459, 9107480458, 9107480457, 9107480456, 9107480455, 9107480454, 9107480453, 9107480452, 9107480451, 9107480450, 9107480449, 9107480448, 9107480447, 9107480446, 9107480445, 9107480444, 9107480443, 9107480442, 9107480441, 9107480440, 9107480439, 9107480438, 9107480437, 9107480436, 9107480435, 9107480434, 9107480433, 9107480432, 9107480431, 9107480430, 9107480429, 9107480428, 9107480427, 9107480426, 9107480425, 9107480424, 9107480423, 9107480422, 9107480421, 9107480420, 9107480419, 9107480418, 9107480417, 9107476916, 9107476915, 9107476914, 9107476913, 9107476912, 9107476911, 9107476910, 9107476909, 9107476908, 9107476907, 9107476906, 9107476905, 9107476904, 9107476903, 9107476902, 9107480525], "tags": {"landuse": "grass"}}, {"type": "way", "id": 985117056, "nodes": [9107645419, 9107645418, 9107645417, 9107636316, 9107636315, 9107636314, 9107636313, 9107636312, 9107636311, 9107636310, 9107636309, 9107636308, 9107636307, 9107636306, 9107636305, 9107636304, 9107636303, 9107636302, 9107636301, 9107636300, 9107636299, 9107636298, 9107636297, 9107636296, 9107636295, 9107636294, 9107636293, 9107636292, 9107636291, 9107636290, 9107636289, 9107636288, 9107645419], "tags": {"landuse": "grass"}}, {"type": "way", "id": 985117057, "nodes": [9107645468, 9107645467, 9107645466, 9107645465, 9107645464, 9107645463, 9107645462, 9107645461, 9107645460, 9107645459, 9107645458, 9107645457, 9107645456, 9107645455, 9107645454, 9107645453, 9107645452, 9107645451, 9107645450, 9107645449, 9107645448, 9107645447, 9107645446, 9107645445, 9107645444, 9107645443, 9107645442, 9107645441, 9107645440, 9107645439, 9107645438, 9107645437, 9107645436, 9107645435, 9107645434, 9107645433, 9107645432, 9107645431, 9107645430, 9107645429, 9107645468], "tags": {"landuse": "grass"}}, {"type": "way", "id": 985128277, "nodes": [9107762283, 9107762282, 9107762281, 9107762280, 9107762279, 9107476838, 9107762278, 9107762277, 9107762276, 9107762275, 9107762274, 9107762273, 9107762272, 9107762271, 9107762270, 9107762269, 9107762268, 9107762267, 9107762266, 9107762265, 9107762264, 9107762263, 9107762262, 9107762261, 9107762283], "tags": {"landuse": "grass"}}, {"type": "way", "id": 1016839452, "nodes": [769711663, 9378878742, 9378878741, 9378878740, 9378878739, 769711684, 769711632, 769711657, 769711678, 769711639, 769711663], "tags": {"addr:city": "Berlin", "addr:country": "DE", "addr:housenumber": "2", "addr:postcode": "14055", "addr:street": "Teufelsseestra\u00dfe", "addr:suburb": "Westend", "amenity": "restaurant", "contact:phone": "+49 179 2390688", "cuisine": "italian;pizza", "diet:vegetarian": "yes", "indoor_seating": "yes", "name": "Rafih", "opening_hours": "Mo-Su 12:00-22:00", "outdoor_seating": "yes", "wheelchair": "no"}}, {"type": "way", "id": 1031612120, "nodes": [1285681250, 9507493626, 9507493627, 9507493628, 9507493629, 9507493630, 1285681215, 9553855581, 1285681250], "tags": {"access": "yes", "blind": "no", "dog": "no", "indoor": "no", "leisure": "playground", "operator": "Bezirksamt Charlottenburg-Wilmersdorf, Fachbereich Gr\u00fcnfl\u00e4chen", "playground:theme": "castle", "source": "survey", "surface": "sand", "wheelchair": "no"}}, {"type": "way", "id": 1051270700, "nodes": [7482826439, 4543892513, 4543892512, 4543892509, 4543892508, 4543892507, 4543892504, 4543892503, 4543892499, 3724189398, 9660730758, 9660730757, 9660730756, 7482826439], "tags": {"leisure": "park", "protection_title": "Gesch\u00fctzte Gr\u00fcnanlage"}}, {"type": "way", "id": 1058357100, "nodes": [9725150482, 9725150481, 9725150480, 9725150479, 9725150478, 9725150477, 9725150476, 9725150475, 9725150474, 9725150473, 9725150472, 9725150471, 9725150470, 9725150469, 9725150482], "tags": {"access": "yes", "leisure": "playground"}}, {"type": "way", "id": 1074369833, "nodes": [9854625805, 9854625804, 9854625803, 9854625802, 9854625801, 9854625805], "tags": {"leisure": "park"}}, {"type": "way", "id": 1090831146, "nodes": [8147262995, 9991310083, 9991310084, 9991310085, 9991310086, 8147262995], "tags": {"access": "yes", "leisure": "playground", "min_age": "0"}}, {"type": "way", "id": 1203854079, "nodes": [11158319186, 11158319187, 11158319188, 11158319189, 11158319190, 11158319191, 11158319192, 11158319193, 11158319194, 11158319186], "tags": {"access": "yes", "leisure": "playground", "wheelchair": "yes"}}, {"type": "way", "id": 1206367587, "nodes": [11178559418, 11178559419, 11178559420, 11178559421, 11178559418], "tags": {"leisure": "playground"}}, {"type": "way", "id": 1306026430, "nodes": [7502918181, 12095938831, 12095938832, 7502918180, 12095939018, 5727116206, 5727116200, 5727116205, 5727116210, 5727116209, 7502918181], "tags": {"addr:city": "Berlin", "addr:country": "DE", "addr:housenumber": "23", "addr:postcode": "14055", "addr:street": "Flatowallee", "amenity": "restaurant", "cuisine": "german", "email": "info@preussisches-landwirtshaus.de", "fax": "+49 30 766 831 95", "indoor_seating": "yes", "name": "Preu\u00dfisches Landwirtshaus", "opening_hours": "Mo-Sa 17:00+; Su,PH 12:00+", "outdoor_seating": "yes", "phone": "+49 30 3044023", "website": "https://www.preussisches-landwirtshaus.de/", "website:menu": "https://www.preussisches-landwirtshaus.de/speisekarte.pdf", "wheelchair": "yes"}}, {"type": "way", "id": 1317874938, "nodes": [653129939, 12196937216, 12196937217, 12196937219, 12196937218, 653129940, 653129939], "tags": {"addr:city": "Berlin", "addr:country": "DE", "addr:housenumber": "138", "addr:postcode": "14055", "addr:street": "Heerstra\u00dfe", "addr:suburb": "Westend", "amenity": "restaurant", "barrier": "fence", "cuisine": "italian", "indoor_seating": "yes", "name": "Sardegna A Tavola Im Waldhaus", "outdoor_seating": "yes", "wheelchair": "limited"}}, {"type": "way", "id": 1318898145, "nodes": [12206063417, 11215294184, 11215294183, 11215294182, 12206063402, 12206063401, 12206063400, 12206063399, 12206063412, 12206063411, 12206063410, 12206063409, 12206063408, 12206063407, 12206063406, 12206063405, 12206063398, 12206063403, 12206063417], "tags": {"leisure": "park"}}, {"type": "way", "id": 1365543152, "nodes": [7501632027, 598809949, 598809947, 10295838025, 2469997083, 858011083, 6187468665, 858011034, 598809951, 7501632019, 7501632027]}, {"type": "way", "id": 1375592888, "nodes": [12736656530, 12736656531, 12736656532, 12736656533, 12736656534, 12736656535, 12736656536, 12736656537, 12736656538, 12736656530], "tags": {"access": "customers", "addr:city": "Berlin", "addr:housenumber": "36", "addr:postcode": "14055", "addr:street": "Heerstra\u00dfe", "contact:tripadvisor": "https://www.tripadvisor.de/Hotel_Review-g187323-d260836-Reviews-Hotel_Rotdorn-Berlin.html", "description": "Sehr gepflegter hoteleigener Privatpark mit thematischen Gartenbereichen und Bungalows in verschiedenen Gr\u00f6\u00dfen mit sehr gutem Komfort.", "leisure": "park", "name": "Hotel Rotdorn & Bungalow-Park"}}, {"type": "way", "id": 1375592894, "nodes": [12736656570, 12736656572, 12736656573, 811044684, 12736656570], "tags": {"amenity": "cafe", "building": "yes", "cuisine": "breakfast;juice;pastry", "description": "Fr\u00fchst\u00fccksraum, Lesebereich und Tages-Minik\u00fcche zur freien Verf\u00fcgung.", "name": "Fr\u00fchst\u00fccksaal"}}, {"type": "way", "id": 1396533329, "nodes": [12925447713, 12925447714, 12925447715, 12925447716, 12925447713], "tags": {"leisure": "park"}}, {"type": "way", "id": 1408895411, "nodes": [12947333477, 12947333478, 12947333479, 12947333480, 12947333477], "tags": {"access": "yes", "leisure": "playground"}}, {"type": "way", "id": 1408895413, "nodes": [12947333485, 12947333486, 12947333487, 12947333488, 12947333485], "tags": {"access": "yes", "leisure": "playground"}}, {"type": "way", "id": 1408895415, "nodes": [12947333493, 12947333494, 12947333495, 12947333496, 12947333493], "tags": {"access": "yes", "leisure": "playground"}}, {"type": "relation", "id": 12843249, "members": [{"type": "way", "ref": 97862390, "role": "outer"}, {"type": "way", "ref": 37331967, "role": "inner"}, {"type": "way", "ref": 620127159, "role": "inner"}, {"type": "way", "ref": 266772107, "role": "inner"}, {"type": "way", "ref": 953907243, "role": "inner"}, {"type": "way", "ref": 953960554, "role": "inner"}, {"type": "way", "ref": 953966414, "role": "inner"}, {"type": "way", "ref": 953966415, "role": "inner"}], "tags": {"landuse": "forest", "leaf_cycle": "deciduous", "leaf_type": "broadleaved", "leisure": "park", "type": "multipolygon"}}, {"type": "relation", "id": 13239554, "members": [{"type": "way", "ref": 985100550, "role": "inner"}, {"type": "way", "ref": 985100549, "role": "inner"}, {"type": "way", "ref": 23148091, "role": "outer"}, {"type": "way", "ref": 985117056, "role": "inner"}, {"type": "way", "ref": 985117057, "role": "inner"}, {"type": "way", "ref": 27097953, "role": "inner"}, {"type": "way", "ref": 985128277, "role": "inner"}, {"type": "way", "ref": 124700085, "role": "inner"}], "tags": {"boundary": "protected_area", "heritage": "4", "heritage:operator": "lda", "landuse": "forest", "lda:criteria": "Gartendenkmal", "leaf_cycle": "deciduous", "leaf_type": "broadleaved", "leisure": "park", "name": "Ruhwaldpark", "protect_class": "22", "protection_title": "Gesch\u00fctzte Gr\u00fcnanlage", "ref:lda": "09046364", "start_date": "1868", "type": "multipolygon", "wikidata": "Q18558325"}}, {"type": "relation", "id": 18796157, "members": [{"type": "way", "ref": 72175171, "role": "outer"}, {"type": "way", "ref": 1365543152, "role": "outer"}], "tags": {"boundary": "protected_area", "heritage": "4", "heritage:operator": "lda", "lda:criteria": "Gartendenkmal", "leisure": "park", "name": "Georg-Kolbe-Hain", "name:etymology:wikidata": "Q561283", "name:etymology:wikipedia": "de:Georg Kolbe", "protection_title": "Gesch\u00fctzte Gr\u00fcnanlage", "ref:lda": "09046332", "type": "multipolygon", "wikidata": "Q109836247"}}]}