{"version": 0.6, "generator": "Overpass API 0.7.62.7 375dc00a", "osm3s": {"timestamp_osm_base": "2025-08-05T14:41:39Z", "copyright": "The data included in this document is from www.openstreetmap.org. The data is made available under ODbL."}, "elements": [{"type": "node", "id": 246655058, "lat": 52.4104119, "lon": 13.4211743}, {"type": "node", "id": 291014069, "lat": 52.4163173, "lon": 13.3997542, "tags": {"addr:city": "Berlin", "addr:country": "DE", "addr:housenumber": "432", "addr:postcode": "12107", "addr:street": "Mariendorfer Damm", "addr:suburb": "Lichtenrade", "amenity": "pharmacy", "dispensing": "yes", "fax": "+49 30 76203015", "healthcare": "pharmacy", "name": "Tulpen-Apotheke", "opening_hours": "Mo-Fr 8:00-19:00;Sa 8:00-14:00", "operator": "Apothekerin Irmtraud Knuth", "phone": "+49 30 76203014", "website": "https://www.tulpen-apotheke-berlin.de/", "wheelchair": "yes"}}, {"type": "node", "id": 296316308, "lat": 52.4101811, "lon": 13.4195843}, {"type": "node", "id": 310987956, "lat": 52.4134195, "lon": 13.4248948}, {"type": "node", "id": 310988095, "lat": 52.411239, "lon": 13.4243415}, {"type": "node", "id": 310988096, "lat": 52.411402, "lon": 13.4244255}, {"type": "node", "id": 310988097, "lat": 52.4116638, "lon": 13.4245923}, {"type": "node", "id": 310988098, "lat": 52.4116856, "lon": 13.4245692}, {"type": "node", "id": 310988099, "lat": 52.4117017, "lon": 13.4245397}, {"type": "node", "id": 310988100, "lat": 52.411816, "lon": 13.4238954}, {"type": "node", "id": 310988103, "lat": 52.4131667, "lon": 13.4249693}, {"type": "node", "id": 315206269, "lat": 52.3911174, "lon": 13.410505}, {"type": "node", "id": 315206270, "lat": 52.3911194, "lon": 13.4103292}, {"type": "node", "id": 315206271, "lat": 52.3911076, "lon": 13.4100432}, {"type": "node", "id": 315206272, "lat": 52.3909855, "lon": 13.4098801}, {"type": "node", "id": 315206273, "lat": 52.3908235, "lon": 13.4098259}, {"type": "node", "id": 315206274, "lat": 52.3906594, "lon": 13.4098008}, {"type": "node", "id": 315206275, "lat": 52.3905418, "lon": 13.4098008}, {"type": "node", "id": 315206276, "lat": 52.3903991, "lon": 13.4098074}, {"type": "node", "id": 315206277, "lat": 52.3902924, "lon": 13.4098132}, {"type": "node", "id": 315206278, "lat": 52.3902352, "lon": 13.4098309}, {"type": "node", "id": 315206279, "lat": 52.3901431, "lon": 13.4099231}, {"type": "node", "id": 315206280, "lat": 52.3900723, "lon": 13.4100358}, {"type": "node", "id": 315206281, "lat": 52.3900426, "lon": 13.4101102}, {"type": "node", "id": 315206282, "lat": 52.3900328, "lon": 13.4102788}, {"type": "node", "id": 315206283, "lat": 52.3900504, "lon": 13.410366}, {"type": "node", "id": 315206284, "lat": 52.3901254, "lon": 13.4106614}, {"type": "node", "id": 315206285, "lat": 52.3901872, "lon": 13.410799}, {"type": "node", "id": 315206286, "lat": 52.390305, "lon": 13.4109874}, {"type": "node", "id": 315206287, "lat": 52.3904719, "lon": 13.4110916}, {"type": "node", "id": 315206288, "lat": 52.3906162, "lon": 13.4110718}, {"type": "node", "id": 315206289, "lat": 52.3908295, "lon": 13.4110324}, {"type": "node", "id": 315206290, "lat": 52.3910752, "lon": 13.4108576}, {"type": "node", "id": 364760605, "lat": 52.4128452, "lon": 13.4240649}, {"type": "node", "id": 364760606, "lat": 52.4127172, "lon": 13.4230012}, {"type": "node", "id": 364760607, "lat": 52.4114102, "lon": 13.4231011}, {"type": "node", "id": 382896105, "lat": 52.3890042, "lon": 13.4024302}, {"type": "node", "id": 382896106, "lat": 52.389088, "lon": 13.4018525}, {"type": "node", "id": 382896107, "lat": 52.3886352, "lon": 13.4016974}, {"type": "node", "id": 382896108, "lat": 52.3885723, "lon": 13.4020311}, {"type": "node", "id": 410996502, "lat": 52.3843403, "lon": 13.3917758}, {"type": "node", "id": 410996504, "lat": 52.3846615, "lon": 13.3904518}, {"type": "node", "id": 410996506, "lat": 52.3843452, "lon": 13.3904561}, {"type": "node", "id": 410996508, "lat": 52.3846598, "lon": 13.3917784}, {"type": "node", "id": 411016745, "lat": 52.3795453, "lon": 13.3953833}, {"type": "node", "id": 411016746, "lat": 52.3801312, "lon": 13.3951411}, {"type": "node", "id": 411016748, "lat": 52.379391, "lon": 13.3946732}, {"type": "node", "id": 411306361, "lat": 52.3796217, "lon": 13.3945407}, {"type": "node", "id": 412267089, "lat": 52.3806342, "lon": 13.3948443}, {"type": "node", "id": 412267090, "lat": 52.3796761, "lon": 13.394537}, {"type": "node", "id": 412267091, "lat": 52.3797349, "lon": 13.394555}, {"type": "node", "id": 420517053, "lat": 52.3849683, "lon": 13.4048698, "tags": {"amenity": "dentist", "contact:email": "praxis.weiss.landmann@gmail.com", "contact:fax": "+49 30 7445043", "contact:phone": "+49 30 7445020", "contact:website": "http://www.zahnarztpraxis-lichtenrade.de/", "healthcare": "dentist", "name": "Zahn\u00e4rzte Nicolas Weiss, Volker Landmann", "opening_hours": "Mo-Fr \"nach Vereinbarung\""}}, {"type": "node", "id": 420517141, "lat": 52.3864845, "lon": 13.4036823, "tags": {"addr:city": "Berlin", "addr:country": "DE", "addr:housenumber": "51", "addr:postcode": "12305", "addr:street": "Bahnhofstra\u00dfe", "amenity": "doctors", "healthcare": "doctor", "healthcare:speciality": "general;internal", "name": "Agnes Kranz", "opening_hours": "Mo,We,Th 14:00-19:00; Tu,Fr 09:00-13:00", "toilets:wheelchair": "no", "wheelchair": "no"}}, {"type": "node", "id": 420517414, "lat": 52.3854787, "lon": 13.3994422, "tags": {"addr:city": "Berlin", "addr:country": "DE", "addr:housenumber": "13A", "addr:postcode": "12307", "addr:street": "Briesingstra\u00dfe", "addr:suburb": "Lichtenrade", "amenity": "doctors", "check_date": "2025-01-25", "contact:email": "info@arztpraxis-zadeh.de", "contact:fax": "+49 30 744 39 70", "contact:phone": "+49 30 744 50 50", "contact:website": "http://www.arztpraxis-mehdi-zadeh.de/", "healthcare": "doctor", "healthcare:speciality": "general", "level": "0", "name": "Arztpraxis Mehdi Zadeh", "opening_hours": "We 08:30-11:30 \"nur telefonisch\"; Mo,Th 08:00-12:00,15:30-18:00; Tu,Fr 08:00-12:00; PH off", "opening_hours:url": "http://www.arztpraxis-mehdi-zadeh.de/sprechstunden.html", "wheelchair": "no"}}, {"type": "node", "id": 421280456, "lat": 52.4018701, "lon": 13.4127178}, {"type": "node", "id": 421280457, "lat": 52.4016415, "lon": 13.4128066}, {"type": "node", "id": 421280458, "lat": 52.401674, "lon": 13.4133719}, {"type": "node", "id": 426320717, "lat": 52.3941024, "lon": 13.3863913}, {"type": "node", "id": 426320718, "lat": 52.394477, "lon": 13.3863845}, {"type": "node", "id": 426320721, "lat": 52.3944618, "lon": 13.386756}, {"type": "node", "id": 426320724, "lat": 52.3941107, "lon": 13.3867704}, {"type": "node", "id": 426321719, "lat": 52.3974724, "lon": 13.3871431}, {"type": "node", "id": 426321721, "lat": 52.3973507, "lon": 13.3863124}, {"type": "node", "id": 426321723, "lat": 52.397527, "lon": 13.3862137}, {"type": "node", "id": 426321726, "lat": 52.3976972, "lon": 13.3870148}, {"type": "node", "id": 432572730, "lat": 52.4122817, "lon": 13.4067072}, {"type": "node", "id": 432572731, "lat": 52.4118549, "lon": 13.4069354}, {"type": "node", "id": 432572734, "lat": 52.4118976, "lon": 13.407123}, {"type": "node", "id": 552818106, "lat": 52.3931031, "lon": 13.406979}, {"type": "node", "id": 552818108, "lat": 52.3928365, "lon": 13.4069913}, {"type": "node", "id": 552818112, "lat": 52.3931151, "lon": 13.4076852}, {"type": "node", "id": 552818113, "lat": 52.3928472, "lon": 13.4076211}, {"type": "node", "id": 552818118, "lat": 52.3928716, "lon": 13.40762}, {"type": "node", "id": 559488596, "lat": 52.3988006, "lon": 13.3955781}, {"type": "node", "id": 571782982, "lat": 52.3904912, "lon": 13.4037099}, {"type": "node", "id": 571782983, "lat": 52.3904926, "lon": 13.4043438}, {"type": "node", "id": 571782985, "lat": 52.3915904, "lon": 13.4043272}, {"type": "node", "id": 585136851, "lat": 52.3902943, "lon": 13.3877816, "tags": {"amenity": "restaurant", "cuisine": "italian", "name": "Tratorria La Calabrisella", "opening_hours": "Tu-Su 11:00-22:00"}}, {"type": "node", "id": 585143217, "lat": 52.3868165, "lon": 13.3950979, "tags": {"addr:city": "Berlin", "addr:country": "DE", "addr:housenumber": "3", "addr:postcode": "12307", "addr:street": "Prinzessinnenstra\u00dfe", "addr:suburb": "Lichtenrade", "amenity": "restaurant", "cuisine": "italian", "delivery:covid19": "no", "diet:vegan": "yes", "diet:vegetarian": "yes", "indoor_seating": "yes", "name": "Principessa", "opening_hours": "Mo-Su 12:00-00:00", "outdoor_seating": "yes", "phone": "+49 30 70766965", "takeaway:covid19": "yes", "website": "https://www.restaurant-principessa-berlin.de", "wheelchair": "limited"}}, {"type": "node", "id": 585143218, "lat": 52.386944, "lon": 13.3954661, "tags": {"addr:city": "Berlin", "addr:country": "DE", "addr:housenumber": "2", "addr:postcode": "12307", "addr:street": "Prinzessinnenstra\u00dfe", "addr:suburb": "Lichtenrade", "amenity": "pharmacy", "dispensing": "yes", "healthcare": "pharmacy", "name": "Schwarze Adler Apotheke", "phone": "+49 30 7446063", "wheelchair": "no"}}, {"type": "node", "id": 585144206, "lat": 52.3868901, "lon": 13.3997371, "tags": {"addr:city": "Berlin", "addr:country": "DE", "addr:housenumber": "26", "addr:postcode": "12305", "addr:street": "Bahnhofstra\u00dfe", "addr:suburb": "Lichtenrade", "amenity": "pharmacy", "check_date:opening_hours": "2025-04-27", "contact:phone": "+49 30 7444501", "dispensing": "yes", "healthcare": "pharmacy", "name": "Bahnhof-Apotheke", "opening_hours": "Mo-Fr 08:30-18:30; Sa 08:30-13:00; PH off", "wheelchair": "no"}}, {"type": "node", "id": 585144209, "lat": 52.3869186, "lon": 13.398817, "tags": {"addr:city": "Berlin", "addr:housenumber": "29", "addr:postcode": "12305", "addr:street": "Bahnhofstra\u00dfe", "amenity": "restaurant", "check_date:opening_hours": "2025-04-27", "contact:phone": "+49 30 70766437", "contact:website": "https://www.sushi-yana.de/sushi-lieferservice-berlin-lichtenrade/", "cuisine": "sushi", "diet:vegan": "yes", "diet:vegetarian": "yes", "indoor_seating": "yes", "name": "Sushi Yana", "opening_hours": "PH,Mo-Su 11:00-23:00", "opening_hours:signed": "no", "outdoor_seating": "yes", "wheelchair": "yes"}}, {"type": "node", "id": 586372971, "lat": 52.3868213, "lon": 13.3955649, "tags": {"addr:city": "Berlin", "addr:country": "DE", "addr:housenumber": "2", "addr:postcode": "12307", "addr:street": "Prinzessinnenstra\u00dfe", "addr:suburb": "Lichtenrade", "amenity": "fast_food", "contact:phone": "+49 1577 7830722", "cuisine": "italian", "diet:vegan": "yes", "diet:vegetarian": "yes", "name": "Am Mittelmeer", "note": "Noch nicht er\u00f6ffnet.", "opening_hours": "Tu-Su 11:00-23:00", "source": "Geoportal Berlin / Hauskoordinaten", "takeaway": "yes", "toilets": "no", "toilets:wheelchair": "no", "wheelchair": "no", "wheelchair:description": "...hat gar keine Toilette (Imbiss);hat ein Schiebescheibe f\u00fcr den Verkauf zur Stra\u00dfe"}}, {"type": "node", "id": 586536393, "lat": 52.3865159, "lon": 13.3989981, "tags": {"addr:city": "Berlin", "addr:country": "DE", "addr:housenumber": "39", "addr:postcode": "12305", "addr:street": "Bahnhofstra\u00dfe", "addr:suburb": "Lichtenrade", "amenity": "restaurant", "check_date:opening_hours": "2024-01-12", "contact:facebook": "https://www.facebook.com/Yammasgyros/", "contact:instagram": "yammas.lichtenrade", "contact:phone": "+49 30 23907266", "contact:website": "https://www.yammas-lichtenrade.de", "cuisine": "greek", "delivery:covid19": "no", "diet:vegetarian": "no", "indoor_seating": "yes", "name": "Yammas Tavernakis", "opening_hours": "Mo-Sa 11:00-22:00; PH,Su 12:00-21:00", "outdoor_seating": "yes", "smoking": "outside", "takeaway": "yes", "takeaway:covid19": "yes"}}, {"type": "node", "id": 588090100, "lat": 52.3865177, "lon": 13.4068113, "tags": {"addr:city": "Berlin", "addr:country": "DE", "addr:postcode": "12305", "addr:street": "Bahnhofstra\u00dfe", "addr:suburb": "Lichtenrade", "amenity": "restaurant", "cuisine": "thai", "diet:vegan": "yes", "diet:vegetarian": "yes", "name": "Ko Chang", "opening_hours": "PH,Mo-Su 12:00-22:00", "outdoor_seating": "yes", "takeaway": "yes", "wheelchair": "no"}}, {"type": "node", "id": 588098342, "lat": 52.3868285, "lon": 13.4027709, "tags": {"addr:city": "Berlin", "addr:country": "DE", "addr:housenumber": "16", "addr:postcode": "12305", "addr:street": "Bahnhofstra\u00dfe", "addr:suburb": "Lichtenrade", "check_date:opening_hours": "2025-04-27", "contact:phone": "+49 30 49082222", "contact:website": "https://www.physionasten.com/", "healthcare": "physiotherapist", "home_visit": "yes", "name": "Physionasten", "opening_hours": "Mo-Th 07:30-19:00; Fr 08:00-17:00", "wheelchair": "yes"}}, {"type": "node", "id": 588141093, "lat": 52.3865399, "lon": 13.404185, "tags": {"addr:city": "Berlin", "addr:country": "DE", "addr:housenumber": "52", "addr:postcode": "12305", "addr:street": "Bahnhofstra\u00dfe", "amenity": "pharmacy", "check_date:opening_hours": "2024-11-21", "dispensing": "yes", "healthcare": "pharmacy", "name": "Linden Apotheke", "opening_hours": "Mo-Fr 08:00-18:30; Sa 08:30-13:30", "phone": "+49 30 7445082", "website": "https://www.linden-apotheke-lichtenrade.de/", "wheelchair": "limited"}}, {"type": "node", "id": 590058886, "lat": 52.3787198, "lon": 13.4118421}, {"type": "node", "id": 590058887, "lat": 52.3784142, "lon": 13.412033}, {"type": "node", "id": 590058888, "lat": 52.378309, "lon": 13.411581}, {"type": "node", "id": 590058889, "lat": 52.3786146, "lon": 13.4113901}, {"type": "node", "id": 590060424, "lat": 52.3939134, "lon": 13.4047395}, {"type": "node", "id": 590060426, "lat": 52.3950726, "lon": 13.4057131}, {"type": "node", "id": 590060427, "lat": 52.3952101, "lon": 13.4062388}, {"type": "node", "id": 610197797, "lat": 52.3862139, "lon": 13.4105072, "tags": {"addr:city": "Berlin", "addr:country": "DE", "addr:housenumber": "10", "addr:postcode": "12309", "addr:street": "Kirchhainer Damm", "addr:suburb": "Lichtenrade", "amenity": "pub", "name": "B\u00e4renklause"}}, {"type": "node", "id": 610197798, "lat": 52.3832019, "lon": 13.4132449, "tags": {"addr:city": "Berlin", "addr:country": "DE", "addr:housenumber": "37", "addr:postcode": "12309", "addr:street": "Kirchhainer Damm", "addr:suburb": "Lichtenrade", "amenity": "restaurant", "cuisine": "croatian;international", "email": "info@zur-linde-lichtenrade.com", "name": "Zur Linde", "opening_hours": "Mo-Su 12:00-22:00", "operator": "Zvonko Buli\u0107", "outdoor_seating": "yes", "phone": "+49 30 7445558", "smoking": "outside", "toilets:wheelchair": "no", "website": "http://zur-linde-lichtenrade.de/", "wheelchair": "no"}}, {"type": "node", "id": 610197807, "lat": 52.3867878, "lon": 13.403377, "tags": {"addr:city": "Berlin", "addr:country": "DE", "addr:housenumber": "15", "addr:postcode": "12305", "addr:street": "Bahnhofstra\u00dfe", "amenity": "fast_food", "check_date:opening_hours": "2025-04-27", "contact:website": "http://www.curry-wolf.de", "cuisine": "sausage", "name": "Curry-Wolf", "opening_hours": "Mo-Fr 10:00-19:00; Sa 11:00-15:00", "opening_hours:signed": "no", "wheelchair": "yes"}}, {"type": "node", "id": 610198284, "lat": 52.4142578, "lon": 13.4009402, "tags": {"addr:city": "Berlin", "addr:country": "DE", "addr:housenumber": "2", "addr:postcode": "12305", "addr:street": "Lichtenrader Damm", "addr:suburb": "Lichtenrade", "amenity": "restaurant", "contact:facebook": "https://www.facebook.com/Partyzone.Lichtenrader.Eck", "description": "'Mittelmeerk\u00fcche'", "indoor_seating": "yes", "name": "La Luna", "opening_hours": "Mo-Su 12:00-23:00", "outdoor_seating": "yes", "website": "https://laluna-berlin.eatbu.com/"}}, {"type": "node", "id": 610198319, "lat": 52.4130468, "lon": 13.4016355, "tags": {"addr:housenumber": "12", "addr:street": "Lichtenrader Damm", "amenity": "fast_food", "cuisine": "german", "delivery": "no", "description": "Klassische Currywurstbude", "drive_through": "no", "name": "Heike's Holzkohlengrill", "opening_hours": "Mo-Su 09:00-23:30", "takeaway": "yes", "wheelchair": "yes"}}, {"type": "node", "id": 610198326, "lat": 52.4132235, "lon": 13.4015604, "tags": {"addr:housenumber": "10", "addr:postcode": "12305", "addr:street": "Lichtenrader Damm", "amenity": "restaurant", "cuisine": "thai", "name": "Hoa Sen", "opening_hours": "Mo-Su 11:00-22:00", "phone": "+49 30 7422657", "website": "http://www.hoasen-restaurant.de", "wheelchair": "no"}}, {"type": "node", "id": 610199208, "lat": 52.3865161, "lon": 13.4066989, "tags": {"addr:city": "Berlin", "addr:country": "DE", "addr:housenumber": "60", "addr:postcode": "12305", "addr:street": "Bahnhofstra\u00dfe", "addr:suburb": "Lichtenrade", "amenity": "pharmacy", "check_date:opening_hours": "2024-10-26", "dispensing": "yes", "healthcare": "pharmacy", "name": "Tempelritter-Apotheke", "opening_hours": "Mo-Fr 08:00-18:30; Sa 08:30-13:00", "phone": "+49 30 76403454", "website": "https://www.tempelritter-apotheke.de/", "wheelchair": "yes"}}, {"type": "node", "id": 610199981, "lat": 52.392013, "lon": 13.4028107, "tags": {"addr:city": "Berlin", "addr:country": "DE", "addr:postcode": "12305", "addr:street": "John-Locke-Stra\u00dfe", "addr:suburb": "Lichtenrade", "brand": "Norma", "brand:wikidata": "Q450180", "brand:wikipedia": "de:Norma (Handelskette)", "name": "Norma", "opening_hours": "Mo-Sa 08:00-21:00", "shop": "supermarket", "wheelchair": "yes"}}, {"type": "node", "id": 621156782, "lat": 52.3952213, "lon": 13.4048459}, {"type": "node", "id": 634133000, "lat": 52.3929, "lon": 13.405}, {"type": "node", "id": 634220547, "lat": 52.3910824, "lon": 13.4184546}, {"type": "node", "id": 634220548, "lat": 52.3911365, "lon": 13.4184975}, {"type": "node", "id": 634220549, "lat": 52.3911512, "lon": 13.4185525}, {"type": "node", "id": 634220550, "lat": 52.3911849, "lon": 13.4190688}, {"type": "node", "id": 634220551, "lat": 52.3911765, "lon": 13.4191306}, {"type": "node", "id": 634220552, "lat": 52.3911506, "lon": 13.4191698}, {"type": "node", "id": 634220553, "lat": 52.3911202, "lon": 13.4191885}, {"type": "node", "id": 634220554, "lat": 52.3908834, "lon": 13.4192141}, {"type": "node", "id": 634220555, "lat": 52.3908248, "lon": 13.4191734}, {"type": "node", "id": 634220556, "lat": 52.3908119, "lon": 13.4191206}, {"type": "node", "id": 634220558, "lat": 52.3907827, "lon": 13.4186048}, {"type": "node", "id": 634220559, "lat": 52.3908093, "lon": 13.4185139}, {"type": "node", "id": 634220560, "lat": 52.3908331, "lon": 13.4184935}, {"type": "node", "id": 634220562, "lat": 52.3907561, "lon": 13.4174629}, {"type": "node", "id": 634220563, "lat": 52.3911424, "lon": 13.4173559}, {"type": "node", "id": 634220564, "lat": 52.391158, "lon": 13.4176209}, {"type": "node", "id": 634220565, "lat": 52.3907714, "lon": 13.4176712}, {"type": "node", "id": 634220566, "lat": 52.3905677, "lon": 13.4177036}, {"type": "node", "id": 634220572, "lat": 52.3916083, "lon": 13.4173244}, {"type": "node", "id": 634220574, "lat": 52.3913997, "lon": 13.4173554}, {"type": "node", "id": 634220884, "lat": 52.3907929, "lon": 13.4185433}, {"type": "node", "id": 634220885, "lat": 52.3908482, "lon": 13.4192097}, {"type": "node", "id": 634220886, "lat": 52.3911146, "lon": 13.4184641}, {"type": "node", "id": 635276261, "lat": 52.4015904, "lon": 13.4129142}, {"type": "node", "id": 635276268, "lat": 52.4013544, "lon": 13.4129502}, {"type": "node", "id": 806151805, "lat": 52.4069029, "lon": 13.4152637, "tags": {"amenity": "restaurant", "cuisine": "italian", "indoor_seating": "yes", "name": "Bellissimo", "outdoor_seating": "yes", "website": "https://www.restaurantbellissimo.de/"}}, {"type": "node", "id": 850874826, "lat": 52.4111961, "lon": 13.3961264}, {"type": "node", "id": 850874839, "lat": 52.4109174, "lon": 13.396298, "tags": {"barrier": "cycle_barrier"}}, {"type": "node", "id": 850874863, "lat": 52.4113232, "lon": 13.39673}, {"type": "node", "id": 850874884, "lat": 52.4107058, "lon": 13.3964265}, {"type": "node", "id": 850874909, "lat": 52.4108111, "lon": 13.3969234, "tags": {"barrier": "cycle_barrier"}}, {"type": "node", "id": 850874912, "lat": 52.4108312, "lon": 13.3970082}, {"type": "node", "id": 853806321, "lat": 52.4119945, "lon": 13.4022416, "tags": {"addr:city": "Berlin", "addr:country": "DE", "addr:housenumber": "24", "addr:postcode": "12305", "addr:street": "Lichtenrader Damm", "addr:suburb": "Lichtenrade", "amenity": "pharmacy", "dispensing": "yes", "email": "info@gruene-apotheke-lichtenrade.de", "fax": "+49 30 74 37 42 60", "healthcare": "pharmacy", "name": "Gr\u00fcne Apotheke Lichtenrade", "opening_hours": "Mo-Fr 08:30-18:30; Sa 09:00-13:00", "operator": "Apothekerin Franziska Bukowski", "phone": "+49 30 742 88 15", "website": "https://www.gruene-apotheke-lichtenrade.de/", "wheelchair": "no", "wheelchair:description": "Treppe"}}, {"type": "node", "id": 870027075, "lat": 52.3855206, "lon": 13.4184781}, {"type": "node", "id": 870027076, "lat": 52.3855251, "lon": 13.4185519}, {"type": "node", "id": 870027078, "lat": 52.3853638, "lon": 13.4186007}, {"type": "node", "id": 870027080, "lat": 52.3853467, "lon": 13.4184589}, {"type": "node", "id": 870027082, "lat": 52.3853845, "lon": 13.4183939}, {"type": "node", "id": 870027086, "lat": 52.3858514, "lon": 13.418137}, {"type": "node", "id": 870027088, "lat": 52.3859298, "lon": 13.4183378}, {"type": "node", "id": 870027089, "lat": 52.3857658, "lon": 13.4184102}, {"type": "node", "id": 870027090, "lat": 52.3857586, "lon": 13.4183289}, {"type": "node", "id": 870027091, "lat": 52.3858018, "lon": 13.4183038}, {"type": "node", "id": 919491996, "lat": 52.3928926, "lon": 13.4203811, "tags": {"brand": "EDEKA", "brand:wikidata": "Q701755", "brand:wikipedia": "de:Edeka", "contact:website": "https://www.edeka.de/eh/minden-hannover/edeka-wsas-nahariyastr.-38/index.jsp", "name": "EDEKA", "opening_hours": "Mo-Sa 08:00-20:00", "phone": "+49 30 7453073", "shop": "supermarket", "wheelchair": "yes"}}, {"type": "node", "id": 937965381, "lat": 52.4108226, "lon": 13.423123}, {"type": "node", "id": 937965563, "lat": 52.4111111, "lon": 13.4243602}, {"type": "node", "id": 988277355, "lat": 52.3929941, "lon": 13.420424, "tags": {"addr:city": "Berlin", "addr:country": "DE", "addr:housenumber": "79", "addr:postcode": "12309", "addr:street": "Skarbinastra\u00dfe", "addr:suburb": "Lichtenrade", "amenity": "doctors", "contact:fax": "+49 30 7450688", "contact:phone": "+49 30 7455070", "healthcare": "doctor", "healthcare:alternative": "acupuncture", "healthcare:speciality": "gynaecology", "opening_hours": "Mo 08:00-14:00; Tu 13:00-19:00; We 08:00-14:00; Th 13:00-19:00; Fr 08:00-13:00", "operator": "Dirk Mattern MD", "wheelchair": "limited"}}, {"type": "node", "id": 1169918201, "lat": 52.3934577, "lon": 13.4143436}, {"type": "node", "id": 1169918215, "lat": 52.3942459, "lon": 13.4152137}, {"type": "node", "id": 1169918244, "lat": 52.3934196, "lon": 13.4162503}, {"type": "node", "id": 1169918306, "lat": 52.3936535, "lon": 13.4132329}, {"type": "node", "id": 1169918364, "lat": 52.3934641, "lon": 13.413228}, {"type": "node", "id": 1169918404, "lat": 52.3936949, "lon": 13.4148988, "tags": {"leisure": "playground"}}, {"type": "node", "id": 1330384307, "lat": 52.3939025, "lon": 13.4050587}, {"type": "node", "id": 1330384308, "lat": 52.3948676, "lon": 13.4052005}, {"type": "node", "id": 1330384310, "lat": 52.3947252, "lon": 13.4051461}, {"type": "node", "id": 1330384314, "lat": 52.3949578, "lon": 13.4053405}, {"type": "node", "id": 1330384315, "lat": 52.3929006, "lon": 13.4052277}, {"type": "node", "id": 1330384320, "lat": 52.3936146, "lon": 13.4051955}, {"type": "node", "id": 1340883148, "lat": 52.4152442, "lon": 13.4003128, "tags": {"amenity": "restaurant", "cuisine": "chinese", "name": "China Town Restaurant"}}, {"type": "node", "id": 1345690697, "lat": 52.4123242, "lon": 13.4070412}, {"type": "node", "id": 1478859727, "lat": 52.3995409, "lon": 13.4099865, "tags": {"addr:city": "Berlin", "addr:country": "DE", "addr:housenumber": "45", "addr:postcode": "12305", "addr:street": "Alt-Lichtenrade", "addr:suburb": "Lichtenrade", "amenity": "restaurant", "cuisine": "italian", "diet:vegan": "yes", "diet:vegetarian": "yes", "indoor_seating": "yes", "name": "La Maria", "opening_hours": "Mo-Su 12:00-23:00", "outdoor_seating": "veranda", "payment:credit_cards": "no", "payment:debit_cards": "no", "toilets:wheelchair": "no", "wheelchair": "yes"}}, {"type": "node", "id": 1574945982, "lat": 52.4051857, "lon": 13.406786, "tags": {"addr:city": "Berlin", "addr:country": "DE", "addr:housenumber": "93", "addr:postcode": "12305", "addr:street": "Lichtenrader Damm", "addr:suburb": "Lichtenrade", "amenity": "restaurant", "cuisine": "mexican", "diet:vegan": "yes", "diet:vegetarian": "yes", "indoor_seating": "yes", "name": "Cuernavaca", "opening_hours": "Mo-Su 12:00-00:00", "outdoor_seating": "veranda", "payment:credit_cards": "yes", "payment:debit_cards": "yes", "phone": "+49 30 76288153", "smoking": "outside", "website": "https://www.cuernavaca-berlin.de/", "website:menu": "https://www.cuernavaca-berlin.de/speisekarte"}}, {"type": "node", "id": 1671884675, "lat": 52.3953181, "lon": 13.406288}, {"type": "node", "id": 1704256871, "lat": 52.3981287, "lon": 13.3914745, "tags": {"addr:city": "Berlin", "addr:country": "DE", "addr:housenumber": "41-42", "addr:postcode": "12305", "addr:street": "Barnetstra\u00dfe", "addr:suburb": "Lichtenrade", "amenity": "pharmacy", "check_date:opening_hours": "2024-10-12", "dispensing": "yes", "healthcare": "pharmacy", "name": "Lichtenrader Apotheke", "opening_hours": "Mo-Fr 08:00-20:00; Sa 08:00-18:00", "phone": "+49 30 74685667", "website": "https://www.lichtenrader-apotheke.de/", "wheelchair": "yes", "wheelchair:description": "Zwei Zug\u00e4nge: 1. \u00fcber den Edeka-Markt: stufenfreie Zufahrt inkl. Automatikt\u00fcr / 2. vom Parkplatz: stufenfrei aber T\u00fcr nicht automatisch; breite, rollstuhl-geeignete G\u00e4nge bis zur Bedientheke; rollstuhlgerechtes WC"}}, {"type": "node", "id": 2018422329, "lat": 52.4113065, "lon": 13.4230986}, {"type": "node", "id": 2093536186, "lat": 52.3868853, "lon": 13.4003297, "tags": {"addr:city": "Berlin", "addr:country": "DE", "addr:housenumber": "23", "addr:postcode": "12305", "addr:street": "Bahnhofstra\u00dfe", "addr:suburb": "Lichtenrade", "amenity": "fast_food", "cuisine": "turkish", "indoor_seating": "yes", "name": "D\u00f6ner XL", "opening_hours:signed": "no", "outdoor_seating": "yes", "takeaway:covid19": "yes", "wheelchair": "limited"}}, {"type": "node", "id": 2093536203, "lat": 52.3909083, "lon": 13.4115934}, {"type": "node", "id": 2188008798, "lat": 52.3989354, "lon": 13.4070184}, {"type": "node", "id": 2188008803, "lat": 52.3990179, "lon": 13.4069759}, {"type": "node", "id": 2188008804, "lat": 52.3990603, "lon": 13.4070145}, {"type": "node", "id": 2188008805, "lat": 52.3990886, "lon": 13.4077292}, {"type": "node", "id": 2188008806, "lat": 52.399388, "lon": 13.4070454}, {"type": "node", "id": 2188008807, "lat": 52.3994799, "lon": 13.4074627}, {"type": "node", "id": 2281907840, "lat": 52.3798404, "lon": 13.4147136, "tags": {"addr:city": "Berlin", "addr:country": "DE", "addr:housenumber": "68", "addr:postcode": "12309", "addr:street": "Kirchhainer Damm", "amenity": "restaurant", "name": "Zum Joseph"}}, {"type": "node", "id": 2378977994, "lat": 52.4025782, "lon": 13.4154402}, {"type": "node", "id": 2378978020, "lat": 52.4025214, "lon": 13.4156849}, {"type": "node", "id": 2378978174, "lat": 52.402591, "lon": 13.4156746}, {"type": "node", "id": 2378978199, "lat": 52.4025085, "lon": 13.4154505}, {"type": "node", "id": 2379413420, "lat": 52.3933828, "lon": 13.4207364}, {"type": "node", "id": 2379413429, "lat": 52.3933951, "lon": 13.4209363}, {"type": "node", "id": 2379413483, "lat": 52.3935016, "lon": 13.4207167}, {"type": "node", "id": 2379413699, "lat": 52.3934874, "lon": 13.4204855}, {"type": "node", "id": 2379413777, "lat": 52.3936481, "lon": 13.420459}, {"type": "node", "id": 2379413822, "lat": 52.3936746, "lon": 13.4208901}, {"type": "node", "id": 2456750295, "lat": 52.3837991, "lon": 13.4030727}, {"type": "node", "id": 2456750296, "lat": 52.3839989, "lon": 13.4023871}, {"type": "node", "id": 2456750297, "lat": 52.384325, "lon": 13.4030834}, {"type": "node", "id": 2457109426, "lat": 52.3785415, "lon": 13.4065808}, {"type": "node", "id": 2457109446, "lat": 52.3785965, "lon": 13.4053181}, {"type": "node", "id": 2457109581, "lat": 52.3792881, "lon": 13.4058075}, {"type": "node", "id": 2459194472, "lat": 52.3832548, "lon": 13.4059985}, {"type": "node", "id": 2459194475, "lat": 52.3836431, "lon": 13.406556}, {"type": "node", "id": 2459194476, "lat": 52.383663, "lon": 13.40552}, {"type": "node", "id": 2470100411, "lat": 52.3858628, "lon": 13.3986527, "tags": {"addr:city": "Berlin", "addr:country": "DE", "addr:housenumber": "6", "addr:postcode": "12307", "addr:street": "Briesingstra\u00dfe", "amenity": "doctors", "check_date:opening_hours": "2024-01-12", "contact:fax": "+49 30 76403423", "contact:phone": "+49 30 76403422", "healthcare": "doctor", "healthcare:speciality": "paediatrics", "name": "Kinderarztpraxis - Dr. Wilke", "opening_hours": "Mo,Tu,Th 09:00-13:00,14:00-17:00; We 09:00-13:00; Fr 09:00-12:00", "website": "https://www.kinderaerzte-im-netz.de/aerzte/wilke/startseite.html", "wheelchair": "yes"}}, {"type": "node", "id": 2619655617, "lat": 52.4016001, "lon": 13.4127798}, {"type": "node", "id": 2619655619, "lat": 52.4016488, "lon": 13.4129346}, {"type": "node", "id": 2619655621, "lat": 52.4013181, "lon": 13.4123193}, {"type": "node", "id": 2619655624, "lat": 52.4016162, "lon": 13.4127773}, {"type": "node", "id": 2711519361, "lat": 52.388368, "lon": 13.4167177}, {"type": "node", "id": 2711519363, "lat": 52.3883782, "lon": 13.4168611}, {"type": "node", "id": 2711519364, "lat": 52.3884136, "lon": 13.4170396}, {"type": "node", "id": 2711519365, "lat": 52.3884313, "lon": 13.4166551}, {"type": "node", "id": 2711519366, "lat": 52.3884704, "lon": 13.4167863}, {"type": "node", "id": 2711519372, "lat": 52.3884769, "lon": 13.4171311}, {"type": "node", "id": 2711519374, "lat": 52.3884853, "lon": 13.4168779}, {"type": "node", "id": 2711519384, "lat": 52.388533, "lon": 13.4169161}, {"type": "node", "id": 2711519386, "lat": 52.3885738, "lon": 13.4170838}, {"type": "node", "id": 2711519388, "lat": 52.3886287, "lon": 13.4169302}, {"type": "node", "id": 2711519392, "lat": 52.3886259, "lon": 13.4170121}, {"type": "node", "id": 2711519518, "lat": 52.3917543, "lon": 13.417293}, {"type": "node", "id": 2711519520, "lat": 52.3917777, "lon": 13.4177172}, {"type": "node", "id": 2711519529, "lat": 52.3923911, "lon": 13.4172405}, {"type": "node", "id": 2711519534, "lat": 52.3924155, "lon": 13.4176227}, {"type": "node", "id": 2755614656, "lat": 52.3886308, "lon": 13.3945846, "tags": {"addr:city": "Berlin", "addr:housenumber": "107", "addr:postcode": "12307", "addr:street": "W\u00fcnsdorfer Stra\u00dfe", "amenity": "restaurant", "cuisine": "pizza", "currency:BCH": "yes", "diet:vegan": "yes", "diet:vegetarian": "yes", "name": "La Vado", "opening_hours": "Mo-Su,PH 11:00-22:00", "website": "https://www.lieferando.de/speisekarte/la-vado-berlin"}}, {"type": "node", "id": 2800773945, "lat": 52.3983822, "lon": 13.4049492, "tags": {"addr:city": "Berlin", "addr:country": "DE", "addr:housenumber": "7", "addr:postcode": "12305", "addr:street": "Grimmstra\u00dfe", "addr:suburb": "Lichtenrade", "amenity": "pub", "name": "Goldene Gans", "opening_hours": "10:00-01:00", "phone": "+49 30 92250572", "smoking": "yes", "wheelchair": "yes"}}, {"type": "node", "id": 2848500579, "lat": 52.3893915, "lon": 13.3938083}, {"type": "node", "id": 2848500580, "lat": 52.3893865, "lon": 13.3937375}, {"type": "node", "id": 2864383887, "lat": 52.4130504, "lon": 13.4239992, "tags": {"barrier": "gate"}}, {"type": "node", "id": 2865278613, "lat": 52.3920909, "lon": 13.4032295}, {"type": "node", "id": 2865336139, "lat": 52.393064, "lon": 13.4076111}, {"type": "node", "id": 2865336140, "lat": 52.3930653, "lon": 13.4076875}, {"type": "node", "id": 2866309961, "lat": 52.3860548, "lon": 13.4015639}, {"type": "node", "id": 2866309962, "lat": 52.3860539, "lon": 13.4022789}, {"type": "node", "id": 2866309968, "lat": 52.3862481, "lon": 13.4022157}, {"type": "node", "id": 2867727603, "lat": 52.4013598, "lon": 13.4129494}, {"type": "node", "id": 2869269990, "lat": 52.4120969, "lon": 13.4230702}, {"type": "node", "id": 2869269994, "lat": 52.4121229, "lon": 13.4230674}, {"type": "node", "id": 2869270175, "lat": 52.4130383, "lon": 13.4240037}, {"type": "node", "id": 2869270180, "lat": 52.413062, "lon": 13.4239968}, {"type": "node", "id": 2869600292, "lat": 52.3921683, "lon": 13.4031967}, {"type": "node", "id": 3061546254, "lat": 52.4108082, "lon": 13.4029351, "tags": {"addr:city": "Berlin", "addr:country": "DE", "addr:housenumber": "34-36", "addr:postcode": "12305", "addr:street": "Lichtenrader Damm", "addr:suburb": "Lichtenrade", "amenity": "cafe", "email": "info@obergfell.org", "name": "Caf\u00e9 Obergfell", "opening_hours": "Mo-Fr 06:00-18:00; Sa-Su 08:00-18:00", "outdoor_seating": "yes", "phone": "+49 30 762 90 00", "website": "https://www.obergfell.org", "wheelchair": "yes"}}, {"type": "node", "id": 3063165844, "lat": 52.4102069, "lon": 13.4032632, "tags": {"addr:city": "Berlin", "addr:country": "DE", "addr:housenumber": "42", "addr:postcode": "12305", "addr:street": "Lichtenrader Damm", "addr:suburb": "Lichtenrade", "amenity": "restaurant", "diet:vegan": "yes", "diet:vegetarian": "yes", "indoor_seating": "yes", "name": "My Friends Sushi & more", "opening_hours": "Tu-Su 11:30-22:00", "outdoor_seating": "yes"}}, {"type": "node", "id": 3064933251, "lat": 52.4165288, "lon": 13.3996517, "tags": {"addr:city": "Berlin", "addr:country": "DE", "addr:housenumber": "430", "addr:postcode": "12107", "addr:street": "Mariendorfer Damm", "addr:suburb": "Lichtenrade", "amenity": "fast_food", "brand": "Call a Pizza", "brand:wikidata": "Q1027107", "cuisine": "pizza", "name": "Call a Pizza", "opening_hours": "11:00-23:00", "phone": "+49 30 76 28 88 63", "takeaway": "yes", "website": "https://www.call-a-pizza.de", "wheelchair": "no"}}, {"type": "node", "id": 3066066022, "lat": 52.4116829, "lon": 13.4023977, "tags": {"addr:city": "Berlin", "addr:country": "DE", "addr:housenumber": "26", "addr:postcode": "12305", "addr:street": "Lichtenrader Damm", "addr:suburb": "Lichtenrade", "amenity": "restaurant", "cuisine": "greek", "email": "info@meteora-berlin.de", "name": "Restaurant Meteora", "opening_hours": "12:00-23:00", "phone": "+49 30 74 30 98 20", "website": "https://www.meteora-berlin.de/", "wheelchair": "no"}}, {"type": "node", "id": 3316730990, "lat": 52.3867964, "lon": 13.4056618}, {"type": "node", "id": 3316730993, "lat": 52.386797, "lon": 13.405244}, {"type": "node", "id": 3316731066, "lat": 52.3868486, "lon": 13.3973447}, {"type": "node", "id": 3316731068, "lat": 52.3868487, "lon": 13.3973011}, {"type": "node", "id": 3316731093, "lat": 52.3868679, "lon": 13.3973884}, {"type": "node", "id": 3316731094, "lat": 52.386868, "lon": 13.3973448}, {"type": "node", "id": 3316731095, "lat": 52.3868677, "lon": 13.3973013}, {"type": "node", "id": 3316731096, "lat": 52.3868678, "lon": 13.3972562}, {"type": "node", "id": 3316731125, "lat": 52.3868911, "lon": 13.4052445}, {"type": "node", "id": 3316731168, "lat": 52.386914, "lon": 13.4054287}, {"type": "node", "id": 3316731169, "lat": 52.386914, "lon": 13.4054332}, {"type": "node", "id": 3316731170, "lat": 52.386914, "lon": 13.4054892}, {"type": "node", "id": 3316731171, "lat": 52.386914, "lon": 13.4056622}, {"type": "node", "id": 3316731182, "lat": 52.3869188, "lon": 13.4054896}, {"type": "node", "id": 3316731184, "lat": 52.3869192, "lon": 13.4054328}, {"type": "node", "id": 3316731192, "lat": 52.3869253, "lon": 13.405443}, {"type": "node", "id": 3316731193, "lat": 52.3869253, "lon": 13.4054789}, {"type": "node", "id": 3316731230, "lat": 52.3869742, "lon": 13.397257}, {"type": "node", "id": 3316731284, "lat": 52.3870121, "lon": 13.4054291}, {"type": "node", "id": 3316731287, "lat": 52.3870124, "lon": 13.4052594}, {"type": "node", "id": 3316731380, "lat": 52.3869739, "lon": 13.3973892}, {"type": "node", "id": 3316732487, "lat": 52.3877398, "lon": 13.409658}, {"type": "node", "id": 3316732503, "lat": 52.3877493, "lon": 13.4098103}, {"type": "node", "id": 3316732860, "lat": 52.3879435, "lon": 13.4096242}, {"type": "node", "id": 3316732972, "lat": 52.387953, "lon": 13.4097764}, {"type": "node", "id": 3316736704, "lat": 52.3911852, "lon": 13.4115748}, {"type": "node", "id": 3316736707, "lat": 52.3911949, "lon": 13.4113517}, {"type": "node", "id": 3317888014, "lat": 52.3862394, "lon": 13.401263}, {"type": "node", "id": 3317888015, "lat": 52.3862398, "lon": 13.4008458}, {"type": "node", "id": 3317888042, "lat": 52.3862773, "lon": 13.4017873}, {"type": "node", "id": 3317888044, "lat": 52.3862776, "lon": 13.4015646}, {"type": "node", "id": 3317888065, "lat": 52.3863264, "lon": 13.4017875}, {"type": "node", "id": 3317888083, "lat": 52.3863709, "lon": 13.4008461}, {"type": "node", "id": 3317888084, "lat": 52.386371, "lon": 13.4008005}, {"type": "node", "id": 3317888149, "lat": 52.3865391, "lon": 13.4012638}, {"type": "node", "id": 3317888150, "lat": 52.3865395, "lon": 13.4008009}, {"type": "node", "id": 3317888183, "lat": 52.387059, "lon": 13.4086133}, {"type": "node", "id": 3317888185, "lat": 52.3870797, "lon": 13.4082502}, {"type": "node", "id": 3317888186, "lat": 52.3870976, "lon": 13.4081798}, {"type": "node", "id": 3317888187, "lat": 52.3871316, "lon": 13.4081672}, {"type": "node", "id": 3317888194, "lat": 52.3871773, "lon": 13.4088731}, {"type": "node", "id": 3317888196, "lat": 52.3872, "lon": 13.4081663}, {"type": "node", "id": 3317888197, "lat": 52.3872074, "lon": 13.408902}, {"type": "node", "id": 3317888198, "lat": 52.3872088, "lon": 13.4089066}, {"type": "node", "id": 3317888199, "lat": 52.3872104, "lon": 13.4089108}, {"type": "node", "id": 3317888200, "lat": 52.3872095, "lon": 13.4088787}, {"type": "node", "id": 3317888201, "lat": 52.3872126, "lon": 13.4089145}, {"type": "node", "id": 3317888202, "lat": 52.3872152, "lon": 13.4089175}, {"type": "node", "id": 3317888203, "lat": 52.3872181, "lon": 13.4089197}, {"type": "node", "id": 3317888204, "lat": 52.3872213, "lon": 13.408921}, {"type": "node", "id": 3317888205, "lat": 52.3872245, "lon": 13.4089213}, {"type": "node", "id": 3317888206, "lat": 52.3872278, "lon": 13.4089208}, {"type": "node", "id": 3317888207, "lat": 52.3872308, "lon": 13.4089193}, {"type": "node", "id": 3317888208, "lat": 52.3872337, "lon": 13.4089169}, {"type": "node", "id": 3317888209, "lat": 52.3872361, "lon": 13.4089137}, {"type": "node", "id": 3317888210, "lat": 52.3872381, "lon": 13.4089099}, {"type": "node", "id": 3317888211, "lat": 52.3872396, "lon": 13.4089056}, {"type": "node", "id": 3317888212, "lat": 52.3872405, "lon": 13.4089009}, {"type": "node", "id": 3317888213, "lat": 52.3872406, "lon": 13.4088911}, {"type": "node", "id": 3317888214, "lat": 52.3872407, "lon": 13.408896}, {"type": "node", "id": 3317888226, "lat": 52.3873624, "lon": 13.4081626}, {"type": "node", "id": 3317888236, "lat": 52.3873794, "lon": 13.4089122}, {"type": "node", "id": 3317888249, "lat": 52.3874245, "lon": 13.4082382}, {"type": "node", "id": 3317888261, "lat": 52.3874236, "lon": 13.4091922}, {"type": "node", "id": 3317888267, "lat": 52.3874717, "lon": 13.4082412}, {"type": "node", "id": 3317888273, "lat": 52.3874926, "lon": 13.4089297}, {"type": "node", "id": 3317888275, "lat": 52.3875123, "lon": 13.4082436}, {"type": "node", "id": 3317888276, "lat": 52.3875133, "lon": 13.4082304}, {"type": "node", "id": 3317888278, "lat": 52.3875367, "lon": 13.4082338}, {"type": "node", "id": 3317888487, "lat": 52.3909064, "lon": 13.4110178}, {"type": "node", "id": 3317888489, "lat": 52.3909084, "lon": 13.409852}, {"type": "node", "id": 3317888499, "lat": 52.3909664, "lon": 13.410984}, {"type": "node", "id": 3317888513, "lat": 52.3910332, "lon": 13.4109582}, {"type": "node", "id": 3317888518, "lat": 52.3910619, "lon": 13.4109356}, {"type": "node", "id": 3317888519, "lat": 52.3910528, "lon": 13.4099178}, {"type": "node", "id": 3317888524, "lat": 52.391085, "lon": 13.4099591}, {"type": "node", "id": 3317888529, "lat": 52.3911138, "lon": 13.4104236}, {"type": "node", "id": 3317888530, "lat": 52.3911227, "lon": 13.4108109}, {"type": "node", "id": 3317888531, "lat": 52.3911177, "lon": 13.4101531}, {"type": "node", "id": 3317919968, "lat": 52.3861771, "lon": 13.3978552}, {"type": "node", "id": 3317919969, "lat": 52.3861773, "lon": 13.3976697}, {"type": "node", "id": 3327962239, "lat": 52.4169375, "lon": 13.3990802}, {"type": "node", "id": 3327962287, "lat": 52.4169691, "lon": 13.3990618}, {"type": "node", "id": 3327962334, "lat": 52.4170138, "lon": 13.3994424}, {"type": "node", "id": 3327962392, "lat": 52.41705, "lon": 13.3990145}, {"type": "node", "id": 3327962409, "lat": 52.4170619, "lon": 13.3990081}, {"type": "node", "id": 3327962441, "lat": 52.417087, "lon": 13.3991232}, {"type": "node", "id": 3327962450, "lat": 52.4170934, "lon": 13.3991198}, {"type": "node", "id": 3327962456, "lat": 52.4170963, "lon": 13.3991634}, {"type": "node", "id": 3327962463, "lat": 52.4171022, "lon": 13.3991599}, {"type": "node", "id": 3327962467, "lat": 52.4171093, "lon": 13.3992232}, {"type": "node", "id": 3327962507, "lat": 52.4171406, "lon": 13.3993705}, {"type": "node", "id": 3334867185, "lat": 52.3803578, "lon": 13.3940722}, {"type": "node", "id": 3334867274, "lat": 52.380662, "lon": 13.3947136}, {"type": "node", "id": 3357799468, "lat": 52.3868134, "lon": 13.4053401, "tags": {"addr:city": "Berlin", "addr:housenumber": "9", "addr:postcode": "12305", "addr:street": "Bahnhofstra\u00dfe", "amenity": "dentist", "contact:phone": "+49 30 7055090", "healthcare": "dentist", "name": "ZZB - Zahnmedizinisches Zentrum Berlin", "opening_hours": "Mo-Fr 07:00-20:00; Sa 08:00-13:00", "phone": "+49 30 7055090", "source:date": "2015-02-18", "website": "https://zzb.de/", "wheelchair": "yes"}}, {"type": "node", "id": 3472937399, "lat": 52.4015396, "lon": 13.4122853}, {"type": "node", "id": 3472937437, "lat": 52.4015826, "lon": 13.4124759}, {"type": "node", "id": 3472937454, "lat": 52.4015992, "lon": 13.4122496}, {"type": "node", "id": 3472937467, "lat": 52.4016181, "lon": 13.4128102}, {"type": "node", "id": 3472937491, "lat": 52.4016429, "lon": 13.4124358}, {"type": "node", "id": 3472937545, "lat": 52.4017301, "lon": 13.4127393}, {"type": "node", "id": 3472937551, "lat": 52.4016384, "lon": 13.4127534}, {"type": "node", "id": 3472938202, "lat": 52.4019057, "lon": 13.4133363}, {"type": "node", "id": 3540412528, "lat": 52.3896749, "lon": 13.4168683}, {"type": "node", "id": 3540412529, "lat": 52.3895586, "lon": 13.4168852}, {"type": "node", "id": 3540412530, "lat": 52.389573, "lon": 13.4171893}, {"type": "node", "id": 3540412531, "lat": 52.3896904, "lon": 13.4171718}, {"type": "node", "id": 3675122891, "lat": 52.3850788, "lon": 13.4183803}, {"type": "node", "id": 3675122896, "lat": 52.3850852, "lon": 13.4185022}, {"type": "node", "id": 3675122901, "lat": 52.385088, "lon": 13.4183186}, {"type": "node", "id": 3675122912, "lat": 52.3851024, "lon": 13.4185697}, {"type": "node", "id": 3675122915, "lat": 52.385113, "lon": 13.4182404}, {"type": "node", "id": 3675122931, "lat": 52.3851339, "lon": 13.4186435}, {"type": "node", "id": 3675122936, "lat": 52.3851448, "lon": 13.4181754}, {"type": "node", "id": 3675122955, "lat": 52.3851655, "lon": 13.4186863}, {"type": "node", "id": 3675122989, "lat": 52.3851979, "lon": 13.4181222}, {"type": "node", "id": 3675122999, "lat": 52.3852051, "lon": 13.4187203}, {"type": "node", "id": 3675123138, "lat": 52.3852466, "lon": 13.418103}, {"type": "node", "id": 3675123329, "lat": 52.3852628, "lon": 13.4187395}, {"type": "node", "id": 3675123385, "lat": 52.3853122, "lon": 13.4187327}, {"type": "node", "id": 3675123412, "lat": 52.3853433, "lon": 13.4187615}, {"type": "node", "id": 3675123881, "lat": 52.3859617, "lon": 13.417891}, {"type": "node", "id": 3675123898, "lat": 52.3858072, "lon": 13.4181975}, {"type": "node", "id": 3675123904, "lat": 52.3858136, "lon": 13.4182581}, {"type": "node", "id": 3675124068, "lat": 52.3860045, "lon": 13.4185627}, {"type": "node", "id": 3675124070, "lat": 52.385892, "lon": 13.4184057}, {"type": "node", "id": 3675124096, "lat": 52.3859181, "lon": 13.4182492}, {"type": "node", "id": 3675124201, "lat": 52.3860274, "lon": 13.4185393}, {"type": "node", "id": 3675131112, "lat": 52.3908871, "lon": 13.4122681}, {"type": "node", "id": 3675131175, "lat": 52.3909986, "lon": 13.411569}, {"type": "node", "id": 3675131179, "lat": 52.3910011, "lon": 13.4112652}, {"type": "node", "id": 3675131236, "lat": 52.3911358, "lon": 13.4121103}, {"type": "node", "id": 3675131237, "lat": 52.39112, "lon": 13.4122781}, {"type": "node", "id": 3675131260, "lat": 52.3912045, "lon": 13.4218567}, {"type": "node", "id": 3675131270, "lat": 52.3912162, "lon": 13.4220162}, {"type": "node", "id": 3675131302, "lat": 52.3912748, "lon": 13.422121}, {"type": "node", "id": 3675131316, "lat": 52.3913064, "lon": 13.422121}, {"type": "node", "id": 3675131340, "lat": 52.3913226, "lon": 13.4218434}, {"type": "node", "id": 3675131347, "lat": 52.3913334, "lon": 13.4220058}, {"type": "node", "id": 3675131379, "lat": 52.3914116, "lon": 13.4175766}, {"type": "node", "id": 3675131971, "lat": 52.3920496, "lon": 13.4221559}, {"type": "node", "id": 3675131974, "lat": 52.3920693, "lon": 13.4224979}, {"type": "node", "id": 3675132014, "lat": 52.3922327, "lon": 13.4221276}, {"type": "node", "id": 3675132017, "lat": 52.3922354, "lon": 13.4224722}, {"type": "node", "id": 3675132018, "lat": 52.3922372, "lon": 13.4222048}, {"type": "node", "id": 3675132023, "lat": 52.3922554, "lon": 13.4223636}, {"type": "node", "id": 3675132035, "lat": 52.3922801, "lon": 13.4221982}, {"type": "node", "id": 3675132042, "lat": 52.3922893, "lon": 13.4223584}, {"type": "node", "id": 3675413125, "lat": 52.3923026, "lon": 13.4126587}, {"type": "node", "id": 3675413140, "lat": 52.392426, "lon": 13.4148803}, {"type": "node", "id": 3675413153, "lat": 52.3925523, "lon": 13.417078}, {"type": "node", "id": 3675413185, "lat": 52.3936562, "lon": 13.4126243}, {"type": "node", "id": 3675413187, "lat": 52.3937383, "lon": 13.4161989}, {"type": "node", "id": 3675413465, "lat": 52.3943985, "lon": 13.4143586}, {"type": "node", "id": 3675413468, "lat": 52.3944085, "lon": 13.4145626}, {"type": "node", "id": 3675413473, "lat": 52.3944322, "lon": 13.414987}, {"type": "node", "id": 3675413475, "lat": 52.394442, "lon": 13.415186}, {"type": "node", "id": 3675471721, "lat": 52.3891296, "lon": 13.409895}, {"type": "node", "id": 3675471722, "lat": 52.3891401, "lon": 13.4100371}, {"type": "node", "id": 3675471723, "lat": 52.3891542, "lon": 13.4098649}, {"type": "node", "id": 3675471724, "lat": 52.3891915, "lon": 13.4101589}, {"type": "node", "id": 3675475225, "lat": 52.3896024, "lon": 13.4104311}, {"type": "node", "id": 3675475226, "lat": 52.3898937, "lon": 13.4106331}, {"type": "node", "id": 3675475227, "lat": 52.3899992, "lon": 13.4097278}, {"type": "node", "id": 3675475228, "lat": 52.3901469, "lon": 13.4109506}, {"type": "node", "id": 3675475229, "lat": 52.3903356, "lon": 13.4111837}, {"type": "node", "id": 3675475230, "lat": 52.3903703, "lon": 13.409675}, {"type": "node", "id": 3675475231, "lat": 52.3904312, "lon": 13.4112497}, {"type": "node", "id": 3675475241, "lat": 52.3905721, "lon": 13.4112537}, {"type": "node", "id": 3675475246, "lat": 52.3906873, "lon": 13.4096668}, {"type": "node", "id": 3675475247, "lat": 52.3909896, "lon": 13.4111319}, {"type": "node", "id": 3675475248, "lat": 52.3910091, "lon": 13.4097304}, {"type": "node", "id": 3675475250, "lat": 52.3911563, "lon": 13.4109282}, {"type": "node", "id": 3675475252, "lat": 52.3912212, "lon": 13.4111368}, {"type": "node", "id": 3675475254, "lat": 52.3912078, "lon": 13.4108055}, {"type": "node", "id": 3675475255, "lat": 52.3912171, "lon": 13.4105878}, {"type": "node", "id": 3675475256, "lat": 52.3912321, "lon": 13.4102179}, {"type": "node", "id": 3675475257, "lat": 52.391239, "lon": 13.4099122}, {"type": "node", "id": 3675475258, "lat": 52.3912506, "lon": 13.4098176}, {"type": "node", "id": 3675535679, "lat": 52.3946098, "lon": 13.4113023}, {"type": "node", "id": 3675535681, "lat": 52.3946151, "lon": 13.411465}, {"type": "node", "id": 3675535686, "lat": 52.3946226, "lon": 13.4114644}, {"type": "node", "id": 3675535687, "lat": 52.3946255, "lon": 13.4115515}, {"type": "node", "id": 3675535705, "lat": 52.3947329, "lon": 13.4114494}, {"type": "node", "id": 3675535706, "lat": 52.3947343, "lon": 13.411492}, {"type": "node", "id": 3675535709, "lat": 52.3947359, "lon": 13.4115418}, {"type": "node", "id": 3675535718, "lat": 52.3947656, "lon": 13.4112887}, {"type": "node", "id": 3675535719, "lat": 52.3947707, "lon": 13.4114461}, {"type": "node", "id": 3740398576, "lat": 52.3962666, "lon": 13.39764}, {"type": "node", "id": 3740398632, "lat": 52.3965547, "lon": 13.3978063}, {"type": "node", "id": 3740398668, "lat": 52.3967618, "lon": 13.3964852}, {"type": "node", "id": 3740398704, "lat": 52.3968535, "lon": 13.3979529}, {"type": "node", "id": 3740398718, "lat": 52.3968687, "lon": 13.3979383}, {"type": "node", "id": 3740398837, "lat": 52.3969219, "lon": 13.3964712}, {"type": "node", "id": 3740399346, "lat": 52.3986327, "lon": 13.3961085}, {"type": "node", "id": 3740399397, "lat": 52.3987485, "lon": 13.3950761}, {"type": "node", "id": 3740399415, "lat": 52.3987754, "lon": 13.3960925}, {"type": "node", "id": 3740399930, "lat": 52.3988263, "lon": 13.3943555}, {"type": "node", "id": 3740399949, "lat": 52.3988908, "lon": 13.3930233}, {"type": "node", "id": 3740399960, "lat": 52.3988917, "lon": 13.3935746}, {"type": "node", "id": 3740399969, "lat": 52.398904, "lon": 13.393302}, {"type": "node", "id": 3740400557, "lat": 52.399157, "lon": 13.3955264}, {"type": "node", "id": 3740400566, "lat": 52.3991934, "lon": 13.3959617}, {"type": "node", "id": 3740401881, "lat": 52.404625, "lon": 13.3918296}, {"type": "node", "id": 3740402188, "lat": 52.4054865, "lon": 13.392417}, {"type": "node", "id": 3740402192, "lat": 52.4055011, "lon": 13.3918911}, {"type": "node", "id": 3740402204, "lat": 52.4056217, "lon": 13.3923446}, {"type": "node", "id": 3740402206, "lat": 52.4056367, "lon": 13.391916}, {"type": "node", "id": 3740402259, "lat": 52.4060695, "lon": 13.3920191}, {"type": "node", "id": 3740402261, "lat": 52.406079, "lon": 13.392084}, {"type": "node", "id": 3828842166, "lat": 52.3963227, "lon": 13.4156574}, {"type": "node", "id": 3828842167, "lat": 52.3963853, "lon": 13.41659}, {"type": "node", "id": 3828842168, "lat": 52.3965005, "lon": 13.415265}, {"type": "node", "id": 3828842169, "lat": 52.3968707, "lon": 13.4157126}, {"type": "node", "id": 3828842170, "lat": 52.3969112, "lon": 13.4163503}, {"type": "node", "id": 3831451716, "lat": 52.3936347, "lon": 13.3992895}, {"type": "node", "id": 3831451718, "lat": 52.3936511, "lon": 13.3990471}, {"type": "node", "id": 3831451719, "lat": 52.3936564, "lon": 13.3992269}, {"type": "node", "id": 3831451720, "lat": 52.3936708, "lon": 13.3991019}, {"type": "node", "id": 3831451723, "lat": 52.3937217, "lon": 13.3992471}, {"type": "node", "id": 3831451724, "lat": 52.3937361, "lon": 13.3991221}, {"type": "node", "id": 3831451729, "lat": 52.3937629, "lon": 13.3992065}, {"type": "node", "id": 3831451732, "lat": 52.3937801, "lon": 13.3990575}, {"type": "node", "id": 3831451744, "lat": 52.3938374, "lon": 13.3992296}, {"type": "node", "id": 3831451749, "lat": 52.3938546, "lon": 13.3990806}, {"type": "node", "id": 3831451752, "lat": 52.393866, "lon": 13.3992574}, {"type": "node", "id": 3831452961, "lat": 52.393893, "lon": 13.3990149}, {"type": "node", "id": 3831936892, "lat": 52.3940759, "lon": 13.3864049}, {"type": "node", "id": 3831936893, "lat": 52.3940807, "lon": 13.3867095}, {"type": "node", "id": 3831936896, "lat": 52.3944868, "lon": 13.3867027}, {"type": "node", "id": 3831936897, "lat": 52.3944892, "lon": 13.3864185}, {"type": "node", "id": 3831991189, "lat": 52.3921652, "lon": 13.4028407}, {"type": "node", "id": 3831992457, "lat": 52.3868911, "lon": 13.4052584}, {"type": "node", "id": 3960133678, "lat": 52.3921556, "lon": 13.4017354}, {"type": "node", "id": 4347732190, "lat": 52.409526, "lon": 13.4036178, "tags": {"addr:city": "Berlin", "addr:country": "DE", "addr:housenumber": "46", "addr:postcode": "12305", "addr:street": "Lichtenrader Damm", "addr:suburb": "Lichtenrade", "amenity": "restaurant", "contact:phone": "+49 30 7426914", "contact:website": "https://stefano.eatbu.com/", "cuisine": "italian;pizza", "name": "Stefano", "opening_hours": "Mo-Su 10:00-00:00", "toilets:wheelchair": "no", "wheelchair": "limited"}}, {"type": "node", "id": 4347732191, "lat": 52.4096346, "lon": 13.4035222, "tags": {"amenity": "restaurant", "cuisine": "greek", "name": "Jainikos", "opening_hours": "Su-Th 14:00-22:00; Fr,Sa 14:00-23:00", "toilets:wheelchair": "no", "wheelchair": "limited"}}, {"type": "node", "id": 4385834863, "lat": 52.4013681, "lon": 13.4097341}, {"type": "node", "id": 4385834864, "lat": 52.4014078, "lon": 13.4104508}, {"type": "node", "id": 4385834865, "lat": 52.4017661, "lon": 13.4095072}, {"type": "node", "id": 4385834866, "lat": 52.4018272, "lon": 13.4107346}, {"type": "node", "id": 4386799463, "lat": 52.4017314, "lon": 13.4085815}, {"type": "node", "id": 4386799467, "lat": 52.4017778, "lon": 13.4094994}, {"type": "node", "id": 4386799469, "lat": 52.4018644, "lon": 13.4085069}, {"type": "node", "id": 4386799480, "lat": 52.401851, "lon": 13.4107518}, {"type": "node", "id": 4386799483, "lat": 52.4018952, "lon": 13.4115669}, {"type": "node", "id": 4386799488, "lat": 52.4019209, "lon": 13.4120153}, {"type": "node", "id": 4386800391, "lat": 52.4020621, "lon": 13.412116}, {"type": "node", "id": 4485201590, "lat": 52.3943701, "lon": 13.410495, "tags": {"addr:city": "Berlin", "addr:country": "DE", "addr:housenumber": "35", "addr:postcode": "12309", "addr:street": "Gro\u00df-Ziethener Stra\u00dfe", "addr:suburb": "Lichtenrade", "amenity": "pharmacy", "healthcare": "pharmacy", "name": "Apotheke Alt-Lichtenrade", "opening_hours": "Mo,Tu,Th 08:00-19:00; We,Fr 08:00-18:30; Sa 08:00-14:00", "wheelchair": "yes"}}, {"type": "node", "id": 4485201591, "lat": 52.3944137, "lon": 13.4104766, "tags": {"addr:city": "Berlin", "addr:country": "DE", "addr:housenumber": "35", "addr:postcode": "12309", "addr:street": "Gro\u00df-Ziethener Stra\u00dfe", "addr:suburb": "Lichtenrade", "amenity": "doctors", "healthcare": "doctor", "healthcare:speciality": "general", "name": "Dr. Med. Peer Bornmann", "opening_hours": "Mo,We 08:30-12:00, Mo,Tu,Th 15:00-18:00, Tu,Th,Fr 08:30-14:00", "phone": "+49 30 7412346", "website": "https://www.praxis-bornmann.de/"}}, {"type": "node", "id": 4485201592, "lat": 52.3943893, "lon": 13.4102727, "tags": {"addr:city": "Berlin", "addr:country": "DE", "addr:housenumber": "35", "addr:postcode": "12309", "addr:street": "Gro\u00df-Ziethener Stra\u00dfe", "addr:suburb": "Lichtenrade", "amenity": "doctors", "healthcare": "doctor", "healthcare:speciality": "paediatrics", "name": "Andreas Gro\u00df", "opening_hours": "Mo,We 09:00-12:00, Mo,Tu,Th 15:00-18:00, Tu,Th,Fr 09:00-14:00", "phone": "+49 30 72324666"}}, {"type": "node", "id": 4485202190, "lat": 52.3944026, "lon": 13.4103822, "tags": {"addr:city": "Berlin", "addr:country": "DE", "addr:housenumber": "35", "addr:postcode": "12309", "addr:street": "Gro\u00df-Ziethener Stra\u00dfe", "addr:suburb": "Lichtenrade", "amenity": "doctors", "healthcare": "doctor", "healthcare:speciality": "otolaryngology", "name": "Dr. med. H. und A. Fazel", "opening_hours": "Mo,We 08:30-12:00, Mo,Tu,Th 15:00-18:00, Tu,Th,Fr 08:30-14:00", "phone": "+49 30 7458017", "website": "http://www.hno-fazel.de"}}, {"type": "node", "id": 4510267108, "lat": 52.3934679, "lon": 13.4171334}, {"type": "node", "id": 4510267410, "lat": 52.3912517, "lon": 13.4176057, "tags": {"barrier": "gate"}}, {"type": "node", "id": 4527116689, "lat": 52.4141283, "lon": 13.4001454, "tags": {"addr:city": "Berlin", "addr:country": "DE", "addr:housenumber": "160", "addr:postcode": "12305", "addr:street": "Buckower Chaussee", "addr:suburb": "Lichtenrade", "amenity": "bar", "disused:amenity": "restaurant", "name": "Adara House", "outdoor_seating": "yes"}}, {"type": "node", "id": 4599219393, "lat": 52.3950859, "lon": 13.4080244}, {"type": "node", "id": 4599231748, "lat": 52.3892287, "lon": 13.4060141}, {"type": "node", "id": 4599231749, "lat": 52.3892319, "lon": 13.4062141}, {"type": "node", "id": 4599231750, "lat": 52.3888543, "lon": 13.4062301}, {"type": "node", "id": 4599231751, "lat": 52.3888511, "lon": 13.4060301}, {"type": "node", "id": 4599231752, "lat": 52.390424, "lon": 13.403925}, {"type": "node", "id": 4599231753, "lat": 52.3904257, "lon": 13.4042849}, {"type": "node", "id": 4599231754, "lat": 52.3902747, "lon": 13.4042869}, {"type": "node", "id": 4599231755, "lat": 52.390273, "lon": 13.403927}, {"type": "node", "id": 4599231756, "lat": 52.3897869, "lon": 13.4064337}, {"type": "node", "id": 4599231757, "lat": 52.3897881, "lon": 13.4062399}, {"type": "node", "id": 4599231758, "lat": 52.3897073, "lon": 13.4062399}, {"type": "node", "id": 4599231759, "lat": 52.389706, "lon": 13.4064337}, {"type": "node", "id": 4599262905, "lat": 52.3921419, "lon": 13.3990446}, {"type": "node", "id": 4599262906, "lat": 52.3921052, "lon": 13.3989485}, {"type": "node", "id": 4599262907, "lat": 52.3919949, "lon": 13.398885}, {"type": "node", "id": 4599262908, "lat": 52.3919481, "lon": 13.3990234}, {"type": "node", "id": 4599262909, "lat": 52.3920982, "lon": 13.3991505}, {"type": "node", "id": 4601139750, "lat": 52.3868906, "lon": 13.4025679, "tags": {"addr:city": "Berlin", "addr:housenumber": "17", "addr:postcode": "12305", "addr:street": "Bahnhofstra\u00dfe", "amenity": "doctors", "check_date:opening_hours": "2025-04-27", "healthcare": "doctor", "name": "Dr. Heinrich, Andreas", "opening_hours": "Mo,Tu,Th,Fr 09:00-12:00, Tu,Th 16:00-18:00", "phone": "+49 30 7445053", "wheelchair": "no"}}, {"type": "node", "id": 4601522651, "lat": 52.3929913, "lon": 13.3999973}, {"type": "node", "id": 4601522652, "lat": 52.3928247, "lon": 13.4000027}, {"type": "node", "id": 4601522653, "lat": 52.3928213, "lon": 13.3997469}, {"type": "node", "id": 4601522654, "lat": 52.3929891, "lon": 13.3997453}, {"type": "node", "id": 4664200998, "lat": 52.3983851, "lon": 13.4060583, "tags": {"addr:city": "Berlin", "addr:country": "DE", "addr:housenumber": "162", "addr:postcode": "12305", "addr:street": "Lichtenrader Damm", "addr:suburb": "Lichtenrade", "amenity": "fast_food", "cuisine": "kebab", "diet:vegan": "yes", "diet:vegetarian": "yes", "indoor_seating": "yes", "name": "Grimm D\u00f6ner", "opening_hours:signed": "no", "outdoor_seating": "yes"}}, {"type": "node", "id": 4664307490, "lat": 52.3867758, "lon": 13.4086298, "tags": {"amenity": "fast_food", "cuisine": "chinese", "name": "Imbiss China", "name:de": "Imbiss China"}}, {"type": "node", "id": 4665154493, "lat": 52.3870852, "lon": 13.4093319, "tags": {"amenity": "dentist", "healthcare": "dentist", "healthcare:speciality": "orthodontics", "name": "Adentics Kieferorthop\u00e4den", "name:de": "Adentics Kieferorthop\u00e4den"}}, {"type": "node", "id": 4718578275, "lat": 52.4015963, "lon": 13.4129426}, {"type": "node", "id": 4743273176, "lat": 52.3954905, "lon": 13.4068732}, {"type": "node", "id": 4746367831, "lat": 52.3865188, "lon": 13.3993816, "tags": {"amenity": "pub", "indoor_seating": "yes", "level": "0", "name": "Bauernst\u00fcbchen", "opening_hours": "Mo-Su 10:00-00:00", "opening_hours:signed": "no", "outdoor_seating": "yes", "smoking": "yes"}}, {"type": "node", "id": 4748225794, "lat": 52.386512, "lon": 13.4001477, "tags": {"amenity": "fast_food", "cuisine": "kebab", "indoor_seating": "yes", "level": "0", "name": "D\u00fcr\u00fcmc\u00fc Baba", "outdoor_seating": "yes"}}, {"type": "node", "id": 4754036014, "lat": 52.3868162, "lon": 13.4044254, "tags": {"amenity": "cafe", "level": "0", "name": "Gelato Bacio", "opening_hours": "PH,Mo-Su 09:00-18:00+"}}, {"type": "node", "id": 4762111856, "lat": 52.3935753, "lon": 13.4077026, "tags": {"addr:city": "Berlin", "addr:housenumber": "2", "addr:postcode": "12309", "addr:street": "Gro\u00df-Ziethener Stra\u00dfe", "amenity": "doctors", "healthcare": "doctor", "healthcare:speciality": "general", "name": "H. Stuckstedde", "phone": "+49 30 686 33 16"}}, {"type": "node", "id": 4792258872, "lat": 52.3816109, "lon": 13.3964337, "tags": {"amenity": "dentist", "check_date:opening_hours": "2023-09-10", "healthcare": "dentist", "name": "Zahnarzt J\u00fcrgen Dreiling", "opening_hours": "Mo-Th 09:00-12:00,14:00-18:00; Fr 09:00-13:00; PH off", "phone": "+49 30 76405607", "wheelchair": "no"}}, {"type": "node", "id": 4936408725, "lat": 52.3870475, "lon": 13.4092711, "tags": {"addr:city": "Berlin", "addr:country": "DE", "addr:housenumber": "39", "addr:postcode": "12307", "addr:street": "Goltzstra\u00dfe", "addr:suburb": "Lichtenrade", "amenity": "pharmacy", "check_date:opening_hours": "2023-09-10", "dispensing": "yes", "healthcare": "pharmacy", "name": "puls Apotheke", "opening_hours": "Mo-Fr 08:30-18:30; Sa 09:00-13:00", "phone": "+49 30 70784791", "website": "https://www.puls-apotheke-berlin.de/", "wheelchair": "yes"}}, {"type": "node", "id": 5092105239, "lat": 52.3916051, "lon": 13.4172637}, {"type": "node", "id": 5092105240, "lat": 52.3924895, "lon": 13.4178927}, {"type": "node", "id": 5092105241, "lat": 52.3924526, "lon": 13.4172235}, {"type": "node", "id": 5092109532, "lat": 52.4096478, "lon": 13.4146792}, {"type": "node", "id": 5092109534, "lat": 52.410359, "lon": 13.4163558}, {"type": "node", "id": 5092109535, "lat": 52.4106488, "lon": 13.4151256}, {"type": "node", "id": 5250058606, "lat": 52.3874938, "lon": 13.4103196, "tags": {"amenity": "restaurant", "cuisine": "indian", "name": "Amma", "opening_hours": "Su-Th 11:30-24:00, PH,Fr,Sa 11:30-01:00"}}, {"type": "node", "id": 5252776067, "lat": 52.3877472, "lon": 13.4097773, "tags": {"entrance": "main"}}, {"type": "node", "id": 5286262572, "lat": 52.3983184, "lon": 13.3888889}, {"type": "node", "id": 5286262573, "lat": 52.3982736, "lon": 13.3889158}, {"type": "node", "id": 5286262574, "lat": 52.3982603, "lon": 13.3888471}, {"type": "node", "id": 5286262575, "lat": 52.3983044, "lon": 13.388823}, {"type": "node", "id": 5398282864, "lat": 52.4111082, "lon": 13.4219464}, {"type": "node", "id": 5398652686, "lat": 52.3909001, "lon": 13.4118534}, {"type": "node", "id": 5398652701, "lat": 52.3911319, "lon": 13.4112262}, {"type": "node", "id": 5398653228, "lat": 52.3911256, "lon": 13.4097687}, {"type": "node", "id": 5398653229, "lat": 52.390847, "lon": 13.4096876}, {"type": "node", "id": 5398653230, "lat": 52.3905271, "lon": 13.4096627}, {"type": "node", "id": 5398653231, "lat": 52.3901856, "lon": 13.4096944}, {"type": "node", "id": 5398653232, "lat": 52.3891422, "lon": 13.4098686}, {"type": "node", "id": 5398653233, "lat": 52.3891324, "lon": 13.4099601}, {"type": "node", "id": 5398653234, "lat": 52.3891498, "lon": 13.4100755}, {"type": "node", "id": 5398653235, "lat": 52.3891641, "lon": 13.4101119}, {"type": "node", "id": 5398653236, "lat": 52.3899645, "lon": 13.410686}, {"type": "node", "id": 5398653237, "lat": 52.3905318, "lon": 13.4112626}, {"type": "node", "id": 5398653238, "lat": 52.3904988, "lon": 13.4112637}, {"type": "node", "id": 5398653239, "lat": 52.3903779, "lon": 13.4112179}, {"type": "node", "id": 5398653240, "lat": 52.3909266, "lon": 13.4111628}, {"type": "node", "id": 5398653241, "lat": 52.3911982, "lon": 13.4108472}, {"type": "node", "id": 5398653242, "lat": 52.3910954, "lon": 13.411065}, {"type": "node", "id": 5398653243, "lat": 52.3902615, "lon": 13.4109288}, {"type": "node", "id": 5398653244, "lat": 52.3903919, "lon": 13.41105}, {"type": "node", "id": 5398653245, "lat": 52.3900333, "lon": 13.4102034}, {"type": "node", "id": 5398653246, "lat": 52.3901828, "lon": 13.4098722}, {"type": "node", "id": 5398653247, "lat": 52.3902599, "lon": 13.409815}, {"type": "node", "id": 5398653248, "lat": 52.3904712, "lon": 13.4098015}, {"type": "node", "id": 5398653249, "lat": 52.391037, "lon": 13.4099065}, {"type": "node", "id": 5398653250, "lat": 52.3910707, "lon": 13.4099341}, {"type": "node", "id": 5398653251, "lat": 52.3910989, "lon": 13.4100006}, {"type": "node", "id": 5398653252, "lat": 52.3910678, "lon": 13.4108815}, {"type": "node", "id": 5398653253, "lat": 52.3911034, "lon": 13.4108196}, {"type": "node", "id": 5398689270, "lat": 52.393654, "lon": 13.4131213}, {"type": "node", "id": 5398689271, "lat": 52.3936544, "lon": 13.4130318}, {"type": "node", "id": 5398689272, "lat": 52.3936548, "lon": 13.4129401}, {"type": "node", "id": 5398689273, "lat": 52.3936552, "lon": 13.41285}, {"type": "node", "id": 5398689274, "lat": 52.3936556, "lon": 13.4127559}, {"type": "node", "id": 5398689298, "lat": 52.3934625, "lon": 13.413508}, {"type": "node", "id": 5398689300, "lat": 52.3934633, "lon": 13.4133677}, {"type": "node", "id": 5398689301, "lat": 52.3934617, "lon": 13.4136486}, {"type": "node", "id": 5398689302, "lat": 52.3934609, "lon": 13.4137869}, {"type": "node", "id": 5398689305, "lat": 52.3934601, "lon": 13.4139242}, {"type": "node", "id": 5398689306, "lat": 52.3934593, "lon": 13.4140657}, {"type": "node", "id": 5398689308, "lat": 52.3934585, "lon": 13.4142037}, {"type": "node", "id": 5398689310, "lat": 52.3942536, "lon": 13.4143563}, {"type": "node", "id": 5398689311, "lat": 52.3940272, "lon": 13.4143527}, {"type": "node", "id": 5398689328, "lat": 52.3939174, "lon": 13.4143509}, {"type": "node", "id": 5398689329, "lat": 52.3936756, "lon": 13.4143471}, {"type": "node", "id": 5407237291, "lat": 52.385744, "lon": 13.3998286, "tags": {"access": "yes", "leisure": "playground"}}, {"type": "node", "id": 5418228073, "lat": 52.3869891, "lon": 13.4084529, "tags": {"amenity": "fast_food", "cuisine": "kebab", "name": "Balli", "opening_hours": "Su-Th 10:00-24:00, Fr,Sa 10:00-01:00", "outdoor_seating": "yes", "takeaway": "yes", "wheelchair": "yes"}}, {"type": "node", "id": 5467703076, "lat": 52.4013933, "lon": 13.410155, "tags": {"barrier": "gate", "locked": "no", "material": "aluminium", "maxwidth:physical": "2.5", "wheelchair": "yes"}}, {"type": "node", "id": 5467703077, "lat": 52.4018065, "lon": 13.4103179, "tags": {"barrier": "gate", "locked": "no", "material": "aluminium", "maxwidth:physical": "4", "source:maxwidth:physical": "ARCore", "wheelchair": "yes"}}, {"type": "node", "id": 5467703078, "lat": 52.4017752, "lon": 13.4096889, "tags": {"barrier": "gate", "locked": "no", "material": "aluminium", "maxwidth:physical": "3.5", "source:maxwidth:physical": "ARCore", "wheelchair": "yes"}}, {"type": "node", "id": 5746405286, "lat": 52.386088, "lon": 13.3976707}, {"type": "node", "id": 5746405287, "lat": 52.3860883, "lon": 13.3973966}, {"type": "node", "id": 5746405288, "lat": 52.3863517, "lon": 13.3972495}, {"type": "node", "id": 5746405289, "lat": 52.3862527, "lon": 13.397854}, {"type": "node", "id": 5746405290, "lat": 52.3862535, "lon": 13.3978057}, {"type": "node", "id": 5746405291, "lat": 52.3863649, "lon": 13.3978057}, {"type": "node", "id": 5749155475, "lat": 52.3858856, "lon": 13.4181945}, {"type": "node", "id": 5749155476, "lat": 52.3858115, "lon": 13.4184085}, {"type": "node", "id": 5750897317, "lat": 52.3858273, "lon": 13.4186173, "tags": {"barrier": "cycle_barrier", "bicycle": "no", "foot": "yes"}}, {"type": "node", "id": 5750897319, "lat": 52.3852961, "lon": 13.4187369, "tags": {"barrier": "cycle_barrier", "bicycle": "no", "foot": "yes"}}, {"type": "node", "id": 5750897320, "lat": 52.3852256, "lon": 13.4181111, "tags": {"barrier": "cycle_barrier", "bicycle": "no", "foot": "yes"}}, {"type": "node", "id": 5817114721, "lat": 52.3869008, "lon": 13.4005464, "tags": {"addr:city": "Berlin", "addr:country": "DE", "addr:postcode": "12305", "addr:street": "Bahnhofstra\u00dfe", "addr:suburb": "Lichtenrade", "amenity": "cafe", "internet_access": "no", "name": "Cafe Riedinger Eck", "opening_hours": "Mo-Fr 06:00-18:00; Sa 07:00-16:00; PH,Su 08:00-16:00", "toilets": "no", "wheelchair": "limited"}}, {"type": "node", "id": 5981180550, "lat": 52.393352, "lon": 13.3962332, "tags": {"leisure": "playground"}}, {"type": "node", "id": 6080185946, "lat": 52.3913916, "lon": 13.3992073}, {"type": "node", "id": 6080185947, "lat": 52.3919396, "lon": 13.3993414}, {"type": "node", "id": 6080185948, "lat": 52.3920246, "lon": 13.3992098}, {"type": "node", "id": 6080185949, "lat": 52.391458, "lon": 13.3993024}, {"type": "node", "id": 6080185953, "lat": 52.3919974, "lon": 13.3990651}, {"type": "node", "id": 6080185957, "lat": 52.3919769, "lon": 13.3994288}, {"type": "node", "id": 6080185963, "lat": 52.3912991, "lon": 13.3993748}, {"type": "node", "id": 6080185964, "lat": 52.3914509, "lon": 13.3992486}, {"type": "node", "id": 6080185965, "lat": 52.3919885, "lon": 13.3991753}, {"type": "node", "id": 6080185966, "lat": 52.3913689, "lon": 13.3992434}, {"type": "node", "id": 6080185967, "lat": 52.392013, "lon": 13.3993604}, {"type": "node", "id": 6080185969, "lat": 52.3919434, "lon": 13.3994119}, {"type": "node", "id": 6080185970, "lat": 52.3920262, "lon": 13.3992807}, {"type": "node", "id": 6080185971, "lat": 52.3919609, "lon": 13.3992417}, {"type": "node", "id": 6080185973, "lat": 52.391386, "lon": 13.3993852}, {"type": "node", "id": 6080185974, "lat": 52.3912802, "lon": 13.3993613}, {"type": "node", "id": 6080185980, "lat": 52.3913332, "lon": 13.3992846}, {"type": "node", "id": 6080187485, "lat": 52.3914099, "lon": 13.3993826}, {"type": "node", "id": 6080187487, "lat": 52.3912994, "lon": 13.3993335}, {"type": "node", "id": 6080187491, "lat": 52.391437, "lon": 13.3993655}, {"type": "node", "id": 6080187493, "lat": 52.3914548, "lon": 13.3993415}, {"type": "node", "id": 6080187494, "lat": 52.3914207, "lon": 13.3992257}, {"type": "node", "id": 6080187497, "lat": 52.3913203, "lon": 13.3993829}, {"type": "node", "id": 6086541826, "lat": 52.3899452, "lon": 13.4012982}, {"type": "node", "id": 6086541833, "lat": 52.390059, "lon": 13.4013012}, {"type": "node", "id": 6086541835, "lat": 52.3899468, "lon": 13.4009419}, {"type": "node", "id": 6086541839, "lat": 52.3901526, "lon": 13.4008824}, {"type": "node", "id": 6094524000, "lat": 52.3923303, "lon": 13.4031921}, {"type": "node", "id": 6264496686, "lat": 52.3900608, "lon": 13.4175952}, {"type": "node", "id": 6264496784, "lat": 52.3900891, "lon": 13.4172383}, {"type": "node", "id": 6264496795, "lat": 52.3913828, "lon": 13.4170374}, {"type": "node", "id": 6264496799, "lat": 52.3924408, "lon": 13.4162117}, {"type": "node", "id": 6264496801, "lat": 52.3924831, "lon": 13.4169855}, {"type": "node", "id": 6264497108, "lat": 52.3952225, "lon": 13.4062928}, {"type": "node", "id": 6266698496, "lat": 52.3785239, "lon": 13.405392}, {"type": "node", "id": 6266698497, "lat": 52.3785646, "lon": 13.4053123}, {"type": "node", "id": 6266698498, "lat": 52.3785413, "lon": 13.4053314}, {"type": "node", "id": 6266698499, "lat": 52.3784586, "lon": 13.4065204}, {"type": "node", "id": 6266698500, "lat": 52.3785075, "lon": 13.4065909}, {"type": "node", "id": 6266698501, "lat": 52.3784793, "lon": 13.4065838}, {"type": "node", "id": 6266698502, "lat": 52.378463, "lon": 13.4065606}, {"type": "node", "id": 6266698503, "lat": 52.3792902, "lon": 13.4060268}, {"type": "node", "id": 6266698504, "lat": 52.3793042, "lon": 13.4059918}, {"type": "node", "id": 6266698505, "lat": 52.3793005, "lon": 13.4060129}, {"type": "node", "id": 6266698506, "lat": 52.3793047, "lon": 13.4058495}, {"type": "node", "id": 6266698507, "lat": 52.3792997, "lon": 13.4058267}, {"type": "node", "id": 6266708432, "lat": 52.3832579, "lon": 13.4060976}, {"type": "node", "id": 6266708433, "lat": 52.3832449, "lon": 13.4060307}, {"type": "node", "id": 6266708434, "lat": 52.3832434, "lon": 13.4060684}, {"type": "node", "id": 6266708435, "lat": 52.3837072, "lon": 13.405533}, {"type": "node", "id": 6266708436, "lat": 52.3837001, "lon": 13.4055077}, {"type": "node", "id": 6266708437, "lat": 52.3836807, "lon": 13.4055022}, {"type": "node", "id": 6266708438, "lat": 52.3837078, "lon": 13.4065014}, {"type": "node", "id": 6266708439, "lat": 52.3836976, "lon": 13.4065258}, {"type": "node", "id": 6266708440, "lat": 52.3836642, "lon": 13.4065612}, {"type": "node", "id": 6266708441, "lat": 52.3836835, "lon": 13.4065478}, {"type": "node", "id": 6266708442, "lat": 52.3839238, "lon": 13.402404}, {"type": "node", "id": 6266708443, "lat": 52.3839391, "lon": 13.4023892}, {"type": "node", "id": 6266708444, "lat": 52.3839323, "lon": 13.4023931}, {"type": "node", "id": 6266708445, "lat": 52.3839917, "lon": 13.4023793}, {"type": "node", "id": 6266708446, "lat": 52.3838244, "lon": 13.4031606}, {"type": "node", "id": 6266708447, "lat": 52.383801, "lon": 13.4031059}, {"type": "node", "id": 6266708448, "lat": 52.3837981, "lon": 13.4030922}, {"type": "node", "id": 6266708449, "lat": 52.3843042, "lon": 13.4031713}, {"type": "node", "id": 6266708450, "lat": 52.3843279, "lon": 13.4030951}, {"type": "node", "id": 6266708451, "lat": 52.3843136, "lon": 13.4031641}, {"type": "node", "id": 6266708452, "lat": 52.3843292, "lon": 13.4031124}, {"type": "node", "id": 6266708453, "lat": 52.3843192, "lon": 13.4031543}, {"type": "node", "id": 6267999860, "lat": 52.3898257, "lon": 13.4055554}, {"type": "node", "id": 6268014523, "lat": 52.3882573, "lon": 13.4020644}, {"type": "node", "id": 6268014798, "lat": 52.3929363, "lon": 13.4047716}, {"type": "node", "id": 6268014799, "lat": 52.3932384, "lon": 13.4048117}, {"type": "node", "id": 6268014800, "lat": 52.3936309, "lon": 13.4049041}, {"type": "node", "id": 6268014846, "lat": 52.3923364, "lon": 13.4040231}, {"type": "node", "id": 6268014850, "lat": 52.392005, "lon": 13.4042737}, {"type": "node", "id": 6268014851, "lat": 52.3898611, "lon": 13.4030207}, {"type": "node", "id": 6268014852, "lat": 52.3890357, "lon": 13.40238}, {"type": "node", "id": 6268014858, "lat": 52.3883048, "lon": 13.4016016}, {"type": "node", "id": 6268091973, "lat": 52.3953979, "lon": 13.4062839}, {"type": "node", "id": 6268091974, "lat": 52.3950759, "lon": 13.4052774}, {"type": "node", "id": 6268091975, "lat": 52.3950122, "lon": 13.405027}, {"type": "node", "id": 6268091976, "lat": 52.3952273, "lon": 13.404994}, {"type": "node", "id": 6268091977, "lat": 52.3952226, "lon": 13.4048775, "tags": {"access": "no", "barrier": "bollard", "foot": "yes"}}, {"type": "node", "id": 6268092899, "lat": 52.3949707, "lon": 13.4051362}, {"type": "node", "id": 6268092900, "lat": 52.3951234, "lon": 13.4053878}, {"type": "node", "id": 6268092901, "lat": 52.3951973, "lon": 13.405645}, {"type": "node", "id": 6268093172, "lat": 52.3988559, "lon": 13.3919045}, {"type": "node", "id": 6268093173, "lat": 52.3988342, "lon": 13.3928654}, {"type": "node", "id": 6268093285, "lat": 52.399021, "lon": 13.391218}, {"type": "node", "id": 6268093286, "lat": 52.3989992, "lon": 13.3917293}, {"type": "node", "id": 6268093297, "lat": 52.3988931, "lon": 13.3919168}, {"type": "node", "id": 6268093298, "lat": 52.3989362, "lon": 13.3919186}, {"type": "node", "id": 6268093299, "lat": 52.3989204, "lon": 13.3928563}, {"type": "node", "id": 6268621977, "lat": 52.410489, "lon": 13.4196827}, {"type": "node", "id": 6268621978, "lat": 52.4107408, "lon": 13.4183983}, {"type": "node", "id": 6268622182, "lat": 52.4108906, "lon": 13.4185039}, {"type": "node", "id": 6268622183, "lat": 52.4107696, "lon": 13.4192155}, {"type": "node", "id": 6268622184, "lat": 52.4108354, "lon": 13.4194809}, {"type": "node", "id": 6268622185, "lat": 52.4106875, "lon": 13.4196339}, {"type": "node", "id": 6268622186, "lat": 52.4108935, "lon": 13.421192}, {"type": "node", "id": 6268622187, "lat": 52.4111258, "lon": 13.4211966}, {"type": "node", "id": 6268622188, "lat": 52.4111253, "lon": 13.4214893}, {"type": "node", "id": 6268622198, "lat": 52.410815, "lon": 13.4195527}, {"type": "node", "id": 6268622199, "lat": 52.410671, "lon": 13.4197287}, {"type": "node", "id": 6274821966, "lat": 52.4107033, "lon": 13.4152961}, {"type": "node", "id": 6274821969, "lat": 52.4104456, "lon": 13.4163356}, {"type": "node", "id": 6274892315, "lat": 52.4133043, "lon": 13.4239209}, {"type": "node", "id": 6388982161, "lat": 52.3789453, "lon": 13.4056147}, {"type": "node", "id": 6388982162, "lat": 52.3792461, "lon": 13.406034, "tags": {"barrier": "cycle_barrier", "cycle_barrier": "double", "cycle_barrier:installation": "removable"}}, {"type": "node", "id": 6388982163, "lat": 52.3792745, "lon": 13.4058414}, {"type": "node", "id": 6388982171, "lat": 52.3792884, "lon": 13.4059926}, {"type": "node", "id": 6388982174, "lat": 52.3789437, "lon": 13.4062412}, {"type": "node", "id": 6388982175, "lat": 52.3792507, "lon": 13.406056}, {"type": "node", "id": 6388982179, "lat": 52.3792859, "lon": 13.4058699}, {"type": "node", "id": 6388982181, "lat": 52.3792851, "lon": 13.4060073}, {"type": "node", "id": 6391968819, "lat": 52.4142216, "lon": 13.4007156, "tags": {"addr:city": "Berlin", "addr:housenumber": "161-162", "addr:postcode": "12305", "addr:street": "Buckower Chaussee", "amenity": "restaurant", "cuisine": "pizza", "delivery": "Mo-Sa 11:00-22:45;Su 10:30-22:45", "diet:vegetarian": "yes", "indoor_seating": "yes", "name": "Pizzeria il Forno", "opening_hours:kitchen": "Mo-Sa 11:00-22:45; Su 10:30-22:45", "outdoor_seating": "yes", "phone": "+49 30 74308280", "takeaway": "yes", "website": "https://il-forno-berlin.de/", "wheelchair": "yes"}}, {"type": "node", "id": 6391968824, "lat": 52.4141433, "lon": 13.4009972, "tags": {"amenity": "fast_food", "cuisine": "chicken;kebab", "indoor_seating": "yes", "name": "Lichtenrader Grillhaus", "outdoor_seating": "yes", "takeaway": "yes", "wheelchair": "yes"}}, {"type": "node", "id": 6406006295, "lat": 52.3935318, "lon": 13.406301, "tags": {"amenity": "fast_food", "check_date:opening_hours": "2024-10-17", "cuisine": "burger;regional;fries;sausage", "diet:vegan": "no", "diet:vegetarian": "yes", "indoor_seating": "no", "name": "Curry-Point", "opening_hours": "10:00-19:00", "outdoor_seating": "no", "payment:credit_cards": "no", "payment:debit_cards": "no", "start_date": "1972", "takeaway": "only"}}, {"type": "node", "id": 6419064839, "lat": 52.3869215, "lon": 13.400406, "tags": {"addr:housenumber": "23", "addr:street": "Bahnhofstra\u00dfe", "amenity": "doctors", "check_date:opening_hours": "2025-04-27", "healthcare": "doctor", "healthcare:speciality": "allergology;dermatology;homeopathy", "name": "Hautarztpraxis Nu\u00dfbaum und Grunow", "opening_hours": "Mo-Fr 08:00-12:00, Mo,Tu,Th 15:00-18:00, Fr 14:00-16:00; PH off", "phone": "+49 30 221922844", "website": "http://www.hautarzt-nussbaum-grunow.de/", "wheelchair": "yes"}}, {"type": "node", "id": 6693816169, "lat": 52.4015946, "lon": 13.4129133}, {"type": "node", "id": 6766656693, "lat": 52.3868734, "lon": 13.3973884}, {"type": "node", "id": 6766656694, "lat": 52.3869741, "lon": 13.3972958}, {"type": "node", "id": 6766742116, "lat": 52.3920036, "lon": 13.4040193}, {"type": "node", "id": 6766742117, "lat": 52.3920066, "lon": 13.4045473}, {"type": "node", "id": 6766742118, "lat": 52.3914703, "lon": 13.4039723}, {"type": "node", "id": 6766742119, "lat": 52.3913402, "lon": 13.4038992}, {"type": "node", "id": 6766742124, "lat": 52.3905714, "lon": 13.4043432}, {"type": "node", "id": 6766742127, "lat": 52.3908983, "lon": 13.4043408}, {"type": "node", "id": 6766742130, "lat": 52.3911384, "lon": 13.4043391}, {"type": "node", "id": 6766742133, "lat": 52.3912201, "lon": 13.4043385}, {"type": "node", "id": 6766742134, "lat": 52.389888, "lon": 13.4035673}, {"type": "node", "id": 6766742135, "lat": 52.3898694, "lon": 13.403568}, {"type": "node", "id": 6766742136, "lat": 52.3898708, "lon": 13.4053803}, {"type": "node", "id": 6766742137, "lat": 52.3898253, "lon": 13.4053849}, {"type": "node", "id": 6766742138, "lat": 52.3898258, "lon": 13.4035673}, {"type": "node", "id": 6766742139, "lat": 52.3897961, "lon": 13.4035696}, {"type": "node", "id": 6766742140, "lat": 52.3897984, "lon": 13.4032789}, {"type": "node", "id": 6766742142, "lat": 52.389785, "lon": 13.4032693}, {"type": "node", "id": 6766742143, "lat": 52.389933, "lon": 13.4033757}, {"type": "node", "id": 6766742144, "lat": 52.3905603, "lon": 13.4034606}, {"type": "node", "id": 6766742145, "lat": 52.3903287, "lon": 13.4033217}, {"type": "node", "id": 6766742146, "lat": 52.3900244, "lon": 13.4031317}, {"type": "node", "id": 6766742147, "lat": 52.3894333, "lon": 13.402709}, {"type": "node", "id": 6766742148, "lat": 52.387907, "lon": 13.4015969}, {"type": "node", "id": 6766742149, "lat": 52.3879761, "lon": 13.4015992}, {"type": "node", "id": 6766742150, "lat": 52.3880485, "lon": 13.4015916}, {"type": "node", "id": 6766742151, "lat": 52.3881742, "lon": 13.4015901}, {"type": "node", "id": 6766742152, "lat": 52.3882699, "lon": 13.4015973}, {"type": "node", "id": 6766742153, "lat": 52.3883848, "lon": 13.4016144}, {"type": "node", "id": 6766742154, "lat": 52.3884451, "lon": 13.4016311}, {"type": "node", "id": 6766742155, "lat": 52.3891088, "lon": 13.4018504}, {"type": "node", "id": 6766742156, "lat": 52.3889986, "lon": 13.4026482}, {"type": "node", "id": 6766742157, "lat": 52.3882577, "lon": 13.4020241}, {"type": "node", "id": 6766742158, "lat": 52.3879181, "lon": 13.4017573}, {"type": "node", "id": 6766742159, "lat": 52.3879209, "lon": 13.4017976}, {"type": "node", "id": 6766742160, "lat": 52.3877989, "lon": 13.4016934}, {"type": "node", "id": 6766742161, "lat": 52.3878137, "lon": 13.4015817}, {"type": "node", "id": 6766798772, "lat": 52.3923187, "lon": 13.4021914}, {"type": "node", "id": 6766798773, "lat": 52.3922421, "lon": 13.401705}, {"type": "node", "id": 6766798774, "lat": 52.3920913, "lon": 13.4031941}, {"type": "node", "id": 6766798775, "lat": 52.3920973, "lon": 13.4040231}, {"type": "node", "id": 6766798776, "lat": 52.3923166, "lon": 13.4016622}, {"type": "node", "id": 6769580775, "lat": 52.3900685, "lon": 13.4177163}, {"type": "node", "id": 6769580776, "lat": 52.3900506, "lon": 13.4173878}, {"type": "node", "id": 6769580777, "lat": 52.3892432, "lon": 13.4175072}, {"type": "node", "id": 6769580778, "lat": 52.3892674, "lon": 13.4179328}, {"type": "node", "id": 6769607282, "lat": 52.3901193, "lon": 13.4177749}, {"type": "node", "id": 6769608217, "lat": 52.3935858, "lon": 13.404828}, {"type": "node", "id": 6769610136, "lat": 52.3897152, "lon": 13.4065534}, {"type": "node", "id": 6769610137, "lat": 52.3898303, "lon": 13.4065498}, {"type": "node", "id": 6769610139, "lat": 52.3898721, "lon": 13.4069788}, {"type": "node", "id": 6769610140, "lat": 52.3897165, "lon": 13.407063}, {"type": "node", "id": 6769610141, "lat": 52.3898713, "lon": 13.4055535}, {"type": "node", "id": 6769610933, "lat": 52.3891341, "lon": 13.4179694}, {"type": "node", "id": 6769610934, "lat": 52.3883693, "lon": 13.4181874}, {"type": "node", "id": 6769610935, "lat": 52.3883924, "lon": 13.4185981}, {"type": "node", "id": 6769610936, "lat": 52.3881073, "lon": 13.4186374}, {"type": "node", "id": 6769610937, "lat": 52.3880144, "lon": 13.4185955}, {"type": "node", "id": 6769610938, "lat": 52.3879597, "lon": 13.4185598}, {"type": "node", "id": 6769610939, "lat": 52.3879429, "lon": 13.4184557}, {"type": "node", "id": 6769610940, "lat": 52.387972, "lon": 13.418393}, {"type": "node", "id": 6769610941, "lat": 52.3879982, "lon": 13.4183024}, {"type": "node", "id": 6769610942, "lat": 52.3880311, "lon": 13.4181377}, {"type": "node", "id": 6769610943, "lat": 52.3880387, "lon": 13.4180704}, {"type": "node", "id": 6769610944, "lat": 52.3880444, "lon": 13.4179922}, {"type": "node", "id": 6769610945, "lat": 52.3880444, "lon": 13.4178954}, {"type": "node", "id": 6769610946, "lat": 52.388191, "lon": 13.417915}, {"type": "node", "id": 6769610947, "lat": 52.3885286, "lon": 13.4178617}, {"type": "node", "id": 6769610948, "lat": 52.3885235, "lon": 13.4177902}, {"type": "node", "id": 6769610949, "lat": 52.388898, "lon": 13.4176805}, {"type": "node", "id": 6769610950, "lat": 52.3889002, "lon": 13.4177069}, {"type": "node", "id": 6769610951, "lat": 52.3891158, "lon": 13.4176722}, {"type": "node", "id": 6769652733, "lat": 52.3926231, "lon": 13.418017}, {"type": "node", "id": 6769652734, "lat": 52.3924966, "lon": 13.4180241}, {"type": "node", "id": 6769652735, "lat": 52.3925705, "lon": 13.4170773}, {"type": "node", "id": 6769652736, "lat": 52.3925781, "lon": 13.4172127}, {"type": "node", "id": 6769652737, "lat": 52.3925019, "lon": 13.416201}, {"type": "node", "id": 6771676509, "lat": 52.3888993, "lon": 13.3940729}, {"type": "node", "id": 6771676510, "lat": 52.3889049, "lon": 13.3935994}, {"type": "node", "id": 6888252954, "lat": 52.3865222, "lon": 13.4025536, "tags": {"amenity": "fast_food", "cuisine": "donut", "diet:vegetarian": "yes", "name": "Monkey Donuts", "opening_hours": "Mo-Th 12:00-19:00; Fr-Su 12:00-20:00"}}, {"type": "node", "id": 6915035485, "lat": 52.3868681, "lon": 13.4018743, "tags": {"amenity": "dentist", "check_date:opening_hours": "2024-10-24", "healthcare": "dentist", "name": "Claudia Ruppert-M\u00fcnnich", "note": "Voranmeldung erbeten", "opening_hours": "Mo 08:00-18:00; Tu 08:00-14:00; We,Fr 08:00-12:00; Th 08:00-18:00; PH off"}}, {"type": "node", "id": 7062864950, "lat": 52.3865167, "lon": 13.4053429, "tags": {"addr:city": "Berlin", "addr:housenumber": "55", "addr:postcode": "12305", "addr:street": "Bahnhofstra\u00dfe", "amenity": "doctors", "check_date:opening_hours": "2024-11-21", "contact:fax": "+49 30 76406892", "contact:phone": "+49 30 7443076", "contact:website": "http://www.hno-ratmann.de", "healthcare": "doctor", "healthcare:speciality": "otolaryngology", "name": "HNO-Praxis Katrin Ratmann", "opening_hours": "Mo,We 09:00-12:30,13:00-17:00; Tu,Th 09:00-14:00; Fr off", "opening_hours:url": "http://www.hno-ratmann.de/sprechzeiten.html"}}, {"type": "node", "id": 7104694545, "lat": 52.3842774, "lon": 13.4030867}, {"type": "node", "id": 7104694546, "lat": 52.3839488, "lon": 13.4024362}, {"type": "node", "id": 7104694547, "lat": 52.3838488, "lon": 13.4031218}, {"type": "node", "id": 7166724117, "lat": 52.3868199, "lon": 13.3956659, "tags": {"amenity": "cafe", "name": "Stil Cafe"}}, {"type": "node", "id": 7419070189, "lat": 52.3914192, "lon": 13.399701}, {"type": "node", "id": 7419070191, "lat": 52.3913541, "lon": 13.3999818}, {"type": "node", "id": 7419070192, "lat": 52.3913528, "lon": 13.3998657}, {"type": "node", "id": 7419070193, "lat": 52.3914794, "lon": 13.3999633}, {"type": "node", "id": 7419070194, "lat": 52.3913996, "lon": 13.3999805}, {"type": "node", "id": 7419070195, "lat": 52.3915085, "lon": 13.3996393}, {"type": "node", "id": 7419070196, "lat": 52.3914864, "lon": 13.3996279}, {"type": "node", "id": 7419070198, "lat": 52.3914672, "lon": 13.4002648}, {"type": "node", "id": 7419070199, "lat": 52.3915257, "lon": 13.3997809}, {"type": "node", "id": 7419070200, "lat": 52.3915512, "lon": 13.4002994}, {"type": "node", "id": 7419070201, "lat": 52.3915287, "lon": 13.3996741}, {"type": "node", "id": 7419070203, "lat": 52.3913977, "lon": 13.3998652}, {"type": "node", "id": 7419070204, "lat": 52.3915369, "lon": 13.3997313}, {"type": "node", "id": 7419070205, "lat": 52.3914806, "lon": 13.400114}, {"type": "node", "id": 7419070206, "lat": 52.3915536, "lon": 13.4001607}, {"type": "node", "id": 7419070207, "lat": 52.3914088, "lon": 13.4000429}, {"type": "node", "id": 7419070208, "lat": 52.3914095, "lon": 13.4002644}, {"type": "node", "id": 7419070209, "lat": 52.3914544, "lon": 13.3996408}, {"type": "node", "id": 7419070210, "lat": 52.3914828, "lon": 13.3998691}, {"type": "node", "id": 7419084356, "lat": 52.3921633, "lon": 13.4026259}, {"type": "node", "id": 7419084357, "lat": 52.3921586, "lon": 13.4020641}, {"type": "node", "id": 7480415306, "lat": 52.3902457, "lon": 13.3980514, "tags": {"contact:website": "https://praxis-koebsell.de/", "healthcare": "physiotherapist", "healthcare:speciality": "osteopathy", "name": "Praxis f\u00fcr Klein und Gro\u00df Andreas Koebsell", "opening_hours": "\"Nur nach telefonischer Vereinbarung\""}}, {"type": "node", "id": 7480574934, "lat": 52.384513, "lon": 13.3961761, "tags": {"healthcare": "alternative", "name": "Praxis f\u00fcr Alternativmedizin"}}, {"type": "node", "id": 7523172840, "lat": 52.3861319, "lon": 13.4052612, "tags": {"amenity": "dentist", "contact:phone": "+49 30 7440244", "healthcare": "dentist", "name": "Dr. Barbara Poralla", "opening_hours": "Mo-Tu,Th 08:00-12:00,14:00-18:00 open \"Voranmeldung erbeten\"; We,Fr 08:00-12:00 open \"Voranmeldung erbeten\"; PH closed"}}, {"type": "node", "id": 7547710955, "lat": 52.3800402, "lon": 13.39472}, {"type": "node", "id": 7547710956, "lat": 52.3795357, "lon": 13.3953507, "tags": {"barrier": "cycle_barrier"}}, {"type": "node", "id": 7606325817, "lat": 52.3860995, "lon": 13.402279}, {"type": "node", "id": 7615532385, "lat": 52.3900309, "lon": 13.4009446}, {"type": "node", "id": 7615532386, "lat": 52.3899381, "lon": 13.399077}, {"type": "node", "id": 7615532390, "lat": 52.3898802, "lon": 13.3992863}, {"type": "node", "id": 7615532391, "lat": 52.3898795, "lon": 13.3991794}, {"type": "node", "id": 7615532394, "lat": 52.3899582, "lon": 13.3992849}, {"type": "node", "id": 7615532429, "lat": 52.3901521, "lon": 13.4009818}, {"type": "node", "id": 7615532433, "lat": 52.3900299, "lon": 13.3989992}, {"type": "node", "id": 7615532434, "lat": 52.3900348, "lon": 13.3991676}, {"type": "node", "id": 7615532437, "lat": 52.3900312, "lon": 13.400881}, {"type": "node", "id": 7615532439, "lat": 52.3899613, "lon": 13.3991704}, {"type": "node", "id": 7615532440, "lat": 52.3900604, "lon": 13.4009807}, {"type": "node", "id": 7615532442, "lat": 52.3899535, "lon": 13.3990038}, {"type": "node", "id": 7679662980, "lat": 52.3868517, "lon": 13.4074358, "tags": {"addr:housenumber": "2-3", "addr:street": "Bahnhofstra\u00dfe", "amenity": "fast_food", "brand": "Domino's", "brand:wikidata": "Q839466", "contact:phone": "+49 30 235963011", "cuisine": "pizza", "delivery": "yes", "name": "Domino's", "opening_hours": "Mo-Th,Su 11:00-23:00; Fr-Sa 11:00-24:00", "outdoor_seating": "yes", "payment:cash": "yes", "payment:credit_cards": "no", "payment:cryptocurrencies": "no", "payment:debit_cards": "no", "payment:electronic_purses": "no", "takeaway": "yes"}}, {"type": "node", "id": 7684407280, "lat": 52.3839821, "lon": 13.4023782}, {"type": "node", "id": 7684407281, "lat": 52.3838388, "lon": 13.4031735}, {"type": "node", "id": 7684407282, "lat": 52.3838315, "lon": 13.4031688}, {"type": "node", "id": 7684407611, "lat": 52.3838302, "lon": 13.4030856}, {"type": "node", "id": 7684407613, "lat": 52.3839777, "lon": 13.4024277}, {"type": "node", "id": 7684407617, "lat": 52.3842704, "lon": 13.4031178}, {"type": "node", "id": 7809936545, "lat": 52.3863666, "lon": 13.3992281, "tags": {"amenity": "dentist", "healthcare": "dentist", "name": "Claudius Kubina", "opening_hours": "Mo,Tu,Th 09:00-12:00, Fr 09:00-12:00; PH off, Mo,Tu,Th 14:00-17:00"}}, {"type": "node", "id": 7944490165, "lat": 52.3855281, "lon": 13.3957046, "tags": {"contact:phone": "+49 30 70768400", "healthcare": "physiotherapist", "healthcare:speciality": "occupational", "opening_hours": "open \"nach telefonischer Vereinbarung / appointment by telephone\""}}, {"type": "node", "id": 7976240929, "lat": 52.3858705, "lon": 13.3955459, "tags": {"amenity": "doctors", "contact:phone": "+49 30 7445024", "healthcare": "doctor", "healthcare:speciality": "gynaecology", "name": "Corinna F\u00f6rster", "opening_hours": "Mo,Tu,Fr 8:00-13:00; We,Th 13:00-18:00; PH closed"}}, {"type": "node", "id": 7976240936, "lat": 52.3859386, "lon": 13.3955212, "tags": {"amenity": "doctors", "contact:phone": "+49 30 7445283", "healthcare": "doctor", "healthcare:speciality": "ophthalmology", "name": "Dr. med. Sebastian Wansel", "opening_hours": "Mo,Th 08:30-14:00; Tu,We 12:30-18:00; Fr 08:30-13:00; PH off"}}, {"type": "node", "id": 8013031515, "lat": 52.3865423, "lon": 13.3947194, "tags": {"amenity": "doctors", "contact:phone": "+49 30 97985200", "description": "Kinder- und Jugendlichenpsychotherapeutin, Verhaltenstherapie", "healthcare": "doctor", "healthcare:speciality": "child_psychiatry", "name": "Nicole Strubel", "opening_hours": "open \"nach Vereinbarung\""}}, {"type": "node", "id": 8013031516, "lat": 52.3865432, "lon": 13.3946176, "tags": {"amenity": "doctors", "contact:phone": "+49 1578 0370937", "description": "Psychologische Psychotherapeutin - Verhaltenstherapie f\u00fcr Erwachsene", "healthcare": "doctor", "healthcare:speciality": "psychiatry", "name": "Steffi Brecke, J. Ivana Zimmermann", "opening_hours": "open \"nach Vereinbarung\""}}, {"type": "node", "id": 8013031517, "lat": 52.3865137, "lon": 13.3946235, "tags": {"amenity": "doctors", "contact:phone": "+49 30 53607580", "description": "Psychologische Psychotherapeutin - Verhaltenstherapeutin, alle Kassen und privat", "healthcare": "doctor", "healthcare:speciality": "psychiatry", "name": "Andrea Blum-Weigeldt", "opening_hours": "open \"nach Vereinbarung\""}}, {"type": "node", "id": 8013031518, "lat": 52.3864809, "lon": 13.3946337, "tags": {"amenity": "doctors", "contact:phone": "+49 30 76105561", "description": "Kinder- und Jugendlichenpsychotherapeut, Psychotherapeut f\u00fcr Tiefenpsychologie und Analyse, alle Kassen und privat", "healthcare": "doctor", "healthcare:speciality": "child_psychiatry", "name": "Dieter M\u00f6nkediek", "opening_hours": "open \"nach Vereinbarung\""}}, {"type": "node", "id": 8013031519, "lat": 52.3865148, "lon": 13.3947197, "tags": {"amenity": "doctors", "contact:phone": "+49 30 76405393", "description": "Kinder- und Jugendlichenpsychotherapeutin, tiefenpsychologisch fundierte Psychotherapie, Kunst- und Gestaltungstherapie, alle Kassen und privat", "healthcare": "doctor", "healthcare:speciality": "child_psychiatry", "name": "E. Wettengel", "opening_hours": "open \"nach Vereinbarung\""}}, {"type": "node", "id": 8013031520, "lat": 52.386483, "lon": 13.3947199, "tags": {"amenity": "doctors", "contact:phone": "+49 30 76105563", "description": "Analytische Kinder- und Jugendlichenpsychotherapeutin, alle Kassen und privat", "healthcare": "doctor", "healthcare:speciality": "child_psychiatry", "name": "Astrid Cr\u00f6\u00dfmann", "opening_hours": "open \"nach Vereinbarung\""}}, {"type": "node", "id": 8222490567, "lat": 52.3863225, "lon": 13.4069093, "tags": {"amenity": "restaurant", "check_date:opening_hours": "2024-01-15", "cuisine": "german", "name": "Wernicke", "opening_hours": "Tu-Sa 09:00-16:00; Su,Mo off"}}, {"type": "node", "id": 8296199070, "lat": 52.3909347, "lon": 13.4031756}, {"type": "node", "id": 8296199080, "lat": 52.3907822, "lon": 13.402938}, {"type": "node", "id": 8296199084, "lat": 52.3909336, "lon": 13.4029906}, {"type": "node", "id": 8296199090, "lat": 52.3907815, "lon": 13.4031757}, {"type": "node", "id": 8393444425, "lat": 52.3854161, "lon": 13.4185849, "tags": {"barrier": "gate"}}, {"type": "node", "id": 8781133300, "lat": 52.3941761, "lon": 13.4118694, "tags": {"addr:city": "Berlin", "addr:housenumber": "42", "addr:postcode": "12309", "addr:street": "Gro\u00df-Ziethener Stra\u00dfe", "amenity": "doctors", "healthcare": "doctor", "healthcare:speciality": "general;internal", "name": "Internisten Lichtenrade Praxis J. Marquard & F. Ziemann"}}, {"type": "node", "id": 8895185217, "lat": 52.3941201, "lon": 13.4120241, "tags": {"amenity": "dentist", "healthcare": "dentist", "name": "Dr. C. Nausch\u00fctz & Dr. V. Roman", "opening_hours": "Mo-Tu, Th 09:00-18:00; We 08:00-19:00; Fr 08:00-14:00", "phone": "+493076503836"}}, {"type": "node", "id": 8895185317, "lat": 52.3941581, "lon": 13.4122876, "tags": {"amenity": "doctors", "healthcare": "doctor", "healthcare:speciality": "otolaryngology", "name": "Priv.-Doz. Dr. med. Andreas Albers", "phone": "+493074070680", "website": "https://www.hno-berlin-lichtenrade.de/"}}, {"type": "node", "id": 9052969465, "lat": 52.3922512, "lon": 13.4218856}, {"type": "node", "id": 9052969466, "lat": 52.3922549, "lon": 13.421993}, {"type": "node", "id": 9052969467, "lat": 52.3920303, "lon": 13.422022}, {"type": "node", "id": 9052969468, "lat": 52.3920251, "lon": 13.4219194}, {"type": "node", "id": 9093419513, "lat": 52.4024973, "lon": 13.4129251}, {"type": "node", "id": 9093419514, "lat": 52.4023708, "lon": 13.4129388}, {"type": "node", "id": 9093419515, "lat": 52.4023649, "lon": 13.4127941}, {"type": "node", "id": 9093419516, "lat": 52.4024913, "lon": 13.4128273}, {"type": "node", "id": 9135659746, "lat": 52.389287, "lon": 13.3938645}, {"type": "node", "id": 9135659747, "lat": 52.3892679, "lon": 13.3937035}, {"type": "node", "id": 9135659749, "lat": 52.3893887, "lon": 13.3937694}, {"type": "node", "id": 9284046750, "lat": 52.4115722, "lon": 13.4080061}, {"type": "node", "id": 9284046751, "lat": 52.4116131, "lon": 13.4085989}, {"type": "node", "id": 9284046752, "lat": 52.4119436, "lon": 13.4085533}, {"type": "node", "id": 9284046753, "lat": 52.4118978, "lon": 13.4079283}, {"type": "node", "id": 9645174963, "lat": 52.4040946, "lon": 13.4057354, "tags": {"brand": "Penny", "brand:wikidata": "Q284688", "name": "Penny am Lichtenrader Tor", "opening_hours": "Mo-Sa 07:00-21:00", "shop": "supermarket", "wheelchair": "yes"}}, {"type": "node", "id": 9837672527, "lat": 52.3929804, "lon": 13.3997454}, {"type": "node", "id": 10018113825, "lat": 52.3956406, "lon": 13.3960802}, {"type": "node", "id": 10018113826, "lat": 52.3955299, "lon": 13.3961803}, {"type": "node", "id": 10018113827, "lat": 52.3944466, "lon": 13.3956144}, {"type": "node", "id": 10018113828, "lat": 52.3944494, "lon": 13.3954612}, {"type": "node", "id": 10018185385, "lat": 52.3921619, "lon": 13.4040231}, {"type": "node", "id": 10089085147, "lat": 52.3863245, "lon": 13.4028818, "tags": {"addr:city": "Berlin", "addr:housenumber": "34", "addr:postcode": "12307", "addr:street": "Rehagener Stra\u00dfe", "addr:suburb": "Lichtenrade", "amenity": "doctors", "contact:phone": "+49 30 7445409", "healthcare": "doctor", "healthcare:speciality": "general;proctology", "level": "1", "name": "Frossini Kiriakidu", "opening_hours": "Mo,Fr 09:00-13:00; Tu 15:00-18:00; Th 14:00-17:00; PH closed; Mo 18:00-19:00 \"Privatsprechstunde\"; Tu 09:00-11:00 \"Privatsprechstunde\"; Fr 12:00-13:00 \"Privatsprechstunde\"; Th 17:00-18:00 \"Privatsprechstunde\""}}, {"type": "node", "id": 10248569854, "lat": 52.4107993, "lon": 13.4189665}, {"type": "node", "id": 10248569855, "lat": 52.4108146, "lon": 13.4189792}, {"type": "node", "id": 10248569856, "lat": 52.4111034, "lon": 13.4214906}, {"type": "node", "id": 10282821109, "lat": 52.4063662, "lon": 13.4062262, "tags": {"addr:housenumber": "83", "addr:postcode": "12305", "addr:street": "Lichtenrader Damm", "brand": "Bio Company", "brand:wikidata": "Q864179", "check_date:opening_hours": "2024-09-04", "name": "Bio Company", "opening_hours": "Mo-Sa 08:00-20:00", "organic": "only", "phone": "+49 30 439750740", "shop": "supermarket", "website": "https://www.biocompany.de/bio-company-markt-finden/l/berlin/lichtenrader-damm-83/3541377", "wheelchair": "yes"}}, {"type": "node", "id": 10308167346, "lat": 52.4096024, "lon": 13.4147938}, {"type": "node", "id": 10586310532, "lat": 52.3952024, "lon": 13.4072169}, {"type": "node", "id": 10586310533, "lat": 52.3951962, "lon": 13.4072491}, {"type": "node", "id": 10586310534, "lat": 52.3951991, "lon": 13.4074576}, {"type": "node", "id": 10586310535, "lat": 52.3952032, "lon": 13.407585}, {"type": "node", "id": 10586310536, "lat": 52.3952245, "lon": 13.4076092}, {"type": "node", "id": 10586310537, "lat": 52.3952556, "lon": 13.4076011}, {"type": "node", "id": 10586310538, "lat": 52.3952732, "lon": 13.4075924}, {"type": "node", "id": 10586310539, "lat": 52.3952957, "lon": 13.4075522}, {"type": "node", "id": 10586310540, "lat": 52.3952993, "lon": 13.4074851}, {"type": "node", "id": 10586310541, "lat": 52.3952196, "lon": 13.4072095}, {"type": "node", "id": 10586310553, "lat": 52.3956756, "lon": 13.4079548}, {"type": "node", "id": 10586310554, "lat": 52.3954915, "lon": 13.4079809}, {"type": "node", "id": 10586310555, "lat": 52.395369, "lon": 13.4068794}, {"type": "node", "id": 10586376627, "lat": 52.4010794, "lon": 13.4053923}, {"type": "node", "id": 10586376628, "lat": 52.4009739, "lon": 13.405395}, {"type": "node", "id": 10586376629, "lat": 52.400969, "lon": 13.4052314}, {"type": "node", "id": 10586376630, "lat": 52.4010725, "lon": 13.4052026}, {"type": "node", "id": 10586376635, "lat": 52.3993794, "lon": 13.4052778}, {"type": "node", "id": 10586376636, "lat": 52.3993751, "lon": 13.4053617}, {"type": "node", "id": 10586376637, "lat": 52.3994503, "lon": 13.405372}, {"type": "node", "id": 10586376638, "lat": 52.3994547, "lon": 13.4052882}, {"type": "node", "id": 10587590055, "lat": 52.3968978, "lon": 13.3971346}, {"type": "node", "id": 10587590091, "lat": 52.3989417, "lon": 13.3917258}, {"type": "node", "id": 10587590092, "lat": 52.3989081, "lon": 13.3917245}, {"type": "node", "id": 10587590093, "lat": 52.3988607, "lon": 13.391697}, {"type": "node", "id": 10587590094, "lat": 52.3988304, "lon": 13.3916708}, {"type": "node", "id": 10587590095, "lat": 52.3988255, "lon": 13.3915924}, {"type": "node", "id": 10587590096, "lat": 52.3988451, "lon": 13.3915468}, {"type": "node", "id": 10587590097, "lat": 52.398882, "lon": 13.3914603}, {"type": "node", "id": 10587590098, "lat": 52.3989069, "lon": 13.3913979}, {"type": "node", "id": 10587590099, "lat": 52.3989229, "lon": 13.3913355}, {"type": "node", "id": 10587590100, "lat": 52.3989352, "lon": 13.3912658}, {"type": "node", "id": 10587590101, "lat": 52.3989433, "lon": 13.3911572}, {"type": "node", "id": 10587590102, "lat": 52.3990057, "lon": 13.3911357}, {"type": "node", "id": 10804101641, "lat": 52.3862345, "lon": 13.4022159}, {"type": "node", "id": 10804101642, "lat": 52.3862347, "lon": 13.4022774}, {"type": "node", "id": 10867315766, "lat": 52.386366, "lon": 13.3975846}, {"type": "node", "id": 10867315767, "lat": 52.3863478, "lon": 13.3974441}, {"type": "node", "id": 11039732799, "lat": 52.3923281, "lon": 13.4125863}, {"type": "node", "id": 11251678209, "lat": 52.4077561, "lon": 13.4053722, "tags": {"addr:housenumber": "67", "addr:street": "Lichtenrader Damm", "amenity": "restaurant", "check_date": "2023-10-09", "cuisine": "italian;pizza", "diet:vegetarian": "yes", "email": "KONTAKT@RISTORANTE-SOLE-ITALIA.DE", "name": "Ristorante Sole", "opening_hours": "Mo-Tu,Th-Sa 16:00-23:00; We off; Su 12:00-23:00", "phone": "03089740395", "website": "http://www.ristorante-sole-italia.de"}}, {"type": "node", "id": 11257477734, "lat": 52.3878289, "lon": 13.397521, "tags": {"addr:city": "Berlin", "addr:housenumber": "41", "addr:postcode": "12307", "addr:street": "Steinstra\u00dfe", "amenity": "cafe", "description": "Erdgescho\u00df", "internet_access": "wlan", "internet_access:fee": "no", "name": "Malzcaf\u00e9 Alte M\u00e4lzerei", "opening_hours": "Mo-Fr 09:00-17:00", "outdoor_seating": "yes", "phone": "+49 30 4400874-040", "website": "https://lichtenrader-revier.berlin/landhaus/"}}, {"type": "node", "id": 11629917725, "lat": 52.3868128, "lon": 13.4045812, "tags": {"amenity": "fast_food", "check_date:opening_hours": "2025-04-27", "cuisine": "pizza", "name": "Pizza Bacio", "opening_hours:signed": "no", "outdoor_seating": "yes", "takeaway": "yes"}}, {"type": "node", "id": 11642148973, "lat": 52.3942806, "lon": 13.4047682}, {"type": "node", "id": 11645641817, "lat": 52.3916039, "lon": 13.4040349}, {"type": "node", "id": 11645641818, "lat": 52.3914694, "lon": 13.4040941}, {"type": "node", "id": 11645641819, "lat": 52.3915907, "lon": 13.4043015}, {"type": "node", "id": 11645641820, "lat": 52.3914914, "lon": 13.4041167}, {"type": "node", "id": 11645641831, "lat": 52.3932242, "lon": 13.4047922}, {"type": "node", "id": 11645641832, "lat": 52.3930776, "lon": 13.4047914}, {"type": "node", "id": 11645641833, "lat": 52.3930058, "lon": 13.404784}, {"type": "node", "id": 11645641834, "lat": 52.3931509, "lon": 13.4047931}, {"type": "node", "id": 11645641835, "lat": 52.3932297, "lon": 13.4047931}, {"type": "node", "id": 11645641836, "lat": 52.3932345, "lon": 13.4047978}, {"type": "node", "id": 11645641837, "lat": 52.3932373, "lon": 13.4048046}, {"type": "node", "id": 11915700368, "lat": 52.3940557, "lon": 13.3863177}, {"type": "node", "id": 11915700369, "lat": 52.3945188, "lon": 13.3863096}, {"type": "node", "id": 11915700370, "lat": 52.3945304, "lon": 13.3863285}, {"type": "node", "id": 11915700371, "lat": 52.3945345, "lon": 13.3863529}, {"type": "node", "id": 11915700372, "lat": 52.3945378, "lon": 13.3867147}, {"type": "node", "id": 11915700373, "lat": 52.394532, "lon": 13.3867581}, {"type": "node", "id": 11915700374, "lat": 52.394518, "lon": 13.3867933}, {"type": "node", "id": 11915700375, "lat": 52.3945048, "lon": 13.3868123}, {"type": "node", "id": 11915700376, "lat": 52.3944874, "lon": 13.3868299}, {"type": "node", "id": 11915700377, "lat": 52.3944667, "lon": 13.3868408}, {"type": "node", "id": 11915700378, "lat": 52.3944469, "lon": 13.3868408}, {"type": "node", "id": 11915700379, "lat": 52.3940995, "lon": 13.3868421}, {"type": "node", "id": 11915700380, "lat": 52.3940747, "lon": 13.3868313}, {"type": "node", "id": 11915700381, "lat": 52.3940557, "lon": 13.3868055}, {"type": "node", "id": 11915700382, "lat": 52.3940474, "lon": 13.3867798}, {"type": "node", "id": 11915700383, "lat": 52.3940433, "lon": 13.3867391}, {"type": "node", "id": 11915700384, "lat": 52.3940417, "lon": 13.3863651}, {"type": "node", "id": 11915700385, "lat": 52.394045, "lon": 13.3863367}, {"type": "node", "id": 11917781161, "lat": 52.3799121, "lon": 13.3943213}, {"type": "node", "id": 11917781180, "lat": 52.3793771, "lon": 13.3946226}, {"type": "node", "id": 11917781181, "lat": 52.3796261, "lon": 13.3954393}, {"type": "node", "id": 11917781182, "lat": 52.3794633, "lon": 13.395012}, {"type": "node", "id": 11917781183, "lat": 52.3794833, "lon": 13.394716}, {"type": "node", "id": 11917781184, "lat": 52.3795166, "lon": 13.3948504}, {"type": "node", "id": 11917781230, "lat": 52.3798551, "lon": 13.3943534}, {"type": "node", "id": 11934339056, "lat": 52.3989843, "lon": 13.3930115}, {"type": "node", "id": 11934339057, "lat": 52.3989947, "lon": 13.3932595}, {"type": "node", "id": 11934339058, "lat": 52.3989987, "lon": 13.3933348}, {"type": "node", "id": 11934339059, "lat": 52.3990157, "lon": 13.3935208}, {"type": "node", "id": 11934339060, "lat": 52.3990435, "lon": 13.3937114}, {"type": "node", "id": 11934339062, "lat": 52.3990776, "lon": 13.3939355}, {"type": "node", "id": 11934339063, "lat": 52.3991218, "lon": 13.394286}, {"type": "node", "id": 11934339064, "lat": 52.3991627, "lon": 13.3946626}, {"type": "node", "id": 11934339065, "lat": 52.3991831, "lon": 13.3949136}, {"type": "node", "id": 11934339066, "lat": 52.3992012, "lon": 13.3951731}, {"type": "node", "id": 11934339067, "lat": 52.3992143, "lon": 13.3954697}, {"type": "node", "id": 11934339068, "lat": 52.3992388, "lon": 13.3959391}, {"type": "node", "id": 11934353369, "lat": 52.3988606, "lon": 13.3939457}, {"type": "node", "id": 11934353384, "lat": 52.3986955, "lon": 13.3955541}, {"type": "node", "id": 11935038020, "lat": 52.404713, "lon": 13.3928498}, {"type": "node", "id": 11935038021, "lat": 52.404611, "lon": 13.3923589}, {"type": "node", "id": 11950409302, "lat": 52.3870645, "lon": 13.4082032}, {"type": "node", "id": 11950409303, "lat": 52.3870407, "lon": 13.4082267}, {"type": "node", "id": 11950409304, "lat": 52.3870595, "lon": 13.4082674}, {"type": "node", "id": 11950409305, "lat": 52.3870175, "lon": 13.4082556}, {"type": "node", "id": 11950409306, "lat": 52.3869667, "lon": 13.4083332}, {"type": "node", "id": 11950409307, "lat": 52.3870314, "lon": 13.4083035}, {"type": "node", "id": 11950409308, "lat": 52.386986, "lon": 13.4083708}, {"type": "node", "id": 11950409309, "lat": 52.3874875, "lon": 13.40893}, {"type": "node", "id": 11950409310, "lat": 52.3874833, "lon": 13.4089843}, {"type": "node", "id": 11950409311, "lat": 52.3874912, "lon": 13.4090121}, {"type": "node", "id": 11950409312, "lat": 52.3874943, "lon": 13.4090406}, {"type": "node", "id": 11950409313, "lat": 52.3874951, "lon": 13.4090689}, {"type": "node", "id": 11950409314, "lat": 52.3874905, "lon": 13.4091035}, {"type": "node", "id": 11950409315, "lat": 52.3874815, "lon": 13.4091316}, {"type": "node", "id": 11950409316, "lat": 52.3874697, "lon": 13.4091565}, {"type": "node", "id": 11950409317, "lat": 52.3874532, "lon": 13.4091753}, {"type": "node", "id": 11950409318, "lat": 52.3874388, "lon": 13.409186}, {"type": "node", "id": 11950409319, "lat": 52.3873379, "lon": 13.4089754}, {"type": "node", "id": 11950409320, "lat": 52.3873321, "lon": 13.4089933}, {"type": "node", "id": 11950409321, "lat": 52.3873269, "lon": 13.4090112}, {"type": "node", "id": 11950409322, "lat": 52.3873239, "lon": 13.4090341}, {"type": "node", "id": 11950409323, "lat": 52.3873231, "lon": 13.4090634}, {"type": "node", "id": 11950409324, "lat": 52.3873259, "lon": 13.4090902}, {"type": "node", "id": 11950409325, "lat": 52.3873308, "lon": 13.4091138}, {"type": "node", "id": 11950409326, "lat": 52.3873398, "lon": 13.409139}, {"type": "node", "id": 11950409327, "lat": 52.3873533, "lon": 13.4091611}, {"type": "node", "id": 11950409328, "lat": 52.3873701, "lon": 13.4091811}, {"type": "node", "id": 11950409329, "lat": 52.3873871, "lon": 13.4091918}, {"type": "node", "id": 11950409330, "lat": 52.3874038, "lon": 13.4091964}, {"type": "node", "id": 11951434522, "lat": 52.3958689, "lon": 13.4079295}, {"type": "node", "id": 11951434524, "lat": 52.3951734, "lon": 13.4068899}, {"type": "node", "id": 11951434525, "lat": 52.395357, "lon": 13.4075327}, {"type": "node", "id": 11951434526, "lat": 52.3955664, "lon": 13.4068693}, {"type": "node", "id": 11951636482, "lat": 52.3850789, "lon": 13.4184378}, {"type": "node", "id": 11951745075, "lat": 52.3982045, "lon": 13.4073569, "tags": {"leisure": "playground"}}, {"type": "node", "id": 11966035793, "lat": 52.4111257, "lon": 13.4212547}, {"type": "node", "id": 11970625112, "lat": 52.3982545, "lon": 13.3911351, "tags": {"addr:city": "Berlin", "addr:country": "DE", "addr:housenumber": "41", "addr:postcode": "12305", "addr:street": "Barnetstra\u00dfe", "addr:suburb": "Lichtenrade", "brand": "EDEKA", "brand:wikidata": "Q701755", "brand:wikipedia": "en:Edeka", "check_date:opening_hours": "2024-06-08", "email": "E4033408@MINDEN.EDEKA.DE", "name": "EDEKA Gayermann", "opening_hours": "Mo-Sa 07:00-22:00", "payment:contactless": "yes", "payment:credit_cards": "yes", "payment:debit_cards": "yes", "phone": "+49 30 70073515", "shop": "supermarket", "source": "Geoportal Berlin / Hauskoordinaten", "toilets:wheelchair": "yes", "website": "https://www.edeka.de/eh/minden-hannover/edeka-gayermann-barnetstr.-41-42/index.jsp", "wheelchair": "yes"}}, {"type": "node", "id": 11970625117, "lat": 52.3973864, "lon": 13.3912786, "tags": {"addr:city": "Berlin", "addr:country": "DE", "addr:housenumber": "5", "addr:postcode": "12307", "addr:street": "Nuthestra\u00dfe", "addr:suburb": "Lichtenrade", "brand": "Lidl", "brand:wikidata": "Q151954", "brand:wikipedia": "en:Lidl", "contact:website": "https://www.lidl.de/f/berlin-tempelhof-schoeneberg/lichtenrade-nuthestr-5.html", "name": "Lidl", "opening_hours": "Mo-Sa 07:00-21:00", "operator": "Lidl Vertriebs-GmbH & Co. KG", "shop": "supermarket", "wheelchair": "limited"}}, {"type": "node", "id": 12141416419, "lat": 52.3865266, "lon": 13.4024826, "tags": {"amenity": "fast_food", "cuisine": "kebab", "diet:vegan": "yes", "diet:vegetarian": "yes", "indoor_seating": "yes", "name": "Kebab Haus", "opening_hours": "Mo-Su,PH 10:00-23:00", "outdoor_seating": "sidewalk", "payment:credit_cards": "yes", "payment:debit_cards": "yes", "wheelchair": "yes"}}, {"type": "node", "id": 12150912437, "lat": 52.3974952, "lon": 13.3871335}, {"type": "node", "id": 12151246274, "lat": 52.3944509, "lon": 13.4117419, "tags": {"amenity": "fast_food", "cuisine": "burger"}}, {"type": "node", "id": 12249184899, "lat": 52.3918256, "lon": 13.402435, "tags": {"addr:city": "Berlin", "addr:housenumber": "19", "addr:postcode": "12305", "addr:street": "John-Locke-Stra\u00dfe", "amenity": "restaurant", "cuisine": "asian;sushi", "name": "Asia Food", "opening_hours": "Mo-Su 12:00-21:00"}}, {"type": "node", "id": 12249188827, "lat": 52.3917016, "lon": 13.4019108, "tags": {"addr:city": "Berlin", "addr:housenumber": "21", "addr:postcode": "12305", "addr:street": "John-Locke-Stra\u00dfe", "amenity": "restaurant", "cuisine": "pizza;burger;fries;salad;noodle;dessert", "diet:vegan": "yes", "diet:vegetarian": "yes", "name": "21 Club"}}, {"type": "node", "id": 12259445498, "lat": 52.4044372, "lon": 13.4057891, "tags": {"addr:city": "Berlin", "addr:housenumber": "100", "addr:postcode": "12305", "addr:street": "Lichtenrader Damm", "amenity": "restaurant", "cuisine": "italian", "diet:vegan": "no", "diet:vegetarian": "yes", "indoor_seating": "yes", "name": "Al Tavolaccio", "opening_hours": "Mo,We-Fr 16:00-22:00; Sa,Su,PH 12:00-22:00", "outdoor_seating": "yes", "payment:credit_cards": "yes", "payment:debit_cards": "yes", "wheelchair": "no"}}, {"type": "node", "id": 12259450968, "lat": 52.4049332, "lon": 13.4057057, "tags": {"amenity": "pub", "indoor_seating": "yes", "name": "Gasthaus Lichtenrade", "outdoor_seating": "yes"}}, {"type": "node", "id": 12259997509, "lat": 52.3935473, "lon": 13.4077034, "tags": {"addr:city": "Berlin", "addr:housenumber": "2", "addr:postcode": "12309", "addr:street": "Gro\u00df-Ziethener Stra\u00dfe", "amenity": "doctors", "healthcare": "doctor", "healthcare:speciality": "orthopaedics;acupuncture;chiropractic;trauma", "name": "Orthop\u00e4dische Praxis", "operator": "Dipl.-med. H.-G. Prediger", "phone": "+49 30 525 24 07"}}, {"type": "node", "id": 12259997510, "lat": 52.3935199, "lon": 13.4077048, "tags": {"addr:city": "Berlin", "addr:housenumber": "2", "addr:postcode": "12309", "addr:street": "Gro\u00df-Ziethener Stra\u00dfe", "healthcare": "physiotherapist", "name": "Physiotherapie Praxis", "opening_hours": "Mo-Fr 08:00-20:00", "operator": "Physiomanos GmbH", "phone": "+49 30 54 78 59 59", "website": "http://physiomanos.de"}}, {"type": "node", "id": 12259997514, "lat": 52.3917375, "lon": 13.4028681, "tags": {"addr:city": "Berlin", "addr:housenumber": "25", "addr:postcode": "12305", "addr:street": "John-Locke-Stra\u00dfe", "healthcare": "physiotherapist", "name": "Heileanum", "opening_hours": "Mo 11:00-13:00; Tu 09:00-15:00; We 14:00-18:30; Th 09:00-18:30; Fr 09:00-15:00", "phone": "+493033953103", "website": "https://www.heileanum.de/"}}, {"type": "node", "id": 12277590806, "lat": 52.4096484, "lon": 13.4042874, "tags": {"amenity": "pharmacy", "healthcare": "pharmacy", "name": "Apotheke am Lichtenrader Damm", "opening_hours": "Mo-Fr 08:30-18:30; Sa 09:00-13:00", "wheelchair": "yes"}}, {"type": "node", "id": 12290932067, "lat": 52.4023675, "lon": 13.4067418, "tags": {"healthcare": "physiotherapist", "name": "Paul's Physiotherapie Praxis", "opening_hours": "Mo-Fr 08:00-20:00"}}, {"type": "node", "id": 12329194357, "lat": 52.3779418, "lon": 13.4142919}, {"type": "node", "id": 12329194358, "lat": 52.3778086, "lon": 13.4142977}, {"type": "node", "id": 12329194359, "lat": 52.3778, "lon": 13.4144856}, {"type": "node", "id": 12329194360, "lat": 52.3778392, "lon": 13.4146058}, {"type": "node", "id": 12329194361, "lat": 52.3779275, "lon": 13.4146174}, {"type": "node", "id": 12329194362, "lat": 52.377961, "lon": 13.4145078}, {"type": "node", "id": 12362949029, "lat": 52.3865226, "lon": 13.4027541, "tags": {"amenity": "clinic", "healthcare": "clinic", "name": "\u00c4rzte-Zentrum Lichtenrade"}}, {"type": "node", "id": 12374358404, "lat": 52.4066658, "lon": 13.4060052, "tags": {"addr:housenumber": "79", "addr:street": "Lichtenrader Damm", "amenity": "restaurant", "cuisine": "italian", "indoor_seating": "yes", "name": "Casa Vera", "opening_hours": "Tu-Su 12:00-23:00", "outdoor_seating": "yes", "phone": "+49 30 55 59 69 20", "website": "https://casa-vera.de/"}}, {"type": "node", "id": 12393828882, "lat": 52.4040418, "lon": 13.4065195, "tags": {"amenity": "restaurant", "indoor_seating": "yes", "name": "Vukotica Kutak", "opening_hours": "Tu-Sa 14:00-24:00, Su 12:00-22:00", "outdoor_seating": "veranda", "payment:credit_cards": "no", "payment:debit_cards": "yes"}}, {"type": "node", "id": 12404664952, "lat": 52.4096662, "lon": 13.4043955, "tags": {"amenity": "dentist", "healthcare": "dentist", "name": "Dr. Simon, Simon-Kurzawa", "opening_hours": "Mo-Th 09:00-19:00; Fr 09:00-17:00"}}, {"type": "node", "id": 12404687623, "lat": 52.4108747, "lon": 13.4035369, "tags": {"amenity": "cafe", "name": "Cafe Patras"}}, {"type": "node", "id": 12404702164, "lat": 52.4096014, "lon": 13.4045384, "tags": {"healthcare": "physiotherapist", "name": "PhysioPinkawa", "opening_hours": "\"Mo-Fr ab 8 Uhr und nach Vereinbarung\""}}, {"type": "node", "id": 12404704862, "lat": 52.411005, "lon": 13.4034776, "tags": {"amenity": "fast_food", "name": "Karag\u00fcl Kebap Sofrasi"}}, {"type": "node", "id": 12404706411, "lat": 52.40963, "lon": 13.404436, "tags": {"amenity": "doctors", "healthcare": "doctor", "healthcare:speciality": "gynaecology", "name": "Dr. Morisse, Dr. Harmuth, Kipshagen", "opening_hours": "Mo-Fr 08:00-11:00, Mo,Tu,Th 14:00-18:00"}}, {"type": "node", "id": 12404709940, "lat": 52.4095753, "lon": 13.4044238, "tags": {"amenity": "doctors", "healthcare": "doctor", "healthcare:speciality": "general", "name": "Tirscher-Szews, Schwarzenberg, Grandke", "opening_hours": "Mo-Fr 09:00-12:00, Mo,Tu,Th 15:30-18:00"}}, {"type": "node", "id": 12404712185, "lat": 52.4096516, "lon": 13.4045298, "tags": {"amenity": "doctors", "healthcare": "doctor", "healthcare:speciality": "paediatrics", "name": "Dr. Portack", "opening_hours": "Mo-Fr 09:00-12:00, Mo 14:00-18:00, Tu,Th 15:00-18:00"}}, {"type": "node", "id": 12477157957, "lat": 52.4116344, "lon": 13.4246015}, {"type": "node", "id": 12477157958, "lat": 52.4115882, "lon": 13.4245809}, {"type": "node", "id": 12477157959, "lat": 52.4114617, "lon": 13.4244766}, {"type": "node", "id": 12477157960, "lat": 52.411331, "lon": 13.4243759}, {"type": "node", "id": 12477157962, "lat": 52.4112807, "lon": 13.4243512}, {"type": "node", "id": 12477157964, "lat": 52.4116936, "lon": 13.4245579}, {"type": "node", "id": 12477157965, "lat": 52.4116747, "lon": 13.4245821}, {"type": "node", "id": 12477157966, "lat": 52.411647, "lon": 13.4246004}, {"type": "node", "id": 12477157967, "lat": 52.4116134, "lon": 13.4245955}, {"type": "node", "id": 12582844077, "lat": 52.3873652, "lon": 13.4090984, "tags": {"amenity": "fast_food", "cuisine": "burger", "name": "Golt'z Burger"}}, {"type": "node", "id": 12638803332, "lat": 52.3871358, "lon": 13.3976423}, {"type": "node", "id": 12638803333, "lat": 52.3871345, "lon": 13.398392}, {"type": "node", "id": 12886474804, "lat": 52.3881153, "lon": 13.3979986, "tags": {"addr:city": "Berlin", "addr:housenumber": "37", "addr:postcode": "12307", "addr:street": "Steinstra\u00dfe", "contact:email": "info@biolichtenrade.de", "contact:instagram": "https://www.instagram.com/gruenschnabel.biofrischemarkt/", "contact:website": "https://gruenschnabel-bio.de/", "name": "Bio Frischemarkt Gr\u00fcnschnabel", "opening_hours": "Mo-Fr 07:00-20:00; Sa 08:00-18:00; PH off", "organic": "only", "shop": "supermarket"}}, {"type": "node", "id": 13018467342, "lat": 52.3870556, "lon": 13.397967}, {"type": "node", "id": 13018467343, "lat": 52.3869762, "lon": 13.3979679}, {"type": "node", "id": 13018467344, "lat": 52.3869755, "lon": 13.3978067}, {"type": "node", "id": 13018467345, "lat": 52.387055, "lon": 13.3978058}, {"type": "node", "id": 13018467346, "lat": 52.3868394, "lon": 13.3976409}, {"type": "node", "id": 13018467347, "lat": 52.3868382, "lon": 13.3983907}, {"type": "way", "id": 4440110, "nodes": [3740399949, 11934339056, 11934339057, 11934339058, 11934339059, 11934339060, 11934339062, 11934339063, 11934339064, 11934339065, 11934339066, 11934339067, 11934339068, 3740400566, 3740400557, 559488596, 3740399415, 3740399346, 11934353384, 3740399397, 3740399930, 11934353369, 3740399960, 3740399969, 3740399949], "tags": {"leisure": "park", "protection_title": "Gesch\u00fctzte Gr\u00fcnanlage"}}, {"type": "way", "id": 28521930, "nodes": [2457109426, 6388982175, 6266698503, 6266698505, 6266698504, 6266698506, 6266698507, 2457109581, 2457109446, 6266698497, 6266698498, 6266698496, 6266698499, 6266698502, 6266698501, 6266698500, 2457109426], "tags": {"leisure": "park", "name": "Kaiserplatz", "protection_title": "Gesch\u00fctzte Gr\u00fcnanlage"}}, {"type": "way", "id": 28522204, "nodes": [5398653242, 3675475250, 5398653241, 3675475254, 3675475255, 3675475256, 3675475257, 3675475258, 5398653228, 3675475248, 5398653229, 3675475246, 5398653230, 3675475230, 5398653231, 3675475227, 3675471723, 5398653232, 3675471721, 5398653233, 3675471722, 5398653234, 5398653235, 3675471724, 3675475225, 3675475226, 5398653236, 3675475228, 3675475229, 5398653239, 3675475231, 5398653238, 5398653237, 3675475241, 5398653240, 3675475247, 5398653242]}, {"type": "way", "id": 28678684, "nodes": [2459194475, 6266708440, 6266708441, 6266708439, 6266708438, 6266708435, 6266708436, 6266708437, 2459194476, 2459194472, 6266708433, 6266708434, 6266708432, 2459194475], "tags": {"leisure": "park"}}, {"type": "way", "id": 28678734, "nodes": [315206269, 3317888530, 5398653253, 315206290, 5398653252, 3317888518, 3317888513, 3317888499, 3317888487, 315206289, 315206288, 315206287, 5398653244, 315206286, 5398653243, 315206285, 315206284, 315206283, 315206282, 5398653245, 315206281, 315206280, 315206279, 5398653246, 315206278, 5398653247, 315206277, 315206276, 5398653248, 315206275, 315206274, 315206273, 3317888489, 315206272, 5398653249, 3317888519, 5398653250, 3317888524, 5398653251, 315206271, 3317888531, 315206270, 3317888529, 315206269], "tags": {"alt_name": "Giebelpfuhl", "name": "Lichtenrader Dorfteich", "natural": "water", "water": "pond"}}, {"type": "way", "id": 32341310, "nodes": [3740398668, 3740398837, 10587590055, 3740398718, 3740398704, 3740398632, 3740398576, 3740398668], "tags": {"access": "yes", "leisure": "playground", "name": "Ekensunder Platz", "protection_title": "Gesch\u00fctzte Gr\u00fcnanlage", "wheelchair": "no"}}, {"type": "way", "id": 32442220, "nodes": [6274892315, 310987956, 310988103, 310988100, 310988099, 12477157964, 310988098, 12477157965, 310988097, 12477157966, 12477157957, 12477157967, 12477157958, 12477157959, 310988096, 12477157960, 12477157962, 310988095, 937965563, 937965381, 246655058, 296316308, 6268621977, 6268621978, 6268622182, 10248569854, 10248569855, 6268622183, 6268622184, 6268622198, 6268622185, 6268622199, 6268622186, 6268622187, 11966035793, 6268622188, 10248569856, 5398282864, 2018422329, 364760607, 2869269990, 2869269994, 364760606, 364760605, 2869270175, 2864383887, 2869270180, 6274892315], "tags": {"leisure": "park", "protection_title": "Gesch\u00fctzte Gr\u00fcnanlage"}}, {"type": "way", "id": 33543307, "nodes": [382896105, 382896106, 382896107, 382896108, 382896105], "tags": {"access": "yes", "leisure": "playground", "wheelchair": "yes"}}, {"type": "way", "id": 35040937, "nodes": [410996504, 410996508, 410996502, 410996506, 410996504], "tags": {"leisure": "park", "name": "Hermione-von-Preuschen-Platz", "name:etymology:wikidata": "Q1613618", "old_name": "Hohenzollernplatz", "protection_title": "Gesch\u00fctzte Gr\u00fcnanlage"}}, {"type": "way", "id": 35043006, "nodes": [11917781161, 3334867185, 3334867274, 412267089, 411016746, 11917781181, 411016745, 11917781182, 11917781184, 11917781183, 411016748, 11917781180, 11917781230, 11917781161], "tags": {"landuse": "forest", "leaf_cycle": "semi_deciduous", "leaf_type": "mixed", "leisure": "park", "name": "Lortzingplatz", "name:etymology:wikidata": "Q154203", "protection_title": "Gesch\u00fctzte Gr\u00fcnanlage"}}, {"type": "way", "id": 35043007, "nodes": [411016745, 11917781181, 411016746, 7547710955, 412267091, 412267090, 411306361, 411016748, 11917781183, 11917781184, 11917781182, 7547710956, 411016745], "tags": {"access": "yes", "leisure": "playground", "name": "Waldspielplatz", "opening_hours": "Mo-Su 07:00-20:00"}}, {"type": "way", "id": 36056447, "nodes": [421280456, 3472937545, 3472937551, 421280457, 2619655619, 421280458, 3472938202, 421280456], "tags": {"addr:city": "Berlin", "addr:country": "DE", "addr:housenumber": "189-193", "addr:postcode": "12309", "addr:street": "T\u00f6pchiner Weg", "addr:suburb": "Lichtenrade", "brand": "REWE", "brand:wikidata": "Q16968817", "brand:wikipedia": "en:REWE", "building": "yes", "building:colour": "#CABDA3", "building:material": "plaster", "contact:phone": "+49 30 74680044", "contact:website": "https://www.rewe.de/marktseite/rewe-markt-berlin-t%C3%B6pchiner-weg-189-193/", "name": "Rewe", "opening_hours": "Mo-Sa 06:00-22:00", "roof:colour": "#ACABAF", "roof:material": "concrete", "shop": "supermarket", "wheelchair": "yes"}}, {"type": "way", "id": 36056470, "nodes": [3317888065, 3317888042, 3317888044, 2866309961, 2866309962, 7606325817, 10804101642, 10804101641, 2866309968, 3317888065], "tags": {"addr:city": "Berlin", "addr:country": "DE", "addr:housenumber": "5", "addr:postcode": "12307", "addr:street": "Zescher Stra\u00dfe", "addr:suburb": "Lichtenrade", "brand": "Aldi Nord", "brand:wikidata": "Q41171373", "brand:wikipedia": "en:Aldi", "building": "retail", "building:levels": "1", "check_date:opening_hours": "2025-07-30", "name": "Aldi", "opening_hours": "Mo-Sa 07:00-21:00; PH off", "operator": "ALDI Nord", "organic": "yes", "roof:levels": "0", "roof:shape": "flat", "shop": "supermarket", "website": "https://www.aldi-nord.de/filialen-und-oeffnungszeiten.html/l/berlin/zescher-strasse-3-5/3180965", "wheelchair": "yes"}}, {"type": "way", "id": 36336453, "nodes": [3317888149, 3317888150, 3317888084, 3317888083, 3317888015, 3317888014, 3317888149], "tags": {"brand": "Netto", "brand:wikidata": "Q552652", "brand:wikipedia": "da:Netto (supermarkedsk\u00e6de)", "building": "retail", "building:levels": "1", "check_date:opening_hours": "2024-07-07", "name": "Netto", "opening_hours": "Mo-Sa 08:00-20:00; PH off", "operator": "Netto ApS & Co. KG / Dansk Supermarked A/S", "roof:levels": "0", "roof:shape": "flat", "shop": "supermarket", "wheelchair": "yes"}}, {"type": "way", "id": 36664114, "nodes": [426320717, 426320718, 3831936897, 3831936896, 426320721, 426320724, 3831936893, 3831936892, 426320717], "tags": {"leisure": "playground"}}, {"type": "way", "id": 36664228, "nodes": [426321719, 426321721, 426321723, 426321726, 12150912437, 426321719], "tags": {"access": "yes", "leisure": "playground", "protection_title": "Gesch\u00fctzte Gr\u00fcnanlage"}}, {"type": "way", "id": 37141490, "nodes": [432572730, 1345690697, 432572734, 432572731, 432572730], "tags": {"access": "customers", "landuse": "grass", "leisure": "playground"}}, {"type": "way", "id": 43684176, "nodes": [552818106, 552818112, 2865336140, 2865336139, 552818118, 552818113, 552818108, 552818106], "tags": {"addr:city": "Berlin", "addr:country": "DE", "addr:housenumber": "219", "addr:postcode": "12305", "addr:street": "Lichtenrader Damm", "addr:suburb": "Lichtenrade", "brand": "Lidl", "brand:wikidata": "Q151954", "brand:wikipedia": "en:Lidl", "building": "supermarket", "building:levels": "1", "check_date:opening_hours": "2024-01-12", "contact:website": "https://www.lidl.de/f/berlin-tempelhof-schoeneberg/lichtenrade-lichtenrader-damm-219.html", "name": "Lidl", "opening_hours": "Mo-Sa 07:00-21:00", "operator": "Lidl Vertriebs-GmbH & Co. KG (Gro\u00dfbeeren)", "roof:shape": "gabled", "shop": "supermarket", "source": "Geoportal Berlin / Hauskoordinaten", "wheelchair": "yes"}}, {"type": "way", "id": 46193434, "nodes": [3316732860, 3316732487, 5252776067, 3316732503, 3316732972, 3316732860], "tags": {"addr:city": "Berlin", "addr:country": "DE", "addr:housenumber": "140", "addr:postcode": "12309", "addr:street": "Alt-Lichtenrade", "addr:suburb": "Lichtenrade", "amenity": "cafe", "building": "commercial", "building:levels": "1", "check_date:opening_hours": "2025-04-11", "email": "info@cafe-obergfell.de", "height": "8", "name": "Caf\u00e9 Obergfell", "opening_hours": "Mo-Sa 05:30-18:00; Su 08:00-17:00; PH 08:00-17:00", "opening_hours:url": "http://www.cafe-obergfell.de/Filialen/mobile/", "phone": "+49 30 7445091", "roof:height": "4", "roof:shape": "gabled", "source": "Geoportal Berlin / Hauskoordinaten", "website": "https://www.cafe-obergfell.de/", "wheelchair": "no"}}, {"type": "way", "id": 46248554, "nodes": [590058886, 590058887, 590058888, 590058889, 590058886], "tags": {"access": "yes", "leisure": "playground", "toilets:wheelchair": "no", "wheelchair": "yes"}}, {"type": "way", "id": 46884930, "nodes": [3316731284, 3316731287, 3831992457, 3316731125, 3316730993, 3316730990, 3316731171, 3316731170, 3316731182, 3316731193, 3316731192, 3316731184, 3316731169, 3316731168, 3316731284], "tags": {"addr:city": "Berlin", "addr:country": "DE", "addr:housenumber": "9", "addr:postcode": "12305", "addr:street": "Bahnhofstra\u00dfe", "addr:suburb": "Lichtenrade", "building": "hospital", "building:levels": "4", "check_date": "2023-06-26", "contact:website": "https://aerztehaus-lichtenrade.de/", "healthcare": "centre", "name": "\u00c4rztehaus Lichtenrade", "opening_hours": "Mo-Fr 07:00-20:00; Sa 08:00-14:00", "roof:levels": "0", "wheelchair": "no"}}, {"type": "way", "id": 49905084, "nodes": [634220547, 634220886, 634220548, 634220549, 634220550, 634220551, 634220552, 634220553, 634220554, 634220885, 634220555, 634220556, 634220558, 634220884, 634220559, 634220560, 634220547], "tags": {"access": "permissive", "leisure": "playground"}}, {"type": "way", "id": 49905085, "nodes": [634220562, 634220563, 634220564, 634220565, 634220562], "tags": {"leisure": "playground"}}, {"type": "way", "id": 71527199, "nodes": [850874826, 850874863, 850874912, 850874909, 850874884, 850874839, 850874826], "tags": {"access": "yes", "leisure": "playground"}}, {"type": "way", "id": 71737139, "nodes": [3675122955, 3675122931, 3675122912, 3675122896, 11951636482, 3675122891, 3675122901, 3675122915, 3675122936, 3675122989, 5750897320, 3675123138, 3675123881, 3675124201, 3675124068, 5750897317, 3675123412, 3675123385, 5750897319, 3675123329, 3675122999, 3675122955], "tags": {"landuse": "grass", "leisure": "park", "name": "Augsburger Platz", "name:etymology:wikidata": "Q2749", "protection_title": "Gesch\u00fctzte Gr\u00fcnanlage", "wikidata": "Q111346592"}}, {"type": "way", "id": 73357603, "nodes": [870027075, 870027076, 8393444425, 870027078, 870027080, 870027082, 870027075], "tags": {"access": "yes", "leisure": "playground", "wheelchair": "yes"}}, {"type": "way", "id": 73357605, "nodes": [870027086, 5749155475, 3675124096, 870027088, 3675124070, 5749155476, 870027089, 870027090, 870027091, 3675123904, 3675123898, 870027086], "tags": {"access": "yes", "leisure": "playground", "wheelchair": "yes"}}, {"type": "way", "id": 101206110, "nodes": [5092109535, 5092109532, 10308167346, 5092109534, 6274821969, 6274821966, 5092109535], "tags": {"access": "yes", "leisure": "playground", "name": "Roseneck Spielplatz", "protection_title": "Gesch\u00fctzte Gr\u00fcnanlage"}}, {"type": "way", "id": 101331187, "nodes": [3675413153, 6769652735, 6769652736, 4510267108, 1169918244, 3675413187, 1169918215, 3675413475, 3675413473, 3675413468, 3675413465, 5398689310, 5398689311, 5398689328, 5398689329, 1169918201, 5398689308, 5398689306, 5398689305, 5398689302, 5398689301, 5398689298, 5398689300, 1169918364, 1169918306, 5398689270, 5398689271, 5398689272, 5398689273, 5398689274, 3675413185, 11039732799, 3675413125, 3675413140, 6769652737, 3675413153], "tags": {"leisure": "park", "name": "Lichtenrader Volkspark", "wikidata": "Q1543772", "wikipedia": "de:Lichtenrader Volkspark"}}, {"type": "way", "id": 115152084, "nodes": [3327962456, 3327962463, 3327962450, 3327962441, 3327962409, 3327962392, 3327962287, 3327962239, 3327962334, 3327962507, 3327962467, 3327962456], "tags": {"addr:city": "Berlin", "addr:country": "DE", "addr:housenumber": "424", "addr:postcode": "12107", "addr:street": "Mariendorfer Damm", "addr:suburb": "Lichtenrade", "amenity": "restaurant", "building": "yes", "cuisine": "italian", "fax": "+49 30 7007 2871", "name": "Nuovo Mario Berlin", "opening_hours": "11:00-24:00", "phone": "+49 30 7007 2870", "website": "https://www.nuovomario-sud.de/", "wheelchair": "yes"}}, {"type": "way", "id": 118262502, "nodes": [6268014800, 1330384320, 1330384315, 634133000, 6268014798, 11645641833, 11645641832, 11645641834, 11645641831, 11645641835, 11645641836, 11645641837, 6268014799, 6769608217, 6268014800], "tags": {"leisure": "park"}}, {"type": "way", "id": 118262503, "nodes": [1330384307, 590060424, 11642148973, 621156782, 6268091977, 6268091976, 6268091975, 6268092899, 6268091974, 6268092900, 6268092901, 6268091973, 1671884675, 6264497108, 590060427, 590060426, 1330384314, 1330384308, 1330384310, 1330384307], "tags": {"leisure": "park"}}, {"type": "way", "id": 152177245, "nodes": [2456750295, 6266708442, 6266708444, 6266708443, 7684407280, 6266708445, 2456750296, 2456750297, 6266708450, 6266708452, 6266708453, 6266708451, 6266708449, 7684407281, 7684407282, 6266708446, 6266708447, 6266708448, 2456750295], "tags": {"leisure": "park", "name": "Rehagener Platz", "name:etymology:wikidata": "Q2138876", "protection_title": "Gesch\u00fctzte Gr\u00fcnanlage"}}, {"type": "way", "id": 154687890, "nodes": [3740402204, 3740402261, 3740402259, 3740402206, 3740402204], "tags": {"access": "yes", "leisure": "playground"}}, {"type": "way", "id": 154687903, "nodes": [3740402188, 11935038020, 11935038021, 3740401881, 3740402192, 3740402188], "tags": {"leisure": "park"}}, {"type": "way", "id": 175152841, "nodes": [3317888278, 3317888276, 3317888275, 3317888267, 3317888249, 3317888226, 3317888196, 3317888187, 3317888186, 11950409302, 11950409303, 11950409305, 11950409306, 11950409308, 11950409307, 11950409304, 3317888185, 3317888183, 3317888194, 3317888200, 3317888197, 3317888198, 3317888199, 3317888201, 3317888202, 3317888203, 3317888204, 3317888205, 3317888206, 3317888207, 3317888208, 3317888209, 3317888210, 3317888211, 3317888212, 3317888214, 3317888213, 3317888236, 11950409319, 11950409320, 11950409321, 11950409322, 11950409323, 11950409324, 11950409325, 11950409326, 11950409327, 11950409328, 11950409329, 11950409330, 3317888261, 11950409318, 11950409317, 11950409316, 11950409315, 11950409314, 11950409313, 11950409312, 11950409311, 11950409310, 11950409309, 3317888273, 3317888278], "tags": {"addr:city": "Berlin", "addr:country": "DE", "addr:housenumber": "1", "addr:postcode": "12307", "addr:street": "Goltzstra\u00dfe", "addr:suburb": "Lichtenrade", "brand": "Edeka", "brand:wikidata": "Q701755", "brand:wikipedia": "en:Edeka", "building": "yes", "contact:website": "https://www.edeka.de/eh/minden-hannover/edeka-kruse-goltzstr.-1/index.jsp", "name": "EDEKA Kruse", "opening_hours": "Mo-Sa 07:00-21:00", "phone": "+49 30 76492900", "shop": "supermarket", "source": "Geoportal Berlin / Hauskoordinaten", "wheelchair": "yes"}}, {"type": "way", "id": 199352280, "nodes": [3675535718, 3675535679, 3675535681, 3675535686, 3675535687, 3675535709, 3675535706, 3675535705, 3675535719, 3675535718], "tags": {"addr:city": "Berlin", "addr:country": "DE", "addr:housenumber": "83", "addr:postcode": "12309", "addr:street": "Alt-Lichtenrade", "addr:suburb": "Lichtenrade", "amenity": "restaurant", "building": "commercial", "building:levels": "1", "cuisine": "italian", "email": "torre-lichtenrade9@t-online.de", "indoor_seating": "yes", "name": "Ristorante Torre 9", "opening_hours": "We-Mo 12:00-23:00", "outdoor_seating": "yes", "phone": "+49 30 610 765 92"}}, {"type": "way", "id": 208508823, "nodes": [2188008806, 2188008807, 2188008805, 2188008798, 2188008803, 2188008804, 2188008806], "tags": {"leisure": "park", "source": "Bing"}}, {"type": "way", "id": 229274353, "nodes": [2378977994, 2378978199, 2378978020, 2378978174, 2378977994], "tags": {"access": "yes", "leisure": "playground"}}, {"type": "way", "id": 229325175, "nodes": [3316731380, 6766656694, 3316731230, 3316731096, 3316731095, 3316731068, 3316731066, 3316731094, 3316731093, 6766656693, 3316731380], "tags": {"abandoned:amenity": "restaurant", "addr:city": "Berlin", "addr:country": "DE", "addr:housenumber": "32", "addr:postcode": "12307", "addr:street": "Bahnhofstra\u00dfe", "addr:suburb": "Lichtenrade", "amenity": "restaurant", "building": "retail", "building:levels": "2", "heritage": "4", "heritage:operator": "lda", "lda:criteria": "Baudenkmal", "name": "Landhaus Lichtenrade", "ref:lda": "09065337", "roof:levels": "1", "source": "Geoportal Berlin / Hauskoordinaten", "website": "https://lichtenrader-revier.berlin/landhaus/"}}, {"type": "way", "id": 229329302, "nodes": [2379413777, 2379413699, 2379413483, 2379413420, 2379413429, 2379413822, 2379413777], "tags": {"leisure": "playground"}}, {"type": "way", "id": 256295628, "nodes": [3472937437, 2619655617, 2619655624, 3472937467, 421280457, 2619655619, 4718578275, 6693816169, 635276261, 2867727603, 635276268, 2619655621, 3472937399, 3472937454, 3472937491, 3472937437], "tags": {"addr:city": "Berlin", "addr:country": "DE", "addr:housenumber": "193", "addr:postcode": "12309", "addr:street": "T\u00f6pchiner Weg", "addr:suburb": "Lichtenrade", "brand": "ALDI Nord", "brand:wikidata": "Q41171373", "brand:wikipedia": "en:Aldi", "building": "retail", "building:colour": "#85552e", "building:levels": "1", "name": "Aldi", "opening_hours": "Mo-Sa 08:00-21:00; Su,PH off", "operator": "Aldi Nord", "roof:levels": "0", "shop": "supermarket", "website": "https://www.aldi-nord.de/filialen-und-oeffnungszeiten.html/l/berlin/topchiner-weg-193/3182501", "wheelchair": "yes"}}, {"type": "way", "id": 265498168, "nodes": [2711519365, 2711519366, 2711519374, 2711519384, 2711519388, 2711519392, 2711519386, 2711519372, 2711519364, 2711519363, 2711519361, 2711519365], "tags": {"leisure": "playground"}}, {"type": "way", "id": 265498171, "nodes": [2711519529, 2711519518, 2711519520, 2711519534, 2711519529], "tags": {"access": "private", "leisure": "playground"}}, {"type": "way", "id": 347774721, "nodes": [3540412528, 3540412529, 3540412530, 3540412531, 3540412528], "tags": {"leisure": "playground"}}, {"type": "way", "id": 363338056, "nodes": [3675131340, 3675131260, 3675131270, 3675131302, 3675131316, 3675131347, 3675131340], "tags": {"leisure": "playground"}}, {"type": "way", "id": 363338072, "nodes": [3675132017, 3675131974, 3675131971, 3675132014, 3675132018, 3675132035, 3675132042, 3675132023, 3675132017], "tags": {"leisure": "playground"}}, {"type": "way", "id": 379563217, "nodes": [3828842167, 3828842166, 3828842168, 3828842169, 3828842170, 3828842167], "tags": {"access": "yes", "leisure": "playground"}}, {"type": "way", "id": 379803181, "nodes": [3831451749, 3831451744, 3831451729, 3831451732, 3831451749], "tags": {"natural": "sand"}}, {"type": "way", "id": 379803182, "nodes": [3831451752, 3831451716, 3831451718, 3831452961, 3831451752]}, {"type": "way", "id": 379803183, "nodes": [3831451724, 3831451723, 3831451719, 3831451720, 3831451724], "tags": {"natural": "sand"}}, {"type": "way", "id": 440816307, "nodes": [4385834864, 5467703076, 4385834863, 4385834865, 5467703078, 5467703077, 4385834866, 4385834864], "tags": {"access": "yes", "leisure": "playground", "protection_title": "Gesch\u00fctzte Gr\u00fcnanlage", "surface": "grass", "wheelchair": "yes"}}, {"type": "way", "id": 440911737, "nodes": [4386800391, 4386799488, 4386799483, 4386799480, 4385834866, 4385834865, 4386799467, 4386799463, 4386799469, 4386800391], "tags": {"leisure": "park", "protection_title": "Gesch\u00fctzte Gr\u00fcnanlage"}}, {"type": "way", "id": 464858366, "nodes": [4599231748, 4599231749, 4599231750, 4599231751, 4599231748], "tags": {"access": "yes", "leisure": "playground"}}, {"type": "way", "id": 464858367, "nodes": [4599231752, 4599231753, 4599231754, 4599231755, 4599231752], "tags": {"access": "yes", "leisure": "playground"}}, {"type": "way", "id": 464858368, "nodes": [4599231756, 4599231757, 4599231758, 4599231759, 4599231756], "tags": {"access": "yes", "leisure": "playground"}}, {"type": "way", "id": 464861819, "nodes": [4599262905, 4599262906, 4599262907, 4599262908, 6080185953, 4599262909, 4599262905], "tags": {"access": "yes", "leisure": "playground"}}, {"type": "way", "id": 465155712, "nodes": [4601522651, 4601522652, 4601522653, 9837672527, 4601522654, 4601522651], "tags": {"access": "yes", "leisure": "playground"}}, {"type": "way", "id": 547090914, "nodes": [5286262575, 5286262574, 5286262573, 5286262572, 5286262575], "tags": {"addr:city": "Berlin", "addr:housenumber": "1", "addr:postcode": "12307", "addr:street": "Schichauweg", "amenity": "fast_food", "building": "detached", "building:levels": "1", "contact:website": "https://www.valentinos-berlin.de", "cuisine": "pizza", "diet:vegan": "yes", "diet:vegetarian": "yes", "name": "Valentino", "opening_hours": "Mo-Sa 10:00-00:45, PH,Su 10:00-23:45", "roof:levels": "0", "wheelchair": "no"}}, {"type": "way", "id": 559790809, "nodes": [3675475252, 5398652701, 3675131179, 3675131175, 2093536203, 5398652686, 3675131112, 3675131237, 3675131236, 3316736704, 3316736707, 3675475252]}, {"type": "way", "id": 605997287, "nodes": [3317919968, 3317919969, 5746405286, 5746405287, 5746405288, 10867315767, 10867315766, 5746405291, 5746405290, 5746405289, 3317919968], "tags": {"access": "private", "barrier": "fence", "leisure": "playground"}}, {"type": "way", "id": 647432692, "nodes": [6080185946, 6080187494, 6080185964, 6080185949, 6080187493, 6080187491, 6080187485, 6080185973, 6080187497, 6080185963, 6080185974, 6080187487, 6080185980, 6080185966, 6080185946], "tags": {"access": "yes", "baby": "yes", "leisure": "playground"}}, {"type": "way", "id": 647432694, "nodes": [6080185967, 6080185970, 6080185948, 6080185965, 6080185971, 6080185947, 6080185969, 6080185957, 6080185967], "tags": {"access": "yes", "leisure": "playground"}}, {"type": "way", "id": 648275703, "nodes": [6086541839, 7615532437, 7615532385, 6086541835, 6086541826, 6086541833, 7615532440, 7615532429, 6086541839], "tags": {"access": "yes", "leisure": "playground"}}, {"type": "way", "id": 669361748, "nodes": [6268093172, 6268093297, 6268093298, 6268093299, 6268093173, 6268093172], "tags": {"leisure": "park", "protection_title": "Gesch\u00fctzte Gr\u00fcnanlage"}}, {"type": "way", "id": 682242767, "nodes": [6388982163, 6388982179, 6388982171, 6388982181, 6388982162, 6388982174, 6388982161, 6388982163], "tags": {"access": "yes", "leisure": "playground"}}, {"type": "way", "id": 721218585, "nodes": [571782985, 6766742117, 6268014850, 6766742116, 11645641817, 6766742118, 11645641818, 11645641820, 11645641819, 571782985], "tags": {"leisure": "park", "protection_title": "Gesch\u00fctzte Gr\u00fcnanlage"}}, {"type": "way", "id": 721218586, "nodes": [571782982, 571782983, 6766742124, 6766742127, 6766742130, 6766742133, 571782985, 11645641819, 11645641820, 11645641818, 6766742118, 6766742119, 6766742144, 571782982], "tags": {"leisure": "park", "protection_title": "Gesch\u00fctzte Gr\u00fcnanlage"}}, {"type": "way", "id": 721218591, "nodes": [6766742140, 6766742139, 6766742138, 6766742137, 6766742136, 6766742135, 6766742134, 6766742143, 6766742140], "tags": {"leisure": "park", "protection_title": "Gesch\u00fctzte Gr\u00fcnanlage"}}, {"type": "way", "id": 721218592, "nodes": [6268014852, 6766742147, 6268014851, 6766742146, 6766742145, 6766742144, 571782982, 6766742143, 6766742140, 6766742142, 6766742156, 6268014852], "tags": {"leisure": "park", "protection_title": "Gesch\u00fctzte Gr\u00fcnanlage"}}, {"type": "way", "id": 721218593, "nodes": [6766742161, 6766742160, 6766742159, 6766742158, 6766742157, 6268014523, 6766742156, 6268014852, 6766742155, 6766742154, 6766742153, 6268014858, 6766742152, 6766742151, 6766742150, 6766742149, 6766742148, 6766742161], "tags": {"leisure": "park", "protection_title": "Gesch\u00fctzte Gr\u00fcnanlage"}}, {"type": "way", "id": 721224155, "nodes": [2869600292, 3831991189, 7419084356, 7419084357, 3960133678, 6766798773, 6766798776, 6766798772, 6094524000, 6268014846, 10018185385, 6766798775, 2865278613, 6766798774, 2869600292], "tags": {"leisure": "park", "protection_title": "Gesch\u00fctzte Gr\u00fcnanlage"}}, {"type": "way", "id": 721643701, "nodes": [6769610141, 6267999860, 6769610137, 6769610136, 6769610140, 6769610139, 6769610141], "tags": {"leisure": "park", "protection_title": "Gesch\u00fctzte Gr\u00fcnanlage"}}, {"type": "way", "id": 721644185, "nodes": [6769580778, 6769580777, 6769580776, 6264496686, 6769580775, 6769580778], "tags": {"leisure": "park"}}, {"type": "way", "id": 721644455, "nodes": [6769610951, 6769610950, 6769610949, 6769610948, 6769610947, 6769610946, 6769610945, 6769610944, 6769610943, 6769610942, 6769610941, 6769610940, 6769610939, 6769610938, 6769610937, 6769610936, 6769610935, 6769610934, 6769610933, 6769610951], "tags": {"leisure": "park", "protection_title": "Gesch\u00fctzte Gr\u00fcnanlage"}}, {"type": "way", "id": 721644851, "nodes": [6264496795, 6264496784, 6769607282, 634220566, 634220565, 634220564, 4510267410, 3675131379, 634220574, 6264496795], "tags": {"leisure": "park"}}, {"type": "way", "id": 721645398, "nodes": [6264496801, 5092105241, 5092105239, 634220572, 634220574, 6264496795, 6264496801], "tags": {"leisure": "park"}}, {"type": "way", "id": 721645840, "nodes": [5092105240, 6769652734, 6769652733, 6769652736, 5092105241, 5092105240], "tags": {"leisure": "park"}}, {"type": "way", "id": 721645841, "nodes": [6769652737, 6264496799, 6264496801, 5092105241, 6769652736, 6769652735, 3675413153, 6769652737], "tags": {"leisure": "park"}}, {"type": "way", "id": 760524042, "nodes": [7104694545, 7684407613, 7104694546, 7684407611, 7104694547, 7684407617, 7104694545], "tags": {"access": "yes", "leisure": "playground"}}, {"type": "way", "id": 793439256, "nodes": [7419070195, 7419070201, 7419070204, 7419070199, 7419070210, 7419070193, 7419070205, 7419070206, 7419070200, 7419070198, 7419070208, 7419070207, 7419070194, 7419070191, 7419070192, 7419070203, 7419070189, 7419070209, 7419070196, 7419070195], "tags": {"access": "yes", "leisure": "playground"}}, {"type": "way", "id": 815405344, "nodes": [7615532433, 7615532434, 7615532439, 7615532394, 7615532390, 7615532391, 7615532386, 7615532442, 7615532433], "tags": {"access": "yes", "leisure": "playground"}}, {"type": "way", "id": 866415261, "nodes": [6771676509, 6771676510, 9135659747, 2848500580, 9135659749, 2848500579, 9135659746, 6771676509], "tags": {"access": "yes", "leisure": "playground", "min_age": "6"}}, {"type": "way", "id": 892616638, "nodes": [8296199084, 8296199070, 8296199090, 8296199080, 8296199084], "tags": {"access": "yes", "baby": "no", "leisure": "playground", "opening_hours": "Mo-Su 09:00-13:00,15:00-20:00", "operator": "Stadt und Land", "surface": "sand"}}, {"type": "way", "id": 978372379, "nodes": [9052969465, 9052969466, 9052969467, 9052969468, 9052969465], "tags": {"access": "yes", "leisure": "playground", "playground:theme": "swing", "surface": "sand"}}, {"type": "way", "id": 983507003, "nodes": [9093419513, 9093419514, 9093419515, 9093419516, 9093419513], "tags": {"access": "private", "leisure": "playground"}}, {"type": "way", "id": 1006263054, "nodes": [9284046753, 9284046752, 9284046751, 9284046750, 9284046753], "tags": {"access": "private", "leisure": "playground"}}, {"type": "way", "id": 1093800019, "nodes": [10018113825, 10018113826, 10018113827, 10018113828, 10018113825], "tags": {"leisure": "park"}}, {"type": "way", "id": 1135652346, "nodes": [10586310541, 10586310540, 10586310539, 10586310538, 10586310537, 10586310536, 10586310535, 10586310534, 10586310533, 10586310532, 10586310541], "tags": {"access": "yes", "leisure": "playground"}}, {"type": "way", "id": 1135652348, "nodes": [10586310555, 4743273176, 11951434526, 11951434522, 10586310553, 10586310555], "tags": {"leisure": "park"}}, {"type": "way", "id": 1135652349, "nodes": [10586310555, 11951434524, 11951434525, 4599219393, 10586310554, 10586310553, 10586310555], "tags": {"access": "yes", "leisure": "playground"}}, {"type": "way", "id": 1135659300, "nodes": [10586376630, 10586376629, 10586376628, 10586376627, 10586376630], "tags": {"leisure": "playground"}}, {"type": "way", "id": 1135659302, "nodes": [10586376638, 10586376637, 10586376636, 10586376635, 10586376638], "tags": {"leisure": "playground"}}, {"type": "way", "id": 1135786901, "nodes": [10587590102, 10587590101, 10587590100, 10587590099, 10587590098, 10587590097, 10587590096, 10587590095, 10587590094, 10587590093, 10587590092, 10587590091, 6268093286, 6268093285, 10587590102], "tags": {"leisure": "park"}}, {"type": "way", "id": 1284367316, "nodes": [11915700368, 11915700369, 11915700370, 11915700371, 11915700372, 11915700373, 11915700374, 11915700375, 11915700376, 11915700377, 11915700378, 11915700379, 11915700380, 11915700381, 11915700382, 11915700383, 11915700384, 11915700385, 11915700368], "tags": {"leisure": "park", "protection_title": "Gesch\u00fctzte Gr\u00fcnanlage"}}, {"type": "way", "id": 1332672361, "nodes": [12329194357, 12329194358, 12329194359, 12329194360, 12329194361, 12329194362, 12329194357], "tags": {"leisure": "playground"}}, {"type": "way", "id": 1416670514, "nodes": [13018467345, 13018467344, 13018467343, 13018467342, 13018467345], "tags": {"leisure": "playground"}}, {"type": "way", "id": 1416670515, "nodes": [13018467347, 13018467346, 12638803332, 12638803333, 13018467347], "tags": {"leisure": "park"}}, {"type": "relation", "id": 5404753, "members": [{"type": "way", "ref": 559790809, "role": "outer"}, {"type": "way", "ref": 28522204, "role": "outer"}, {"type": "way", "ref": 28678734, "role": "inner"}], "tags": {"leisure": "park", "name": "Hermann-Wundrich-Platz", "type": "multipolygon"}}, {"type": "relation", "id": 5656495, "members": [{"type": "way", "ref": 379803182, "role": "outer"}, {"type": "way", "ref": 379803181, "role": "inner"}, {"type": "way", "ref": 379803183, "role": "inner"}], "tags": {"access": "yes", "leisure": "playground", "type": "multipolygon"}}]}