{"version": 0.6, "generator": "Overpass API 0.7.62.7 375dc00a", "osm3s": {"timestamp_osm_base": "2025-08-05T14:09:45Z", "copyright": "The data included in this document is from www.openstreetmap.org. The data is made available under ODbL."}, "elements": [{"type": "node", "id": 275532432, "lat": 52.5981452, "lon": 13.4380419}, {"type": "node", "id": 275532434, "lat": 52.5989273, "lon": 13.4381419}, {"type": "node", "id": 275532435, "lat": 52.5993311, "lon": 13.4383203}, {"type": "node", "id": 340254201, "lat": 52.6080646, "lon": 13.4276941}, {"type": "node", "id": 340254202, "lat": 52.6121652, "lon": 13.4191208}, {"type": "node", "id": 340254203, "lat": 52.610573, "lon": 13.4170543}, {"type": "node", "id": 400912055, "lat": 52.6066817, "lon": 13.4199092, "tags": {"access:covid19": "yes", "addr:city": "Berlin", "addr:country": "DE", "addr:housenumber": "1", "addr:postcode": "13127", "addr:street": "Hugenottenplatz", "addr:suburb": "Franz\u00f6sisch Buchholz", "amenity": "pharmacy", "contact:phone": "+49 30 4751160", "contact:website": "http://www.apothekeamhugenottenplatz.de/", "dispensing": "yes", "healthcare": "pharmacy", "name": "Apotheke am Hugenottenplatz", "opening_hours": "Mo-Fr 08:00-19:00; Sa 08:00-14:00", "takeaway:covid19": "yes", "wheelchair": "yes"}}, {"type": "node", "id": 429878216, "lat": 52.6128827, "lon": 13.4308377, "tags": {"amenity": "restaurant", "cuisine": "chinese", "name": "Fu Duo", "wheelchair": "yes"}}, {"type": "node", "id": 602528045, "lat": 52.6076495, "lon": 13.43059, "tags": {"brand": "Netto", "brand:wikidata": "Q552652", "brand:wikipedia": "en:Netto (store)", "check_date:opening_hours": "2024-08-17", "name": "Netto", "opening_hours": "Mo-Sa 07:00-21:00", "shop": "supermarket", "toilets:wheelchair": "no", "wheelchair": "yes"}}, {"type": "node", "id": 602528055, "lat": 52.6106315, "lon": 13.4313872, "tags": {"addr:city": "Berlin", "addr:country": "DE", "addr:housenumber": "20", "addr:postcode": "13127", "addr:street": "Triftstra\u00dfe", "addr:suburb": "Franz\u00f6sisch Buchholz", "brand": "Netto Marken-Discount", "brand:wikidata": "Q879858", "brand:wikipedia": "de:Netto Marken-Discount", "building": "supermarket", "contact:website": "https://www.netto-online.de/filialen/berlin-pankow/triftstr-20/7524", "internet_access": "wlan", "name": "Netto Marken-Discount", "opening_hours": "Mo-Sa 07:00-21:00", "shop": "supermarket", "wheelchair": "yes"}}, {"type": "node", "id": 667467668, "lat": 52.5930106, "lon": 13.4325435}, {"type": "node", "id": 667467681, "lat": 52.5931962, "lon": 13.432603}, {"type": "node", "id": 667467685, "lat": 52.5932323, "lon": 13.4329884}, {"type": "node", "id": 667467687, "lat": 52.5931664, "lon": 13.4329651}, {"type": "node", "id": 667467688, "lat": 52.5929637, "lon": 13.4328987}, {"type": "node", "id": 667467691, "lat": 52.5932216, "lon": 13.4330742}, {"type": "node", "id": 667467692, "lat": 52.5931555, "lon": 13.4330519}, {"type": "node", "id": 667467696, "lat": 52.593578, "lon": 13.4331051}, {"type": "node", "id": 667467698, "lat": 52.5935778, "lon": 13.4331024}, {"type": "node", "id": 667467700, "lat": 52.5936315, "lon": 13.4326754}, {"type": "node", "id": 692735872, "lat": 52.5896054, "lon": 13.4347692}, {"type": "node", "id": 734313550, "lat": 52.6114076, "lon": 13.4194317}, {"type": "node", "id": 734313554, "lat": 52.6084628, "lon": 13.4156534}, {"type": "node", "id": 734313561, "lat": 52.6088365, "lon": 13.4148685}, {"type": "node", "id": 734319475, "lat": 52.6101134, "lon": 13.4222749}, {"type": "node", "id": 734319479, "lat": 52.610324, "lon": 13.4218345}, {"type": "node", "id": 734399123, "lat": 52.614829, "lon": 13.4233079}, {"type": "node", "id": 734399130, "lat": 52.6143737, "lon": 13.4227209}, {"type": "node", "id": 734399139, "lat": 52.6145969, "lon": 13.4222634}, {"type": "node", "id": 734399149, "lat": 52.6139604, "lon": 13.4214432}, {"type": "node", "id": 734399164, "lat": 52.6135677, "lon": 13.4221395}, {"type": "node", "id": 734399169, "lat": 52.6146842, "lon": 13.423605}, {"type": "node", "id": 734419835, "lat": 52.6115737, "lon": 13.4183243}, {"type": "node", "id": 734437880, "lat": 52.6078989, "lon": 13.4268177}, {"type": "node", "id": 918856396, "lat": 52.5895183, "lon": 13.4345077}, {"type": "node", "id": 918856397, "lat": 52.589656, "lon": 13.434501}, {"type": "node", "id": 918856403, "lat": 52.5895126, "lon": 13.4347022}, {"type": "node", "id": 918856404, "lat": 52.5896169, "lon": 13.4343696}, {"type": "node", "id": 918856406, "lat": 52.5896602, "lon": 13.4345914}, {"type": "node", "id": 1146780355, "lat": 52.596715, "lon": 13.4385009}, {"type": "node", "id": 1172030506, "lat": 52.6072084, "lon": 13.4210366, "tags": {"amenity": "fast_food", "name": "Furat Grillhaus", "opening_hours": "Mo-Su 10:00-24:00", "toilets:wheelchair": "no", "wheelchair": "yes"}}, {"type": "node", "id": 1493309769, "lat": 52.5944041, "lon": 13.4325846, "tags": {"amenity": "fast_food", "check_date": "2024-06-13", "cuisine": "kebab", "name": "Buchholz City Kebap Haus", "wheelchair": "no", "wheelchair:description": "mehrere Stufen vor dem Eingang, enge Durchg\u00e4nge"}}, {"type": "node", "id": 1493309775, "lat": 52.6071543, "lon": 13.4331514, "tags": {"amenity": "fast_food", "check_date:opening_hours": "2024-08-15", "cuisine": "kebab;pizza", "diet:vegetarian": "yes", "name": "Familien Bistro", "opening_hours:signed": "no"}}, {"type": "node", "id": 1493309776, "lat": 52.6039283, "lon": 13.4324718, "tags": {"addr:city": "Berlin", "addr:country": "DE", "addr:housenumber": "70", "addr:postcode": "13127", "addr:street": "Hauptstra\u00dfe", "addr:suburb": "Franz\u00f6sisch Buchholz", "brand": "REWE", "brand:wikidata": "Q16968817", "brand:wikipedia": "de:Rewe", "check_date:opening_hours": "2022-09-18", "name": "REWE", "opening_hours": "Mo-Sa 07:00-22:00", "shop": "supermarket", "source": "Geoportal Berlin / Hauskoordinaten", "toilets:wheelchair": "no", "wheelchair": "yes"}}, {"type": "node", "id": 1601723156, "lat": 52.5878306, "lon": 13.4267541}, {"type": "node", "id": 1601723159, "lat": 52.5879609, "lon": 13.4270893}, {"type": "node", "id": 1601723178, "lat": 52.5879868, "lon": 13.4270545}, {"type": "node", "id": 1601723181, "lat": 52.5879753, "lon": 13.4264582}, {"type": "node", "id": 1601723184, "lat": 52.5880481, "lon": 13.4272547}, {"type": "node", "id": 1601723188, "lat": 52.5882473, "lon": 13.4269787}, {"type": "node", "id": 1601723189, "lat": 52.5905787, "lon": 13.4275695}, {"type": "node", "id": 1601723190, "lat": 52.5907005, "lon": 13.4278856}, {"type": "node", "id": 1601723191, "lat": 52.5907956, "lon": 13.4273429}, {"type": "node", "id": 1601723192, "lat": 52.5909174, "lon": 13.4276591}, {"type": "node", "id": 1628927163, "lat": 52.5881829, "lon": 13.4282736, "tags": {"addr:city": "Berlin", "addr:country": "DE", "addr:housenumber": "153", "addr:postcode": "13127", "addr:street": "Blankenburger Stra\u00dfe", "amenity": "pharmacy", "check_date": "2024-06-15", "dispensing": "yes", "fax": "+49 30 47611914", "healthcare": "pharmacy", "name": "Apotheke im Pankeviertel", "opening_hours": "Mo-Fr 08:30-18:30; Sa 09:00-12:00", "phone": "+49 30 4767060"}}, {"type": "node", "id": 1725221368, "lat": 52.608966, "lon": 13.4217062}, {"type": "node", "id": 1725221370, "lat": 52.6094041, "lon": 13.4212266}, {"type": "node", "id": 1725221373, "lat": 52.609711, "lon": 13.4216783}, {"type": "node", "id": 1725572798, "lat": 52.6086944, "lon": 13.4159552}, {"type": "node", "id": 1725572799, "lat": 52.6089204, "lon": 13.4162459}, {"type": "node", "id": 1996221704, "lat": 52.6040398, "lon": 13.4182522}, {"type": "node", "id": 1996221705, "lat": 52.6037777, "lon": 13.4173852}, {"type": "node", "id": 1996221710, "lat": 52.6080102, "lon": 13.4198485}, {"type": "node", "id": 1996221714, "lat": 52.6076997, "lon": 13.4199693}, {"type": "node", "id": 1996221716, "lat": 52.6081082, "lon": 13.4206698}, {"type": "node", "id": 2020456838, "lat": 52.6074992, "lon": 13.4341192}, {"type": "node", "id": 2020456839, "lat": 52.6075432, "lon": 13.4337459}, {"type": "node", "id": 2020456840, "lat": 52.6076046, "lon": 13.4336934}, {"type": "node", "id": 2020456841, "lat": 52.6078661, "lon": 13.4342628}, {"type": "node", "id": 2020456842, "lat": 52.6078925, "lon": 13.4337519}, {"type": "node", "id": 2145067365, "lat": 52.6059393, "lon": 13.4286369, "tags": {"access": "no", "barrier": "gate"}}, {"type": "node", "id": 2250918582, "lat": 52.6073366, "lon": 13.4286891}, {"type": "node", "id": 2250918584, "lat": 52.606946, "lon": 13.4294995}, {"type": "node", "id": 2250918587, "lat": 52.6067665, "lon": 13.4292632}, {"type": "node", "id": 2250918589, "lat": 52.6071569, "lon": 13.4284559}, {"type": "node", "id": 2261357541, "lat": 52.6020295, "lon": 13.4232938}, {"type": "node", "id": 2261357542, "lat": 52.6019225, "lon": 13.4237422}, {"type": "node", "id": 2261357544, "lat": 52.6022048, "lon": 13.4233486}, {"type": "node", "id": 2261357547, "lat": 52.6020181, "lon": 13.4233859}, {"type": "node", "id": 2261357563, "lat": 52.6019049, "lon": 13.4241551}, {"type": "node", "id": 2261357569, "lat": 52.6019214, "lon": 13.4241747}, {"type": "node", "id": 2261357572, "lat": 52.6018939, "lon": 13.4240904}, {"type": "node", "id": 2261357578, "lat": 52.6021394, "lon": 13.4242387}, {"type": "node", "id": 2261357582, "lat": 52.6021973, "lon": 13.4237356}, {"type": "node", "id": 2261357583, "lat": 52.602164, "lon": 13.423723}, {"type": "node", "id": 2261357587, "lat": 52.6018958, "lon": 13.4241265}, {"type": "node", "id": 2261357590, "lat": 52.6019423, "lon": 13.4237445}, {"type": "node", "id": 2261357591, "lat": 52.6019242, "lon": 13.4237962}, {"type": "node", "id": 2440120734, "lat": 52.6093618, "lon": 13.4171934, "tags": {"access": "yes", "leisure": "playground"}}, {"type": "node", "id": 2456235092, "lat": 52.5955942, "lon": 13.433058, "tags": {"amenity": "restaurant", "check_date": "2024-06-13", "cuisine": "asian", "name": "Thanh Binh", "opening_hours": "We-Mo 11:00-22:00; Tu off", "toilets:wheelchair": "no", "wheelchair": "no"}}, {"type": "node", "id": 2458399611, "lat": 52.6045887, "lon": 13.4196357, "tags": {"access": "yes", "leisure": "playground", "wheelchair": "limited"}}, {"type": "node", "id": 2459018145, "lat": 52.6100167, "lon": 13.4179886, "tags": {"leisure": "playground"}}, {"type": "node", "id": 2459018182, "lat": 52.6106238, "lon": 13.4187428, "tags": {"leisure": "playground"}}, {"type": "node", "id": 2459097504, "lat": 52.6085279, "lon": 13.4255899}, {"type": "node", "id": 2459097505, "lat": 52.6086694, "lon": 13.4262393}, {"type": "node", "id": 2459097506, "lat": 52.6081171, "lon": 13.4274217}, {"type": "node", "id": 2459097507, "lat": 52.6079948, "lon": 13.4267046}, {"type": "node", "id": 2459097526, "lat": 52.6112986, "lon": 13.4195141, "tags": {"access": "yes", "leisure": "playground"}}, {"type": "node", "id": 2459097534, "lat": 52.6104467, "lon": 13.4218334}, {"type": "node", "id": 2459097535, "lat": 52.6101695, "lon": 13.4224039}, {"type": "node", "id": 2459448648, "lat": 52.607523, "lon": 13.4187385}, {"type": "node", "id": 2459448649, "lat": 52.6076497, "lon": 13.4189042}, {"type": "node", "id": 2459448650, "lat": 52.6074153, "lon": 13.4193905}, {"type": "node", "id": 2459448651, "lat": 52.6072885, "lon": 13.4192248}, {"type": "node", "id": 2462075727, "lat": 52.613432, "lon": 13.4254185, "tags": {"leisure": "playground"}}, {"type": "node", "id": 2462075728, "lat": 52.6138652, "lon": 13.4245646, "tags": {"leisure": "playground"}}, {"type": "node", "id": 2462694292, "lat": 52.612264, "lon": 13.4249558}, {"type": "node", "id": 2462694294, "lat": 52.6122889, "lon": 13.4250166}, {"type": "node", "id": 2462694296, "lat": 52.6123059, "lon": 13.4250159}, {"type": "node", "id": 2462694305, "lat": 52.6123647, "lon": 13.4246802}, {"type": "node", "id": 2462694318, "lat": 52.6124539, "lon": 13.4247963}, {"type": "node", "id": 2462694346, "lat": 52.6126044, "lon": 13.4248856}, {"type": "node", "id": 2462694351, "lat": 52.6127844, "lon": 13.4252283}, {"type": "node", "id": 2462694364, "lat": 52.6128641, "lon": 13.4252164}, {"type": "node", "id": 2462694470, "lat": 52.6136934, "lon": 13.4220901}, {"type": "node", "id": 2462694471, "lat": 52.6138337, "lon": 13.4222691}, {"type": "node", "id": 2462694472, "lat": 52.6138603, "lon": 13.4217351}, {"type": "node", "id": 2462694473, "lat": 52.6140006, "lon": 13.421914}, {"type": "node", "id": 2463142155, "lat": 52.6120719, "lon": 13.4294355}, {"type": "node", "id": 2463142167, "lat": 52.6122826, "lon": 13.4289983}, {"type": "node", "id": 2463142168, "lat": 52.6123197, "lon": 13.4297802}, {"type": "node", "id": 2463142174, "lat": 52.6125058, "lon": 13.4293008}, {"type": "node", "id": 2464217849, "lat": 52.6106267, "lon": 13.4295934, "tags": {"leisure": "playground", "wheelchair": "yes"}}, {"type": "node", "id": 2464217875, "lat": 52.6121644, "lon": 13.4250513}, {"type": "node", "id": 2464217905, "lat": 52.6127081, "lon": 13.4252856}, {"type": "node", "id": 2464217911, "lat": 52.6128336, "lon": 13.4297489, "tags": {"access": "private", "leisure": "playground"}}, {"type": "node", "id": 2471255898, "lat": 52.6046834, "lon": 13.4235955}, {"type": "node", "id": 2471255899, "lat": 52.6048294, "lon": 13.4232886}, {"type": "node", "id": 2471255900, "lat": 52.6049766, "lon": 13.4234762}, {"type": "node", "id": 2471255901, "lat": 52.6050697, "lon": 13.4236706}, {"type": "node", "id": 2471255902, "lat": 52.6050871, "lon": 13.4236163}, {"type": "node", "id": 2471255903, "lat": 52.6051522, "lon": 13.4238543}, {"type": "node", "id": 2471255906, "lat": 52.6052788, "lon": 13.4244712}, {"type": "node", "id": 2471255910, "lat": 52.6053847, "lon": 13.4242352}, {"type": "node", "id": 2473522256, "lat": 52.6085411, "lon": 13.4156072}, {"type": "node", "id": 2473522257, "lat": 52.6086845, "lon": 13.4152984, "tags": {"barrier": "gate"}}, {"type": "node", "id": 2473522258, "lat": 52.6088154, "lon": 13.4150265}, {"type": "node", "id": 2473522259, "lat": 52.6089572, "lon": 13.4160849, "tags": {"barrier": "gate"}}, {"type": "node", "id": 2473522260, "lat": 52.6093149, "lon": 13.416499}, {"type": "node", "id": 2473522261, "lat": 52.609427, "lon": 13.41663}, {"type": "node", "id": 2473522262, "lat": 52.6094478, "lon": 13.416212}, {"type": "node", "id": 2473522263, "lat": 52.6095431, "lon": 13.4167697}, {"type": "node", "id": 2473522264, "lat": 52.6095575, "lon": 13.4163504}, {"type": "node", "id": 2473522265, "lat": 52.6095824, "lon": 13.4162952}, {"type": "node", "id": 2473522266, "lat": 52.6097041, "lon": 13.4160407}, {"type": "node", "id": 2473522267, "lat": 52.6096956, "lon": 13.4164382}, {"type": "node", "id": 2476929015, "lat": 52.6088958, "lon": 13.4162136, "tags": {"barrier": "gate", "bicycle": "no", "foot": "no"}}, {"type": "node", "id": 2487590990, "lat": 52.607372, "lon": 13.4291329, "tags": {"addr:city": "Berlin", "addr:country": "DE", "addr:housenumber": "78", "addr:postcode": "13127", "addr:street": "Rosenthaler Weg", "addr:suburb": "Franz\u00f6sisch Buchholz", "brand": "Denns BioMarkt", "brand:wikidata": "Q48883773", "brand:wikipedia": "de:Denn\u2019s Biomarkt", "fax": "+49 30 40531348", "name": "Denns BioMarkt", "opening_hours": "Mo-Sa 08:00-20:00", "operator": "Dennree GmbH", "operator:wikidata": "Q1189641", "organic": "only", "phone": "+49 30 40531346", "shop": "supermarket", "website": "https://www.denns-biomarkt.de/berlin-rosenthaler-weg-78/marktseite/", "wheelchair": "yes"}}, {"type": "node", "id": 2687217544, "lat": 52.6042509, "lon": 13.4191671}, {"type": "node", "id": 2960523365, "lat": 52.6056965, "lon": 13.4253248}, {"type": "node", "id": 2960524158, "lat": 52.6058162, "lon": 13.4254799}, {"type": "node", "id": 2960528226, "lat": 52.6096952, "lon": 13.4158547}, {"type": "node", "id": 2960528275, "lat": 52.609761, "lon": 13.4159303}, {"type": "node", "id": 2960563067, "lat": 52.6138767, "lon": 13.4216223}, {"type": "node", "id": 2960570641, "lat": 52.6156729, "lon": 13.4240465, "tags": {"leisure": "playground"}}, {"type": "node", "id": 3058798400, "lat": 52.60988, "lon": 13.4218832}, {"type": "node", "id": 3058798401, "lat": 52.609934, "lon": 13.4217687}, {"type": "node", "id": 3058798403, "lat": 52.6100779, "lon": 13.4222441}, {"type": "node", "id": 3058798406, "lat": 52.610304, "lon": 13.4217764}, {"type": "node", "id": 3070074798, "lat": 52.6110798, "lon": 13.4176884}, {"type": "node", "id": 3070074800, "lat": 52.6114602, "lon": 13.4181758}, {"type": "node", "id": 3070074804, "lat": 52.6116045, "lon": 13.4184155}, {"type": "node", "id": 3070074817, "lat": 52.6119414, "lon": 13.4188228}, {"type": "node", "id": 3356517765, "lat": 52.607977, "lon": 13.4192847}, {"type": "node", "id": 3356517767, "lat": 52.6080737, "lon": 13.4199903}, {"type": "node", "id": 3356951882, "lat": 52.6050813, "lon": 13.4210024, "tags": {"access": "yes", "leisure": "playground", "wheelchair": "limited"}}, {"type": "node", "id": 3380966293, "lat": 52.6057189, "lon": 13.4281641, "tags": {"leisure": "playground"}}, {"type": "node", "id": 3380966984, "lat": 52.6101392, "lon": 13.4163611}, {"type": "node", "id": 3504360335, "lat": 52.6132602, "lon": 13.4338155}, {"type": "node", "id": 3504360486, "lat": 52.6135163, "lon": 13.4336562}, {"type": "node", "id": 3763144935, "lat": 52.6052158, "lon": 13.4360985}, {"type": "node", "id": 3763144937, "lat": 52.6055984, "lon": 13.4351569}, {"type": "node", "id": 3763144949, "lat": 52.606326, "lon": 13.4364116}, {"type": "node", "id": 3763149470, "lat": 52.6067676, "lon": 13.4364573}, {"type": "node", "id": 3763149475, "lat": 52.6069487, "lon": 13.434977}, {"type": "node", "id": 3823152958, "lat": 52.5840519, "lon": 13.4301871}, {"type": "node", "id": 3823152959, "lat": 52.5841991, "lon": 13.4295181}, {"type": "node", "id": 3823152962, "lat": 52.5844846, "lon": 13.4303407}, {"type": "node", "id": 3823152963, "lat": 52.584513, "lon": 13.4296296}, {"type": "node", "id": 3876303917, "lat": 52.596027, "lon": 13.4380331}, {"type": "node", "id": 3876303921, "lat": 52.5964397, "lon": 13.438038}, {"type": "node", "id": 3876303925, "lat": 52.5967199, "lon": 13.4382334}, {"type": "node", "id": 3876303928, "lat": 52.5975495, "lon": 13.437834}, {"type": "node", "id": 3876303929, "lat": 52.5977427, "lon": 13.4377923}, {"type": "node", "id": 3876303939, "lat": 52.5985075, "lon": 13.4377183}, {"type": "node", "id": 3876303941, "lat": 52.5987271, "lon": 13.4376643}, {"type": "node", "id": 3876303944, "lat": 52.5992056, "lon": 13.4380296}, {"type": "node", "id": 3876303946, "lat": 52.5996402, "lon": 13.4380647}, {"type": "node", "id": 3900689099, "lat": 52.607241, "lon": 13.4254169, "tags": {"addr:city": "Berlin", "addr:country": "DE", "addr:housenumber": "62", "addr:postcode": "13127", "addr:street": "Rosenthaler Weg", "amenity": "restaurant", "cuisine": "greek", "name": "Hercules", "opening_hours": "Mo,Tu,Th,Fr,PH 16:00-23:00; Sa,Su 12:00-23:00", "phone": "+49 30 47557277", "website": "http://www.restaurant-hercules.de", "wheelchair": "limited"}}, {"type": "node", "id": 3900689100, "lat": 52.6070803, "lon": 13.4223047, "tags": {"addr:city": "Berlin", "addr:country": "DE", "addr:housenumber": "45", "addr:postcode": "13127", "addr:street": "Rosenthaler Weg", "amenity": "pub", "indoor_seating": "yes", "name": "M\u00e4nnerhort", "outdoor_seating": "yes"}}, {"type": "node", "id": 3900689113, "lat": 52.6076972, "lon": 13.434513, "tags": {"addr:city": "Berlin", "addr:country": "DE", "addr:housenumber": "59a", "addr:postcode": "13127", "addr:street": "Hauptstra\u00dfe", "addr:suburb": "Franz\u00f6sisch Buchholz", "amenity": "restaurant", "cuisine": "regional;french", "dog": "yes", "name": "Der Eiserne Gustav", "opening_hours": "Mo-Th 12:00-22:00; Fr-Su 12:00-23:00", "operator": "AMW Gastro GmbH", "phone": "+49 30 91425707", "website": "https://www.dereisernegustav.de/", "wheelchair": "no"}}, {"type": "node", "id": 4215905714, "lat": 52.5841322, "lon": 13.4295744}, {"type": "node", "id": 4215905715, "lat": 52.5841891, "lon": 13.4295946}, {"type": "node", "id": 4351191411, "lat": 52.6080848, "lon": 13.4407971}, {"type": "node", "id": 4351191412, "lat": 52.6078669, "lon": 13.4412816}, {"type": "node", "id": 4351191413, "lat": 52.6077883, "lon": 13.4407248}, {"type": "node", "id": 4351191414, "lat": 52.6079643, "lon": 13.4406512}, {"type": "node", "id": 4502640445, "lat": 52.589634, "lon": 13.4343736}, {"type": "node", "id": 4502640446, "lat": 52.5895085, "lon": 13.434552}, {"type": "node", "id": 4502640447, "lat": 52.5895916, "lon": 13.4343897}, {"type": "node", "id": 4502640448, "lat": 52.5896413, "lon": 13.4347209}, {"type": "node", "id": 4539629822, "lat": 52.6045496, "lon": 13.437678}, {"type": "node", "id": 4583979873, "lat": 52.5879559, "lon": 13.4278491, "tags": {"addr:city": "Berlin", "addr:country": "DE", "addr:housenumber": "149", "addr:postcode": "13127", "addr:street": "Blankenburger Stra\u00dfe", "amenity": "fast_food", "brand": "Telepizza", "brand:wikidata": "Q2699863", "brand:wikipedia": "en:Telepizza", "check_date": "2024-06-15", "cuisine": "pizza", "delivery": "yes", "name": "Telepizza", "opening_hours": "Mo-Su,PH 11:00-23:00", "phone": "+49 30 20912912", "takeaway": "yes", "website": "https://www.telepizza.de/berlin_pankow/"}}, {"type": "node", "id": 4583979874, "lat": 52.5852166, "lon": 13.4285089, "tags": {"amenity": "cafe", "check_date:opening_hours": "2022-11-03", "email": "info@hotel-pankow-berlin.de", "indoor_seating": "yes", "name": "Caf\u00e9 Pankow", "opening_hours": "Mo-Su,PH 08:00-22:00", "opening_hours:signed": "no", "outdoor_seating": "yes", "phone": "+49 30 4862600", "website": "https://hotel-pankow-berlin.de/cafe_bar.html", "wheelchair": "yes"}}, {"type": "node", "id": 4583979876, "lat": 52.5848091, "lon": 13.4285974, "tags": {"addr:city": "Berlin", "addr:country": "DE", "addr:housenumber": "13", "addr:postcode": "13127", "addr:street": "Pasewalker Stra\u00dfe", "amenity": "fast_food", "indoor_seating": "yes", "name": "B\u00e4rbels Bistro", "opening_hours": "Sa,Su 15:00-22:00; Mo-Fr 11:00-22:00", "outdoor_seating": "yes", "phone": "+49 30 91573308", "website": "http://www.baerbels-bistro.de", "wheelchair": "yes"}}, {"type": "node", "id": 4667158117, "lat": 52.604571, "lon": 13.438374}, {"type": "node", "id": 4667158121, "lat": 52.6045004, "lon": 13.439149}, {"type": "node", "id": 4667158122, "lat": 52.6047048, "lon": 13.43917}, {"type": "node", "id": 4667158123, "lat": 52.6049491, "lon": 13.4391877}, {"type": "node", "id": 4667158124, "lat": 52.6052267, "lon": 13.4387579}, {"type": "node", "id": 4667158126, "lat": 52.6057861, "lon": 13.439019}, {"type": "node", "id": 4667158127, "lat": 52.6059428, "lon": 13.4380085}, {"type": "node", "id": 4849042048, "lat": 52.6226778, "lon": 13.4310562}, {"type": "node", "id": 4849042049, "lat": 52.6206536, "lon": 13.4342879}, {"type": "node", "id": 4849042050, "lat": 52.6201716, "lon": 13.4347269}, {"type": "node", "id": 4849042051, "lat": 52.6196046, "lon": 13.4342879}, {"type": "node", "id": 4849042052, "lat": 52.6193664, "lon": 13.4342225}, {"type": "node", "id": 4849042053, "lat": 52.6192643, "lon": 13.4342785}, {"type": "node", "id": 4849042054, "lat": 52.6198427, "lon": 13.4327374}, {"type": "node", "id": 4849042055, "lat": 52.619837, "lon": 13.43256}, {"type": "node", "id": 4849042056, "lat": 52.6205402, "lon": 13.431187}, {"type": "node", "id": 4849042057, "lat": 52.6207103, "lon": 13.4306453}, {"type": "node", "id": 4849042058, "lat": 52.621351, "lon": 13.4306173}, {"type": "node", "id": 4849042059, "lat": 52.6214757, "lon": 13.430748}, {"type": "node", "id": 4849042060, "lat": 52.6220994, "lon": 13.4308788}, {"type": "node", "id": 4849042061, "lat": 52.6225814, "lon": 13.431187}, {"type": "node", "id": 5018132446, "lat": 52.5885513, "lon": 13.4351679, "tags": {"addr:city": "Berlin", "addr:country": "DE", "addr:housenumber": "1", "addr:postcode": "13129", "addr:street": "Buschsperlingweg", "addr:suburb": "Franz\u00f6sisch Buchholz", "amenity": "cafe", "cuisine": "bistro", "name": "Wiesenbaude", "opening_hours": "We-Fr 14:30-20:00; Sa,Su,PH 12:30-20:00", "outdoor_seating": "yes"}}, {"type": "node", "id": 5059736727, "lat": 52.6053574, "lon": 13.4351374}, {"type": "node", "id": 5401847269, "lat": 52.5879432, "lon": 13.4265995}, {"type": "node", "id": 5401847270, "lat": 52.5879143, "lon": 13.4265427}, {"type": "node", "id": 5401847289, "lat": 52.5844616, "lon": 13.4301353}, {"type": "node", "id": 5401847290, "lat": 52.5845093, "lon": 13.4301522}, {"type": "node", "id": 5401847291, "lat": 52.584503, "lon": 13.4297055}, {"type": "node", "id": 5401847292, "lat": 52.5845172, "lon": 13.4297105}, {"type": "node", "id": 5641236708, "lat": 52.5983218, "lon": 13.4377494}, {"type": "node", "id": 5641236710, "lat": 52.597965, "lon": 13.4377859}, {"type": "node", "id": 5641236711, "lat": 52.59791, "lon": 13.4376447}, {"type": "node", "id": 5641236712, "lat": 52.5980916, "lon": 13.4372524}, {"type": "node", "id": 5641236713, "lat": 52.5982402, "lon": 13.4372351}, {"type": "node", "id": 5667807867, "lat": 52.6052124, "lon": 13.4341702}, {"type": "node", "id": 5667807902, "lat": 52.60529, "lon": 13.4351115}, {"type": "node", "id": 5667807910, "lat": 52.6050678, "lon": 13.435975}, {"type": "node", "id": 5667807911, "lat": 52.6050499, "lon": 13.4359251}, {"type": "node", "id": 5667807912, "lat": 52.6049811, "lon": 13.4358955}, {"type": "node", "id": 5667807914, "lat": 52.6050562, "lon": 13.4354158}, {"type": "node", "id": 5667807915, "lat": 52.6050367, "lon": 13.4353128}, {"type": "node", "id": 5667807916, "lat": 52.6050824, "lon": 13.4350274}, {"type": "node", "id": 5838568136, "lat": 52.5970871, "lon": 13.4380187}, {"type": "node", "id": 5838568137, "lat": 52.5977452, "lon": 13.4380047}, {"type": "node", "id": 5838568138, "lat": 52.5977746, "lon": 13.4379147}, {"type": "node", "id": 5838568139, "lat": 52.5978232, "lon": 13.4377777}, {"type": "node", "id": 5838568140, "lat": 52.5978815, "lon": 13.4376342}, {"type": "node", "id": 5838568141, "lat": 52.5979711, "lon": 13.4374548}, {"type": "node", "id": 5838568143, "lat": 52.5981284, "lon": 13.4372003}, {"type": "node", "id": 5838568144, "lat": 52.5982058, "lon": 13.4370968}, {"type": "node", "id": 5838568145, "lat": 52.5985767, "lon": 13.4379449}, {"type": "node", "id": 5838568146, "lat": 52.598521, "lon": 13.4379797}, {"type": "node", "id": 5838568152, "lat": 52.598385, "lon": 13.4379847}, {"type": "node", "id": 5838568153, "lat": 52.5980169, "lon": 13.4380132}, {"type": "node", "id": 5838568154, "lat": 52.5979583, "lon": 13.4380002}, {"type": "node", "id": 5838568155, "lat": 52.5980607, "lon": 13.4380317}, {"type": "node", "id": 5838568156, "lat": 52.5977743, "lon": 13.4380452}, {"type": "node", "id": 5838568157, "lat": 52.5978281, "lon": 13.4380177}, {"type": "node", "id": 5838568158, "lat": 52.5977351, "lon": 13.4380537}, {"type": "node", "id": 5838568162, "lat": 52.5978921, "lon": 13.4380272}, {"type": "node", "id": 5838568166, "lat": 52.5983103, "lon": 13.4370328}, {"type": "node", "id": 5838570817, "lat": 52.597772, "lon": 13.4377846}, {"type": "node", "id": 5838570818, "lat": 52.5978161, "lon": 13.437799}, {"type": "node", "id": 5838570822, "lat": 52.5963609, "lon": 13.4382849}, {"type": "node", "id": 5838570823, "lat": 52.5961663, "lon": 13.438318}, {"type": "node", "id": 5838570824, "lat": 52.5960769, "lon": 13.438318}, {"type": "node", "id": 5838570825, "lat": 52.5963771, "lon": 13.4382901}, {"type": "node", "id": 5838570826, "lat": 52.5969354, "lon": 13.4384659}, {"type": "node", "id": 5838570827, "lat": 52.596978, "lon": 13.4384244}, {"type": "node", "id": 5838570828, "lat": 52.5973988, "lon": 13.4382045}, {"type": "node", "id": 5838570829, "lat": 52.5971864, "lon": 13.4382272}, {"type": "node", "id": 5838570830, "lat": 52.5969886, "lon": 13.43839}, {"type": "node", "id": 5838570831, "lat": 52.5972404, "lon": 13.4382123}, {"type": "node", "id": 5838570835, "lat": 52.5975044, "lon": 13.4381604}, {"type": "node", "id": 5838570836, "lat": 52.5975536, "lon": 13.4380832}, {"type": "node", "id": 5838581268, "lat": 52.5996913, "lon": 13.4382759}, {"type": "node", "id": 5838581269, "lat": 52.5995496, "lon": 13.4383187}, {"type": "node", "id": 5838581270, "lat": 52.5996887, "lon": 13.438329}, {"type": "node", "id": 5838581271, "lat": 52.5991783, "lon": 13.4382325}, {"type": "node", "id": 5838581272, "lat": 52.5990449, "lon": 13.4382314}, {"type": "node", "id": 5838581273, "lat": 52.5988511, "lon": 13.4380225}, {"type": "node", "id": 5838581274, "lat": 52.5986692, "lon": 13.4378853}, {"type": "node", "id": 5885099580, "lat": 52.5960614, "lon": 13.4383048}, {"type": "node", "id": 5885099581, "lat": 52.5956673, "lon": 13.4368396}, {"type": "node", "id": 5885099582, "lat": 52.5966544, "lon": 13.4381877}, {"type": "node", "id": 5885099583, "lat": 52.5956985, "lon": 13.4368153}, {"type": "node", "id": 5885103976, "lat": 52.5960081, "lon": 13.4381094}, {"type": "node", "id": 5885104285, "lat": 52.5958904, "lon": 13.4376692}, {"type": "node", "id": 5920970480, "lat": 52.6064394, "lon": 13.4263116}, {"type": "node", "id": 5920970481, "lat": 52.6059938, "lon": 13.4256027}, {"type": "node", "id": 5920970482, "lat": 52.6061044, "lon": 13.4253697}, {"type": "node", "id": 5920970483, "lat": 52.6065544, "lon": 13.4260768}, {"type": "node", "id": 5920970484, "lat": 52.6052044, "lon": 13.4237557}, {"type": "node", "id": 5920972585, "lat": 52.6049529, "lon": 13.4235495}, {"type": "node", "id": 5920972598, "lat": 52.6055894, "lon": 13.4251395}, {"type": "node", "id": 5920972599, "lat": 52.6053106, "lon": 13.4247658}, {"type": "node", "id": 5920972600, "lat": 52.6055861, "lon": 13.4241797}, {"type": "node", "id": 5920972601, "lat": 52.6058702, "lon": 13.4245502}, {"type": "node", "id": 5920972602, "lat": 52.6057487, "lon": 13.4248046}, {"type": "node", "id": 5920972603, "lat": 52.6059987, "lon": 13.4252069}, {"type": "node", "id": 6240379236, "lat": 52.6048118, "lon": 13.4237504}, {"type": "node", "id": 6240379237, "lat": 52.6050922, "lon": 13.4241819}, {"type": "node", "id": 6240379238, "lat": 52.6042099, "lon": 13.4260431}, {"type": "node", "id": 6240379239, "lat": 52.6047733, "lon": 13.4239868}, {"type": "node", "id": 6240379241, "lat": 52.6048686, "lon": 13.4241336}, {"type": "node", "id": 6240379242, "lat": 52.6039406, "lon": 13.4261013}, {"type": "node", "id": 6240379243, "lat": 52.604246, "lon": 13.4260917}, {"type": "node", "id": 6240379244, "lat": 52.6037913, "lon": 13.4259088}, {"type": "node", "id": 6240379245, "lat": 52.6041141, "lon": 13.4263666}, {"type": "node", "id": 6240379246, "lat": 52.6036633, "lon": 13.4261848}, {"type": "node", "id": 6240379247, "lat": 52.6046246, "lon": 13.4246485}, {"type": "node", "id": 6240379248, "lat": 52.6045306, "lon": 13.4248503}, {"type": "node", "id": 6240379249, "lat": 52.6044838, "lon": 13.4244688}, {"type": "node", "id": 6240379250, "lat": 52.6043888, "lon": 13.4246712}, {"type": "node", "id": 6240379251, "lat": 52.604823, "lon": 13.4238795}, {"type": "node", "id": 6240379252, "lat": 52.6041835, "lon": 13.4261012}, {"type": "node", "id": 6240379253, "lat": 52.6040689, "lon": 13.4259509}, {"type": "node", "id": 6240379254, "lat": 52.6039486, "lon": 13.4262083}, {"type": "node", "id": 6240379255, "lat": 52.6040941, "lon": 13.4262774}, {"type": "node", "id": 6240379263, "lat": 52.6042898, "lon": 13.4253583}, {"type": "node", "id": 6240379264, "lat": 52.6041893, "lon": 13.4255742}, {"type": "node", "id": 6240379265, "lat": 52.6041496, "lon": 13.4251786}, {"type": "node", "id": 6240379266, "lat": 52.6040455, "lon": 13.4253964}, {"type": "node", "id": 6242084222, "lat": 52.6043501, "lon": 13.4257479}, {"type": "node", "id": 6242084223, "lat": 52.6042165, "lon": 13.4260235}, {"type": "node", "id": 6242084226, "lat": 52.604842, "lon": 13.4247174}, {"type": "node", "id": 6242084227, "lat": 52.6044262, "lon": 13.4255871}, {"type": "node", "id": 6242084230, "lat": 52.6050532, "lon": 13.4242709}, {"type": "node", "id": 6242084231, "lat": 52.6049243, "lon": 13.4245369}, {"type": "node", "id": 6242084235, "lat": 52.6037676, "lon": 13.4262299}, {"type": "node", "id": 6242084236, "lat": 52.6036811, "lon": 13.4261464}, {"type": "node", "id": 6242084242, "lat": 52.6046466, "lon": 13.4248409, "tags": {"leisure": "playground"}}, {"type": "node", "id": 6484328971, "lat": 52.6076173, "lon": 13.4200317}, {"type": "node", "id": 6484328972, "lat": 52.608099, "lon": 13.420861}, {"type": "node", "id": 6484328973, "lat": 52.6081714, "lon": 13.4207029}, {"type": "node", "id": 6484328974, "lat": 52.6087116, "lon": 13.4215842}, {"type": "node", "id": 6484328975, "lat": 52.6083893, "lon": 13.4222591}, {"type": "node", "id": 6484328976, "lat": 52.6083159, "lon": 13.4217299}, {"type": "node", "id": 6484328977, "lat": 52.6085213, "lon": 13.421302}, {"type": "node", "id": 6492170806, "lat": 52.6058488, "lon": 13.4255178}, {"type": "node", "id": 6492170807, "lat": 52.6058866, "lon": 13.4254405}, {"type": "node", "id": 6492171481, "lat": 52.605643, "lon": 13.4246707}, {"type": "node", "id": 6492171482, "lat": 52.6056459, "lon": 13.4247416}, {"type": "node", "id": 6492171483, "lat": 52.6056251, "lon": 13.4247902}, {"type": "node", "id": 6492171484, "lat": 52.6056288, "lon": 13.4249081}, {"type": "node", "id": 6492171585, "lat": 52.6056121, "lon": 13.4249519}, {"type": "node", "id": 6492171586, "lat": 52.6054958, "lon": 13.4249563}, {"type": "node", "id": 6492171587, "lat": 52.6054918, "lon": 13.4249277}, {"type": "node", "id": 6492171588, "lat": 52.6054958, "lon": 13.4248992}, {"type": "node", "id": 6492171589, "lat": 52.6055677, "lon": 13.4249563}, {"type": "node", "id": 6492171590, "lat": 52.6055566, "lon": 13.4249792}, {"type": "node", "id": 6492171591, "lat": 52.6055406, "lon": 13.4249919}, {"type": "node", "id": 6492171592, "lat": 52.6055229, "lon": 13.4249919}, {"type": "node", "id": 6492171593, "lat": 52.6055069, "lon": 13.4249792}, {"type": "node", "id": 6492171594, "lat": 52.6054517, "lon": 13.4248328}, {"type": "node", "id": 6492171595, "lat": 52.605429, "lon": 13.4248774}, {"type": "node", "id": 6492171596, "lat": 52.6053966, "lon": 13.4247994}, {"type": "node", "id": 6492171597, "lat": 52.6054266, "lon": 13.4247484}, {"type": "node", "id": 6492171598, "lat": 52.6054164, "lon": 13.4246918}, {"type": "node", "id": 6492171599, "lat": 52.6054498, "lon": 13.4246193}, {"type": "node", "id": 6492171600, "lat": 52.6056138, "lon": 13.4246178}, {"type": "node", "id": 6492179110, "lat": 52.6050841, "lon": 13.4261918, "tags": {"access": "yes", "leisure": "playground"}}, {"type": "node", "id": 6551373572, "lat": 52.6123987, "lon": 13.4245633}, {"type": "node", "id": 6551373573, "lat": 52.6130159, "lon": 13.4253682}, {"type": "node", "id": 6551373574, "lat": 52.612995, "lon": 13.4254119}, {"type": "node", "id": 6551373575, "lat": 52.6130721, "lon": 13.4253939}, {"type": "node", "id": 6551373576, "lat": 52.6130536, "lon": 13.4254327}, {"type": "node", "id": 6551373577, "lat": 52.6135043, "lon": 13.4260264}, {"type": "node", "id": 6551373578, "lat": 52.6136843, "lon": 13.4256565}, {"type": "node", "id": 6553305912, "lat": 52.612409, "lon": 13.4295021}, {"type": "node", "id": 6553305913, "lat": 52.6124016, "lon": 13.429615}, {"type": "node", "id": 6707901609, "lat": 52.5981194, "lon": 13.4377701, "tags": {"barrier": "gate"}}, {"type": "node", "id": 6707901611, "lat": 52.5979668, "lon": 13.4374634}, {"type": "node", "id": 6707901612, "lat": 52.5982159, "lon": 13.4370898}, {"type": "node", "id": 6707901613, "lat": 52.5980311, "lon": 13.4374158}, {"type": "node", "id": 6707901614, "lat": 52.5980255, "lon": 13.4373594}, {"type": "node", "id": 6709537724, "lat": 52.5982801, "lon": 13.4374868, "tags": {"barrier": "gate"}}, {"type": "node", "id": 7037249295, "lat": 52.5977884, "lon": 13.43779}, {"type": "node", "id": 7129049660, "lat": 52.6133477, "lon": 13.4341952}, {"type": "node", "id": 7129049661, "lat": 52.613377, "lon": 13.4341776}, {"type": "node", "id": 7129049662, "lat": 52.6134121, "lon": 13.4343361}, {"type": "node", "id": 7129049663, "lat": 52.6135637, "lon": 13.4342452}, {"type": "node", "id": 7129049664, "lat": 52.6135889, "lon": 13.4343591}, {"type": "node", "id": 7129049665, "lat": 52.613662, "lon": 13.4343153}, {"type": "node", "id": 7795255823, "lat": 52.6030589, "lon": 13.4157993}, {"type": "node", "id": 7795316928, "lat": 52.6041292, "lon": 13.4193584}, {"type": "node", "id": 7795316929, "lat": 52.6043087, "lon": 13.4200069}, {"type": "node", "id": 7795316940, "lat": 52.6051013, "lon": 13.4221929}, {"type": "node", "id": 7795316974, "lat": 52.6048703, "lon": 13.4214332}, {"type": "node", "id": 7795316978, "lat": 52.6049068, "lon": 13.4213467}, {"type": "node", "id": 7795316979, "lat": 52.6046756, "lon": 13.4205816}, {"type": "node", "id": 7795316980, "lat": 52.60475, "lon": 13.4208401}, {"type": "node", "id": 7795316981, "lat": 52.6045673, "lon": 13.4208097}, {"type": "node", "id": 7795316983, "lat": 52.6046441, "lon": 13.4210671}, {"type": "node", "id": 7795316986, "lat": 52.6050162, "lon": 13.42231}, {"type": "node", "id": 7795317116, "lat": 52.6034567, "lon": 13.416524}, {"type": "node", "id": 7795317117, "lat": 52.6032202, "lon": 13.4157369}, {"type": "node", "id": 7795317118, "lat": 52.6046693, "lon": 13.4151752}, {"type": "node", "id": 7795317122, "lat": 52.6047913, "lon": 13.4160093}, {"type": "node", "id": 7795317123, "lat": 52.6049378, "lon": 13.4159538}, {"type": "node", "id": 7886211750, "lat": 52.6049669, "lon": 13.4354263}, {"type": "node", "id": 8808872043, "lat": 52.6121735, "lon": 13.425031}, {"type": "node", "id": 8808872045, "lat": 52.6123416, "lon": 13.4250308}, {"type": "node", "id": 8808872046, "lat": 52.6124595, "lon": 13.4250864}, {"type": "node", "id": 8808872047, "lat": 52.612445, "lon": 13.4250737}, {"type": "node", "id": 8808872048, "lat": 52.6124772, "lon": 13.4251203}, {"type": "node", "id": 8808872049, "lat": 52.6124206, "lon": 13.425071}, {"type": "node", "id": 8808872050, "lat": 52.6123766, "lon": 13.4250613}, {"type": "node", "id": 8808872051, "lat": 52.6128027, "lon": 13.4252625}, {"type": "node", "id": 8808872052, "lat": 52.6128033, "lon": 13.4252427}, {"type": "node", "id": 8808872053, "lat": 52.6127553, "lon": 13.4252286}, {"type": "node", "id": 8808872054, "lat": 52.6127361, "lon": 13.4252172}, {"type": "node", "id": 8808872055, "lat": 52.6127074, "lon": 13.4251686}, {"type": "node", "id": 8808872056, "lat": 52.6126985, "lon": 13.4251639}, {"type": "node", "id": 8808872057, "lat": 52.6127221, "lon": 13.4251951}, {"type": "node", "id": 8808872058, "lat": 52.6126596, "lon": 13.4251666}, {"type": "node", "id": 8808872059, "lat": 52.6126087, "lon": 13.4251441}, {"type": "node", "id": 8808872060, "lat": 52.6125857, "lon": 13.4251233}, {"type": "node", "id": 8808872061, "lat": 52.6125729, "lon": 13.42512}, {"type": "node", "id": 8808872062, "lat": 52.612556, "lon": 13.4251226}, {"type": "node", "id": 8808872063, "lat": 52.6126337, "lon": 13.4251595}, {"type": "node", "id": 8808872064, "lat": 52.6125207, "lon": 13.4251411}, {"type": "node", "id": 8808872065, "lat": 52.6127982, "lon": 13.4252309}, {"type": "node", "id": 8808872066, "lat": 52.6128339, "lon": 13.4252749}, {"type": "node", "id": 8808872067, "lat": 52.6128375, "lon": 13.4252668}, {"type": "node", "id": 8808872068, "lat": 52.6125543, "lon": 13.4248145}, {"type": "node", "id": 8808872069, "lat": 52.6125146, "lon": 13.4247934}, {"type": "node", "id": 8808872070, "lat": 52.6122775, "lon": 13.4249403}, {"type": "node", "id": 8808872071, "lat": 52.6122838, "lon": 13.4249242}, {"type": "node", "id": 8808872072, "lat": 52.6122872, "lon": 13.42489}, {"type": "node", "id": 8808872073, "lat": 52.6122913, "lon": 13.4248289}, {"type": "node", "id": 8808872074, "lat": 52.612477, "lon": 13.4247924}, {"type": "node", "id": 8808872157, "lat": 52.6089296, "lon": 13.424661}, {"type": "node", "id": 8809470717, "lat": 52.6044837, "lon": 13.4383831}, {"type": "node", "id": 8809542340, "lat": 52.5933081, "lon": 13.4325663}, {"type": "node", "id": 8809542341, "lat": 52.5933092, "lon": 13.432558}, {"type": "node", "id": 8809542342, "lat": 52.5932061, "lon": 13.4325232}, {"type": "node", "id": 9026237098, "lat": 52.6057127, "lon": 13.4343767}, {"type": "node", "id": 9026237099, "lat": 52.6055863, "lon": 13.4352294}, {"type": "node", "id": 9026237101, "lat": 52.6050987, "lon": 13.4359885}, {"type": "node", "id": 9026237102, "lat": 52.6050881, "lon": 13.4360598}, {"type": "node", "id": 9026237103, "lat": 52.6049286, "lon": 13.4360156}, {"type": "node", "id": 9026237104, "lat": 52.6050188, "lon": 13.4354415}, {"type": "node", "id": 9026237105, "lat": 52.6052892, "lon": 13.4331971}, {"type": "node", "id": 9026526984, "lat": 52.6053506, "lon": 13.4332404}, {"type": "node", "id": 9028169998, "lat": 52.6052019, "lon": 13.433801}, {"type": "node", "id": 9838099584, "lat": 52.5896649, "lon": 13.4345788}, {"type": "node", "id": 9838099585, "lat": 52.5896617, "lon": 13.434619}, {"type": "node", "id": 9838099586, "lat": 52.5896274, "lon": 13.4347424}, {"type": "node", "id": 9838099587, "lat": 52.5895957, "lon": 13.4347759}, {"type": "node", "id": 9838099588, "lat": 52.5895851, "lon": 13.4347799}, {"type": "node", "id": 9838099589, "lat": 52.5895525, "lon": 13.4347786}, {"type": "node", "id": 9838099590, "lat": 52.5895362, "lon": 13.4347679}, {"type": "node", "id": 9838099591, "lat": 52.5895297, "lon": 13.4347571}, {"type": "node", "id": 9838099592, "lat": 52.589506, "lon": 13.4346592}, {"type": "node", "id": 9838099593, "lat": 52.5895052, "lon": 13.4346445}, {"type": "node", "id": 9838099594, "lat": 52.589506, "lon": 13.4345841}, {"type": "node", "id": 9838099595, "lat": 52.5895142, "lon": 13.4345184}, {"type": "node", "id": 9838099596, "lat": 52.5895574, "lon": 13.4344514}, {"type": "node", "id": 9838099597, "lat": 52.5896413, "lon": 13.4343816}, {"type": "node", "id": 9838099598, "lat": 52.5896478, "lon": 13.4343924}, {"type": "node", "id": 9838099599, "lat": 52.5896511, "lon": 13.4344058}, {"type": "node", "id": 9838099600, "lat": 52.5896568, "lon": 13.4344527}, {"type": "node", "id": 10033057617, "lat": 52.6052569, "lon": 13.4323738, "tags": {"addr:city": "Berlin", "addr:country": "DE", "addr:housenumber": "14", "addr:postcode": "13127", "addr:street": "Hauptstra\u00dfe", "addr:suburb": "Franz\u00f6sisch Buchholz", "amenity": "pharmacy", "check_date:opening_hours": "2024-08-05", "contact:website": "https://www.buchholzer-apotheke-berlin.de/", "healthcare": "pharmacy", "name": "Buchholzer Apotheke", "opening_hours": "Mo-Fr 08:00-19:00; Sa 08:00-13:00"}}, {"type": "node", "id": 10562095630, "lat": 52.6050272, "lon": 13.4159205}, {"type": "node", "id": 10562095631, "lat": 52.6050443, "lon": 13.415866}, {"type": "node", "id": 10562095632, "lat": 52.6048657, "lon": 13.4150971}, {"type": "node", "id": 10562210558, "lat": 52.603906, "lon": 13.4183843}, {"type": "node", "id": 10562210559, "lat": 52.6037684, "lon": 13.4179283}, {"type": "node", "id": 10562210560, "lat": 52.6036295, "lon": 13.4174562}, {"type": "node", "id": 10562210561, "lat": 52.6037085, "lon": 13.4173617}, {"type": "node", "id": 10562210562, "lat": 52.6040074, "lon": 13.4183541}, {"type": "node", "id": 10562210563, "lat": 52.6041793, "lon": 13.4189214}, {"type": "node", "id": 10562210564, "lat": 52.6040551, "lon": 13.4191132}, {"type": "node", "id": 10562210565, "lat": 52.6034071, "lon": 13.4169607}, {"type": "node", "id": 10562210566, "lat": 52.6035684, "lon": 13.416897}, {"type": "node", "id": 10562210567, "lat": 52.6037899, "lon": 13.4173288}, {"type": "node", "id": 10562210570, "lat": 52.6040697, "lon": 13.4182582}, {"type": "node", "id": 10562210593, "lat": 52.6034051, "lon": 13.416038}, {"type": "node", "id": 10562210594, "lat": 52.6033839, "lon": 13.4160273}, {"type": "node", "id": 10562210595, "lat": 52.6033603, "lon": 13.4159931}, {"type": "node", "id": 10562210596, "lat": 52.6033522, "lon": 13.4159482}, {"type": "node", "id": 10562210597, "lat": 52.603353, "lon": 13.4159113}, {"type": "node", "id": 10562210598, "lat": 52.6033717, "lon": 13.4158798}, {"type": "node", "id": 10562210599, "lat": 52.6034043, "lon": 13.4158442}, {"type": "node", "id": 10562210600, "lat": 52.6034711, "lon": 13.4158288}, {"type": "node", "id": 10562210601, "lat": 52.6034996, "lon": 13.4158389}, {"type": "node", "id": 10562210602, "lat": 52.6035057, "lon": 13.4158751}, {"type": "node", "id": 10562210603, "lat": 52.6034246, "lon": 13.4160393}, {"type": "node", "id": 10562210607, "lat": 52.6032968, "lon": 13.4165858}, {"type": "node", "id": 10564959156, "lat": 52.6047559, "lon": 13.4151408}, {"type": "node", "id": 10565057053, "lat": 52.605144, "lon": 13.428352}, {"type": "node", "id": 10565057054, "lat": 52.6051737, "lon": 13.428291}, {"type": "node", "id": 10565057055, "lat": 52.6052649, "lon": 13.4284023}, {"type": "node", "id": 10565057056, "lat": 52.6056514, "lon": 13.428574}, {"type": "node", "id": 10565057057, "lat": 52.6056771, "lon": 13.4285177}, {"type": "node", "id": 10565057058, "lat": 52.6063921, "lon": 13.4288308}, {"type": "node", "id": 10565057059, "lat": 52.6064892, "lon": 13.4289608}, {"type": "node", "id": 10565057060, "lat": 52.6068819, "lon": 13.4281419}, {"type": "node", "id": 10565057061, "lat": 52.6067151, "lon": 13.4280691}, {"type": "node", "id": 10565057062, "lat": 52.6064259, "lon": 13.4286766}, {"type": "node", "id": 10565057063, "lat": 52.603557, "lon": 13.4274314}, {"type": "node", "id": 10565057064, "lat": 52.603454, "lon": 13.4276667}, {"type": "node", "id": 10565057065, "lat": 52.6038938, "lon": 13.4281696}, {"type": "node", "id": 10565057066, "lat": 52.60404, "lon": 13.4278706}, {"type": "node", "id": 10816485335, "lat": 52.6138225, "lon": 13.4216288}, {"type": "node", "id": 10970697739, "lat": 52.5979033, "lon": 13.4346579}, {"type": "node", "id": 10970697740, "lat": 52.5978854, "lon": 13.4346653}, {"type": "node", "id": 10970697741, "lat": 52.5978621, "lon": 13.4345761}, {"type": "node", "id": 10970697742, "lat": 52.5978984, "lon": 13.4343119}, {"type": "node", "id": 10970697743, "lat": 52.5979489, "lon": 13.434328}, {"type": "node", "id": 12027518071, "lat": 52.6050422, "lon": 13.4223135}, {"type": "node", "id": 12143414007, "lat": 52.608038, "lon": 13.4407391}, {"type": "node", "id": 12206871695, "lat": 52.6037327, "lon": 13.4225906, "tags": {"addr:city": "Berlin", "addr:housenumber": "51A", "addr:postcode": "13127", "addr:street": "Chartronstra\u00dfe", "amenity": "doctors", "healthcare": "doctor", "healthcare:speciality": "general;homeopathy", "name": "Dr. med. Petra Stalp", "website": "https://www.arzt-natur.de/", "wheelchair": "limited"}}, {"type": "node", "id": 12400000390, "lat": 52.6053249, "lon": 13.4332194}, {"type": "node", "id": 12400000574, "lat": 52.606548, "lon": 13.4348253}, {"type": "node", "id": 12400000692, "lat": 52.6127233, "lon": 13.4252911}, {"type": "node", "id": 12400000700, "lat": 52.6141983, "lon": 13.4229682}, {"type": "node", "id": 12400000701, "lat": 52.6142322, "lon": 13.4230131}, {"type": "node", "id": 12400000781, "lat": 52.606874, "lon": 13.4355903}, {"type": "node", "id": 12422902211, "lat": 52.612039, "lon": 13.4344649, "tags": {"addr:city": "Berlin", "addr:country": "DE", "addr:housenumber": "37", "addr:postcode": "13127", "addr:street": "Hauptstra\u00dfe", "addr:suburb": "Franz\u00f6sisch Buchholz", "brand": "ALDI Nord", "brand:wikidata": "Q41171373", "brand:wikipedia": "en:Aldi", "name": "Aldi", "opening_hours": "Mo-Sa 07:00-21:00", "shop": "supermarket", "source": "Geoportal Berlin / Hauskoordinaten", "wheelchair": "yes"}}, {"type": "node", "id": 12422993061, "lat": 52.6130055, "lon": 13.4253899}, {"type": "node", "id": 12422993062, "lat": 52.6130626, "lon": 13.4254139}, {"type": "node", "id": 12423091241, "lat": 52.612715, "lon": 13.4252881}, {"type": "way", "id": 52523267, "nodes": [667467700, 8809542340, 8809542341, 8809542342, 667467681, 667467668, 667467688, 667467687, 667467692, 667467691, 667467685, 667467696, 667467698, 667467700], "tags": {"addr:city": "Berlin", "addr:country": "DE", "addr:housenumber": "77", "addr:postcode": "13127", "addr:street": "Pasewalker Stra\u00dfe", "addr:suburb": "Franz\u00f6sisch Buchholz", "brand": "Lidl", "brand:wikidata": "Q151954", "brand:wikipedia": "en:Lidl", "building": "retail", "check_date": "2024-06-13", "check_date:opening_hours": "2021-03-02", "name": "Lidl", "opening_hours": "Mo-Sa 08:00-21:00", "shop": "supermarket", "source": "Geoportal Berlin / Hauskoordinaten", "wheelchair": "limited"}}, {"type": "way", "id": 59209119, "nodes": [734399123, 734399130, 734399139, 734399149, 2960563067, 10816485335, 734399164, 12400000700, 12400000701, 734399169, 734399123]}, {"type": "way", "id": 59211677, "nodes": [734437880, 340254201, 340254202, 3070074817, 3070074804, 734419835, 3070074800, 3070074798, 340254203, 3380966984, 2960528275, 2960528226, 734313561, 734313554, 1725572798, 2476929015, 1725572799, 734313550, 3058798406, 3058798401, 3058798400, 3058798403, 8808872157, 734437880]}, {"type": "way", "id": 78242289, "nodes": [9838099600, 9838099599, 9838099598, 9838099597, 4502640445, 918856404, 4502640447, 9838099596, 918856396, 9838099595, 4502640446, 9838099594, 9838099593, 9838099592, 918856403, 9838099591, 9838099590, 9838099589, 9838099588, 9838099587, 692735872, 9838099586, 4502640448, 9838099585, 918856406, 9838099584, 918856397, 9838099600], "tags": {"access": "yes", "leisure": "playground"}}, {"type": "way", "id": 146979096, "nodes": [1601723181, 1601723188, 1601723184, 1601723159, 1601723178, 1601723156, 5401847269, 5401847270, 1601723181], "tags": {"brand": "Netto Marken-Discount", "brand:wikidata": "Q879858", "brand:wikipedia": "de:Netto Marken-Discount", "building": "yes", "check_date": "2024-06-15", "name": "Netto Marken-Discount", "shop": "supermarket", "website": "https://www.netto-online.de/filialen/Berlin-Pankow/Blankenburger-Str-145/7448/"}}, {"type": "way", "id": 146979103, "nodes": [1601723191, 1601723192, 1601723190, 1601723189, 1601723191], "tags": {"access": "yes", "leisure": "playground"}}, {"type": "way", "id": 160464960, "nodes": [1725221373, 1725221370, 1725221368, 1725221373], "tags": {"access": "yes", "leisure": "playground"}}, {"type": "way", "id": 188985940, "nodes": [1996221704, 1996221705, 10562210560, 10562210559, 10562210558, 1996221704], "tags": {"access": "yes", "leisure": "playground", "wheelchair": "yes"}}, {"type": "way", "id": 188985941, "nodes": [1996221710, 1996221714, 1996221716, 1996221710], "tags": {"access": "yes", "leisure": "playground"}}, {"type": "way", "id": 191472029, "nodes": [2020456842, 2020456841, 2020456838, 2020456839, 2020456840, 2020456842], "tags": {"leisure": "park", "name": "Pfarrer-Hurtienne-Platz", "name:etymology:wikidata": "Q104502018"}}, {"type": "way", "id": 215614827, "nodes": [2250918582, 2250918589, 2250918587, 2250918584, 2250918582], "tags": {"addr:city": "Berlin", "addr:country": "DE", "addr:housenumber": "74", "addr:postcode": "13127", "addr:street": "Rosenthaler Weg", "addr:suburb": "Franz\u00f6sisch Buchholz", "brand": "REWE", "brand:wikidata": "Q16968817", "brand:wikipedia": "de:Rewe", "building": "retail", "building:levels": "1", "check_date:opening_hours": "2025-05-09", "name": "REWE", "opening_hours": "Mo-Sa 07:00-22:00", "roof:shape": "flat", "shop": "supermarket", "website": "https://www.rewe.de/", "wheelchair": "yes"}}, {"type": "way", "id": 216737262, "nodes": [2261357578, 2261357582, 2261357583, 2261357544, 2261357541, 2261357547, 2261357590, 2261357542, 2261357591, 2261357572, 2261357587, 2261357563, 2261357569, 2261357578], "tags": {"access": "yes", "leisure": "playground", "protection_title": "Gesch\u00fctzte Gr\u00fcnanlage", "wheelchair": "limited"}}, {"type": "way", "id": 238041970, "nodes": [2459097504, 2459097505, 2459097506, 2459097507, 2459097504], "tags": {"access": "yes", "leisure": "playground"}}, {"type": "way", "id": 238041980, "nodes": [734319479, 2459097534, 2459097535, 734319475, 734319479], "tags": {"leisure": "pitch", "lit": "no", "sport": "skateboard", "surface": "asphalt"}}, {"type": "way", "id": 238081409, "nodes": [2459448648, 2459448649, 2459448650, 2459448651, 2459448648], "tags": {"access": "yes", "leisure": "playground"}}, {"type": "way", "id": 238428388, "nodes": [2462694296, 2462694294, 2462694292, 8808872070, 8808872071, 8808872072, 8808872073, 2462694305, 2462694318, 8808872074, 8808872069, 8808872068, 2462694346, 2462694364, 8808872067, 8808872066, 8808872051, 8808872052, 8808872065, 2462694351, 8808872053, 8808872054, 8808872057, 8808872055, 8808872056, 8808872058, 8808872063, 8808872059, 8808872060, 8808872061, 8808872062, 8808872064, 8808872048, 8808872046, 8808872047, 8808872049, 8808872050, 8808872045, 2462694296], "tags": {"access": "yes", "leisure": "playground"}}, {"type": "way", "id": 238428389, "nodes": [2462694472, 2462694473, 2462694471, 2462694470, 2462694472], "tags": {"leisure": "pitch", "lit": "no", "sport": "basketball", "surface": "asphalt"}}, {"type": "way", "id": 238481668, "nodes": [2463142155, 2463142167, 2463142174, 6553305912, 6553305913, 2463142168, 2463142155], "tags": {"access": "yes", "leisure": "playground"}}, {"type": "way", "id": 239330062, "nodes": [2471255898, 2471255899, 2471255900, 5920972585, 2471255901, 2471255902, 5920970484, 2471255903, 2471255910, 2471255906, 6240379237, 6242084230, 6242084231, 6242084226, 6242084227, 6242084222, 6242084223, 6240379238, 6240379243, 6240379245, 6242084235, 6240379246, 6242084236, 6240379244, 6240379242, 6240379264, 6240379266, 6240379265, 6240379263, 6240379248, 6240379250, 6240379249, 6240379247, 6240379241, 6240379239, 6240379251, 6240379236, 2471255898], "tags": {"leisure": "park"}}, {"type": "way", "id": 239574680, "nodes": [2473522263, 2473522267, 2473522265, 2473522266, 2473522258, 2473522257, 2473522256, 2473522259, 2473522260, 2473522261, 2473522263], "tags": {"access": "private", "barrier": "fence", "collection_times": "Tu-Fr 13:00 - 18:00; Sa 11:00 - 18:00; SH Mo - Sa 11:00 - 18:00", "fence_type": "metal", "leisure": "playground", "name": "Aktivspielplatz Franz B.", "note": "f\u00fcr Kinder von 6-14 Jahre, H\u00fcttenbau, Lagerfeuer, Kochen & Backen, G\u00e4rtnern, Werkst\u00e4tten, Spiel, Theater, Feste", "phone": "+4916320119039"}}, {"type": "way", "id": 239574696, "nodes": [2473522260, 2473522262, 2473522264, 2473522261, 2473522260], "tags": {"leisure": "pitch"}}, {"type": "way", "id": 263094838, "nodes": [2687217544, 7795316979, 7795316981, 7795316929, 7795316928, 2687217544], "tags": {"leisure": "park", "protection_title": "Gesch\u00fctzte Gr\u00fcnanlage", "wheelchair": "yes"}}, {"type": "way", "id": 263094840, "nodes": [7795316940, 12027518071, 7795316986, 7795316983, 7795316980, 7795316978, 7795316974, 7795316940], "tags": {"leisure": "park", "protection_title": "Gesch\u00fctzte Gr\u00fcnanlage"}}, {"type": "way", "id": 372765705, "nodes": [3763149475, 12400000781, 3763149470, 3763144949, 12400000574, 3763149475], "tags": {"leisure": "park", "protection_title": "Gesch\u00fctzte Gr\u00fcnanlage"}}, {"type": "way", "id": 378950559, "nodes": [3823152963, 3823152959, 4215905715, 4215905714, 3823152958, 3823152962, 5401847290, 5401847289, 5401847292, 5401847291, 3823152963], "tags": {"addr:city": "Berlin", "addr:housenumber": "115A", "addr:postcode": "13127", "addr:street": "Pasewalker Stra\u00dfe", "brand": "Rewe", "brand:wikidata": "Q16968817", "brand:wikipedia": "en:REWE", "building": "retail", "building:levels": "1", "check_date:opening_hours": "2024-01-08", "name": "REWE", "opening_hours": "Mo-Sa 07:00-22:00", "roof:levels": "1", "shop": "supermarket", "wheelchair": "yes"}}, {"type": "way", "id": 437298610, "nodes": [12143414007, 4351191411, 4351191412, 4351191413, 4351191414, 12143414007], "tags": {"access": "yes", "leisure": "playground", "protection_title": "Gesch\u00fctzte Gr\u00fcnanlage"}}, {"type": "way", "id": 472524957, "nodes": [4667158127, 4667158126, 4667158124, 4667158123, 4667158122, 4667158121, 4667158117, 8809470717, 4539629822, 4667158127], "tags": {"leisure": "park", "name": "Viktoriapark", "name:etymology:wikidata": "Q116728", "name:etymology:wikipedia": "de:Victoria von Gro\u00dfbritannien und Irland (1840\u20131901)", "natural": "wood", "postal_code": "13127", "protection_title": "Gesch\u00fctzte Gr\u00fcnanlage"}}, {"type": "way", "id": 492939799, "nodes": [4849042048, 4849042049, 4849042050, 4849042051, 4849042052, 4849042053, 4849042054, 4849042055, 4849042056, 4849042057, 4849042058, 4849042059, 4849042060, 4849042061, 4849042048], "tags": {"leisure": "park", "name": "Buchholzer Feld", "surface": "grass_paver"}}, {"type": "way", "id": 590940603, "nodes": [5641236708, 6707901609, 5641236710, 5641236711, 6707901613, 6707901614, 5641236712, 5641236713, 6709537724, 5641236708], "tags": {"access": "yes", "construction": "playground", "leisure": "playground"}}, {"type": "way", "id": 594349719, "nodes": [5059736727, 5667807902, 5667807916, 5667807915, 5667807914, 5667807912, 5667807911, 5667807910, 9026237101, 9026237102, 3763144935, 5059736727], "tags": {"access": "yes", "construction": "playground", "leisure": "playground"}}, {"type": "way", "id": 617656206, "nodes": [5838568145, 3876303939, 5838568166, 6707901612, 5838568144, 5838568143, 5641236712, 6707901614, 5838568141, 6707901611, 5838568140, 5838568139, 5838570818, 5838568138, 5838568137, 5838568158, 5838568156, 5838568157, 5838568162, 5838568154, 5838568153, 5838568155, 275532432, 5838568152, 5838568146, 5838568145], "tags": {"leisure": "park"}}, {"type": "way", "id": 617656629, "nodes": [3876303917, 5838570824, 5838570823, 5838570822, 5838570825, 1146780355, 5838570826, 5838570827, 5838570830, 5838570829, 5838570831, 5838570828, 5838570835, 5838570836, 5838568158, 5838568137, 5838568138, 5838570818, 7037249295, 5838570817, 3876303929, 3876303928, 5838568136, 3876303925, 5885099582, 3876303921, 3876303917], "tags": {"leisure": "park"}}, {"type": "way", "id": 617657824, "nodes": [5838581270, 5838581268, 3876303946, 3876303944, 3876303941, 3876303939, 5838568145, 5838581274, 5838581273, 275532434, 5838581272, 5838581271, 275532435, 5838581269, 5838581270], "tags": {"leisure": "park"}}, {"type": "way", "id": 623130292, "nodes": [3876303917, 5885099583, 5885099581, 5885104285, 5885103976, 5885099580, 5838570824, 3876303917], "tags": {"leisure": "park"}}, {"type": "way", "id": 627202768, "nodes": [5920970483, 5920970482, 5920970481, 5920970480, 5920970483], "tags": {"leisure": "park"}}, {"type": "way", "id": 627202771, "nodes": [5920972603, 5920972602, 5920972601, 5920972600, 5920972599, 5920972598, 2960523365, 2960524158, 6492170806, 6492170807, 5920972603]}, {"type": "way", "id": 666523696, "nodes": [6240379252, 6240379253, 6240379254, 6240379255, 6240379252], "tags": {"access": "yes", "leisure": "playground", "surface": "sand"}}, {"type": "way", "id": 691079219, "nodes": [3356517767, 6484328973, 6484328972, 6484328971, 3356517765, 3356517767], "tags": {"leisure": "park"}}, {"type": "way", "id": 691079220, "nodes": [6484328977, 6484328976, 6484328975, 6484328974, 6484328977], "tags": {"leisure": "park"}}, {"type": "way", "id": 691747751, "nodes": [6492171600, 6492171599, 6492171598, 6492171597, 6492171596, 6492171595, 6492171594, 6492171588, 6492171587, 6492171586, 6492171593, 6492171592, 6492171591, 6492171590, 6492171589, 6492171585, 6492171484, 6492171483, 6492171482, 6492171481, 6492171600], "tags": {"access": "yes", "leisure": "playground"}}, {"type": "way", "id": 697604868, "nodes": [6551373574, 12422993061, 6551373573, 6551373572, 8808872043, 2464217875, 2464217905, 12423091241, 12400000692, 6551373574], "tags": {"leisure": "park"}}, {"type": "way", "id": 697604869, "nodes": [6551373578, 6551373577, 6551373576, 12422993062, 6551373575, 6551373578], "tags": {"leisure": "park"}}, {"type": "way", "id": 762929302, "nodes": [3504360486, 3504360335, 7129049660, 7129049661, 7129049662, 7129049663, 7129049664, 7129049665, 3504360486], "tags": {"addr:city": "Berlin", "addr:housenumber": "62", "addr:postcode": "13127", "addr:street": "Sch\u00f6nerlinder Stra\u00dfe", "addr:suburb": "Franz\u00f6sisch Buchholz", "brand": "Penny", "brand:wikidata": "Q284688", "brand:wikipedia": "en:Penny (supermarket)", "building": "retail", "building:levels": "1", "name": "PENNY", "opening_hours": "Mo-Sa 07:00-21:00", "roof:levels": "0", "shop": "supermarket", "wheelchair": "yes"}}, {"type": "way", "id": 975395392, "nodes": [5667807867, 9026237098, 3763144937, 9026237099, 5059736727, 5667807916, 5667807915, 5667807914, 5667807912, 5667807911, 5667807910, 9026237101, 9026237102, 9026237103, 9026237104, 7886211750, 9028169998, 9026237105, 12400000390, 9026526984, 5667807867], "tags": {"leisure": "park", "protection_title": "Gesch\u00fctzte Gr\u00fcnanlage"}}, {"type": "way", "id": 1132749220, "nodes": [10562095632, 10562095631, 10562095630, 7795317123, 7795317122, 7795317118, 10564959156, 10562095632], "tags": {"leisure": "park", "wheelchair": "yes"}}, {"type": "way", "id": 1132758002, "nodes": [10562210566, 10562210565, 10562210564, 10562210563, 10562210562, 10562210570, 10562210567, 10562210561, 10562210566], "tags": {"leisure": "park", "protection_title": "Gesch\u00fctzte Gr\u00fcnanlage"}}, {"type": "way", "id": 1132758006, "nodes": [10562210603, 10562210602, 10562210601, 10562210600, 10562210599, 10562210598, 10562210597, 10562210596, 10562210595, 10562210594, 10562210593, 10562210603], "tags": {"access": "yes", "leisure": "playground", "wheelchair": "limited"}}, {"type": "way", "id": 1132758007, "nodes": [7795317116, 10562210607, 7795255823, 7795317117, 7795317116], "tags": {"leisure": "park", "protection_title": "Gesch\u00fctzte Gr\u00fcnanlage", "wheelchair": "yes"}}, {"type": "way", "id": 1133138787, "nodes": [10565057066, 10565057065, 10565057064, 10565057063, 10565057062, 10565057061, 10565057060, 10565057059, 10565057058, 2145067365, 10565057057, 10565057056, 10565057055, 10565057054, 10565057053, 10565057066], "tags": {"leisure": "park"}}, {"type": "way", "id": 1181318800, "nodes": [10970697743, 10970697742, 10970697741, 10970697740, 10970697739, 10970697743], "tags": {"access": "private", "leisure": "playground"}}, {"type": "relation", "id": 3616138, "members": [{"type": "way", "ref": 59209119, "role": "outer"}, {"type": "way", "ref": 238428389, "role": "inner"}], "tags": {"leisure": "park", "protection_title": "Gesch\u00fctzte Gr\u00fcnanlage", "type": "multipolygon"}}, {"type": "relation", "id": 3616139, "members": [{"type": "way", "ref": 59211677, "role": "outer"}, {"type": "way", "ref": 239574696, "role": "inner"}, {"type": "way", "ref": 238041980, "role": "inner"}], "tags": {"leisure": "park", "protection_title": "Gesch\u00fctzte Gr\u00fcnanlage", "type": "multipolygon"}}, {"type": "relation", "id": 9613991, "members": [{"type": "way", "ref": 627202771, "role": "outer"}, {"type": "way", "ref": 691747751, "role": "inner"}], "tags": {"leisure": "park", "type": "multipolygon"}}]}