{"version": 0.6, "generator": "Overpass API 0.7.62.7 375dc00a", "osm3s": {"timestamp_osm_base": "2025-08-05T15:03:00Z", "copyright": "The data included in this document is from www.openstreetmap.org. The data is made available under ODbL."}, "elements": [{"type": "node", "id": 34556825, "lat": 52.4096331, "lon": 13.6640188}, {"type": "node", "id": 34556826, "lat": 52.4098167, "lon": 13.6641262}, {"type": "node", "id": 34556827, "lat": 52.4099622, "lon": 13.6649227}, {"type": "node", "id": 297453662, "lat": 52.4094563, "lon": 13.6636724}, {"type": "node", "id": 297453675, "lat": 52.4099192, "lon": 13.6631799}, {"type": "node", "id": 297453687, "lat": 52.4102394, "lon": 13.6646204}, {"type": "node", "id": 297453872, "lat": 52.409619, "lon": 13.6627277}, {"type": "node", "id": 297453969, "lat": 52.4095367, "lon": 13.6638066}, {"type": "node", "id": 297453970, "lat": 52.4093378, "lon": 13.6635254}, {"type": "node", "id": 297453972, "lat": 52.4090928, "lon": 13.6635902}, {"type": "node", "id": 297454293, "lat": 52.4095657, "lon": 13.6637904}, {"type": "node", "id": 388520288, "lat": 52.3898738, "lon": 13.6507094, "tags": {"amenity": "fast_food"}}, {"type": "node", "id": 540785590, "lat": 52.428642, "lon": 13.6830998}, {"type": "node", "id": 540785595, "lat": 52.4287034, "lon": 13.6828566}, {"type": "node", "id": 540785601, "lat": 52.4287838, "lon": 13.682911}, {"type": "node", "id": 540785608, "lat": 52.4288352, "lon": 13.6827077}, {"type": "node", "id": 540785615, "lat": 52.4288986, "lon": 13.6832735}, {"type": "node", "id": 540785623, "lat": 52.4290115, "lon": 13.6828269}, {"type": "node", "id": 651853538, "lat": 52.4149873, "lon": 13.658193}, {"type": "node", "id": 651853540, "lat": 52.4150697, "lon": 13.6581805}, {"type": "node", "id": 651853542, "lat": 52.4150291, "lon": 13.6582546}, {"type": "node", "id": 651853548, "lat": 52.4148095, "lon": 13.6583668}, {"type": "node", "id": 651853549, "lat": 52.414877, "lon": 13.6582463}, {"type": "node", "id": 651853551, "lat": 52.4149304, "lon": 13.658324}, {"type": "node", "id": 651853555, "lat": 52.414566, "lon": 13.6584395}, {"type": "node", "id": 651853560, "lat": 52.4151533, "lon": 13.6584372}, {"type": "node", "id": 651853561, "lat": 52.4151946, "lon": 13.6583654}, {"type": "node", "id": 651853564, "lat": 52.4153016, "lon": 13.6586517}, {"type": "node", "id": 651853580, "lat": 52.4152003, "lon": 13.6588348}, {"type": "node", "id": 651853582, "lat": 52.4151505, "lon": 13.6587625}, {"type": "node", "id": 651853584, "lat": 52.4151202, "lon": 13.6588195}, {"type": "node", "id": 651853591, "lat": 52.4147105, "lon": 13.6586486}, {"type": "node", "id": 651853593, "lat": 52.4144359, "lon": 13.6591588}, {"type": "node", "id": 779718244, "lat": 52.4095051, "lon": 13.6636286}, {"type": "node", "id": 779718254, "lat": 52.4101099, "lon": 13.6648685}, {"type": "node", "id": 779718273, "lat": 52.4102694, "lon": 13.6645624}, {"type": "node", "id": 779718281, "lat": 52.4100496, "lon": 13.6650824}, {"type": "node", "id": 1323737289, "lat": 52.4107466, "lon": 13.6650888, "tags": {"addr:city": "Berlin", "addr:country": "DE", "addr:housenumber": "1", "addr:postcode": "12559", "addr:street": "Gosener Damm", "addr:suburb": "M\u00fcggelheim", "amenity": "fast_food", "cuisine": "kebab;german;regional", "indoor_seating": "yes", "name": "Safko Cafe Bistro No. 1", "outdoor_seating": "yes", "toilets:wheelchair": "yes", "wheelchair": "yes"}}, {"type": "node", "id": 1671025593, "lat": 52.4150236, "lon": 13.6572813, "tags": {"addr:city": "Berlin", "addr:housenumber": "235", "addr:postcode": "12559", "addr:street": "M\u00fcggelheimer Damm", "addr:suburb": "M\u00fcggelheim", "amenity": "restaurant", "contact:website": "https://www.restaurant-noki.de/", "cuisine": "asian", "name": "Noki Asiatische Spezialit\u00e4ten", "opening_hours": "Tu-Su 11:30-20:00", "phone": "+49 30 61795088", "toilets:wheelchair": "yes", "wheelchair": "yes"}}, {"type": "node", "id": 2006716280, "lat": 52.4289303, "lon": 13.6800597, "tags": {"addr:city": "Berlin", "addr:country": "DE", "addr:housenumber": "7", "addr:postcode": "12559", "addr:street": "Neuhelgol\u00e4nder Weg", "addr:suburb": "M\u00fcggelheim", "amenity": "restaurant", "contact:facebook": "https://www.facebook.com/Trattoria-di-Mare-kleiner-M%C3%BCggelsee-NEU-553887835021073/", "cuisine": "italian", "diet:vegetarian": "yes", "indoor_seating": "yes", "name": "Trattoria di Mare", "opening_hours": "Mar-Sep Mo-Su 11:00-23:00; Oct-Feb Tu-Su 11:00-23:00", "outdoor_seating": "yes", "smoking": "outside", "toilets:wheelchair": "yes", "wheelchair": "yes"}}, {"type": "node", "id": 2227908330, "lat": 52.4097273, "lon": 13.6638342}, {"type": "node", "id": 2227908332, "lat": 52.4099342, "lon": 13.6640389}, {"type": "node", "id": 2227908333, "lat": 52.4098899, "lon": 13.6643687}, {"type": "node", "id": 2227908334, "lat": 52.4099874, "lon": 13.6646864}, {"type": "node", "id": 2819230883, "lat": 52.4101318, "lon": 13.6642951}, {"type": "node", "id": 2844624281, "lat": 52.4145485, "lon": 13.6584719}, {"type": "node", "id": 3320164607, "lat": 52.4151232, "lon": 13.6500575}, {"type": "node", "id": 3320164611, "lat": 52.415147, "lon": 13.6499388}, {"type": "node", "id": 3320164622, "lat": 52.4156961, "lon": 13.6503823}, {"type": "node", "id": 3320164626, "lat": 52.4158266, "lon": 13.64972}, {"type": "node", "id": 4396132791, "lat": 52.4111261, "lon": 13.6632348, "tags": {"addr:city": "Berlin", "addr:housenumber": "8", "addr:postcode": "12559", "addr:street": "Alt-M\u00fcggelheim", "amenity": "doctors", "healthcare": "doctor", "healthcare:speciality": "general", "name": "Hausarztpraxis", "opening_hours": "Mo,Fr 07:00-12:00; Tu,Th 14:00-19:00", "operator": "Dipl. Med. Ursula Vogt", "phone": "+49 30 6598600"}}, {"type": "node", "id": 4396158591, "lat": 52.4120061, "lon": 13.6631749, "tags": {"addr:housenumber": "15", "addr:street": "Alt-M\u00fcggelheim", "amenity": "restaurant", "diet:vegetarian": "yes", "indoor_seating": "yes", "name": "Gasthaus M\u00fcggelheim", "opening_hours": "Tu-Su 12:00-21:00; Fr,Sa 12:00-22:00", "outdoor_seating": "yes", "smoking": "outside", "website": "http://www.gasthaus-mueggelheim.de/", "wheelchair": "no", "wheelchair:description": "4 Stufen am Eingang"}}, {"type": "node", "id": 4396174589, "lat": 52.4121302, "lon": 13.6634088, "tags": {"addr:housenumber": "2", "addr:street": "Odernheimer Stra\u00dfe", "amenity": "cafe", "name": "Eisdiele M\u00fcggelheim", "opening_hours": "Tu-Sa 09:00-18:00; Su 13:00-18:00"}}, {"type": "node", "id": 4396185289, "lat": 52.4123827, "lon": 13.6623192, "tags": {"addr:housenumber": "17", "addr:street": "Alt-M\u00fcggelheim", "amenity": "doctors", "healthcare": "doctor", "healthcare:speciality": "general", "name": "Hausarztpraxis Dr. Marion Tillig", "opening_hours": "Tu,Fr 08:00-12:00; Mo,Th 13:00-19:00; We 08:00-10:00", "phone": "+49 30 5353550", "wheelchair": "yes"}}, {"type": "node", "id": 4396185290, "lat": 52.4123495, "lon": 13.6623835, "tags": {"addr:housenumber": "17", "addr:street": "Alt-M\u00fcggelheim", "amenity": "dentist", "healthcare": "dentist", "name": "Zahn\u00e4rztinnen Birgit u. Alexandra Sch\u00fcmberg", "opening_hours": "Mo,Th 07:00-20:00; Tu 08:00-20:00; We 13:00-20:00; Fr 08:00-12:00", "phone": "+49 3065940909", "wheelchair": "yes"}}, {"type": "node", "id": 4396193589, "lat": 52.4125675, "lon": 13.660795, "tags": {"amenity": "pharmacy", "contact:website": "https://mika-apotheken.de/", "healthcare": "pharmacy", "name": "M\u00fcggel-Apotheke", "opening_hours": "Mo-Fr 08:00-18:30; Sa 08:00-13:00", "wheelchair": "yes"}}, {"type": "node", "id": 4614343608, "lat": 52.4118796, "lon": 13.6604297}, {"type": "node", "id": 4614343612, "lat": 52.4120372, "lon": 13.6606485}, {"type": "node", "id": 4614343613, "lat": 52.412026, "lon": 13.660697}, {"type": "node", "id": 4614343614, "lat": 52.4120079, "lon": 13.6607425}, {"type": "node", "id": 4614343615, "lat": 52.4119756, "lon": 13.6607531}, {"type": "node", "id": 4614343616, "lat": 52.411944, "lon": 13.6607396}, {"type": "node", "id": 4614343617, "lat": 52.411927, "lon": 13.6607112}, {"type": "node", "id": 4614343618, "lat": 52.4118968, "lon": 13.6606383}, {"type": "node", "id": 4614343619, "lat": 52.4118561, "lon": 13.6606026}, {"type": "node", "id": 4614343620, "lat": 52.4118493, "lon": 13.6605193}, {"type": "node", "id": 4614343621, "lat": 52.4118651, "lon": 13.6604439}, {"type": "node", "id": 4614343622, "lat": 52.4119075, "lon": 13.6604275}, {"type": "node", "id": 4614343623, "lat": 52.4119526, "lon": 13.6604762}, {"type": "node", "id": 4614343624, "lat": 52.4120228, "lon": 13.6605863}, {"type": "node", "id": 4614354878, "lat": 52.409827, "lon": 13.6639137}, {"type": "node", "id": 5060341526, "lat": 52.414635, "lon": 13.658789}, {"type": "node", "id": 5060341542, "lat": 52.4149102, "lon": 13.6582935}, {"type": "node", "id": 5060341544, "lat": 52.4149663, "lon": 13.6582306}, {"type": "node", "id": 5060341545, "lat": 52.4149747, "lon": 13.6582447}, {"type": "node", "id": 5060341546, "lat": 52.4148129, "lon": 13.6583938}, {"type": "node", "id": 5060341547, "lat": 52.4148873, "lon": 13.658506}, {"type": "node", "id": 5060341548, "lat": 52.4148964, "lon": 13.6584919}, {"type": "node", "id": 5486310639, "lat": 52.4147703, "lon": 13.6539976, "tags": {"leisure": "playground", "playground": "sandpit"}}, {"type": "node", "id": 5615708722, "lat": 52.4100801, "lon": 13.6650116}, {"type": "node", "id": 5615708725, "lat": 52.4100231, "lon": 13.6647995}, {"type": "node", "id": 5615708731, "lat": 52.4101959, "lon": 13.6644236}, {"type": "node", "id": 7367465847, "lat": 52.4135336, "lon": 13.6567887}, {"type": "node", "id": 7367465848, "lat": 52.4135788, "lon": 13.656856}, {"type": "node", "id": 7367465849, "lat": 52.4135452, "lon": 13.6569166}, {"type": "node", "id": 7367465850, "lat": 52.4136283, "lon": 13.6570404}, {"type": "node", "id": 7367465851, "lat": 52.4136619, "lon": 13.6569798}, {"type": "node", "id": 7367465852, "lat": 52.413899, "lon": 13.6573329}, {"type": "node", "id": 7367465853, "lat": 52.4140819, "lon": 13.6570029}, {"type": "node", "id": 7367465854, "lat": 52.4138976, "lon": 13.6567284}, {"type": "node", "id": 7367465855, "lat": 52.4138734, "lon": 13.6567721}, {"type": "node", "id": 7367465856, "lat": 52.4136923, "lon": 13.6565024}, {"type": "node", "id": 7367499433, "lat": 52.414224, "lon": 13.6588522}, {"type": "node", "id": 7367499434, "lat": 52.4144811, "lon": 13.6583744}, {"type": "node", "id": 7368477646, "lat": 52.4138988, "lon": 13.6581226}, {"type": "node", "id": 7368477647, "lat": 52.4138741, "lon": 13.6580868}, {"type": "node", "id": 7368477648, "lat": 52.413908, "lon": 13.6580239}, {"type": "node", "id": 7368477650, "lat": 52.4138553, "lon": 13.6582033}, {"type": "node", "id": 7385494672, "lat": 52.4139444, "lon": 13.6583324}, {"type": "node", "id": 7385494673, "lat": 52.4140218, "lon": 13.6581888}, {"type": "node", "id": 8641670784, "lat": 52.4097105, "lon": 13.6640803}, {"type": "node", "id": 8641676101, "lat": 52.4097929, "lon": 13.6641159}, {"type": "node", "id": 8641676103, "lat": 52.4097512, "lon": 13.6640938}, {"type": "node", "id": 8641676104, "lat": 52.4097589, "lon": 13.6641067}, {"type": "node", "id": 8641676107, "lat": 52.4096691, "lon": 13.6640545}, {"type": "node", "id": 8865703416, "lat": 52.4237955, "lon": 13.704966, "tags": {"addr:city": "Berlin", "addr:country": "DE", "addr:housenumber": "22", "addr:postcode": "12559", "addr:street": "Spreestra\u00dfe", "addr:suburb": "M\u00fcggelheim", "amenity": "cafe", "name": "Hollands Pannekoekhuis", "opening_hours": "Mo, Fr-Su 11:00-17:00"}}, {"type": "node", "id": 9573416549, "lat": 52.4095536, "lon": 13.6638752}, {"type": "node", "id": 9573416552, "lat": 52.409993, "lon": 13.6648605, "tags": {"barrier": "gate"}}, {"type": "node", "id": 9573416556, "lat": 52.4094834, "lon": 13.6636873}, {"type": "node", "id": 9573416557, "lat": 52.4093241, "lon": 13.6635516}, {"type": "node", "id": 9978327974, "lat": 52.4123699, "lon": 13.6599861}, {"type": "node", "id": 9978327980, "lat": 52.4127196, "lon": 13.6603378}, {"type": "node", "id": 9978327981, "lat": 52.4126766, "lon": 13.6602732}, {"type": "node", "id": 9978327982, "lat": 52.4127625, "lon": 13.6601199}, {"type": "node", "id": 9978327983, "lat": 52.4128054, "lon": 13.6601845}, {"type": "node", "id": 9978327984, "lat": 52.41246, "lon": 13.6601178}, {"type": "node", "id": 9978327985, "lat": 52.4123437, "lon": 13.6599477}, {"type": "node", "id": 9978327986, "lat": 52.4123923, "lon": 13.6598583}, {"type": "node", "id": 9978327987, "lat": 52.4125087, "lon": 13.6600284}, {"type": "node", "id": 10711713782, "lat": 52.4153316, "lon": 13.6501684}, {"type": "node", "id": 11139612923, "lat": 52.4134415, "lon": 13.6608447, "tags": {"addr:housenumber": "267", "addr:street": "M\u00fcggelheimer Damm", "amenity": "restaurant", "name": "Down Town Garage, American Diner", "phone": "030  516 32 526", "website": "http://www.downtowngarage.de"}}, {"type": "node", "id": 11143206752, "lat": 52.4108207, "lon": 13.6567588, "tags": {"addr:city": "Berlin", "addr:housenumber": "33", "addr:postcode": "12559", "addr:street": "Alsenzer Weg", "healthcare": "physiotherapist", "name": "Sarah Griechen - Aktiv. Beweglich. Fit.", "phone": "+49 1798866101", "website": "https://aktiv-beweglich-fit.de/"}}, {"type": "node", "id": 11358292518, "lat": 52.4118529, "lon": 13.6604712}, {"type": "node", "id": 11358292520, "lat": 52.4119881, "lon": 13.6605162}, {"type": "node", "id": 11358292521, "lat": 52.411933, "lon": 13.6604496}, {"type": "node", "id": 11358292522, "lat": 52.4119735, "lon": 13.6604982}, {"type": "node", "id": 12053000321, "lat": 52.4137609, "lon": 13.6641597}, {"type": "node", "id": 12053000322, "lat": 52.4137323, "lon": 13.6642785}, {"type": "node", "id": 12053000323, "lat": 52.4137521, "lon": 13.6644332}, {"type": "node", "id": 12053000324, "lat": 52.4140012, "lon": 13.6646271}, {"type": "node", "id": 12053000325, "lat": 52.4141287, "lon": 13.6646051}, {"type": "node", "id": 12053000326, "lat": 52.4141971, "lon": 13.6645007}, {"type": "node", "id": 12053000327, "lat": 52.4142076, "lon": 13.6643553}, {"type": "node", "id": 12053000328, "lat": 52.4141921, "lon": 13.6641881}, {"type": "node", "id": 12053000329, "lat": 52.414102, "lon": 13.6640486}, {"type": "node", "id": 12053000330, "lat": 52.4139499, "lon": 13.6640576}, {"type": "way", "id": 43165685, "nodes": [540785615, 540785623, 540785608, 540785601, 540785595, 540785590, 540785615], "tags": {"addr:city": "Berlin", "addr:country": "DE", "addr:housenumber": "1", "addr:postcode": "12559", "addr:street": "Neuhelgol\u00e4nder Weg", "addr:suburb": "M\u00fcggelheim", "amenity": "restaurant", "building": "yes", "building:levels": "2", "check_date:opening_hours": "2020-10-25", "cuisine": "german", "diet:vegetarian": "yes", "email": "mail@neu-helgoland.de", "name": "Hotel & Restaurant Neu-Helgoland", "opening_hours": "Mo-Su 11:00-21:00", "operator": "Dagmar Tabbert", "phone": "+49 30 6598247", "toilets:wheelchair": "yes", "website": "https://www.neu-helgoland.de/", "wheelchair": "yes"}}, {"type": "way", "id": 51096823, "nodes": [651853538, 651853542, 651853540, 651853561, 651853560, 651853564, 651853580, 651853582, 651853584, 5060341548, 5060341547, 5060341546, 651853548, 651853549, 5060341542, 651853551, 5060341545, 5060341544, 651853538], "tags": {"brand": "NORMA", "brand:wikidata": "Q450180", "brand:wikipedia": "de:Norma (Handelskette)", "building": "retail", "building:levels": "1", "name": "NORMA", "opening_hours": "Mo-Sa 08:00-20:00; PH off", "roof:levels": "1", "roof:shape": "gabled", "shop": "supermarket", "wheelchair": "yes"}}, {"type": "way", "id": 51096824, "nodes": [651853555, 651853591, 5060341526, 651853593, 7367499433, 7367499434, 2844624281, 651853555], "tags": {"addr:city": "Berlin", "addr:country": "DE", "addr:floor": "0", "addr:housenumber": "257", "addr:postcode": "12559", "addr:street": "M\u00fcggelheimer Damm", "addr:suburb": "M\u00fcggelheim", "brand": "Netto Marken-Discount", "brand:wikidata": "Q879858", "brand:wikipedia": "en:Netto Marken-Discount", "building": "retail", "building:levels": "1", "check_date": "2023-08-01", "name": "Netto Marken-Discount", "opening_hours": "Mo-Sa 07:00-21:00", "organic": "yes", "payment:american_express": "yes", "payment:apple_pay": "yes", "payment:diners_club": "yes", "payment:discover_card": "yes", "payment:girocard": "yes", "payment:google_pay": "yes", "payment:maestro": "yes", "payment:mastercard": "yes", "payment:v_pay": "yes", "payment:visa": "yes", "roof:levels": "1", "roof:shape": "gabled", "shop": "supermarket", "source": "Geoportal Berlin / Hauskoordinaten", "website": "https://www.netto-online.de/filialen/Berlin-Koepenick/Mueggelheimer-Damm-233/7475/", "wheelchair": "yes"}}, {"type": "way", "id": 62450102, "nodes": [297453872, 297453675, 779718244, 297454293, 2227908330, 4614354878, 2227908332, 2819230883, 5615708731, 779718273, 297453687, 779718254, 5615708722, 779718281, 34556827, 9573416552, 5615708725, 2227908334, 2227908333, 34556826, 8641676101, 8641676104, 8641676103, 8641670784, 8641676107, 34556825, 9573416549, 297453969, 9573416556, 297453662, 297453970, 9573416557, 297453972, 297453872], "tags": {"leisure": "park", "protection_title": "Gesch\u00fctzte Gr\u00fcnanlage"}}, {"type": "way", "id": 325347078, "nodes": [3320164626, 3320164622, 10711713782, 3320164607, 3320164611, 3320164626], "tags": {"access": "yes", "leisure": "playground", "protection_title": "Gesch\u00fctzte Gr\u00fcnanlage"}}, {"type": "way", "id": 466691528, "nodes": [4614343624, 11358292520, 11358292522, 4614343623, 11358292521, 4614343622, 4614343608, 4614343621, 11358292518, 4614343620, 4614343619, 4614343618, 4614343617, 4614343616, 4614343615, 4614343614, 4614343613, 4614343612, 4614343624], "tags": {"access": "private", "description": "Privatspielplatz", "leisure": "playground", "operator": "Privat", "playground:theme": "playground"}}, {"type": "way", "id": 788035932, "nodes": [7367465856, 7367465855, 7367465854, 7367465853, 7367465852, 7367465851, 7367465850, 7367465849, 7367465848, 7367465847, 7367465856], "tags": {"addr:housenumber": "244", "addr:postcode": "12559", "addr:street": "M\u00fcggelheimer Damm", "addr:suburb": "M\u00fcggelheim", "brand": "ALDI Nord", "brand:wikidata": "Q41171373", "building": "supermarket", "check_date:opening_hours": "2023-08-07", "name": "ALDI Nord", "opening_hours": "Mo-Sa 07:00-20:00", "shop": "supermarket", "website": "https://www.aldi-nord.de/filialen-und-oeffnungszeiten.html/l/berlin/muggelheimer-damm-244-252/3182014", "wheelchair": "yes"}}, {"type": "way", "id": 789938223, "nodes": [7368477648, 7385494673, 7385494672, 7368477650, 7368477646, 7368477647, 7368477648], "tags": {"addr:city": "Berlin", "addr:housenumber": "254", "addr:postcode": "12559", "addr:street": "M\u00fcggelheimer Damm", "amenity": "fast_food", "cuisine": "kebab;burger;pizza", "indoor_seating": "yes", "name": "M\u00fcggelheim", "opening_hours": "10:00-23:00", "outdoor_seating": "yes", "takeaway": "yes"}}, {"type": "way", "id": 1089298421, "nodes": [9978327983, 9978327982, 9978327981, 9978327980, 9978327983], "tags": {"access": "private", "leisure": "playground"}}, {"type": "way", "id": 1089298422, "nodes": [9978327987, 9978327986, 9978327985, 9978327974, 9978327984, 9978327987], "tags": {"access": "private", "leisure": "playground"}}, {"type": "way", "id": 1301293073, "nodes": [12053000321, 12053000322, 12053000323, 12053000324, 12053000325, 12053000326, 12053000327, 12053000328, 12053000329, 12053000330, 12053000321], "tags": {"access": "yes", "bicycle": "no", "dog": "no", "leisure": "playground", "protection_title": "Gesch\u00fctzte Gr\u00fcnanlage"}}]}