{"version": 0.6, "generator": "Overpass API 0.7.62.7 375dc00a", "osm3s": {"timestamp_osm_base": "2025-08-05T15:00:00Z", "copyright": "The data included in this document is from www.openstreetmap.org. The data is made available under ODbL."}, "elements": [{"type": "node", "id": 27426309, "lat": 52.3993945, "lon": 13.5666804}, {"type": "node", "id": 259595428, "lat": 52.4085632, "lon": 13.5720266}, {"type": "node", "id": 259601383, "lat": 52.4082679, "lon": 13.5722807}, {"type": "node", "id": 259601384, "lat": 52.4075761, "lon": 13.5703214}, {"type": "node", "id": 259601387, "lat": 52.4068497, "lon": 13.5708641}, {"type": "node", "id": 260598021, "lat": 52.4056367, "lon": 13.572152}, {"type": "node", "id": 260865620, "lat": 52.4124087, "lon": 13.5725538, "tags": {"amenity": "pharmacy", "contact:phone": "+49 30 67891257", "contact:website": "https://www.taut-apotheke-berlin.de/", "dispensing": "yes", "healthcare": "pharmacy", "name": "Taut-Apotheke", "opening_hours": "Mo-Fr 10:00-20:00; Sa 10:00-16:00", "wheelchair": "yes"}}, {"type": "node", "id": 260866916, "lat": 52.4029635, "lon": 13.5856652, "tags": {"amenity": "restaurant", "cuisine": "german", "name": "Dittmanns Drogerie", "wheelchair": "yes"}}, {"type": "node", "id": 260957125, "lat": 52.4080876, "lon": 13.5710689}, {"type": "node", "id": 260989382, "lat": 52.3935741, "lon": 13.5330863}, {"type": "node", "id": 260989383, "lat": 52.393579, "lon": 13.533997}, {"type": "node", "id": 260989384, "lat": 52.3940193, "lon": 13.534075}, {"type": "node", "id": 260989385, "lat": 52.394021, "lon": 13.5346219}, {"type": "node", "id": 260989460, "lat": 52.3947591, "lon": 13.5346488}, {"type": "node", "id": 262418206, "lat": 52.3873231, "lon": 13.5353999}, {"type": "node", "id": 262418207, "lat": 52.3875474, "lon": 13.5356639}, {"type": "node", "id": 262418208, "lat": 52.3877216, "lon": 13.535752}, {"type": "node", "id": 262418209, "lat": 52.3879128, "lon": 13.5357406}, {"type": "node", "id": 262418210, "lat": 52.3880699, "lon": 13.5356376}, {"type": "node", "id": 262418211, "lat": 52.3882375, "lon": 13.5354316}, {"type": "node", "id": 262418212, "lat": 52.3884156, "lon": 13.5351827}, {"type": "node", "id": 262418214, "lat": 52.3885987, "lon": 13.5348348}, {"type": "node", "id": 262418215, "lat": 52.3890039, "lon": 13.5342127}, {"type": "node", "id": 262418216, "lat": 52.3892774, "lon": 13.5339057}, {"type": "node", "id": 262418217, "lat": 52.3895163, "lon": 13.5336756}, {"type": "node", "id": 262418218, "lat": 52.3898448, "lon": 13.5334837}, {"type": "node", "id": 262418219, "lat": 52.3902997, "lon": 13.5332429}, {"type": "node", "id": 262418221, "lat": 52.3910973, "lon": 13.5331614}, {"type": "node", "id": 271460309, "lat": 52.399122, "lon": 13.5664306}, {"type": "node", "id": 271460310, "lat": 52.3990128, "lon": 13.5663546}, {"type": "node", "id": 276344490, "lat": 52.4113317, "lon": 13.5730007, "tags": {"addr:city": "Berlin", "addr:country": "DE", "addr:housenumber": "9", "addr:postcode": "12526", "addr:street": "Richterstra\u00dfe", "addr:suburb": "Bohnsdorf", "amenity": "restaurant", "cuisine": "greek", "name": "Restaurant Rhodos", "opening_hours": "Su-Th,PH 12:00-23:00, Fr,Sa 12:00-24:00", "phone": "+49 30 67689577", "website": "https://www.rhodos-berlin.de/", "wheelchair": "no"}}, {"type": "node", "id": 310400639, "lat": 52.4071143, "lon": 13.5614875}, {"type": "node", "id": 310400742, "lat": 52.4074702, "lon": 13.5643721}, {"type": "node", "id": 310401014, "lat": 52.4068313, "lon": 13.562857}, {"type": "node", "id": 310401015, "lat": 52.4068308, "lon": 13.5652403}, {"type": "node", "id": 310405038, "lat": 52.408768, "lon": 13.5725261}, {"type": "node", "id": 310405228, "lat": 52.4084292, "lon": 13.5733783}, {"type": "node", "id": 310405229, "lat": 52.4083976, "lon": 13.573001}, {"type": "node", "id": 310405230, "lat": 52.4083518, "lon": 13.5726817}, {"type": "node", "id": 310405232, "lat": 52.4081854, "lon": 13.5719147}, {"type": "node", "id": 310405252, "lat": 52.408021, "lon": 13.5714932}, {"type": "node", "id": 310405253, "lat": 52.4079228, "lon": 13.5711693}, {"type": "node", "id": 310405254, "lat": 52.4077881, "lon": 13.5708386}, {"type": "node", "id": 310406138, "lat": 52.4069335, "lon": 13.5712332}, {"type": "node", "id": 310416276, "lat": 52.4065565, "lon": 13.572349}, {"type": "node", "id": 310416277, "lat": 52.4064936, "lon": 13.57204}, {"type": "node", "id": 310416278, "lat": 52.4064308, "lon": 13.5716881}, {"type": "node", "id": 310416291, "lat": 52.4067555, "lon": 13.5733446}, {"type": "node", "id": 310416292, "lat": 52.4067083, "lon": 13.573027}, {"type": "node", "id": 310416293, "lat": 52.4066341, "lon": 13.5727349}, {"type": "node", "id": 310417011, "lat": 52.4061061, "lon": 13.5722394}, {"type": "node", "id": 310417035, "lat": 52.4058161, "lon": 13.5721505}, {"type": "node", "id": 310427561, "lat": 52.4068132, "lon": 13.571368}, {"type": "node", "id": 310427566, "lat": 52.4067506, "lon": 13.5700667}, {"type": "node", "id": 310433174, "lat": 52.4063533, "lon": 13.5715267}, {"type": "node", "id": 310433527, "lat": 52.4065487, "lon": 13.5731631}, {"type": "node", "id": 310433531, "lat": 52.4065308, "lon": 13.5734307}, {"type": "node", "id": 310433806, "lat": 52.4064427, "lon": 13.5731296}, {"type": "node", "id": 310433832, "lat": 52.4064727, "lon": 13.5727352}, {"type": "node", "id": 310433833, "lat": 52.4063665, "lon": 13.572701}, {"type": "node", "id": 310433834, "lat": 52.4063825, "lon": 13.5723499}, {"type": "node", "id": 310483322, "lat": 52.3924951, "lon": 13.5330785}, {"type": "node", "id": 310532627, "lat": 52.4074073, "lon": 13.5668436}, {"type": "node", "id": 310532760, "lat": 52.4073516, "lon": 13.5648827}, {"type": "node", "id": 310532761, "lat": 52.407527, "lon": 13.5648803}, {"type": "node", "id": 310533626, "lat": 52.4073545, "lon": 13.5656063}, {"type": "node", "id": 311488007, "lat": 52.406781, "lon": 13.5648474}, {"type": "node", "id": 311488058, "lat": 52.4068321, "lon": 13.5639945}, {"type": "node", "id": 311488073, "lat": 52.4068311, "lon": 13.5648239}, {"type": "node", "id": 412196333, "lat": 52.4123748, "lon": 13.5717456, "tags": {"addr:city": "Berlin", "addr:housenumber": "1", "addr:postcode": "12524", "addr:street": "Bruno-Taut-Stra\u00dfe", "addr:suburb": "Bohnsdorf", "brand": "Rewe", "brand:wikidata": "Q16968817", "brand:wikipedia": "en:REWE", "contact:phone": "+49 30 67891350", "contact:website": "https://www.rewe.de/marktseite/berlin-altglienicke/1350078/rewe-markt-bruno-taut-str-1/", "drink:club-mate": "retail", "internet_access": "wlan", "name": "REWE", "opening_hours": "Mo-Sa 07:00-22:00; PH off", "shop": "supermarket", "wheelchair": "yes"}}, {"type": "node", "id": 416000222, "lat": 52.4136842, "lon": 13.5706263}, {"type": "node", "id": 416000223, "lat": 52.4133618, "lon": 13.5702759}, {"type": "node", "id": 416000224, "lat": 52.4132138, "lon": 13.570642}, {"type": "node", "id": 416030917, "lat": 52.3923934, "lon": 13.5330843}, {"type": "node", "id": 416031445, "lat": 52.390459, "lon": 13.5331944}, {"type": "node", "id": 416031446, "lat": 52.3906286, "lon": 13.533109}, {"type": "node", "id": 416031447, "lat": 52.3908606, "lon": 13.533117}, {"type": "node", "id": 431535015, "lat": 52.390232, "lon": 13.5332894}, {"type": "node", "id": 471301175, "lat": 52.4088869, "lon": 13.5719986, "tags": {"addr:city": "Berlin", "addr:country": "DE", "addr:housenumber": "14", "addr:postcode": "12526", "addr:street": "Buntzelstra\u00dfe", "addr:suburb": "Bohnsdorf", "brand": "Edeka", "brand:wikidata": "Q701755", "brand:wikipedia": "de:Edeka", "drink:club-mate": "retail", "name": "EDEKA", "opening_hours": "Mo-Sa 07:00-21:00", "operator": "EDEKA H\u00fcntemann", "phone": "+49-30-67804706", "shop": "supermarket", "wheelchair": "yes"}}, {"type": "node", "id": 482797544, "lat": 52.4010732, "lon": 13.5617695, "tags": {"addr:city": "Berlin", "addr:country": "DE", "addr:housenumber": "117", "addr:postcode": "12526", "addr:street": "Buntzelstra\u00dfe", "addr:suburb": "Bohnsdorf", "amenity": "pharmacy", "dispensing": "yes", "healthcare": "pharmacy", "name": "Sabelus XXL Apotheke", "opening_hours": "Mo-Fr 8:00-19:00;Sa 8:00-13:00", "phone": "+49306763313", "website": "https://www.sabelus.de/Apotheke-Berlin-Bohnsdorf-621444.html", "wheelchair": "limited"}}, {"type": "node", "id": 497180977, "lat": 52.4050209, "lon": 13.5685776, "tags": {"addr:city": "Berlin", "addr:country": "DE", "addr:housenumber": "25", "addr:postcode": "12526", "addr:street": "Grottewitzstra\u00dfe", "addr:suburb": "Bohnsdorf", "amenity": "doctors", "healthcare": "doctor", "healthcare:speciality": "general", "name": "Praxis Dipl.-Med. Thomas Domnik", "opening_hours": "Mo 08:00-11:00,16:00-18:00; Tu 08:00-11:00,16:00-18:00; Th 08:00-11:00,16:00-18:00; Fr 08:00-11:00,16:00-18:00", "wheelchair": "no"}}, {"type": "node", "id": 497183294, "lat": 52.4001047, "lon": 13.5726254, "tags": {"addr:city": "Berlin", "addr:country": "DE", "addr:housenumber": "10a", "addr:postcode": "12526", "addr:street": "Krumme Stra\u00dfe", "addr:suburb": "Bohnsdorf", "amenity": "doctors", "healthcare": "doctor", "healthcare:speciality": "internal", "name": "Dr. med. Stefan Donat", "wheelchair": "yes"}}, {"type": "node", "id": 540840037, "lat": 52.4067531, "lon": 13.5610154}, {"type": "node", "id": 540840051, "lat": 52.4070444, "lon": 13.5609101}, {"type": "node", "id": 552316889, "lat": 52.4088596, "lon": 13.5732909}, {"type": "node", "id": 634882639, "lat": 52.4091449, "lon": 13.5724481, "tags": {"amenity": "fast_food", "cuisine": "kebab", "name": "Bistro Varna", "opening_hours": "Mo-Fr 9:00-20:00; Sa 9:00-18:00"}}, {"type": "node", "id": 634882660, "lat": 52.4044938, "lon": 13.5601171, "tags": {"addr:city": "Berlin", "addr:country": "DE", "addr:housenumber": "212", "addr:postcode": "12526", "addr:street": "Paradiesstra\u00dfe", "addr:suburb": "Bohnsdorf", "amenity": "fast_food", "cuisine": "kebab;burger", "drink:club-mate": "retail", "drive_through": "no", "name": "Paradies Grill", "opening_hours": "Mo-Sa 08:00-22:00", "smoking": "outside", "toilets:wheelchair": "no", "wheelchair": "limited"}}, {"type": "node", "id": 666348236, "lat": 52.4126791, "lon": 13.5720502, "tags": {"amenity": "fast_food", "name": "Cua-Tung", "opening_hours": "Mo-Su 11:00-21:30", "wheelchair": "limited"}}, {"type": "node", "id": 773305668, "lat": 52.4116521, "lon": 13.5731399, "tags": {"addr:city": "Berlin", "addr:country": "DE", "addr:housenumber": "10", "addr:postcode": "12526", "addr:street": "Richterstra\u00dfe", "addr:suburb": "Bohnsdorf", "amenity": "fast_food", "cuisine": "burger;kebab;pizza", "indoor_seating": "yes", "name": "Gr\u00fcnau D\u00f6ner & Pizza", "outdoor_seating": "yes", "wheelchair": "no"}}, {"type": "node", "id": 835241008, "lat": 52.4067686, "lon": 13.5734628}, {"type": "node", "id": 847305601, "lat": 52.3988908, "lon": 13.5658786}, {"type": "node", "id": 936793955, "lat": 52.3925555, "lon": 13.5501708}, {"type": "node", "id": 936793960, "lat": 52.3926622, "lon": 13.5456483}, {"type": "node", "id": 936794015, "lat": 52.3934786, "lon": 13.5519413}, {"type": "node", "id": 942862904, "lat": 52.406711, "lon": 13.5735088}, {"type": "node", "id": 1158892759, "lat": 52.4050239, "lon": 13.5732228, "tags": {"addr:city": "Berlin", "addr:country": "DE", "addr:housenumber": "1A", "addr:postcode": "12526", "addr:street": "Waltersdorfer Stra\u00dfe", "addr:suburb": "Bohnsdorf", "amenity": "restaurant", "cuisine": "italian", "name": "La Dolce Vita Ristorante", "opening_hours": "Tu-Su 11:30-23:00", "payment:cash": "yes", "payment:maestro": "yes", "phone": "+49-30-63313477", "takeaway": "yes", "toilets:wheelchair": "yes", "website": "https://www.ladolcevitaristorante.de/", "website:menu": "https://cdn.website-start.de/proxy/apps/otea5i/uploads/gleichzwei/instances/3504291E-F5FE-4388-9EDE-66820189D1CF/wcinstances/epaper/046b043e-fb23-44d0-bf50-0e6e35b9ed49/pdf/la-dolce-vita-speisekarte.pdf", "wheelchair": "yes", "wheelchair:description": "Schattiger Biergarten; Behinderten WC ebenerdig gegen\u00fcber vom Eingang, nicht riesig, aber ok Sauberkeit okay Juni 2018"}}, {"type": "node", "id": 1420377685, "lat": 52.4020992, "lon": 13.5648215, "tags": {"addr:city": "Berlin", "addr:country": "DE", "addr:housenumber": "92", "addr:postcode": "12526", "addr:street": "Buntzelstra\u00dfe", "addr:suburb": "Bohnsdorf", "amenity": "cafe", "contact:facebook": "https://www.facebook.com/FrozenFireKaffeehaus", "cuisine": "ice_cream", "name": "FrozenFire Kaffeehaus", "opening_hours": "Mo-Su,PH 07:00-17:00", "outdoor_seating": "yes", "wheelchair": "no"}}, {"type": "node", "id": 1493357130, "lat": 52.3872077, "lon": 13.535703}, {"type": "node", "id": 1493357141, "lat": 52.3875196, "lon": 13.5366184}, {"type": "node", "id": 1493357143, "lat": 52.3878063, "lon": 13.5364213}, {"type": "node", "id": 1493357147, "lat": 52.3887771, "lon": 13.5356284}, {"type": "node", "id": 1493357176, "lat": 52.3907318, "lon": 13.5348235}, {"type": "node", "id": 1493357203, "lat": 52.3931503, "lon": 13.5352166}, {"type": "node", "id": 1650103737, "lat": 52.4074903, "lon": 13.5680796}, {"type": "node", "id": 1650103741, "lat": 52.4074452, "lon": 13.5677627}, {"type": "node", "id": 1650103755, "lat": 52.407434, "lon": 13.5696012}, {"type": "node", "id": 1650103775, "lat": 52.4081512, "lon": 13.5712493}, {"type": "node", "id": 1650103793, "lat": 52.4089467, "lon": 13.5695307}, {"type": "node", "id": 1650103810, "lat": 52.4093145, "lon": 13.5686877}, {"type": "node", "id": 1650103817, "lat": 52.4093961, "lon": 13.5687935}, {"type": "node", "id": 1650103820, "lat": 52.4094078, "lon": 13.5670511}, {"type": "node", "id": 1650103835, "lat": 52.4096788, "lon": 13.567805}, {"type": "node", "id": 1650103839, "lat": 52.4098335, "lon": 13.5680023}, {"type": "node", "id": 1656500929, "lat": 52.4067957, "lon": 13.5698337}, {"type": "node", "id": 1656500934, "lat": 52.4068254, "lon": 13.5695988}, {"type": "node", "id": 1656500940, "lat": 52.4068724, "lon": 13.5691706}, {"type": "node", "id": 1656500962, "lat": 52.4068349, "lon": 13.567811}, {"type": "node", "id": 1656500972, "lat": 52.4068915, "lon": 13.5690342}, {"type": "node", "id": 1656500978, "lat": 52.4068335, "lon": 13.5685636}, {"type": "node", "id": 1656501013, "lat": 52.4073547, "lon": 13.5668625}, {"type": "node", "id": 1656501027, "lat": 52.4073544, "lon": 13.5677951}, {"type": "node", "id": 1656501032, "lat": 52.4073156, "lon": 13.5682219}, {"type": "node", "id": 1656501070, "lat": 52.4094733, "lon": 13.5673406}, {"type": "node", "id": 1659650309, "lat": 52.3929575, "lon": 13.5830871}, {"type": "node", "id": 1659650311, "lat": 52.393089, "lon": 13.5835567}, {"type": "node", "id": 1659650314, "lat": 52.3934232, "lon": 13.5827412}, {"type": "node", "id": 1659650315, "lat": 52.3934451, "lon": 13.5828233}, {"type": "node", "id": 1659650317, "lat": 52.3936275, "lon": 13.582781}, {"type": "node", "id": 1659650318, "lat": 52.3936885, "lon": 13.5830164}, {"type": "node", "id": 1659650422, "lat": 52.4063002, "lon": 13.5687278}, {"type": "node", "id": 1659650670, "lat": 52.4068358, "lon": 13.56671}, {"type": "node", "id": 1659650982, "lat": 52.4072961, "lon": 13.567036}, {"type": "node", "id": 1659651009, "lat": 52.4073178, "lon": 13.567259}, {"type": "node", "id": 1663969749, "lat": 52.3972377, "lon": 13.5415199, "tags": {"addr:city": "Berlin", "addr:housenumber": "1", "addr:postcode": "12526", "addr:street": "Alexander-Mei\u00dfner-Stra\u00dfe", "brand": "Aldi Nord", "brand:wikidata": "Q41171373", "brand:wikipedia": "en:Aldi", "name": "Aldi", "opening_hours": "Mo-Sa 07:00-21:00", "phone": "+49 800 7234870", "shop": "supermarket", "website": "https://www.aldi-nord.de/filialen-und-oeffnungszeiten.html/l/berlin/alexander-meissner-strasse-1/3182801", "wheelchair": "yes"}}, {"type": "node", "id": 1673899410, "lat": 52.3987474, "lon": 13.5661975}, {"type": "node", "id": 1673899416, "lat": 52.3987953, "lon": 13.5660595}, {"type": "node", "id": 1683679557, "lat": 52.4134643, "lon": 13.5709145}, {"type": "node", "id": 1683679567, "lat": 52.4135663, "lon": 13.5704982}, {"type": "node", "id": 1683679569, "lat": 52.4135912, "lon": 13.5704367}, {"type": "node", "id": 1683679571, "lat": 52.4135714, "lon": 13.5710401}, {"type": "node", "id": 1683679572, "lat": 52.4136067, "lon": 13.5705421}, {"type": "node", "id": 1683679574, "lat": 52.4136316, "lon": 13.5704806}, {"type": "node", "id": 1683679576, "lat": 52.4136591, "lon": 13.5706884}, {"type": "node", "id": 1683679578, "lat": 52.413697, "lon": 13.5707296}, {"type": "node", "id": 1707241227, "lat": 52.399269, "lon": 13.5747173}, {"type": "node", "id": 1707241229, "lat": 52.3994436, "lon": 13.5739777}, {"type": "node", "id": 1707241231, "lat": 52.3992132, "lon": 13.5741151}, {"type": "node", "id": 1707241232, "lat": 52.3995695, "lon": 13.5745343}, {"type": "node", "id": 1994471484, "lat": 52.405247, "lon": 13.568972}, {"type": "node", "id": 1994471491, "lat": 52.4055424, "lon": 13.5713776}, {"type": "node", "id": 1994471517, "lat": 52.4065232, "lon": 13.5733827}, {"type": "node", "id": 1994471518, "lat": 52.406768, "lon": 13.562881}, {"type": "node", "id": 1994471522, "lat": 52.4068015, "lon": 13.5664717}, {"type": "node", "id": 1994471523, "lat": 52.4068308, "lon": 13.5633363}, {"type": "node", "id": 2057304256, "lat": 52.393125, "lon": 13.5330903}, {"type": "node", "id": 2057304263, "lat": 52.3944341, "lon": 13.5352959}, {"type": "node", "id": 2057304276, "lat": 52.394966, "lon": 13.5355231}, {"type": "node", "id": 2308204312, "lat": 52.4017164, "lon": 13.5631936, "tags": {"amenity": "doctors", "healthcare": "doctor", "healthcare:speciality": "internal;familiy_medicine", "name": "Praxis Dr. med. Marcus & Sabine Wagner", "opening_hours": "Mo-Fr 08:00-12:00; Tu,Th 15:00-18:00; We off", "toilets:wheelchair": "yes", "wheelchair": "yes"}}, {"type": "node", "id": 2328402487, "lat": 52.4124787, "lon": 13.5721499, "tags": {"addr:postcode": "12524", "amenity": "cafe", "contact:phone": "+49 3212 37-12524", "contact:website": "https://www.lieblings-kaffee.de/", "cuisine": "coffee_shop", "email": "info@lieblings-kaffee.de", "name": "Lieblings-Kaffee", "opening_hours": "Mo-Fr 09:30-19:00; Sa 09:30-16:00", "operator": "Frau Edina P\u00fcschel"}}, {"type": "node", "id": 2328402503, "lat": 52.3993133, "lon": 13.5746922, "tags": {"entrance": "yes"}}, {"type": "node", "id": 2328402514, "lat": 52.4132556, "lon": 13.5706875, "tags": {"entrance": "yes"}}, {"type": "node", "id": 2357168934, "lat": 52.4071193, "lon": 13.5671349}, {"type": "node", "id": 2357168936, "lat": 52.4071277, "lon": 13.5671627}, {"type": "node", "id": 2357168940, "lat": 52.4071327, "lon": 13.5671789}, {"type": "node", "id": 2357168946, "lat": 52.4071251, "lon": 13.5670527}, {"type": "node", "id": 2357168948, "lat": 52.4071618, "lon": 13.5672613}, {"type": "node", "id": 2357168950, "lat": 52.4071454, "lon": 13.5669082}, {"type": "node", "id": 2357168952, "lat": 52.4072315, "lon": 13.5669176}, {"type": "node", "id": 2357168954, "lat": 52.4072886, "lon": 13.5669322}, {"type": "node", "id": 2357168956, "lat": 52.4072229, "lon": 13.5672911}, {"type": "node", "id": 2357168958, "lat": 52.4072645, "lon": 13.5672939}, {"type": "node", "id": 2357168960, "lat": 52.4073079, "lon": 13.5669348}, {"type": "node", "id": 2384572852, "lat": 52.3901593, "lon": 13.535053}, {"type": "node", "id": 2384572858, "lat": 52.3903588, "lon": 13.5367573}, {"type": "node", "id": 2384572861, "lat": 52.390379, "lon": 13.5371718}, {"type": "node", "id": 2384572867, "lat": 52.3905992, "lon": 13.5348793}, {"type": "node", "id": 2384572886, "lat": 52.391775, "lon": 13.5440327}, {"type": "node", "id": 2384572902, "lat": 52.3933873, "lon": 13.5520984, "tags": {"barrier": "gate", "bicycle": "yes", "foot": "yes"}}, {"type": "node", "id": 2489284899, "lat": 52.3997731, "lon": 13.5462407, "tags": {"amenity": "restaurant", "contact:phone": "+49 30 6763464", "contact:website": "https://www.zum-bohnsdorfer-eck.de", "cuisine": "german", "delivery:covid19": "yes", "name": "Zum Bohnsdorfer Eck", "opening_hours": "Tu-Th 17:00-22:00; Fr 16:00-22:00; Sa-Su 12:00-22:00", "opening_hours:covid19": "We-Fr 13:00-20:00; Sa-Su 12:00-20:00", "takeaway:covid19": "yes", "toilets:wheelchair": "yes", "wheelchair": "limited"}}, {"type": "node", "id": 2604296309, "lat": 52.3924443, "lon": 13.5530725}, {"type": "node", "id": 2604296311, "lat": 52.3924842, "lon": 13.5530888}, {"type": "node", "id": 2604296316, "lat": 52.3930956, "lon": 13.5526007}, {"type": "node", "id": 2687646312, "lat": 52.3930556, "lon": 13.5834531}, {"type": "node", "id": 2752116897, "lat": 52.3998128, "lon": 13.5552422, "tags": {"amenity": "restaurant", "cuisine": "steak_house", "name": "Steakhaus Montero", "website": "http://www.hotel-plovdiv.de/restaurant.htm", "wheelchair": "no"}}, {"type": "node", "id": 2821719682, "lat": 52.4040318, "lon": 13.5597507, "tags": {"addr:city": "Berlin", "addr:country": "DE", "addr:housenumber": "212", "addr:postcode": "12526", "addr:street": "Paradiesstra\u00dfe", "addr:suburb": "Bohnsdorf", "brand": "Norma", "brand:wikidata": "Q450180", "name": "Norma", "opening_hours": "Mo-Sa 07:00-21:00", "shop": "supermarket", "source": "Geoportal Berlin / Hauskoordinaten"}}, {"type": "node", "id": 3394249684, "lat": 52.4131564, "lon": 13.5720521, "tags": {"amenity": "fast_food", "cuisine": "kebab", "name": "City D\u00f6ner", "toilets:wheelchair": "no", "wheelchair": "yes"}}, {"type": "node", "id": 3486395920, "lat": 52.4127316, "lon": 13.5692808, "tags": {"addr:city": "Berlin", "addr:country": "DE", "addr:housenumber": "8", "addr:postcode": "12524", "addr:street": "Bruno-Taut-Stra\u00dfe", "addr:suburb": "Bohnsdorf", "brand": "Netto Marken-Discount", "brand:wikidata": "Q879858", "brand:wikipedia": "de:Netto Marken-Discount", "name": "Netto Marken-Discount", "opening_hours": "Mo-Sa 07:00-22:00", "shop": "supermarket", "website": "https://www.netto-online.de/filialen/Berlin/Bruno-Taut-Str-8/5596/"}}, {"type": "node", "id": 3495645771, "lat": 52.4068366, "lon": 13.5620208}, {"type": "node", "id": 3495649403, "lat": 52.4069309, "lon": 13.5628362}, {"type": "node", "id": 3495649409, "lat": 52.4069741, "lon": 13.5625625}, {"type": "node", "id": 3495649410, "lat": 52.4069845, "lon": 13.5625015, "tags": {"barrier": "gate", "foot": "yes"}}, {"type": "node", "id": 3495649411, "lat": 52.4070408, "lon": 13.5620108}, {"type": "node", "id": 3495649412, "lat": 52.4070261, "lon": 13.5622746}, {"type": "node", "id": 3531173234, "lat": 52.399065, "lon": 13.555417, "tags": {"addr:city": "Berlin", "addr:country": "DE", "addr:housenumber": "6", "addr:postcode": "12526", "addr:street": "Dorfplatz", "addr:suburb": "Bohnsdorf", "amenity": "doctors", "contact:website": "https://www.augenaerztin.berlin/", "healthcare": "doctor", "healthcare:speciality": "ophthalmology", "name": "Augentagesklinik Berlin-Bohnsdorf", "operator": "Irina Pahlitzsch"}}, {"type": "node", "id": 3531181024, "lat": 52.4102683, "lon": 13.5707178, "tags": {"amenity": "doctors", "healthcare": "doctor", "name": "Praxis Dagmar Klausch"}}, {"type": "node", "id": 3531191526, "lat": 52.4001667, "lon": 13.5724597, "tags": {"amenity": "doctors", "healthcare": "doctor", "healthcare:speciality": "general", "name": "Praxis Dr. med. Claudia Lorkowski"}}, {"type": "node", "id": 3836450579, "lat": 52.4081839, "lon": 13.5671749}, {"type": "node", "id": 3836450582, "lat": 52.4082075, "lon": 13.5671662}, {"type": "node", "id": 3836450584, "lat": 52.4082186, "lon": 13.5674279}, {"type": "node", "id": 3836450590, "lat": 52.4082422, "lon": 13.5674192}, {"type": "node", "id": 3836450606, "lat": 52.4085045, "lon": 13.5670726}, {"type": "node", "id": 3836450611, "lat": 52.4085281, "lon": 13.5670639}, {"type": "node", "id": 3836450612, "lat": 52.4085392, "lon": 13.5673256}, {"type": "node", "id": 3836450615, "lat": 52.4085628, "lon": 13.5673169}, {"type": "node", "id": 4083503097, "lat": 52.3927854, "lon": 13.552885}, {"type": "node", "id": 4083503098, "lat": 52.3934445, "lon": 13.5350904}, {"type": "node", "id": 4083505530, "lat": 52.3915922, "lon": 13.5348728}, {"type": "node", "id": 4083505533, "lat": 52.3916664, "lon": 13.5467773}, {"type": "node", "id": 4083505538, "lat": 52.3917703, "lon": 13.546725}, {"type": "node", "id": 4083505540, "lat": 52.3919639, "lon": 13.5470616}, {"type": "node", "id": 4083505543, "lat": 52.3920396, "lon": 13.5464863}, {"type": "node", "id": 4083505545, "lat": 52.3921385, "lon": 13.5469363}, {"type": "node", "id": 4083505546, "lat": 52.3922319, "lon": 13.5462824}, {"type": "node", "id": 4083505549, "lat": 52.3922748, "lon": 13.5349497}, {"type": "node", "id": 4083505554, "lat": 52.3924367, "lon": 13.5356599}, {"type": "node", "id": 4410449614, "lat": 52.3914005, "lon": 13.5418076}, {"type": "node", "id": 4410449617, "lat": 52.3914747, "lon": 13.5417509}, {"type": "node", "id": 5008077421, "lat": 52.4062716, "lon": 13.5711542}, {"type": "node", "id": 5262217594, "lat": 52.4118149, "lon": 13.5659293}, {"type": "node", "id": 5262217595, "lat": 52.411775, "lon": 13.5660362}, {"type": "node", "id": 5262217596, "lat": 52.4119101, "lon": 13.5661568}, {"type": "node", "id": 5262217597, "lat": 52.4119452, "lon": 13.5660621}, {"type": "node", "id": 5312352665, "lat": 52.4073536, "lon": 13.5652004}, {"type": "node", "id": 5312352666, "lat": 52.4074068, "lon": 13.5655871}, {"type": "node", "id": 5312352667, "lat": 52.4073541, "lon": 13.5664558}, {"type": "node", "id": 5735008267, "lat": 52.4079391, "lon": 13.5740751}, {"type": "node", "id": 5735008268, "lat": 52.4079407, "lon": 13.5741274}, {"type": "node", "id": 5735008269, "lat": 52.4079227, "lon": 13.5740818}, {"type": "node", "id": 5735008287, "lat": 52.4077362, "lon": 13.5743299}, {"type": "node", "id": 5735008288, "lat": 52.4076691, "lon": 13.5742977}, {"type": "node", "id": 5735008289, "lat": 52.407683, "lon": 13.5742481}, {"type": "node", "id": 5735008290, "lat": 52.4077076, "lon": 13.5742481}, {"type": "node", "id": 5735008291, "lat": 52.407755, "lon": 13.5742615}, {"type": "node", "id": 5735008292, "lat": 52.4077755, "lon": 13.5743058}, {"type": "node", "id": 5735008293, "lat": 52.4079113, "lon": 13.573996}, {"type": "node", "id": 5735008294, "lat": 52.4078712, "lon": 13.5739517}, {"type": "node", "id": 5735008295, "lat": 52.4078221, "lon": 13.5739356}, {"type": "node", "id": 5735008296, "lat": 52.4077689, "lon": 13.5739329}, {"type": "node", "id": 5735008297, "lat": 52.4077583, "lon": 13.5739504}, {"type": "node", "id": 5735008298, "lat": 52.4077542, "lon": 13.5740858}, {"type": "node", "id": 5735008299, "lat": 52.4078, "lon": 13.574114}, {"type": "node", "id": 5735008300, "lat": 52.4078376, "lon": 13.5740711}, {"type": "node", "id": 5735008301, "lat": 52.4078671, "lon": 13.5740483}, {"type": "node", "id": 5735008302, "lat": 52.4079015, "lon": 13.5740523}, {"type": "node", "id": 5737401086, "lat": 52.4008069, "lon": 13.5728346}, {"type": "node", "id": 5737401087, "lat": 52.4008127, "lon": 13.572962}, {"type": "node", "id": 5737401088, "lat": 52.4008429, "lon": 13.5730572}, {"type": "node", "id": 5737401089, "lat": 52.4009035, "lon": 13.5731095}, {"type": "node", "id": 5737401090, "lat": 52.4009387, "lon": 13.57308}, {"type": "node", "id": 5737401091, "lat": 52.4009608, "lon": 13.5730129}, {"type": "node", "id": 5737401092, "lat": 52.4009608, "lon": 13.5729472}, {"type": "node", "id": 5737401093, "lat": 52.4009477, "lon": 13.5728681}, {"type": "node", "id": 5737401094, "lat": 52.4009027, "lon": 13.5728279}, {"type": "node", "id": 5747823448, "lat": 52.3992044, "lon": 13.5663122, "tags": {"barrier": "cycle_barrier", "entrance": "yes"}}, {"type": "node", "id": 5747823463, "lat": 52.3992552, "lon": 13.5665527, "tags": {"barrier": "gate", "entrance": "yes"}}, {"type": "node", "id": 5747823464, "lat": 52.3988595, "lon": 13.5662639, "tags": {"barrier": "gate", "entrance": "yes"}}, {"type": "node", "id": 5747823465, "lat": 52.3989162, "lon": 13.5659143, "tags": {"barrier": "gate", "entrance": "yes"}}, {"type": "node", "id": 5747823469, "lat": 52.3987719, "lon": 13.5660513}, {"type": "node", "id": 5747823470, "lat": 52.3994218, "lon": 13.5666125}, {"type": "node", "id": 5832034690, "lat": 52.3925986, "lon": 13.5503411}, {"type": "node", "id": 5832034692, "lat": 52.3923411, "lon": 13.5484956}, {"type": "node", "id": 5832034890, "lat": 52.3919252, "lon": 13.5471706, "tags": {"barrier": "gate"}}, {"type": "node", "id": 5832034894, "lat": 52.3912995, "lon": 13.5418636}, {"type": "node", "id": 5832034895, "lat": 52.391216, "lon": 13.5419074}, {"type": "node", "id": 5832034896, "lat": 52.3910506, "lon": 13.5416096}, {"type": "node", "id": 5832034897, "lat": 52.3911579, "lon": 13.5415761}, {"type": "node", "id": 5832034898, "lat": 52.391243, "lon": 13.5415305}, {"type": "node", "id": 5832034899, "lat": 52.3913314, "lon": 13.5414836}, {"type": "node", "id": 5832034900, "lat": 52.3908233, "lon": 13.5366852}, {"type": "node", "id": 5832034901, "lat": 52.3906477, "lon": 13.5367577}, {"type": "node", "id": 5832034902, "lat": 52.3905576, "lon": 13.5367895}, {"type": "node", "id": 5832034903, "lat": 52.3903698, "lon": 13.5368188}, {"type": "node", "id": 5832034904, "lat": 52.3906283, "lon": 13.5371223}, {"type": "node", "id": 5832034905, "lat": 52.3914354, "lon": 13.5414028}, {"type": "node", "id": 5832034915, "lat": 52.3908652, "lon": 13.5370114}, {"type": "node", "id": 5832034931, "lat": 52.390945, "lon": 13.5416239}, {"type": "node", "id": 5832034935, "lat": 52.3910456, "lon": 13.5419665}, {"type": "node", "id": 7027270479, "lat": 52.4068334, "lon": 13.5616982}, {"type": "node", "id": 7464561560, "lat": 52.4073837, "lon": 13.565595}, {"type": "node", "id": 7616164516, "lat": 52.3939489, "lon": 13.5351952}, {"type": "node", "id": 7616164518, "lat": 52.3942231, "lon": 13.5352521}, {"type": "node", "id": 7616164555, "lat": 52.3948315, "lon": 13.5354657}, {"type": "node", "id": 7616164579, "lat": 52.390669, "lon": 13.5394162}, {"type": "node", "id": 7616164580, "lat": 52.3903648, "lon": 13.5349635, "tags": {"barrier": "gate", "bicycle": "yes"}}, {"type": "node", "id": 7616164582, "lat": 52.3933229, "lon": 13.5351211}, {"type": "node", "id": 7994816912, "lat": 52.3914113, "lon": 13.5332138}, {"type": "node", "id": 8254678962, "lat": 52.3919098, "lon": 13.5471797}, {"type": "node", "id": 8254678963, "lat": 52.3919387, "lon": 13.5471637}, {"type": "node", "id": 8254678964, "lat": 52.3919351, "lon": 13.5470847}, {"type": "node", "id": 8254678965, "lat": 52.3919015, "lon": 13.5471117}, {"type": "node", "id": 8254678997, "lat": 52.3926935, "lon": 13.5529636}, {"type": "node", "id": 8254678998, "lat": 52.3927103, "lon": 13.5528939}, {"type": "node", "id": 8254678999, "lat": 52.3927404, "lon": 13.5528752}, {"type": "node", "id": 8254679009, "lat": 52.3927151, "lon": 13.5528378, "tags": {"barrier": "gate"}}, {"type": "node", "id": 8543541992, "lat": 52.3924516, "lon": 13.5330794}, {"type": "node", "id": 8543541995, "lat": 52.3923113, "lon": 13.5331164}, {"type": "node", "id": 8543541997, "lat": 52.3922071, "lon": 13.5331641}, {"type": "node", "id": 8543542001, "lat": 52.3920665, "lon": 13.5331971}, {"type": "node", "id": 8543542007, "lat": 52.3917988, "lon": 13.5332129}, {"type": "node", "id": 8543551664, "lat": 52.3889318, "lon": 13.5343563}, {"type": "node", "id": 8543551665, "lat": 52.3889779, "lon": 13.5342644}, {"type": "node", "id": 8543551687, "lat": 52.3882026, "lon": 13.5361068}, {"type": "node", "id": 8543551697, "lat": 52.3874287, "lon": 13.5355543}, {"type": "node", "id": 8543551698, "lat": 52.387637, "lon": 13.5357192}, {"type": "node", "id": 8543551699, "lat": 52.3874867, "lon": 13.5356142}, {"type": "node", "id": 8996809253, "lat": 52.4062995, "lon": 13.5738057}, {"type": "node", "id": 8996809254, "lat": 52.4062881, "lon": 13.5740838}, {"type": "node", "id": 8996809255, "lat": 52.4064425, "lon": 13.57409}, {"type": "node", "id": 8996809256, "lat": 52.4064818, "lon": 13.5738389}, {"type": "node", "id": 9622393384, "lat": 52.392734, "lon": 13.5528291}, {"type": "node", "id": 9622393385, "lat": 52.3927015, "lon": 13.5528433}, {"type": "node", "id": 9622393386, "lat": 52.3916969, "lon": 13.5472211}, {"type": "node", "id": 9622393387, "lat": 52.3918835, "lon": 13.5486183}, {"type": "node", "id": 9622393388, "lat": 52.392083, "lon": 13.5502033}, {"type": "node", "id": 9622393389, "lat": 52.3922683, "lon": 13.5516777}, {"type": "node", "id": 9622393390, "lat": 52.3923574, "lon": 13.5523905}, {"type": "node", "id": 9840566339, "lat": 52.39182, "lon": 13.5466809}, {"type": "node", "id": 9840566342, "lat": 52.3918622, "lon": 13.5466436}, {"type": "node", "id": 10002899303, "lat": 52.4068166, "lon": 13.5647892}, {"type": "node", "id": 10002899304, "lat": 52.4067768, "lon": 13.5639459}, {"type": "node", "id": 10002899305, "lat": 52.4067043, "lon": 13.5645914}, {"type": "node", "id": 10002899306, "lat": 52.4067364, "lon": 13.5648224}, {"type": "node", "id": 10007246477, "lat": 52.4068316, "lon": 13.5621005}, {"type": "node", "id": 10049050401, "lat": 52.406832, "lon": 13.5663018}, {"type": "node", "id": 10049050402, "lat": 52.4067833, "lon": 13.5663177}, {"type": "node", "id": 10220839429, "lat": 52.4060948, "lon": 13.5624107}, {"type": "node", "id": 10220839430, "lat": 52.4058367, "lon": 13.5625078}, {"type": "node", "id": 10220839431, "lat": 52.4058889, "lon": 13.5628802}, {"type": "node", "id": 10220839432, "lat": 52.406147, "lon": 13.5627831}, {"type": "node", "id": 10692779160, "lat": 52.4088595, "lon": 13.5696035}, {"type": "node", "id": 10692780937, "lat": 52.4093974, "lon": 13.5670581}, {"type": "node", "id": 10692780938, "lat": 52.4090927, "lon": 13.5671687}, {"type": "node", "id": 11223405762, "lat": 52.4134867, "lon": 13.5709388}, {"type": "node", "id": 11223405763, "lat": 52.4134841, "lon": 13.5709452}, {"type": "node", "id": 11828745706, "lat": 52.4124723, "lon": 13.5725362, "tags": {"amenity": "dentist", "contact:email": "info@zahnfeen.com", "contact:phone": "+49 30 672 90 17", "contact:website": "https://www.zahnfeen.com/", "healthcare": "dentist", "name": "Zahnarztpraxis Dr. Lucas & Dr. Herold", "opening_hours": "Mo,Th 08:00-13:00; 14:00-18:00; Tu,We 09:00-13:00; 14:00-19:00; Fr 09:00-13:00", "operator": "Dr. Anne-Sibylle Lucas, Dr. Anne Sophie Herold", "wheelchair": "yes"}}, {"type": "node", "id": 12010075645, "lat": 52.4072644, "lon": 13.5639904}, {"type": "node", "id": 12010075646, "lat": 52.4071632, "lon": 13.5638836}, {"type": "node", "id": 12010075647, "lat": 52.4071111, "lon": 13.563504}, {"type": "node", "id": 12010075648, "lat": 52.4071552, "lon": 13.5632575}, {"type": "node", "id": 12010075649, "lat": 52.4071221, "lon": 13.5631655}, {"type": "node", "id": 12010075650, "lat": 52.40707, "lon": 13.5634629}, {"type": "node", "id": 12010075651, "lat": 52.4069507, "lon": 13.5634317}, {"type": "node", "id": 12010075652, "lat": 52.4069537, "lon": 13.5635122}, {"type": "node", "id": 12010075653, "lat": 52.4070639, "lon": 13.5635484}, {"type": "node", "id": 12010075654, "lat": 52.4071221, "lon": 13.563951}, {"type": "node", "id": 12010075655, "lat": 52.4072554, "lon": 13.5640742}, {"type": "node", "id": 12012270724, "lat": 52.4067934, "lon": 13.5640211}, {"type": "node", "id": 12012270725, "lat": 52.4066469, "lon": 13.5639915}, {"type": "node", "id": 12012270726, "lat": 52.406712, "lon": 13.5644643}, {"type": "node", "id": 12012270727, "lat": 52.4066939, "lon": 13.5645102}, {"type": "node", "id": 12012319490, "lat": 52.4058824, "lon": 13.5610796}, {"type": "node", "id": 12012319491, "lat": 52.4058747, "lon": 13.5610892}, {"type": "node", "id": 12012319492, "lat": 52.4058584, "lon": 13.5611033}, {"type": "node", "id": 12012319493, "lat": 52.4058236, "lon": 13.5610989}, {"type": "node", "id": 12012319494, "lat": 52.4057983, "lon": 13.5610885}, {"type": "node", "id": 12012319495, "lat": 52.4057897, "lon": 13.5610603}, {"type": "node", "id": 12012319496, "lat": 52.4057671, "lon": 13.5610707}, {"type": "node", "id": 12012319497, "lat": 52.4057345, "lon": 13.5610759}, {"type": "node", "id": 12012319498, "lat": 52.4057282, "lon": 13.5610188}, {"type": "node", "id": 12012319499, "lat": 52.4057417, "lon": 13.5609499}, {"type": "node", "id": 12012319500, "lat": 52.4057698, "lon": 13.5608884}, {"type": "node", "id": 12012319501, "lat": 52.4058105, "lon": 13.5608498}, {"type": "node", "id": 12012319502, "lat": 52.4058579, "lon": 13.5608676}, {"type": "node", "id": 12012319503, "lat": 52.4058923, "lon": 13.5610662}, {"type": "node", "id": 12085983548, "lat": 52.4060237, "lon": 13.5687353}, {"type": "node", "id": 12085983549, "lat": 52.4060342, "lon": 13.568804}, {"type": "node", "id": 12087763691, "lat": 52.3935589, "lon": 13.5827422}, {"type": "node", "id": 12087763733, "lat": 52.3934953, "lon": 13.5831905}, {"type": "node", "id": 12995748744, "lat": 52.4098818, "lon": 13.5687482}, {"type": "node", "id": 12995748745, "lat": 52.4098585, "lon": 13.5688286}, {"type": "node", "id": 12995748746, "lat": 52.4097948, "lon": 13.5689404}, {"type": "node", "id": 12995748747, "lat": 52.4097479, "lon": 13.5689838}, {"type": "node", "id": 12995748748, "lat": 52.4097345, "lon": 13.5689786}, {"type": "node", "id": 12995748749, "lat": 52.4097256, "lon": 13.568965}, {"type": "node", "id": 12995748750, "lat": 52.4097218, "lon": 13.5689436}, {"type": "node", "id": 12995748751, "lat": 52.4098263, "lon": 13.5687127}, {"type": "node", "id": 12995748752, "lat": 52.4098671, "lon": 13.5687315}, {"type": "way", "id": 35473250, "nodes": [1683679571, 1683679578, 1683679576, 416000222, 1683679572, 1683679574, 1683679569, 1683679567, 416000223, 416000224, 2328402514, 1683679557, 11223405762, 11223405763, 1683679571], "tags": {"addr:city": "Berlin", "addr:country": "DE", "addr:housenumber": "4", "addr:postcode": "12524", "addr:street": "Bruno-Taut-Stra\u00dfe", "addr:suburb": "Bohnsdorf", "brand": "Lidl", "brand:wikidata": "Q151954", "brand:wikipedia": "en:Lidl", "building": "yes", "building:levels": "1", "internet_access": "wlan", "name": "Lidl", "opening_hours": "Mo-Sa 07:00-20:00", "shop": "supermarket", "wheelchair": "yes"}}, {"type": "way", "id": 56201026, "nodes": [9622393386, 8254678965, 8254678962, 5832034890, 8254678963, 8254678964, 4083505540, 4083505545, 5832034692, 936793955, 5832034690, 936794015, 2384572902, 2604296316, 4083503097, 8254678999, 9622393384, 8254679009, 9622393385, 8254678998, 8254678997, 2604296311, 2604296309, 9622393390, 9622393389, 9622393388, 9622393387, 9622393386], "tags": {"barrier": "fence", "height": "1.5", "landuse": "grass", "leisure": "park", "protection_title": "Gesch\u00fctzte Gr\u00fcnanlage"}}, {"type": "way", "id": 69869582, "nodes": [5008077421, 310433174, 310427561, 310427566, 1656500929, 1656500934, 1656500940, 1656500972, 1656500978, 1659650422, 12085983549, 12085983548, 1994471484, 1994471491, 5008077421], "tags": {"addr:city": "Berlin", "addr:country": "DE", "addr:housenumber": "1", "addr:postcode": "12526", "addr:street": "H\u00f6hensteig", "addr:suburb": "Bohnsdorf", "amenity": "hospital", "emergency": "yes", "healthcare": "hospital", "name": "Krankenhaus Hedwigsh\u00f6he", "website": "https://www.alexianer-berlin-hedwigkliniken.de/krankenhaus-hedwigshoehe/einrichtungen/ambulantes-op-zentrum-aoz/", "wheelchair": "yes", "wikidata": "Q1764107"}}, {"type": "way", "id": 71175211, "nodes": [847305601, 5747823465, 5747823448, 5747823470, 27426309, 5747823463, 271460309, 271460310, 5747823464, 1673899410, 5747823469, 1673899416, 847305601], "tags": {"access": "yes", "barrier": "fence", "fence_type": "metal", "height": "1", "leisure": "playground", "name": "R\u00fcbenbahn", "protection_title": "Gesch\u00fctzte Gr\u00fcnanlage"}}, {"type": "way", "id": 74113177, "nodes": [310433174, 310416278, 310416277, 310416276, 310416293, 310416292, 310416291, 835241008, 942862904, 310433531, 1994471517, 310433527, 310433806, 310433832, 310433833, 310433834, 310417011, 310417035, 260598021, 1994471491, 5008077421, 310433174], "tags": {"leisure": "park"}}, {"type": "way", "id": 74113179, "nodes": [1656501013, 1656501027, 1650103741, 1650103737, 1656501032, 1650103755, 260957125, 1650103775, 259595428, 310405038, 552316889, 310405228, 310405229, 310405230, 259601383, 310405232, 310405252, 310405253, 310405254, 259601384, 259601387, 310406138, 310427561, 310427566, 1656500929, 1656500934, 1656500940, 1656500972, 1656500978, 1656500962, 1659650670, 1994471522, 10049050402, 10049050401, 310401015, 311488007, 311488073, 311488058, 1994471523, 1994471518, 310401014, 10007246477, 7027270479, 540840037, 540840051, 310400639, 310400742, 310532761, 310532760, 5312352665, 5312352666, 7464561560, 310533626, 5312352667, 310532627, 1656501013], "tags": {"leisure": "park", "name": "Gr\u00fcnzug Am Falkenberg", "name:etymology:wikidata": "Q1394158", "name:etymology:wikipedia": "de:Falkenberg (Berlin-Bohnsdorf)", "protection_title": "Gesch\u00fctzte Gr\u00fcnanlage"}}, {"type": "way", "id": 80261799, "nodes": [5832034935, 4083505533, 4083505538, 9840566339, 9840566342, 4083505543, 4083505546, 936793960, 2384572886, 4410449617, 4410449614, 5832034894, 5832034895, 5832034935], "tags": {"leisure": "park", "protection_title": "Gesch\u00fctzte Gr\u00fcnanlage"}}, {"type": "way", "id": 136089847, "nodes": [1493357143, 8543551687, 1493357147, 2384572852, 7616164580, 2384572867, 1493357176, 4083505530, 4083505549, 4083505554, 1493357203, 2057304256, 310483322, 8543541992, 416030917, 8543541995, 8543541997, 8543542001, 8543542007, 7994816912, 262418221, 416031447, 416031446, 416031445, 262418219, 431535015, 262418218, 262418217, 262418216, 262418215, 8543551665, 8543551664, 262418214, 262418212, 262418211, 262418210, 262418209, 262418208, 8543551698, 262418207, 8543551699, 8543551697, 262418206, 1493357130, 1493357141, 1493357143], "tags": {"leisure": "park"}}, {"type": "way", "id": 152177693, "nodes": [1650103737, 1650103741, 10692780938, 10692780937, 1650103820, 1656501070, 1650103835, 1650103839, 1650103817, 1650103810, 1650103793, 10692779160, 260957125, 1650103755, 1656501032, 1650103737], "tags": {"leisure": "park", "natural": "scrub", "protection_title": "Gesch\u00fctzte Gr\u00fcnanlage"}}, {"type": "way", "id": 153260635, "nodes": [1659650309, 1659650314, 1659650315, 12087763691, 1659650317, 1659650318, 12087763733, 1659650311, 2687646312, 1659650309], "tags": {"leisure": "playground", "name": "Eichbuschplatz", "wheelchair": "yes"}}, {"type": "way", "id": 158541685, "nodes": [1707241232, 2328402503, 1707241227, 1707241231, 1707241229, 1707241232], "tags": {"addr:city": "Berlin", "addr:country": "DE", "addr:housenumber": "19", "addr:postcode": "12526", "addr:street": "Waltersdorfer Stra\u00dfe", "addr:suburb": "Bohnsdorf", "brand": "Netto", "brand:wikidata": "Q552652", "brand:wikipedia": "da:Netto (supermarkedsk\u00e6de)", "building": "yes", "check_date": "2024-09-07", "name": "Netto", "opening_hours": "Mo-We 08:00-20:00; Th-Fr 08:00-21:00; Sa 08:00-20:00", "operator": "Netto ApS & Co. KG / Dansk Supermarked A/S", "shop": "supermarket", "wheelchair": "limited"}}, {"type": "way", "id": 195257616, "nodes": [260989460, 2057304276, 7616164555, 2057304263, 7616164518, 7616164516, 4083503098, 7616164582, 1493357203, 2057304256, 260989382, 260989383, 260989384, 260989385, 260989460], "tags": {"leisure": "park"}}, {"type": "way", "id": 226982004, "nodes": [2357168960, 2357168954, 2357168952, 2357168950, 2357168946, 2357168934, 2357168936, 2357168940, 2357168948, 2357168956, 2357168958, 1659651009, 1659650982, 2357168960], "tags": {"access": "yes", "leisure": "playground", "playground:climbingframe": "yes", "playground:sandpit": "yes"}}, {"type": "way", "id": 342596929, "nodes": [3495649411, 3495649412, 3495649410, 3495649409, 3495649403, 310401014, 10007246477, 3495645771, 3495649411], "tags": {"access": "yes", "barrier": "fence", "fence_type": "metal", "height": "1", "leisure": "playground", "playground:climbingframe": "yes", "playground:sandpit": "yes", "playground:seesaw": "yes", "playground:slide": "yes", "playground:springy": "yes", "playground:swing": "yes"}}, {"type": "way", "id": 380301550, "nodes": [3836450611, 3836450615, 3836450612, 3836450606, 3836450611], "tags": {"leisure": "playground"}}, {"type": "way", "id": 380301553, "nodes": [3836450582, 3836450590, 3836450584, 3836450579, 3836450582], "tags": {"leisure": "playground"}}, {"type": "way", "id": 544358436, "nodes": [5262217597, 5262217596, 5262217595, 5262217594, 5262217597], "tags": {"leisure": "playground"}}, {"type": "way", "id": 604389694, "nodes": [5735008292, 5735008291, 5735008290, 5735008289, 5735008288, 5735008287, 5735008292], "tags": {"access": "private", "leisure": "playground"}}, {"type": "way", "id": 604389697, "nodes": [5735008302, 5735008301, 5735008300, 5735008299, 5735008298, 5735008297, 5735008296, 5735008295, 5735008294, 5735008293, 5735008267, 5735008268, 5735008269, 5735008302], "tags": {"access": "private", "leisure": "playground"}}, {"type": "way", "id": 604732619, "nodes": [5737401094, 5737401093, 5737401092, 5737401091, 5737401090, 5737401089, 5737401088, 5737401087, 5737401086, 5737401094], "tags": {"leisure": "playground"}}, {"type": "way", "id": 616913341, "nodes": [5832034905, 5832034915, 5832034904, 2384572861, 7616164579, 5832034931, 5832034896, 5832034897, 5832034898, 5832034899, 5832034905], "tags": {"leisure": "park", "protection_title": "Gesch\u00fctzte Gr\u00fcnanlage"}}, {"type": "way", "id": 616913342, "nodes": [5832034900, 2384572867, 7616164580, 2384572852, 2384572858, 5832034903, 5832034902, 5832034901, 5832034900], "tags": {"leisure": "park", "protection_title": "Gesch\u00fctzte Gr\u00fcnanlage"}}, {"type": "way", "id": 972075727, "nodes": [8996809256, 8996809255, 8996809254, 8996809253, 8996809256], "tags": {"access": "private", "leisure": "playground"}}, {"type": "way", "id": 1092197692, "nodes": [10002899306, 10002899305, 12012270727, 12012270726, 12012270725, 10002899304, 12012270724, 10002899303, 10002899306], "tags": {"leisure": "playground", "opening_hours": "09:00-13:00,15:00-20:00", "operator": "Stadt und Land"}}, {"type": "way", "id": 1117523416, "nodes": [10220839429, 10220839430, 10220839431, 10220839432, 10220839429], "tags": {"leisure": "playground"}}, {"type": "way", "id": 1296113069, "nodes": [12010075655, 12010075654, 12010075653, 12010075652, 12010075651, 12010075650, 12010075649, 12010075648, 12010075647, 12010075646, 12010075645, 12010075655], "tags": {"leisure": "playground"}}, {"type": "way", "id": 1296348069, "nodes": [12012319503, 12012319502, 12012319501, 12012319500, 12012319499, 12012319498, 12012319497, 12012319496, 12012319495, 12012319494, 12012319493, 12012319492, 12012319491, 12012319490, 12012319503], "tags": {"leisure": "playground"}}, {"type": "way", "id": 1414249478, "nodes": [12995748744, 12995748745, 12995748746, 12995748747, 12995748748, 12995748749, 12995748750, 12995748751, 12995748752, 12995748744], "tags": {"access": "private", "leisure": "playground"}}]}