{"version": 0.6, "generator": "Overpass API 0.7.62.7 375dc00a", "osm3s": {"timestamp_osm_base": "2025-08-05T14:45:45Z", "copyright": "The data included in this document is from www.openstreetmap.org. The data is made available under ODbL."}, "elements": [{"type": "node", "id": 29786562, "lat": 52.4860644, "lon": 13.4805261}, {"type": "node", "id": 29786563, "lat": 52.4868056, "lon": 13.478946}, {"type": "node", "id": 29786564, "lat": 52.487769, "lon": 13.4780467}, {"type": "node", "id": 29786754, "lat": 52.4943467, "lon": 13.4631751}, {"type": "node", "id": 29786755, "lat": 52.4931572, "lon": 13.4658169}, {"type": "node", "id": 29786756, "lat": 52.4917513, "lon": 13.4702852}, {"type": "node", "id": 29786757, "lat": 52.4912152, "lon": 13.4729469}, {"type": "node", "id": 29786758, "lat": 52.4911218, "lon": 13.4735962}, {"type": "node", "id": 29786759, "lat": 52.4902776, "lon": 13.4755721}, {"type": "node", "id": 29786760, "lat": 52.4899424, "lon": 13.4761801}, {"type": "node", "id": 29786761, "lat": 52.4815498, "lon": 13.4729864}, {"type": "node", "id": 32248820, "lat": 52.49179, "lon": 13.4507765}, {"type": "node", "id": 38898288, "lat": 52.495095, "lon": 13.4639502}, {"type": "node", "id": 68437791, "lat": 52.4893898, "lon": 13.4505704, "tags": {"addr:city": "Berlin", "addr:housenumber": "46", "addr:postcode": "12435", "addr:street": "Karl-Kunger-Stra\u00dfe", "addr:suburb": "Alt-Treptow", "amenity": "pharmacy", "check_date": "2024-09-06", "check_date:opening_hours": "2024-06-04", "dispensing": "yes", "healthcare": "pharmacy", "name": "Margareten-Apotheke", "opening_hours": "Mo-Fr 08:30-18:30; Sa 08:30-13:00", "phone": "+49 30 5337855", "website": "http://www.apotheke.borchert-online.de/", "wheelchair": "no"}}, {"type": "node", "id": 157468225, "lat": 52.496468, "lon": 13.4499021}, {"type": "node", "id": 157468240, "lat": 52.4947058, "lon": 13.4478983}, {"type": "node", "id": 157468245, "lat": 52.4946511, "lon": 13.4510542}, {"type": "node", "id": 157468251, "lat": 52.4938798, "lon": 13.4494865}, {"type": "node", "id": 157468256, "lat": 52.4947121, "lon": 13.4468932}, {"type": "node", "id": 157468261, "lat": 52.4947281, "lon": 13.4474109}, {"type": "node", "id": 206379901, "lat": 52.4944234, "lon": 13.4483673}, {"type": "node", "id": 206380245, "lat": 52.4963999, "lon": 13.4521112}, {"type": "node", "id": 206380246, "lat": 52.4960107, "lon": 13.4519169}, {"type": "node", "id": 206380247, "lat": 52.4957142, "lon": 13.4525816}, {"type": "node", "id": 206380248, "lat": 52.4953047, "lon": 13.4534698}, {"type": "node", "id": 244430503, "lat": 52.4916832, "lon": 13.4509972}, {"type": "node", "id": 257375935, "lat": 52.4858979, "lon": 13.4665799}, {"type": "node", "id": 260647531, "lat": 52.4910889, "lon": 13.440686}, {"type": "node", "id": 260739740, "lat": 52.4908633, "lon": 13.4455987, "tags": {"barrier": "kerb", "kerb": "lowered", "tactile_paving": "no"}}, {"type": "node", "id": 260739741, "lat": 52.490695, "lon": 13.4458474}, {"type": "node", "id": 260739742, "lat": 52.4901939, "lon": 13.4450121}, {"type": "node", "id": 260739743, "lat": 52.4897277, "lon": 13.4441565}, {"type": "node", "id": 260739744, "lat": 52.4898413, "lon": 13.4438558}, {"type": "node", "id": 260739745, "lat": 52.4903061, "lon": 13.4444903}, {"type": "node", "id": 261713094, "lat": 52.4947268, "lon": 13.446651}, {"type": "node", "id": 261713095, "lat": 52.4947493, "lon": 13.4461819}, {"type": "node", "id": 261713096, "lat": 52.4947294, "lon": 13.4458707}, {"type": "node", "id": 261713097, "lat": 52.4946711, "lon": 13.4455804}, {"type": "node", "id": 261713098, "lat": 52.4946072, "lon": 13.4453285}, {"type": "node", "id": 261715526, "lat": 52.4902241, "lon": 13.4400909}, {"type": "node", "id": 261756925, "lat": 52.4900074, "lon": 13.439661}, {"type": "node", "id": 261756926, "lat": 52.4905074, "lon": 13.4398107}, {"type": "node", "id": 261909715, "lat": 52.4871117, "lon": 13.4503163}, {"type": "node", "id": 261911690, "lat": 52.4879719, "lon": 13.4488451}, {"type": "node", "id": 261911691, "lat": 52.4883482, "lon": 13.4494214}, {"type": "node", "id": 261963290, "lat": 52.4905931, "lon": 13.456649, "tags": {"addr:city": "Berlin", "addr:housenumber": "111", "addr:postcode": "12435", "addr:street": "Elsenstra\u00dfe", "amenity": "pharmacy", "check_date": "2024-07-20", "check_date:opening_hours": "2024-07-20", "dispensing": "yes", "email": "treptow@docmorris-apotheke.de", "healthcare": "pharmacy", "name": "Gr\u00fcne Apotheke", "opening_hours": "Mo-Fr 09:00-18:30; Sa 10:00-18:00", "operator": "DocMorris Kooperationen GmbH", "phone": "+49 30 53212201", "source": "http://www.parkcentertreptow.de/einkaufswelt/centerplan.html", "website": "http://www.docmorris-apotheke.de/de/apotheken/list/berlin/treptow/", "wheelchair": "yes"}}, {"type": "node", "id": 261973488, "lat": 52.4950412, "lon": 13.463984}, {"type": "node", "id": 261973489, "lat": 52.4950345, "lon": 13.4635977}, {"type": "node", "id": 261973668, "lat": 52.4872539, "lon": 13.4646516}, {"type": "node", "id": 261973672, "lat": 52.4869117, "lon": 13.4651602}, {"type": "node", "id": 261983485, "lat": 52.494884, "lon": 13.4477833}, {"type": "node", "id": 262019758, "lat": 52.4929684, "lon": 13.4483258}, {"type": "node", "id": 262019762, "lat": 52.4923441, "lon": 13.4497745}, {"type": "node", "id": 262019768, "lat": 52.4897566, "lon": 13.4548548}, {"type": "node", "id": 262019788, "lat": 52.4922513, "lon": 13.4495389}, {"type": "node", "id": 262029642, "lat": 52.4902456, "lon": 13.4397152}, {"type": "node", "id": 282270470, "lat": 52.4942157, "lon": 13.463199}, {"type": "node", "id": 332310779, "lat": 52.4942303, "lon": 13.4448567}, {"type": "node", "id": 332626018, "lat": 52.4940576, "lon": 13.444678}, {"type": "node", "id": 380069720, "lat": 52.4869948, "lon": 13.4786597}, {"type": "node", "id": 382423596, "lat": 52.4876984, "lon": 13.4814452}, {"type": "node", "id": 382423604, "lat": 52.4879434, "lon": 13.4800713}, {"type": "node", "id": 392683175, "lat": 52.4859875, "lon": 13.4571207, "tags": {"addr:city": "Berlin", "addr:country": "DE", "addr:housenumber": "49", "addr:postcode": "12435", "addr:street": "Kiefholzstra\u00dfe", "addr:suburb": "Alt-Treptow", "brand": "Aldi Nord", "brand:wikidata": "Q41171373", "brand:wikipedia": "hu:Aldi Nord", "name": "Aldi", "opening_hours": "Mo-Sa 08:00-21:00", "shop": "supermarket", "website": "https://www.aldi-nord.de/", "wheelchair": "yes"}}, {"type": "node", "id": 392683176, "lat": 52.4855808, "lon": 13.4568606, "tags": {"addr:city": "Berlin", "addr:housenumber": "50", "addr:postcode": "12435", "addr:street": "Kiefholzstra\u00dfe", "brand": "Rewe", "brand:wikidata": "Q16968817", "brand:wikipedia": "de:Rewe", "check_date:opening_hours": "2024-08-21", "drink:club-mate": "retail", "internet_access": "wlan", "name": "REWE", "opening_hours": "Mo-Sa 07:00-22:00", "shop": "supermarket", "wheelchair": "yes"}}, {"type": "node", "id": 417213012, "lat": 52.4871407, "lon": 13.4799373}, {"type": "node", "id": 417213014, "lat": 52.4869274, "lon": 13.4804502}, {"type": "node", "id": 417213015, "lat": 52.4871187, "lon": 13.4807453}, {"type": "node", "id": 417213016, "lat": 52.4874291, "lon": 13.4810509}, {"type": "node", "id": 417213017, "lat": 52.487681, "lon": 13.4813523}, {"type": "node", "id": 417213046, "lat": 52.4858194, "lon": 13.4816806}, {"type": "node", "id": 417213116, "lat": 52.4914445, "lon": 13.4716532}, {"type": "node", "id": 417213266, "lat": 52.4917717, "lon": 13.4634004}, {"type": "node", "id": 417213267, "lat": 52.4924337, "lon": 13.4611801}, {"type": "node", "id": 417237675, "lat": 52.4931928, "lon": 13.4651593, "tags": {"addr:housenumber": "15", "addr:street": "Puschkinallee", "amenity": "restaurant", "cuisine": "pizza", "email": "info@croccante-alporto.de", "name": "Croccante Al Porto", "opening_hours": "Su, Tu-Th 12:00-22:00; Fr-Sa 12:00-23:00", "phone": "+49-30-20617653", "website": "https://croccante-alporto.de/", "website:menu": "https://croccante-alporto.de/wp-content/uploads/2025/06/2025_05_Speisekarte-Croccante-.pdf"}}, {"type": "node", "id": 417237678, "lat": 52.4939684, "lon": 13.4633423, "tags": {"amenity": "fast_food", "check_date:opening_hours": "2024-09-08", "cuisine": "fish", "indoor_seating": "no", "name": "L\u00f6cknitz-Forelle Imbi\u00df", "opening_hours": "Mo-Su 10:00-16:00", "outdoor_seating": "yes", "smoking": "yes", "toilets:wheelchair": "no", "wheelchair": "yes"}}, {"type": "node", "id": 419214309, "lat": 52.4873286, "lon": 13.4644952}, {"type": "node", "id": 419214316, "lat": 52.4875211, "lon": 13.4641989}, {"type": "node", "id": 419214317, "lat": 52.4899431, "lon": 13.4606093}, {"type": "node", "id": 419214382, "lat": 52.4889367, "lon": 13.463687}, {"type": "node", "id": 419214385, "lat": 52.4888566, "lon": 13.4636104}, {"type": "node", "id": 419214395, "lat": 52.4887813, "lon": 13.4635762}, {"type": "node", "id": 419214400, "lat": 52.4887132, "lon": 13.4634918}, {"type": "node", "id": 419214403, "lat": 52.4886573, "lon": 13.4635682}, {"type": "node", "id": 419214407, "lat": 52.4886887, "lon": 13.4639765}, {"type": "node", "id": 419214602, "lat": 52.4850084, "lon": 13.4679006}, {"type": "node", "id": 419214689, "lat": 52.4898157, "lon": 13.4689128}, {"type": "node", "id": 448591400, "lat": 52.4923165, "lon": 13.4513938, "tags": {"addr:city": "Berlin", "addr:country": "DE", "addr:housenumber": "12", "addr:postcode": "12435", "addr:street": "Bouch\u00e9stra\u00dfe", "addr:suburb": "Alt-Treptow", "air_conditioning": "no", "amenity": "pub", "check_date:opening_hours": "2024-11-13", "indoor_seating": "yes", "name": "Billard Company Salon Treptow", "opening_hours": "Tu 14:00-01:00, We-Mo 17:00-01:00", "outdoor_seating": "yes", "payment:credit_cards": "yes", "payment:debit_cards": "yes", "phone": "+49-30-5347134", "sport": "billiards", "toilets:wheelchair": "yes", "website": "http://www.billard-company.de/", "wheelchair": "yes", "wheelchair:description": "Billard Salon voll rollstuhlgerecht, Platz auch f\u00fcr E-Rollst\u00fchle. WC ist rollstuhlgerecht, jedoch werden dort viele Dinge gelagert, daher nur bedingt nutzbar. Es gibt Getr\u00e4nke + einige warme Gerichte f\u00fcr den kleinen Hunger. Bedienungen immer freundlich"}}, {"type": "node", "id": 485354280, "lat": 52.4974062, "lon": 13.4538746, "tags": {"amenity": "bar", "name": "Escobar"}}, {"type": "node", "id": 515660626, "lat": 52.4905655, "lon": 13.45759, "tags": {"amenity": "fast_food", "check_date": "2024-10-01", "check_date:diet:vegetarian": "2024-10-01", "check_date:opening_hours": "2024-10-01", "diet:vegetarian": "yes", "name": "San Mendoza", "opening_hours:signed": "no", "wheelchair": "yes"}}, {"type": "node", "id": 517405780, "lat": 52.4891404, "lon": 13.4539282, "tags": {"addr:city": "Berlin", "addr:housenumber": "26", "addr:postcode": "12435", "addr:street": "Elsenstra\u00dfe", "amenity": "restaurant", "capacity": "50", "check_date": "2024-09-06", "check_date:opening_hours": "2024-06-04", "cuisine": "pizza;pasta", "diet:halal": "no", "diet:vegan": "yes", "diet:vegetarian": "yes", "indoor_seating": "yes", "name": "Desha - Aceto Lokanta", "opening_hours:signed": "no", "outdoor_seating": "yes", "payment:credit_cards": "yes", "payment:debit_cards": "yes", "phone": "+49 30 53 21 91 10", "toilets:wheelchair": "no", "website": "http://www.acetolokanta.de", "wheelchair": "limited"}}, {"type": "node", "id": 517409104, "lat": 52.4884309, "lon": 13.4543612, "tags": {"addr:city": "Berlin", "addr:country": "DE", "addr:housenumber": "35", "addr:postcode": "12435", "addr:street": "Kiefholzstra\u00dfe", "addr:suburb": "Alt-Treptow", "amenity": "pub", "indoor_seating": "yes", "name": "Gute Laune", "note": "no opening_hours to be found outside", "opening_hours": "Tu-Fr 15:00-18:00+, Sa,Su 18:00-24:00+", "outdoor_seating": "yes", "phone": "+49 30 5337847"}}, {"type": "node", "id": 517409264, "lat": 52.4886472, "lon": 13.454073, "tags": {"addr:city": "Berlin", "addr:country": "DE", "addr:housenumber": "33", "addr:postcode": "12435", "addr:street": "Kiefholzstra\u00dfe", "addr:suburb": "Alt-Treptow", "amenity": "pub", "check_date": "2024-09-06", "check_date:opening_hours": "2024-06-04", "indoor_seating": "yes", "name": "Else", "opening_hours": "Mo-Sa 14:00-22:00+", "opening_hours:signed": "no", "outdoor_seating": "yes", "wheelchair": "yes"}}, {"type": "node", "id": 622136255, "lat": 52.4899696, "lon": 13.4565921, "tags": {"amenity": "restaurant", "indoor_seating": "yes", "name": "Tapas No. 6", "opening_hours": "Tu-Sa 17:00-23:00", "outdoor_seating": "yes", "smoking": "outside", "website": "https://tapas-nr6.de/", "wheelchair": "no"}}, {"type": "node", "id": 622136256, "lat": 52.4902199, "lon": 13.4560369, "tags": {"addr:city": "Berlin", "addr:country": "DE", "addr:housenumber": "2", "addr:postcode": "12435", "addr:street": "Beermannstra\u00dfe", "addr:suburb": "Alt-Treptow", "amenity": "cafe", "check_date": "2024-10-01", "check_date:opening_hours": "2024-10-01", "contact:phone": "+49 30 91513728", "contact:website": "https://www.twins-catering.de/", "diet:vegetarian": "yes", "indoor_seating": "yes", "level": "0", "name": "Twins Catering", "opening_hours": "Mo-Su 06:00-18:00", "outdoor_seating": "yes", "payment:credit_cards": "yes", "payment:debit_cards": "yes", "smoking": "outside", "toilets": "yes", "toilets:wheelchair": "designated", "wheelchair": "yes"}}, {"type": "node", "id": 652813604, "lat": 52.495462, "lon": 13.4581378}, {"type": "node", "id": 652813605, "lat": 52.4955853, "lon": 13.4578325}, {"type": "node", "id": 652813733, "lat": 52.4947571, "lon": 13.4571676}, {"type": "node", "id": 652813739, "lat": 52.4947059, "lon": 13.4572737}, {"type": "node", "id": 652813747, "lat": 52.4945208, "lon": 13.4578171}, {"type": "node", "id": 652813752, "lat": 52.4942726, "lon": 13.4575918}, {"type": "node", "id": 652813755, "lat": 52.4946907, "lon": 13.456122}, {"type": "node", "id": 652813756, "lat": 52.4949393, "lon": 13.456264}, {"type": "node", "id": 652813989, "lat": 52.4945228, "lon": 13.4570739}, {"type": "node", "id": 751235768, "lat": 52.4904747, "lon": 13.4525957}, {"type": "node", "id": 751235799, "lat": 52.4903179, "lon": 13.4522973}, {"type": "node", "id": 751235835, "lat": 52.4907796, "lon": 13.4520639}, {"type": "node", "id": 770432300, "lat": 52.4922698, "lon": 13.4427171}, {"type": "node", "id": 770432348, "lat": 52.4926486, "lon": 13.4438946}, {"type": "node", "id": 770432367, "lat": 52.4918989, "lon": 13.4422175}, {"type": "node", "id": 771224722, "lat": 52.4931733, "lon": 13.447773}, {"type": "node", "id": 771224736, "lat": 52.4936984, "lon": 13.4464047}, {"type": "node", "id": 771224738, "lat": 52.4937646, "lon": 13.4462698}, {"type": "node", "id": 771224743, "lat": 52.4927945, "lon": 13.4434514}, {"type": "node", "id": 771224744, "lat": 52.492429, "lon": 13.44293}, {"type": "node", "id": 771224770, "lat": 52.4938331, "lon": 13.4461273}, {"type": "node", "id": 771224784, "lat": 52.4934084, "lon": 13.4471122}, {"type": "node", "id": 771224831, "lat": 52.4935565, "lon": 13.4467161}, {"type": "node", "id": 771224892, "lat": 52.4939158, "lon": 13.4459613}, {"type": "node", "id": 771224939, "lat": 52.4936188, "lon": 13.4465714}, {"type": "node", "id": 771525577, "lat": 52.4883623, "lon": 13.4513842}, {"type": "node", "id": 771525721, "lat": 52.4885045, "lon": 13.4516114}, {"type": "node", "id": 771525813, "lat": 52.4877202, "lon": 13.4510875}, {"type": "node", "id": 771528608, "lat": 52.4891724, "lon": 13.4514776, "tags": {"addr:city": "Berlin", "addr:country": "DE", "addr:housenumber": "6", "addr:postcode": "12435", "addr:street": "Plesser Stra\u00dfe", "addr:suburb": "Alt-Treptow", "amenity": "restaurant", "check_date": "2024-09-06", "cuisine": "indian", "diet:halal": "no", "diet:vegan": "yes", "diet:vegetarian": "yes", "indoor_seating": "yes", "level": "0", "name": "Hindi", "opening_hours": "Mo-Th 12:00-23:00; Fr,Sa 12:00-23:00; Su 12:00-23:00", "outdoor_seating": "yes", "phone": "+49 30 99408428", "smoking": "outside", "takeaway": "yes", "toilets": "no", "toilets:access": "customers", "website": "http://www.restaurant-hindi.de/", "wheelchair": "yes"}}, {"type": "node", "id": 772779473, "lat": 52.4933415, "lon": 13.4467788}, {"type": "node", "id": 772779488, "lat": 52.4935465, "lon": 13.4461798}, {"type": "node", "id": 773086110, "lat": 52.4873471, "lon": 13.4507809}, {"type": "node", "id": 773086162, "lat": 52.4872628, "lon": 13.4506563}, {"type": "node", "id": 847934240, "lat": 52.4887316, "lon": 13.464035}, {"type": "node", "id": 1010212368, "lat": 52.496716, "lon": 13.4583043}, {"type": "node", "id": 1010212390, "lat": 52.4965174, "lon": 13.4593416}, {"type": "node", "id": 1010212430, "lat": 52.4944587, "lon": 13.4569194}, {"type": "node", "id": 1113684083, "lat": 52.4946288, "lon": 13.4476995}, {"type": "node", "id": 1113684087, "lat": 52.4939938, "lon": 13.4494232}, {"type": "node", "id": 1165362755, "lat": 52.4939819, "lon": 13.4455644}, {"type": "node", "id": 1176680874, "lat": 52.488148, "lon": 13.4503298}, {"type": "node", "id": 1176680900, "lat": 52.4890079, "lon": 13.4531416, "tags": {"addr:city": "Berlin", "addr:country": "DE", "addr:housenumber": "11", "addr:postcode": "12435", "addr:street": "Plesser Stra\u00dfe", "addr:suburb": "Alt-Treptow", "check_date:opening_hours": "2024-06-04", "contact:email": "praxis@annamendelson.de", "contact:phone": "+49 30 21454933", "contact:website": "https://www.annamendelson.de/", "healthcare": "psychotherapist", "level": "0", "name": "Anna Mendelson", "opening_hours:signed": "no", "wheelchair": "yes"}}, {"type": "node", "id": 1176680915, "lat": 52.4917547, "lon": 13.4511068}, {"type": "node", "id": 1176680918, "lat": 52.488185, "lon": 13.4510447}, {"type": "node", "id": 1176680934, "lat": 52.4888808, "lon": 13.4514304, "tags": {"amenity": "restaurant", "check_date": "2024-10-01", "check_date:diet:vegan": "2024-10-01", "check_date:diet:vegetarian": "2024-10-01", "cuisine": "japanese", "diet:vegan": "yes", "diet:vegetarian": "yes", "indoor_seating": "yes", "level": "0", "name": "Iro Izakaya", "opening_hours": "Mo-Fr 12:00-24:00; Sa-Su 12:00-24:00; PH closed", "outdoor_seating": "yes", "payment:credit_cards": "no", "payment:debit_cards": "yes", "takeaway": "yes", "toilets": "yes", "toilets:access": "customers", "toilets:wheelchair": "no", "website": "https://iro-restaurant.de/", "wheelchair": "limited"}}, {"type": "node", "id": 1232957863, "lat": 52.4900703, "lon": 13.4401655}, {"type": "node", "id": 1232957953, "lat": 52.4900713, "lon": 13.4403179}, {"type": "node", "id": 1247060094, "lat": 52.4892205, "lon": 13.450265, "tags": {"amenity": "pub", "check_date:opening_hours": "2024-06-04", "indoor_seating": "yes", "name": "Wilde 28", "opening_hours:signed": "no", "outdoor_seating": "yes", "smoking": "yes", "wheelchair": "limited"}}, {"type": "node", "id": 1328856169, "lat": 52.4869406, "lon": 13.4801673}, {"type": "node", "id": 1390695197, "lat": 52.4944067, "lon": 13.4600197, "tags": {"addr:city": "Berlin", "addr:country": "DE", "addr:housenumber": "16", "addr:postcode": "12435", "addr:street": "Martin-Hoffmann-Stra\u00dfe", "addr:suburb": "Alt-Treptow", "amenity": "cafe", "check_date:opening_hours": "2024-08-27", "contact:phone": "+49 30 53218552", "indoor_seating": "no", "name": "Muca", "opening_hours:signed": "no", "outdoor_seating": "yes", "smoking": "no", "wheelchair": "limited", "wheelchair:description": "Zugang schmal, aber ebenerdig. Rollstuhl WC zwar vorhanden, aber als Abstellraum genutzt. d.h. nicht f\u00fcr Behinderte nutzbar. F\u00fcr Elektro-Rollst\u00fchle vermutlich sowieso zu eng."}}, {"type": "node", "id": 1438126826, "lat": 52.4869491, "lon": 13.4805903}, {"type": "node", "id": 1438126837, "lat": 52.4871357, "lon": 13.4809189}, {"type": "node", "id": 1438126860, "lat": 52.4878849, "lon": 13.4805287}, {"type": "node", "id": 1465071856, "lat": 52.4950955, "lon": 13.4576999}, {"type": "node", "id": 1465071867, "lat": 52.4951906, "lon": 13.4574783}, {"type": "node", "id": 1465071869, "lat": 52.4953415, "lon": 13.4576965}, {"type": "node", "id": 1465071870, "lat": 52.4953568, "lon": 13.457598}, {"type": "node", "id": 1465071871, "lat": 52.4954139, "lon": 13.4577479}, {"type": "node", "id": 1465071872, "lat": 52.4954156, "lon": 13.4577361}, {"type": "node", "id": 1465071873, "lat": 52.4954795, "lon": 13.4580907}, {"type": "node", "id": 1465071874, "lat": 52.4954959, "lon": 13.4580465}, {"type": "node", "id": 1465071877, "lat": 52.4955332, "lon": 13.4580711}, {"type": "node", "id": 1499856796, "lat": 52.4896898, "lon": 13.4396162}, {"type": "node", "id": 1500101512, "lat": 52.4927192, "lon": 13.4451768, "tags": {"addr:city": "Berlin", "addr:country": "DE", "addr:housenumber": "69", "addr:postcode": "12435", "addr:street": "Karl-Kunger-Stra\u00dfe", "addr:suburb": "Alt-Treptow", "amenity": "restaurant", "contact:email": "info@treptowerklause.de", "contact:website": "https://www.treptowerklause.de/", "cuisine": "german;french", "diet:vegan": "yes", "diet:vegetarian": "yes", "name": "Treptower Klause", "opening_hours": "We-Sa 18:00-22:00", "outdoor_seating": "yes", "payment:cash": "only", "payment:credit_cards": "no", "phone": "+49 175 90 10 099", "reservation": "yes", "wheelchair": "limited"}}, {"type": "node", "id": 1505249054, "lat": 52.489587, "lon": 13.4546174}, {"type": "node", "id": 1505249115, "lat": 52.4898564, "lon": 13.4549451}, {"type": "node", "id": 1505249126, "lat": 52.4905579, "lon": 13.4528165}, {"type": "node", "id": 1505249161, "lat": 52.4917152, "lon": 13.4505765}, {"type": "node", "id": 1505249204, "lat": 52.4917388, "lon": 13.4506999}, {"type": "node", "id": 1505249220, "lat": 52.4918233, "lon": 13.4508264}, {"type": "node", "id": 1505249232, "lat": 52.4925887, "lon": 13.4488228}, {"type": "node", "id": 1505249243, "lat": 52.4927709, "lon": 13.4483928}, {"type": "node", "id": 1505249277, "lat": 52.4929238, "lon": 13.4480043}, {"type": "node", "id": 1505249281, "lat": 52.4930667, "lon": 13.443479}, {"type": "node", "id": 1505249296, "lat": 52.4930736, "lon": 13.4475779}, {"type": "node", "id": 1505249324, "lat": 52.4936902, "lon": 13.444236}, {"type": "node", "id": 1505249327, "lat": 52.4937081, "lon": 13.4456962}, {"type": "node", "id": 1505249337, "lat": 52.4937787, "lon": 13.4454787}, {"type": "node", "id": 1505249351, "lat": 52.494004, "lon": 13.4455913}, {"type": "node", "id": 1505257110, "lat": 52.4947249, "lon": 13.4468065}, {"type": "node", "id": 1551950490, "lat": 52.4923466, "lon": 13.4685073}, {"type": "node", "id": 1551950491, "lat": 52.4927111, "lon": 13.4670172}, {"type": "node", "id": 1551950499, "lat": 52.4931823, "lon": 13.4657466}, {"type": "node", "id": 1551950517, "lat": 52.493405, "lon": 13.4651473}, {"type": "node", "id": 1551950519, "lat": 52.4934383, "lon": 13.4650572}, {"type": "node", "id": 1551950534, "lat": 52.4936639, "lon": 13.4644558}, {"type": "node", "id": 1551950537, "lat": 52.4936897, "lon": 13.4643805}, {"type": "node", "id": 1551950542, "lat": 52.4938282, "lon": 13.4640604}, {"type": "node", "id": 1551950555, "lat": 52.4938576, "lon": 13.4639922}, {"type": "node", "id": 1551950563, "lat": 52.4940623, "lon": 13.463542}, {"type": "node", "id": 1551950564, "lat": 52.4940729, "lon": 13.4635204}, {"type": "node", "id": 1551950565, "lat": 52.4940837, "lon": 13.4634961}, {"type": "node", "id": 1551950567, "lat": 52.4941431, "lon": 13.4633682}, {"type": "node", "id": 1551950568, "lat": 52.4941513, "lon": 13.4633515}, {"type": "node", "id": 1551950569, "lat": 52.4941606, "lon": 13.4633323}, {"type": "node", "id": 1561639983, "lat": 52.4897738, "lon": 13.4683303}, {"type": "node", "id": 1561639990, "lat": 52.4897894, "lon": 13.4682715}, {"type": "node", "id": 1561640004, "lat": 52.4898062, "lon": 13.4682081}, {"type": "node", "id": 1617351357, "lat": 52.4905819, "lon": 13.4480821, "tags": {"addr:city": "Berlin", "addr:country": "DE", "addr:housenumber": "18", "addr:postcode": "12435", "addr:street": "Karl-Kunger-Stra\u00dfe", "addr:suburb": "Alt-Treptow", "amenity": "restaurant", "check_date": "2025-05-13", "check_date:diet:vegetarian": "2025-05-13", "cuisine": "indian", "diet:vegetarian": "yes", "indoor_seating": "yes", "name": "Curry Junction", "opening_hours": "Mo-Su 12:00-20:00", "outdoor_seating": "yes", "wheelchair": "limited"}}, {"type": "node", "id": 1636830043, "lat": 52.4938376, "lon": 13.4599941}, {"type": "node", "id": 1636830086, "lat": 52.4939436, "lon": 13.4601281, "tags": {"amenity": "pharmacy", "check_date": "2023-10-29", "dispensing": "yes", "healthcare": "pharmacy", "level": "0", "name": "Blaue Apotheke", "opening_hours": "Mo-Fr 08:30-18:30; Sa 09:30-14:00", "operator": "Robert Roggenbuck", "wheelchair": "yes"}}, {"type": "node", "id": 1636830101, "lat": 52.4940115, "lon": 13.4596486}, {"type": "node", "id": 1636830152, "lat": 52.4941153, "lon": 13.4597909}, {"type": "node", "id": 1636830870, "lat": 52.4873221, "lon": 13.4774679, "tags": {"addr:city": "Berlin", "addr:country": "DE", "addr:housenumber": "14-17", "addr:postcode": "12435", "addr:street": "Alt-Treptow", "amenity": "restaurant", "name": "Zenner", "website": "https://zenner.berlin"}}, {"type": "node", "id": 1642987134, "lat": 52.491395, "lon": 13.441649}, {"type": "node", "id": 1642987135, "lat": 52.4914183, "lon": 13.4422096}, {"type": "node", "id": 1642987136, "lat": 52.4914209, "lon": 13.4422245}, {"type": "node", "id": 1642987138, "lat": 52.4914739, "lon": 13.4414872}, {"type": "node", "id": 1642987144, "lat": 52.4915769, "lon": 13.4418841}, {"type": "node", "id": 1642987147, "lat": 52.4916153, "lon": 13.4424824}, {"type": "node", "id": 1642987150, "lat": 52.49165, "lon": 13.4425187}, {"type": "node", "id": 1642987151, "lat": 52.4916551, "lon": 13.4417243}, {"type": "node", "id": 1642987170, "lat": 52.4918104, "lon": 13.4421885}, {"type": "node", "id": 1642987172, "lat": 52.4918339, "lon": 13.4422088}, {"type": "node", "id": 1642987210, "lat": 52.4929184, "lon": 13.4435045}, {"type": "node", "id": 1706140456, "lat": 52.492985, "lon": 13.4607034, "tags": {"amenity": "fast_food", "changing_table": "no", "check_date": "2024-09-06", "cuisine": "asian", "diet:vegan": "no", "diet:vegetarian": "yes", "indoor_seating": "yes", "name": "Asia Cucina", "opening_hours": "Mo-Su 10:00-21:00", "outdoor_seating": "yes", "smoking": "no", "wheelchair": "yes"}}, {"type": "node", "id": 1734664834, "lat": 52.4860944, "lon": 13.4804222}, {"type": "node", "id": 1734664836, "lat": 52.4863267, "lon": 13.4798045}, {"type": "node", "id": 1773846433, "lat": 52.4887022, "lon": 13.4477831}, {"type": "node", "id": 1773846434, "lat": 52.4889065, "lon": 13.4480634}, {"type": "node", "id": 1773846435, "lat": 52.4890855, "lon": 13.447038}, {"type": "node", "id": 1773846436, "lat": 52.4892567, "lon": 13.4473052}, {"type": "node", "id": 1914635217, "lat": 52.4945322, "lon": 13.447159}, {"type": "node", "id": 1914635218, "lat": 52.4945355, "lon": 13.4469914}, {"type": "node", "id": 1914635221, "lat": 52.4946719, "lon": 13.4478041}, {"type": "node", "id": 1993982552, "lat": 52.4932207, "lon": 13.4606946}, {"type": "node", "id": 1993982559, "lat": 52.4932733, "lon": 13.4607358}, {"type": "node", "id": 1993982562, "lat": 52.4933001, "lon": 13.4606437}, {"type": "node", "id": 2084847940, "lat": 52.4859774, "lon": 13.482124}, {"type": "node", "id": 2084847941, "lat": 52.4859815, "lon": 13.4820673}, {"type": "node", "id": 2084847942, "lat": 52.4859876, "lon": 13.4821441}, {"type": "node", "id": 2084847943, "lat": 52.4860052, "lon": 13.4821385}, {"type": "node", "id": 2084847944, "lat": 52.4860275, "lon": 13.4820929}, {"type": "node", "id": 2084847945, "lat": 52.486066, "lon": 13.4817294}, {"type": "node", "id": 2084847946, "lat": 52.4861072, "lon": 13.4817609}, {"type": "node", "id": 2085155825, "lat": 52.4901289, "lon": 13.4396815}, {"type": "node", "id": 2085155826, "lat": 52.4906049, "lon": 13.4398843}, {"type": "node", "id": 2085155827, "lat": 52.4907393, "lon": 13.4401045}, {"type": "node", "id": 2085155828, "lat": 52.4909351, "lon": 13.4404055}, {"type": "node", "id": 2085155830, "lat": 52.4924037, "lon": 13.4423284}, {"type": "node", "id": 2141778348, "lat": 52.4921598, "lon": 13.4510857, "tags": {"addr:city": "Berlin", "addr:floor": "0", "addr:housenumber": "12", "addr:postcode": "12435", "addr:street": "Bouch\u00e9stra\u00dfe", "brand": "LPG BioMarkt", "brand:wikidata": "Q107983669", "check_date": "2025-06-28", "check_date:opening_hours": "2024-11-13", "contact:website": "https://www.lpg-biomarkt.de/", "email": "info@lpg-biomarkt.de", "internet_access": "wlan", "internet_access:fee": "customers", "level": "0", "name": "LPG BioMarkt", "opening_hours": "Mo-Sa 08:00-21:00", "operator": "LPG BioMarkt GmbH", "organic": "only", "payment:cash": "yes", "payment:credit_cards": "yes", "payment:debit_cards": "yes", "phone": "+4930439739150", "shop": "supermarket", "wheelchair": "yes"}}, {"type": "node", "id": 2160817394, "lat": 52.4892471, "lon": 13.4527925, "tags": {"addr:city": "Berlin", "addr:country": "DE", "addr:housenumber": "1", "addr:postcode": "12435", "addr:street": "Plesser Stra\u00dfe", "addr:suburb": "Alt-Treptow", "amenity": "cafe", "check_date": "2024-09-06", "contact:phone": "+49 30 64830642", "contact:website": "https://www.cafe-grenzenlos.de/", "diet:halal": "no", "diet:vegan": "yes", "diet:vegetarian": "yes", "name": "Caf\u00e9 Grenzenlos", "opening_hours": "Mo-Fr 11:00-17:00; 2023 Dec 21-2024 Jan 15 closed", "opening_hours:kitchen": "Mo-Fr 11:00-14:30", "operator": "Psychosozialer Verbund Treptow e.V.", "payment:credit_cards": "yes", "payment:debit_cards": "yes", "wheelchair": "limited", "wheelchair:description": "Haben eine Rampe und ein rollstuhlgerechtes WC"}}, {"type": "node", "id": 2266306950, "lat": 52.49396, "lon": 13.456611}, {"type": "node", "id": 2266306951, "lat": 52.4939779, "lon": 13.4565434}, {"type": "node", "id": 2267244143, "lat": 52.4943391, "lon": 13.4465414}, {"type": "node", "id": 2267244145, "lat": 52.4945551, "lon": 13.446821}, {"type": "node", "id": 2323153580, "lat": 52.4880949, "lon": 13.4511987}, {"type": "node", "id": 2323153581, "lat": 52.4881678, "lon": 13.451074}, {"type": "node", "id": 2486356858, "lat": 52.4891018, "lon": 13.444604, "tags": {"healthcare": "physiotherapist", "name": "Physiotherapie Kremena Group", "opening_hours": "Mo-Fr 08:00-18:00 \"und nach Vereinbarung\"; Sa \"nach Vereinbarung\"", "wheelchair": "yes"}}, {"type": "node", "id": 2521156202, "lat": 52.4921303, "lon": 13.4576505, "tags": {"addr:city": "Berlin", "addr:country": "DE", "addr:housenumber": "75", "addr:postcode": "12435", "addr:street": "Am Treptower Park", "amenity": "doctors", "currency:XBT": "yes", "healthcare": "doctor", "healthcare:speciality": "ophthalmology", "level": "1", "name": "Augenarztpraxis Dipl.-Med. Ricarda Hoffmann", "opening_hours": "Mo 08:30-13:00,15:00-18:00, Tu,We,Fr 08:30-13:00, Th 13:00-18:00", "payment:lightning": "yes", "payment:lightning_contactless": "no", "payment:onchain": "yes", "phone": "+49 30 5348693", "survey:date": "2022-11-05", "wheelchair": "yes"}}, {"type": "node", "id": 2574312102, "lat": 52.4940026, "lon": 13.4461158, "tags": {"addr:city": "Berlin", "addr:country": "DE", "addr:housename": "InBit", "addr:housenumber": "65", "addr:postcode": "12435", "addr:street": "Lohm\u00fchlenstra\u00dfe", "addr:suburb": "Alt-Treptow", "amenity": "restaurant", "cuisine": "regional", "name": "Loh-ise"}}, {"type": "node", "id": 2574356758, "lat": 52.4922463, "lon": 13.4443528, "tags": {"barrier": "gate"}}, {"type": "node", "id": 2574356762, "lat": 52.4923109, "lon": 13.444638, "tags": {"barrier": "gate"}}, {"type": "node", "id": 2574356764, "lat": 52.4924572, "lon": 13.4440266}, {"type": "node", "id": 2971089687, "lat": 52.4899727, "lon": 13.4556649, "tags": {"addr:city": "Berlin", "addr:country": "DE", "addr:housenumber": "108", "addr:postcode": "12435", "addr:street": "Elsenstra\u00dfe", "amenity": "fast_food", "check_date": "2024-10-01", "check_date:diet:vegetarian": "2024-10-01", "cuisine": "pizza;kebab", "diet:vegetarian": "yes", "indoor_seating": "yes", "name": "take a way", "opening_hours": "24/7", "outdoor_seating": "yes", "wheelchair": "limited"}}, {"type": "node", "id": 2971089731, "lat": 52.4938275, "lon": 13.4599804}, {"type": "node", "id": 2971090535, "lat": 52.4938569, "lon": 13.4600385}, {"type": "node", "id": 2971090536, "lat": 52.4938624, "lon": 13.4600277}, {"type": "node", "id": 2971090537, "lat": 52.493867, "lon": 13.4599018}, {"type": "node", "id": 2971090538, "lat": 52.4938772, "lon": 13.4599155}, {"type": "node", "id": 2971090539, "lat": 52.4938964, "lon": 13.4600921}, {"type": "node", "id": 2971090540, "lat": 52.4939018, "lon": 13.4600813}, {"type": "node", "id": 2971090542, "lat": 52.4939621, "lon": 13.4597104}, {"type": "node", "id": 2971090543, "lat": 52.4939682, "lon": 13.4601302}, {"type": "node", "id": 2971090544, "lat": 52.493973, "lon": 13.4597251}, {"type": "node", "id": 2971090545, "lat": 52.4939829, "lon": 13.4600585}, {"type": "node", "id": 2971090547, "lat": 52.4939956, "lon": 13.4600758}, {"type": "node", "id": 2971090548, "lat": 52.4940006, "lon": 13.4596338}, {"type": "node", "id": 2971090549, "lat": 52.4940392, "lon": 13.4596862}, {"type": "node", "id": 2971090550, "lat": 52.4940455, "lon": 13.4596737}, {"type": "node", "id": 2971090552, "lat": 52.4940764, "lon": 13.4597367}, {"type": "node", "id": 2971090554, "lat": 52.4940784, "lon": 13.4598687}, {"type": "node", "id": 2971090555, "lat": 52.4940828, "lon": 13.4597242}, {"type": "node", "id": 2971090556, "lat": 52.4940891, "lon": 13.4598833}, {"type": "node", "id": 2971090557, "lat": 52.4941157, "lon": 13.4598304}, {"type": "node", "id": 2971110964, "lat": 52.4899558, "lon": 13.4547442}, {"type": "node", "id": 3039142154, "lat": 52.4897355, "lon": 13.4499694, "tags": {"addr:city": "Berlin", "addr:country": "DE", "addr:housenumber": "48", "addr:postcode": "12435", "addr:street": "Karl-Kunger-Stra\u00dfe", "addr:suburb": "Alt-Treptow", "amenity": "doctors", "contact:website": "http://praxis-khalaf.de/", "health_facility:type": "office", "health_specialty:psychosomatic_medicine": "main", "health_specialty:psychotherapy": "yes", "health_specialty:traditional_chinese_medicine": "partial", "healthcare": "doctor", "healthcare:speciality": "psychiatry", "medical_system:western": "yes", "name": "Praxis Khalaf", "office": "physician", "opening_hours": "\"nach Vereinbarung\"", "operator": "Dr. med. Sonja Khalaf", "source": "Geoportal Berlin / Hauskoordinaten"}}, {"type": "node", "id": 3057480475, "lat": 52.4952037, "lon": 13.4520611}, {"type": "node", "id": 3114480564, "lat": 52.4878116, "lon": 13.4796351}, {"type": "node", "id": 3114480565, "lat": 52.487545, "lon": 13.4797404}, {"type": "node", "id": 3114480567, "lat": 52.4876272, "lon": 13.4796316}, {"type": "node", "id": 3114480568, "lat": 52.4879472, "lon": 13.4797404}, {"type": "node", "id": 3114480570, "lat": 52.487666, "lon": 13.4795584}, {"type": "node", "id": 3114480571, "lat": 52.4878744, "lon": 13.479678}, {"type": "node", "id": 3114480572, "lat": 52.4878545, "lon": 13.4796944}, {"type": "node", "id": 3114480574, "lat": 52.4873417, "lon": 13.4799273}, {"type": "node", "id": 3114480575, "lat": 52.4877949, "lon": 13.4793729}, {"type": "node", "id": 3114480576, "lat": 52.4875783, "lon": 13.4796104}, {"type": "node", "id": 3114480577, "lat": 52.48773, "lon": 13.4793049}, {"type": "node", "id": 3124594520, "lat": 52.4931694, "lon": 13.465779}, {"type": "node", "id": 3124594522, "lat": 52.4934186, "lon": 13.4651105}, {"type": "node", "id": 3124594524, "lat": 52.4936769, "lon": 13.4644167}, {"type": "node", "id": 3124594528, "lat": 52.4938419, "lon": 13.4640287}, {"type": "node", "id": 3124595030, "lat": 52.4949859, "lon": 13.4639547}, {"type": "node", "id": 3131745400, "lat": 52.482897, "lon": 13.4710153}, {"type": "node", "id": 3131745418, "lat": 52.4843682, "lon": 13.4688249}, {"type": "node", "id": 3235739472, "lat": 52.4882342, "lon": 13.4488088}, {"type": "node", "id": 3235739474, "lat": 52.4882735, "lon": 13.4487384}, {"type": "node", "id": 3235739476, "lat": 52.4883881, "lon": 13.4485341}, {"type": "node", "id": 3235739494, "lat": 52.4885401, "lon": 13.4492699}, {"type": "node", "id": 3235739496, "lat": 52.488555, "lon": 13.4500313}, {"type": "node", "id": 3235739499, "lat": 52.4885646, "lon": 13.4497476}, {"type": "node", "id": 3235739501, "lat": 52.4885744, "lon": 13.4491052}, {"type": "node", "id": 3235739507, "lat": 52.4886057, "lon": 13.4491525}, {"type": "node", "id": 3235739518, "lat": 52.4886444, "lon": 13.4498691}, {"type": "node", "id": 3235739521, "lat": 52.4886627, "lon": 13.4489476}, {"type": "node", "id": 3235739528, "lat": 52.4886969, "lon": 13.4506369}, {"type": "node", "id": 3235739532, "lat": 52.4887113, "lon": 13.4509083}, {"type": "node", "id": 3236194866, "lat": 52.4899002, "lon": 13.4396363}, {"type": "node", "id": 3383826217, "lat": 52.4846706, "lon": 13.4796456}, {"type": "node", "id": 3383826218, "lat": 52.4854897, "lon": 13.4813447}, {"type": "node", "id": 3383826221, "lat": 52.4859587, "lon": 13.4818267}, {"type": "node", "id": 3391845894, "lat": 52.4903859, "lon": 13.4397655}, {"type": "node", "id": 3409383857, "lat": 52.4951193, "lon": 13.4637707}, {"type": "node", "id": 3442689187, "lat": 52.4908865, "lon": 13.4492635, "tags": {"addr:city": "Berlin", "addr:housenumber": "18", "addr:postcode": "12435", "addr:street": "Bouch\u00e9stra\u00dfe", "addr:suburb": "Alt-Treptow", "amenity": "restaurant", "check_date": "2025-05-13", "check_date:diet:vegetarian": "2025-05-13", "check_date:opening_hours": "2025-05-13", "cuisine": "pizza", "diet:vegetarian": "yes", "indoor_seating": "yes", "name": "Pizza Latino", "opening_hours": "Tu-Fr 11:00-22:30; Sa,Su,PH 13:00-22:30; Mo off", "outdoor_seating": "yes", "takeaway": "yes", "toilets:wheelchair": "no", "wheelchair": "no"}}, {"type": "node", "id": 3442689189, "lat": 52.4908508, "lon": 13.4492037, "tags": {"addr:city": "Berlin", "addr:housenumber": "18", "addr:postcode": "12435", "addr:street": "Bouch\u00e9stra\u00dfe", "addr:suburb": "Alt-Treptow", "healthcare": "psychotherapist", "name": "Anke Morgenroth"}}, {"type": "node", "id": 3442695810, "lat": 52.4889471, "lon": 13.4542788, "tags": {"amenity": "bar", "check_date": "2024-09-06", "check_date:opening_hours": "2024-03-07", "indoor_seating": "yes", "name": "Sportsbar Boomerang", "opening_hours:signed": "no", "outdoor_seating": "yes"}}, {"type": "node", "id": 3442698424, "lat": 52.4907561, "lon": 13.4490479, "tags": {"addr:city": "Berlin", "addr:country": "DE", "addr:housenumber": "19", "addr:postcode": "12435", "addr:street": "Bouch\u00e9stra\u00dfe", "addr:suburb": "Alt-Treptow", "healthcare": "psychotherapist", "name": "Praxis f\u00fcr Psychotherapie", "opening_hours": "\"Nur mit Termin\""}}, {"type": "node", "id": 3442708588, "lat": 52.4922791, "lon": 13.4458931, "tags": {"addr:city": "Berlin", "addr:country": "DE", "addr:housenumber": "65", "addr:postcode": "12435", "addr:street": "Karl-Kunger-Stra\u00dfe", "addr:suburb": "Alt-Treptow", "amenity": "dentist", "check_date": "2024-09-28", "contact:phone": "+49 30 53213930", "contact:website": "https://www.zahn33.de/standort-treptow", "healthcare": "dentist", "name": "Zahn33", "opening_hours": "Mo-Fr 08:00-20:00", "wheelchair": "limited"}}, {"type": "node", "id": 3442720887, "lat": 52.4921791, "lon": 13.4455574, "tags": {"addr:city": "Berlin", "addr:housenumber": "6", "addr:postcode": "12435", "addr:street": "Karl-Kunger-Stra\u00dfe", "addr:suburb": "Alt-Treptow", "amenity": "doctors", "contact:phone": "+49 30 5348620", "healthcare": "doctor", "healthcare:speciality": "general", "name": "Ilona Reh", "opening_hours": "Mo 09:00-13:00,15:00-18:00; Tu 09:00-15:00; We,Th 09:00-13:00", "wheelchair": "no"}}, {"type": "node", "id": 3609479703, "lat": 52.4883134, "lon": 13.4512434}, {"type": "node", "id": 3609479704, "lat": 52.4883456, "lon": 13.4507649}, {"type": "node", "id": 3609479710, "lat": 52.4884598, "lon": 13.4509761}, {"type": "node", "id": 3635071954, "lat": 52.4900023, "lon": 13.4403152}, {"type": "node", "id": 3666824753, "lat": 52.4901146, "lon": 13.4558556, "tags": {"addr:city": "Berlin", "addr:housenumber": "109", "addr:postcode": "12435", "addr:street": "Elsenstra\u00dfe", "addr:suburb": "Alt-Treptow", "amenity": "restaurant", "capacity": "50", "check_date": "2025-01-10", "check_date:opening_hours": "2024-10-01", "cuisine": "vietnamese", "diet:vegetarian": "yes", "indoor_seating": "yes", "name": "T.viet", "opening_hours:signed": "no", "outdoor_seating": "yes", "payment:american_express": "no", "payment:visa": "yes", "phone": "+493098196195", "smoking": "outside", "takeaway": "yes", "wheelchair": "yes"}}, {"type": "node", "id": 3874551671, "lat": 52.4916546, "lon": 13.4463573, "tags": {"addr:city": "Berlin", "addr:housenumber": "10", "addr:postcode": "12435", "addr:street": "Karl-Kunger-Stra\u00dfe", "amenity": "restaurant", "check_date": "2024-10-09", "cuisine": "pizza", "name": "Farina", "opening_hours": "We-Su 17:30-open", "outdoor_seating": "yes", "phone": "+49 30 23910130", "toilets:wheelchair": "yes", "wheelchair": "limited"}}, {"type": "node", "id": 3874578114, "lat": 52.4941749, "lon": 13.4560788, "tags": {"addr:city": "Berlin", "addr:country": "DE", "addr:housenumber": "6ab", "addr:postcode": "12435", "addr:street": "Puschkinallee", "addr:suburb": "Alt-Treptow", "amenity": "doctors", "contact:website": "https://dialyse-treptow.de/", "healthcare": "dialysis", "healthcare:speciality": "nephrology", "name": "Dialyse am Treptower Park", "opening_hours": "Mo-Th 08:00-19:00; Fr 08:00-16:00"}}, {"type": "node", "id": 3874596564, "lat": 52.4943846, "lon": 13.4575442}, {"type": "node", "id": 3874596565, "lat": 52.4943054, "lon": 13.4574774}, {"type": "node", "id": 3874624633, "lat": 52.4897764, "lon": 13.4493914, "tags": {"addr:city": "Berlin", "addr:housenumber": "24", "addr:postcode": "12435", "addr:street": "Karl-Kunger-Stra\u00dfe", "addr:suburb": "Alt-Treptow", "check_date": "2023-07-31", "healthcare": "psychotherapist", "name": "Psychotherapeutische Praxis Dipl.Badke", "opening_hours": "\"nach telefonische Vereinbarung\"", "phone": "+49 30 53605830"}}, {"type": "node", "id": 3874625927, "lat": 52.4897559, "lon": 13.4493981, "tags": {"addr:city": "Berlin", "addr:housenumber": "24", "addr:postcode": "12435", "addr:street": "Karl-Kunger-Stra\u00dfe", "addr:suburb": "Alt-Treptow", "check_date": "2023-07-31", "healthcare": "psychotherapist", "name": "Psychotherapeutische Gemeinschaftspraxis U. Wehrhahn, Kath. Thometzy", "phone": "+49 30 4048783"}}, {"type": "node", "id": 4006392903, "lat": 52.4892539, "lon": 13.452381, "tags": {"addr:city": "Berlin", "addr:country": "DE", "addr:housenumber": "2", "addr:postcode": "12435", "addr:street": "Plesser Stra\u00dfe", "amenity": "doctors", "check_date": "2024-09-06", "check_date:opening_hours": "2024-06-04", "contact:fax": "+49 30 5346654", "contact:phone": "+49 30 5337798", "contact:website": "https://www.frauenaerztin-treptow.de/", "healthcare": "doctor", "healthcare:speciality": "gynaecology", "name": "Dr. med. Filiz \u015eenyuva", "opening_hours": "Mo 13:00-18:00; Tu-We 08:00-13:00; Th 13:00-18:00; Fr 08:00-13:00"}}, {"type": "node", "id": 4006392911, "lat": 52.4892162, "lon": 13.4523862, "tags": {"addr:city": "Berlin", "addr:country": "DE", "addr:housenumber": "2", "addr:postcode": "12435", "addr:street": "Plesser Stra\u00dfe", "amenity": "dentist", "check_date": "2024-09-06", "contact:fax": "+49 30 13896377", "contact:phone": "+49 30 5348560", "contact:website": "https://www.zahnarzt-treptow-berlin.de/", "healthcare": "dentist", "name": "Zahnarztpraxis Christian Franke", "opening_hours": "Mo 09:00-13:00,13:30-18:00; Tu 08:00-12:30,13:00-16:00; We 08:00-13:00; Th 11:00-15:00,15:30-19:00; Fr 08:00-13:00", "wheelchair": "limited"}}, {"type": "node", "id": 4103514010, "lat": 52.4874342, "lon": 13.4516916, "tags": {"addr:city": "Berlin", "addr:country": "DE", "addr:housenumber": "38", "addr:postcode": "12435", "addr:street": "Elsenstra\u00dfe", "addr:suburb": "Alt-Treptow", "amenity": "cafe", "contact:website": "https://www.passenger-coffee.de/", "cuisine": "coffee_shop", "diet:halal": "no", "diet:vegan": "yes", "diet:vegetarian": "only", "indoor_seating": "yes", "internet_access": "yes", "internet_access:fee": "no", "name": "passenger coffee", "opening_hours": "Mo-Fr 07:30-17:30; Sa-Su 09:30-16:00", "outdoor_seating": "yes", "payment:credit_cards": "yes", "payment:debit_cards": "yes", "shop": "coffee", "smoking": "outside", "wheelchair": "yes"}}, {"type": "node", "id": 4119531056, "lat": 52.4885571, "lon": 13.4538009, "tags": {"addr:city": "Berlin", "addr:country": "DE", "addr:housenumber": "99", "addr:postcode": "12435", "addr:street": "Elsenstra\u00dfe", "amenity": "pharmacy", "check_date": "2024-09-06", "check_date:opening_hours": "2024-06-04", "healthcare": "pharmacy", "name": "B\u00e4ren-Apotheke", "opening_hours": "Mo-Fr 08:00-18:30; Sa 08:30-13:00", "source": "Geoportal Berlin / Hauskoordinaten"}}, {"type": "node", "id": 4190262794, "lat": 52.4893287, "lon": 13.4770475}, {"type": "node", "id": 4207913348, "lat": 52.4927514, "lon": 13.4444606, "tags": {"addr:city": "Berlin", "addr:housenumber": "58", "addr:postcode": "12435", "addr:street": "Lohm\u00fchlenstra\u00dfe", "amenity": "fast_food", "contact:phone": "+49 30 694 847 2", "cuisine": "burger", "diet:vegetarian": "yes", "name": "Burger Junkys", "opening_hours": "PH,Mo-Su 12:00-22:00", "takeaway": "yes", "wheelchair": "yes"}}, {"type": "node", "id": 4277697692, "lat": 52.4951359, "lon": 13.4637366}, {"type": "node", "id": 4303162859, "lat": 52.4951589, "lon": 13.4638334}, {"type": "node", "id": 4314796571, "lat": 52.4926044, "lon": 13.4610936}, {"type": "node", "id": 4317213314, "lat": 52.4967339, "lon": 13.4504341}, {"type": "node", "id": 4317213316, "lat": 52.4967654, "lon": 13.4503805}, {"type": "node", "id": 4317213318, "lat": 52.4968263, "lon": 13.4505806}, {"type": "node", "id": 4317213320, "lat": 52.4968578, "lon": 13.450527}, {"type": "node", "id": 4374709944, "lat": 52.4896813, "lon": 13.4397649}, {"type": "node", "id": 4374709945, "lat": 52.4897, "lon": 13.439911}, {"type": "node", "id": 4374709946, "lat": 52.4897583, "lon": 13.4399902}, {"type": "node", "id": 4374709949, "lat": 52.4897896, "lon": 13.4400328}, {"type": "node", "id": 4375311763, "lat": 52.488961, "lon": 13.447959, "tags": {"entrance": "main"}}, {"type": "node", "id": 4405786218, "lat": 52.4943477, "lon": 13.4448118}, {"type": "node", "id": 4405786220, "lat": 52.4948013, "lon": 13.4514271}, {"type": "node", "id": 4444052101, "lat": 52.4921322, "lon": 13.4445292}, {"type": "node", "id": 4444052102, "lat": 52.4922516, "lon": 13.4447299}, {"type": "node", "id": 4452530704, "lat": 52.4934086, "lon": 13.4454081, "tags": {"addr:city": "Berlin", "addr:housenumber": "1", "addr:postcode": "12435", "addr:street": "Kiefholzstra\u00dfe", "amenity": "restaurant", "contact:phone": "+49 30 28436778", "contact:website": "https://denoantri.com/", "cuisine": "italian;pizza", "diet:vegetarian": "yes", "indoor_seating": "yes", "level": "0", "name": "De Noantri", "opening_hours": "Mo-Su 12:00-22:00", "outdoor_seating": "yes", "toilets:wheelchair": "yes", "wheelchair": "yes"}}, {"type": "node", "id": 4590793950, "lat": 52.4928367, "lon": 13.4612835}, {"type": "node", "id": 4590793952, "lat": 52.4932476, "lon": 13.4606024}, {"type": "node", "id": 4590793967, "lat": 52.4938338, "lon": 13.4622774}, {"type": "node", "id": 4637528535, "lat": 52.4890528, "lon": 13.4548795, "tags": {"access": "private", "leisure": "playground"}}, {"type": "node", "id": 4653096444, "lat": 52.4864349, "lon": 13.4790552}, {"type": "node", "id": 4653096446, "lat": 52.4861986, "lon": 13.4796698}, {"type": "node", "id": 4653096447, "lat": 52.4859674, "lon": 13.4800125}, {"type": "node", "id": 4653096448, "lat": 52.4857234, "lon": 13.4800132}, {"type": "node", "id": 4653096449, "lat": 52.48564, "lon": 13.479916}, {"type": "node", "id": 4653096451, "lat": 52.4855545, "lon": 13.4799183}, {"type": "node", "id": 4653096455, "lat": 52.4851725, "lon": 13.4791249}, {"type": "node", "id": 4653096460, "lat": 52.4859305, "lon": 13.4784357}, {"type": "node", "id": 4653096461, "lat": 52.4861411, "lon": 13.4783856}, {"type": "node", "id": 4653096462, "lat": 52.4862729, "lon": 13.4787624}, {"type": "node", "id": 4682864289, "lat": 52.4912481, "lon": 13.4498138, "tags": {"addr:city": "Berlin", "addr:country": "DE", "addr:housenumber": "15", "addr:postcode": "12435", "addr:street": "Bouch\u00e9stra\u00dfe", "addr:suburb": "Alt-Treptow", "amenity": "cafe", "check_date": "2024-12-27", "check_date:diet:vegetarian": "2024-11-13", "contact:email": "info@mashasbagels.com", "contact:phone": "+49 30 50597960", "contact:website": "https://www.mashasbagels.com", "cuisine": "bagel", "description": "Bagels & Delicatessen", "diet:vegan": "yes", "diet:vegetarian": "yes", "indoor_seating": "yes", "level": "0", "name": "Masha\u2019s", "opening_hours": "Mo,Th-Sa 09:00-15:00; Tu-We off; Su 10:00-15:00", "outdoor_seating": "yes", "payment:cash": "yes", "payment:credit_cards": "yes", "payment:debit_cards": "yes", "payment:girocard": "yes", "payment:mastercard": "yes", "payment:visa": "yes", "toilets": "yes", "wheelchair": "no"}}, {"type": "node", "id": 4821633524, "lat": 52.4937294, "lon": 13.4440677}, {"type": "node", "id": 4821633525, "lat": 52.4937405, "lon": 13.4440321}, {"type": "node", "id": 4842240184, "lat": 52.4887848, "lon": 13.4777136}, {"type": "node", "id": 4842240185, "lat": 52.4860211, "lon": 13.4784141, "tags": {"access": "yes", "barrier": "gate", "entrance": "yes"}}, {"type": "node", "id": 4842240186, "lat": 52.4864215, "lon": 13.4790899, "tags": {"barrier": "gate", "entrance": "yes"}}, {"type": "node", "id": 4842240187, "lat": 52.4855908, "lon": 13.4799173, "tags": {"barrier": "gate", "entrance": "yes"}}, {"type": "node", "id": 4842240188, "lat": 52.4852033, "lon": 13.4790998, "tags": {"barrier": "gate", "entrance": "yes"}}, {"type": "node", "id": 4842240190, "lat": 52.4880728, "lon": 13.4778938}, {"type": "node", "id": 4842240193, "lat": 52.4859867, "lon": 13.4810746}, {"type": "node", "id": 4842240194, "lat": 52.4859887, "lon": 13.481767}, {"type": "node", "id": 5043904116, "lat": 52.4967779, "lon": 13.4507249}, {"type": "node", "id": 5082266440, "lat": 52.4889516, "lon": 13.4536019, "tags": {"addr:city": "Berlin", "addr:housenumber": "27", "addr:postcode": "12435", "addr:street": "Elsenstra\u00dfe", "amenity": "restaurant", "check_date": "2025-07-25", "check_date:opening_hours": "2025-07-25", "contact:phone": "+49 30 34508898", "contact:website": "https://moms-restaurant.de/", "cuisine": "vietnamese;sushi", "diet:halal": "no", "diet:vegan": "yes", "diet:vegetarian": "yes", "indoor_seating": "yes", "name": "Mom's", "official_name": "Mom's Creation Restaurant", "opening_hours": "Mo-Fr 11:00-23:00; Sa,Su,PH 12:00-23:00", "outdoor_seating": "yes", "payment:credit_cards": "yes", "payment:debit_cards": "yes", "smoking": "outside", "takeaway": "yes", "wheelchair": "no"}}, {"type": "node", "id": 5082266450, "lat": 52.4925821, "lon": 13.4583589, "tags": {"air_conditioning": "no", "amenity": "fast_food", "check_date": "2024-09-06", "cuisine": "kebab;pasta;pizza", "diet:halal": "yes", "diet:kosher": "no", "diet:vegan": "no", "diet:vegetarian": "yes", "indoor_seating": "yes", "name": "Elsend\u00f6ner", "opening_hours": "24/7", "outdoor_seating": "yes", "smoking": "outside", "wheelchair": "yes"}}, {"type": "node", "id": 5198591315, "lat": 52.4921768, "lon": 13.4576494, "tags": {"addr:city": "Berlin", "addr:housenumber": "75", "addr:postcode": "12435", "addr:street": "Am Treptower Park", "amenity": "doctors", "healthcare": "doctor", "healthcare:speciality": "otolaryngology", "level": "0", "name": "Burkhard Kunow, Facharzt f\u00fcr Hals-Nasen-Ohrenheilkunde, Sportmedizin, Akupunktur", "opening_hours": "\"Dienstag bis Donnerstag: nach Vereinbarung\"", "phone": "+49 30 44599946", "wheelchair": "yes"}}, {"type": "node", "id": 5243061464, "lat": 52.4963065, "lon": 13.4521672}, {"type": "node", "id": 5243070902, "lat": 52.4900513, "lon": 13.4537199}, {"type": "node", "id": 5243070911, "lat": 52.4907031, "lon": 13.4519212}, {"type": "node", "id": 5243070912, "lat": 52.490651, "lon": 13.4518254}, {"type": "node", "id": 5243070913, "lat": 52.4907269, "lon": 13.4519621}, {"type": "node", "id": 5243070914, "lat": 52.490757, "lon": 13.4519196}, {"type": "node", "id": 5243070915, "lat": 52.4907348, "lon": 13.4518781}, {"type": "node", "id": 5243070916, "lat": 52.4906012, "lon": 13.4523172}, {"type": "node", "id": 5243070917, "lat": 52.490632, "lon": 13.4523728}, {"type": "node", "id": 5243080391, "lat": 52.4939596, "lon": 13.4458667}, {"type": "node", "id": 5243080392, "lat": 52.493597, "lon": 13.4466147}, {"type": "node", "id": 5298240101, "lat": 52.4907998, "lon": 13.4477494, "tags": {"addr:city": "Berlin", "addr:country": "DE", "addr:housenumber": "16", "addr:postcode": "12435", "addr:street": "Karl-Kunger-Stra\u00dfe", "addr:suburb": "Alt-Treptow", "amenity": "fast_food", "contact:facebook": "https://www.facebook.com/Safari-Falafel-800791223640330/", "cuisine": "sudanese;falafel", "diet:vegan": "yes", "diet:vegetarian": "yes", "name": "Safari Falafel", "opening_hours": "Mo-Fr 11:00-20:20; Sa, Su, PH 12:00-20:20", "takeaway": "yes", "wheelchair": "limited"}}, {"type": "node", "id": 5611510253, "lat": 52.4938219, "lon": 13.4493973}, {"type": "node", "id": 5667827680, "lat": 52.4867738, "lon": 13.4788699}, {"type": "node", "id": 5862309597, "lat": 52.4932965, "lon": 13.4654486}, {"type": "node", "id": 5862309618, "lat": 52.4868116, "lon": 13.4788239}, {"type": "node", "id": 5862309619, "lat": 52.4861631, "lon": 13.4802014}, {"type": "node", "id": 5862309620, "lat": 52.4878308, "lon": 13.479589}, {"type": "node", "id": 5862309621, "lat": 52.4878247, "lon": 13.4794406}, {"type": "node", "id": 5862309622, "lat": 52.4877682, "lon": 13.4793335}, {"type": "node", "id": 5862309623, "lat": 52.4876812, "lon": 13.4793036}, {"type": "node", "id": 5862309624, "lat": 52.4875874, "lon": 13.4793706}, {"type": "node", "id": 5862309625, "lat": 52.4876343, "lon": 13.4793264}, {"type": "node", "id": 5862309626, "lat": 52.48755, "lon": 13.4794335}, {"type": "node", "id": 5862309627, "lat": 52.487836, "lon": 13.4795134}, {"type": "node", "id": 5917512725, "lat": 52.4922863, "lon": 13.4421818}, {"type": "node", "id": 5917512742, "lat": 52.4965345, "lon": 13.450331}, {"type": "node", "id": 5917512743, "lat": 52.4953635, "lon": 13.4522907}, {"type": "node", "id": 5917512744, "lat": 52.4949201, "lon": 13.4531618}, {"type": "node", "id": 5917512745, "lat": 52.4948776, "lon": 13.4531102}, {"type": "node", "id": 5917512748, "lat": 52.4939399, "lon": 13.4455054}, {"type": "node", "id": 5917512749, "lat": 52.494242, "lon": 13.4446754}, {"type": "node", "id": 5917512751, "lat": 52.4941928, "lon": 13.4449123}, {"type": "node", "id": 6011721160, "lat": 52.4938569, "lon": 13.4457298}, {"type": "node", "id": 6011721164, "lat": 52.4927614, "lon": 13.4488432}, {"type": "node", "id": 6011721165, "lat": 52.4925561, "lon": 13.4493075}, {"type": "node", "id": 6018845408, "lat": 52.4880756, "lon": 13.45023}, {"type": "node", "id": 6018845409, "lat": 52.4879677, "lon": 13.4501384}, {"type": "node", "id": 6018845410, "lat": 52.4879409, "lon": 13.4500873}, {"type": "node", "id": 6018845411, "lat": 52.4879412, "lon": 13.4500624}, {"type": "node", "id": 6018845412, "lat": 52.4882459, "lon": 13.4495054}, {"type": "node", "id": 6018845413, "lat": 52.4883143, "lon": 13.4494856}, {"type": "node", "id": 6018845414, "lat": 52.4888721, "lon": 13.4509665}, {"type": "node", "id": 6018845415, "lat": 52.4887158, "lon": 13.4509703}, {"type": "node", "id": 6018845416, "lat": 52.4885846, "lon": 13.4507405}, {"type": "node", "id": 6018845417, "lat": 52.4884009, "lon": 13.450481}, {"type": "node", "id": 6018845418, "lat": 52.4883307, "lon": 13.4506099}, {"type": "node", "id": 6018863483, "lat": 52.4907413, "lon": 13.4452901}, {"type": "node", "id": 6029312615, "lat": 52.4940397, "lon": 13.4597423, "tags": {"amenity": "doctors", "check_date": "2024-10-02", "contact:email": "orthopaedie-treptow@freenet.de", "contact:fax": "+49 30 53213113", "contact:phone": "+49 30 5337373", "contact:website": "https://www.orthop\u00e4die-treptow.de/", "description": "Fach\u00e4rztin f\u00fcr Orthop\u00e4die/Unfallchirurgie, Akupunktur, Osteopathie, Schmerztherapie, Kinderorthop\u00e4die, Sonografie, R\u00f6ntgen", "healthcare": "doctor", "healthcare:speciality": "orthopaedics;osteopathy;acupuncture", "level": "3", "name": "Orthop\u00e4dische Praxis Am Treptower Park", "opening_hours": "Mo 09:30-14:00, 15:00-18:00; Tu, Th, Fr 09:00-13:00; We 09:00-14:00, 15:00-18:00 || \"nach Vereinbarung\"", "operator": "Nicole Morgenroth"}}, {"type": "node", "id": 6029312755, "lat": 52.4938975, "lon": 13.4600538, "tags": {"amenity": "dentist", "check_date": "2024-10-02", "contact:phone": "+49 30 5348695", "healthcare": "dentist", "level": "0", "name": "Zahnarztpraxis Stefan H\u00f6lck", "opening_hours": "Mo,Th 13:00-19:00; Tu,We 08:00-14:00; Fr open \"nach Vereinbarung\"", "operator": "Stefan H\u00f6lck", "wheelchair": "yes"}}, {"type": "node", "id": 6029694385, "lat": 52.4940415, "lon": 13.4598751, "tags": {"amenity": "doctors", "check_date": "2024-10-02", "contact:email": "dr-sen-gupta@freenet.de", "contact:fax": "+49 30 53213113", "contact:phone": "+49 30 5337373", "contact:website": "https://orthop\u00e4die-treptow.de/", "description": "Facharzt f\u00fcr Orthop\u00e4die, Unfallchirurgie, Chirotherapie, Sportmedizin, Schmerztherapie, Kinderorthop\u00e4die, Sonografie, R\u00f6ntgen", "healthcare": "doctor", "healthcare:speciality": "orthopaedics", "level": "3", "name": "Orthop\u00e4die Dr. med. Silvio Sen Gupta", "opening_hours": "Mo 15:00-19:00; We 15:00-18:00; Tu,Th 09:00-13:00,14:00-18:00 || \"nach Vereinbarung\"", "operator": "Silvio Sen Gupta"}}, {"type": "node", "id": 6029694386, "lat": 52.4940897, "lon": 13.4598135, "tags": {"addr:city": "Berlin", "addr:housenumber": "13a", "addr:postcode": "12435", "addr:street": "Martin-Hoffmann-Stra\u00dfe", "check_date": "2024-10-02", "check_date:opening_hours": "2024-10-02", "contact:fax": "+49 30 53015689", "contact:phone": "+49 30 53014740", "description": "Manuelle Therapie, Krankengymnastik, Massagen, manuelle Lymphdrainage, Fango, Ultraschall, Elektrotherapie, Fu\u00dfreflexzonentherapie, Kinesio-Tape, PNF-Therapie, medizinische Trainingstherapie, Rhea-Sport", "healthcare": "physiotherapist", "healthcare:speciality": "physiotherapy", "level": "3", "name": "Physiotherapie Ines B\u00f6ttcher", "opening_hours": "Mo,We 08:00-13:00,13:30-19:00; Tu,Th 08:00-12:30,13:00-19:00; Fr 08:00-15:00", "website": "https://www.physiotherapie-boettcher.de/"}}, {"type": "node", "id": 6029694387, "lat": 52.4939905, "lon": 13.4597215, "tags": {"amenity": "doctors", "check_date": "2024-10-02", "check_date:opening_hours": "2024-10-02", "contact:fax": "+49 30 53216611", "contact:phone": "+49 30 5348698", "description": "Facharzt f\u00fcr Frauenheilkunde & Geburtenhilfe, Gyn\u00e4kologische Onkologie", "healthcare": "doctor", "healthcare:speciality": "gynaecology", "level": "2", "name": "Praxis Holger Jank", "opening_hours": "Mo,We,Fr 08:00-14:00; Tu,Th 12:00-18:00", "operator": "Holger Jank"}}, {"type": "node", "id": 6029694388, "lat": 52.4939923, "lon": 13.4598581, "tags": {"amenity": "doctors", "check_date": "2025-03-25", "contact:phone": "+49 30 5348692", "description": "Fach\u00e4rztin f\u00fcr klassische & \u00e4sthetische Dermatologie", "healthcare": "doctor", "healthcare:speciality": "dermatology", "level": "2", "name": "Dermatologie Dr. med. Sabine Lehmann", "opening_hours": "Mo 09:00-13:00, 14:00-16:00; Tu 09:00-13:00; Th 09:00-13:00, 14:00-18:00; Fr 09:00-12:00 || \"nach Vereinbarung\"", "operator": "Sabine Lehmann"}}, {"type": "node", "id": 6029694389, "lat": 52.493994, "lon": 13.4599919, "tags": {"amenity": "doctors", "check_date": "2024-10-02", "check_date:opening_hours": "2025-07-01", "contact:phone": "+49 30 53609667", "description": "Facharzt f\u00fcr Innere Medizin & Rheumatologie", "healthcare": "doctor", "healthcare:speciality": "rheumatology", "level": "2", "name": "Rheumatologie Dr. med. Christian Herzberg", "opening_hours": "Mo 09:00-13:00,14:00-17:00; Tu 09:00-12:00; We 09:00-14:00; Th 09:00-13:30,14:30-17:00; Fr 09:00-12:00", "operator": "Christian Herzberg"}}, {"type": "node", "id": 6029694390, "lat": 52.4939429, "lon": 13.4598323, "tags": {"amenity": "doctors", "check_date": "2020-03-31", "contact:phone": "+49 30 5348694", "description": "Facharzt f\u00fcr Allgemeinmedizin, Chirotherapie, Hom\u00f6opathie, Naturheilverfahren", "healthcare": "doctor", "healthcare:speciality": "general", "level": "1", "name": "Allgemeinmedizin Max B\u00fcrck-Gemassmer", "opening_hours": "Mo-Fr 09:00-12:00; Mo 15:00-18:00; Th 14:00-17:00 || \"nach Vereinbarung\"", "operator": "Max B\u00fcrck-Gemassmer"}}, {"type": "node", "id": 6029694391, "lat": 52.4939443, "lon": 13.4599399, "tags": {"amenity": "doctors", "check_date": "2024-10-02", "contact:phone": "+49 30 5348694", "description": "Fach\u00e4rztin f\u00fcr Allgemeinmedizin, Naturheilverfahren", "healthcare": "doctor", "healthcare:speciality": "general", "level": "1", "name": "Allgemeinmedizin Michaela Falter", "opening_hours": "Mo-Fr 09:00-12:00, Tu 14:00-17:00, Th 14:00-17:00 || \"nach Vereinbarung\"", "operator": "Michaela Falter"}}, {"type": "node", "id": 6029694392, "lat": 52.4939548, "lon": 13.4600495, "tags": {"amenity": "doctors", "check_date": "2024-10-02", "contact:fax": "+49 30 53212148", "contact:phone": "+49 30 5348601", "healthcare": "doctor", "healthcare:speciality": "urology", "level": "1", "name": "Urologie Dr. med. Burkhard Schulz, Dr. med Jacqueline Herholz", "opening_hours": "Mo-Th 07:00-13:00; Tu, Th 14:00-19:00; Fr 08:00-13:00 || \"nach Vereinbarung\"", "operator": "Burkhard Schulz; Jacqueline Herholz"}}, {"type": "node", "id": 6029694393, "lat": 52.4938953, "lon": 13.4599334, "tags": {"amenity": "dentist", "check_date": "2024-10-02", "check_date:opening_hours": "2024-10-02", "contact:phone": "+49 30 5348695", "healthcare": "dentist", "level": "0", "name": "Zahnarzt Mario Fosca", "opening_hours": "Mo,Th,Fr 08:00-14:00; Tu,We 13:00-19:00", "operator": "Mario Fosca"}}, {"type": "node", "id": 6170490564, "lat": 52.4947377, "lon": 13.4467137}, {"type": "node", "id": 6312972384, "lat": 52.4861082, "lon": 13.4817333}, {"type": "node", "id": 6312973485, "lat": 52.486082, "lon": 13.4817112}, {"type": "node", "id": 6312973486, "lat": 52.486098, "lon": 13.4817128}, {"type": "node", "id": 6370562742, "lat": 52.4852624, "lon": 13.4793117}, {"type": "node", "id": 6370562744, "lat": 52.4851945, "lon": 13.479107}, {"type": "node", "id": 6466119132, "lat": 52.4891817, "lon": 13.4475309}, {"type": "node", "id": 6466119133, "lat": 52.4891563, "lon": 13.4474977}, {"type": "node", "id": 6466119134, "lat": 52.4892044, "lon": 13.4474062, "tags": {"access": "delivery", "barrier": "gate"}}, {"type": "node", "id": 6564578074, "lat": 52.4870203, "lon": 13.4812453, "tags": {"amenity": "fast_food", "indoor_seating": "no", "name": "Soul Kitchen von Sibel", "operator": "Sibel", "outdoor_seating": "yes"}}, {"type": "node", "id": 6564734372, "lat": 52.4931942, "lon": 13.4653227, "tags": {"amenity": "cafe", "check_date": "2023-06-24", "cuisine": "italian", "indoor_seating": "no", "name": "Bruschetta Bar Berlin", "outdoor_seating": "yes", "wheelchair": "yes"}}, {"type": "node", "id": 6564735891, "lat": 52.4931383, "lon": 13.4654781, "tags": {"amenity": "fast_food", "name": "La Casita", "operator": "Venezuelan"}}, {"type": "node", "id": 6596758439, "lat": 52.4903321, "lon": 13.4490329, "tags": {"addr:city": "Berlin", "addr:housenumber": "79A", "addr:postcode": "12435", "addr:street": "Bouch\u00e9stra\u00dfe", "amenity": "fast_food", "check_date": "2024-12-13", "contact:email": "neue@republik.sexy", "cuisine": "burger", "diet:gluten_free": "yes", "diet:vegan": "only", "diet:vegetarian": "yes", "drive_through": "no", "indoor_seating": "yes", "name": "Neue Republik Reger", "opening_hours": "We-Mo 12:30-22:00", "opening_hours:kitchen": "We-Mo 12:00-21:00", "outdoor_seating": "yes", "payment:american_express": "no", "payment:cash": "yes", "website": "https://www.republik.sexy/", "wheelchair": "yes"}}, {"type": "node", "id": 6823092100, "lat": 52.4875179, "lon": 13.4510236}, {"type": "node", "id": 6823092101, "lat": 52.4874791, "lon": 13.4509712}, {"type": "node", "id": 6823092108, "lat": 52.4875385, "lon": 13.4509807}, {"type": "node", "id": 6823113397, "lat": 52.4883031, "lon": 13.4512616}, {"type": "node", "id": 6823113399, "lat": 52.4882944, "lon": 13.4512764}, {"type": "node", "id": 6823113405, "lat": 52.4880695, "lon": 13.4512435}, {"type": "node", "id": 6833043347, "lat": 52.492579, "lon": 13.4441884}, {"type": "node", "id": 6833043361, "lat": 52.4925059, "lon": 13.4443355}, {"type": "node", "id": 7051881656, "lat": 52.4860108, "lon": 13.4682868, "tags": {"access": "yes", "leisure": "playground"}}, {"type": "node", "id": 7128251257, "lat": 52.4886077, "lon": 13.4538519, "tags": {"addr:city": "Berlin", "addr:housenumber": "99", "addr:postcode": "12435", "addr:street": "Elsenstra\u00dfe", "check_date:opening_hours": "2024-06-04", "contact:phone": "+49 30 5337544", "healthcare": "doctor", "healthcare:speciality": "general", "name": "Hausarztpraxis Dr. med. Iris Erdmann & Julia Schimkus", "opening_hours": "Mo,We,Fr 09:00-13:00; Tu,Th 14:00-18:30; PH closed", "website": "http://www.hausarztpraxis-elsenstrasse.de"}}, {"type": "node", "id": 7233173895, "lat": 52.4950628, "lon": 13.4639759}, {"type": "node", "id": 7233173896, "lat": 52.4950788, "lon": 13.4639663}, {"type": "node", "id": 7233173897, "lat": 52.4950249, "lon": 13.463983}, {"type": "node", "id": 7233173898, "lat": 52.4950117, "lon": 13.4639761}, {"type": "node", "id": 7329872982, "lat": 52.4907451, "lon": 13.4518974, "tags": {"entrance": "main"}}, {"type": "node", "id": 7351679136, "lat": 52.4939417, "lon": 13.4597872, "tags": {"addr:city": "Berlin", "addr:country": "DE", "addr:housenumber": "1", "addr:postcode": "12435", "addr:street": "Elsenstra\u00dfe", "addr:suburb": "Alt-Treptow", "entrance": "main"}}, {"type": "node", "id": 7555034008, "lat": 52.4947932, "lon": 13.4476098}, {"type": "node", "id": 7555034009, "lat": 52.4947088, "lon": 13.4473051}, {"type": "node", "id": 7555034010, "lat": 52.4946987, "lon": 13.4470089}, {"type": "node", "id": 7555034011, "lat": 52.494698, "lon": 13.4471557}, {"type": "node", "id": 7555034012, "lat": 52.4947468, "lon": 13.4464233}, {"type": "node", "id": 7555036921, "lat": 52.4947378, "lon": 13.4466963}, {"type": "node", "id": 7597560505, "lat": 52.4882917, "lon": 13.4428714, "tags": {"addr:city": "Berlin", "addr:country": "DE", "addr:housenumber": "14", "addr:postcode": "12435", "addr:street": "Mengerzeile", "addr:suburb": "Alt-Treptow", "amenity": "cafe", "diet:vegetarian": "yes", "indoor_seating": "yes", "name": "Cafe Bread", "opening_hours": "Mo-Sa 06:00-18:00; Su 06:00-17:00", "outdoor_seating": "yes", "shop": "bakery", "website": "https://cafe-bread-berlin.eatbu.com", "wheelchair": "yes"}}, {"type": "node", "id": 7597560525, "lat": 52.4881271, "lon": 13.4447007}, {"type": "node", "id": 7597560526, "lat": 52.4880549, "lon": 13.4448253}, {"type": "node", "id": 7597560527, "lat": 52.4880899, "lon": 13.44488}, {"type": "node", "id": 7597560528, "lat": 52.4881621, "lon": 13.4447554}, {"type": "node", "id": 7644373578, "lat": 52.4939432, "lon": 13.4601374}, {"type": "node", "id": 7701464471, "lat": 52.4900692, "lon": 13.4400977}, {"type": "node", "id": 7701464472, "lat": 52.4900447, "lon": 13.4403743}, {"type": "node", "id": 7701464476, "lat": 52.4925967, "lon": 13.4438253}, {"type": "node", "id": 7701464477, "lat": 52.4930377, "lon": 13.4435177}, {"type": "node", "id": 7701465313, "lat": 52.4900721, "lon": 13.4449043}, {"type": "node", "id": 7701465314, "lat": 52.4903633, "lon": 13.4447116}, {"type": "node", "id": 7701465315, "lat": 52.4903787, "lon": 13.4447098}, {"type": "node", "id": 7701465316, "lat": 52.4901971, "lon": 13.4450627}, {"type": "node", "id": 7701465317, "lat": 52.4907129, "lon": 13.4458338}, {"type": "node", "id": 7701465318, "lat": 52.4906125, "lon": 13.4457082}, {"type": "node", "id": 7820122258, "lat": 52.4880241, "lon": 13.4508534}, {"type": "node", "id": 7820157599, "lat": 52.4879548, "lon": 13.4509727}, {"type": "node", "id": 7820157600, "lat": 52.4880746, "lon": 13.4511593}, {"type": "node", "id": 7820157606, "lat": 52.4881439, "lon": 13.45104}, {"type": "node", "id": 7825797124, "lat": 52.4871573, "lon": 13.4506541}, {"type": "node", "id": 7825797129, "lat": 52.487228, "lon": 13.4506418}, {"type": "node", "id": 7825797134, "lat": 52.4869251, "lon": 13.4511093}, {"type": "node", "id": 7844017322, "lat": 52.4947508, "lon": 13.4575252, "tags": {"access": "private", "leisure": "playground"}}, {"type": "node", "id": 7844017341, "lat": 52.4959517, "lon": 13.4572737, "tags": {"access": "private", "leisure": "playground"}}, {"type": "node", "id": 7859002122, "lat": 52.4902151, "lon": 13.4446597}, {"type": "node", "id": 7859002128, "lat": 52.4897773, "lon": 13.4439762}, {"type": "node", "id": 7859002130, "lat": 52.4897867, "lon": 13.4439587}, {"type": "node", "id": 7859002139, "lat": 52.4898045, "lon": 13.4440147}, {"type": "node", "id": 7859002143, "lat": 52.48977, "lon": 13.4440775}, {"type": "node", "id": 7859002144, "lat": 52.4896778, "lon": 13.4442496}, {"type": "node", "id": 7859002150, "lat": 52.4899226, "lon": 13.44398}, {"type": "node", "id": 7859002165, "lat": 52.4901174, "lon": 13.4448416}, {"type": "node", "id": 7859002170, "lat": 52.4900096, "lon": 13.4448255}, {"type": "node", "id": 7859002171, "lat": 52.4900257, "lon": 13.4447966}, {"type": "node", "id": 7859002184, "lat": 52.4902892, "lon": 13.4444632}, {"type": "node", "id": 7859015590, "lat": 52.4900204, "lon": 13.4440725}, {"type": "node", "id": 7859015601, "lat": 52.4898137, "lon": 13.4444646}, {"type": "node", "id": 7859015602, "lat": 52.4897956, "lon": 13.4444957}, {"type": "node", "id": 7859015603, "lat": 52.4897657, "lon": 13.444396}, {"type": "node", "id": 7859015604, "lat": 52.4900555, "lon": 13.4448949}, {"type": "node", "id": 7859015605, "lat": 52.49009, "lon": 13.4448925}, {"type": "node", "id": 7859015606, "lat": 52.4902508, "lon": 13.4444017}, {"type": "node", "id": 7859015607, "lat": 52.4902223, "lon": 13.4444495}, {"type": "node", "id": 7859015608, "lat": 52.4900106, "lon": 13.4441195}, {"type": "node", "id": 7859015609, "lat": 52.490029, "lon": 13.4440859}, {"type": "node", "id": 7859015610, "lat": 52.4899579, "lon": 13.4439741}, {"type": "node", "id": 7859015611, "lat": 52.4899399, "lon": 13.4440065}, {"type": "node", "id": 7952475371, "lat": 52.4897839, "lon": 13.4548912}, {"type": "node", "id": 7989776553, "lat": 52.4885914, "lon": 13.4499653}, {"type": "node", "id": 7989867009, "lat": 52.4917859, "lon": 13.447572}, {"type": "node", "id": 7989867010, "lat": 52.4917318, "lon": 13.447669}, {"type": "node", "id": 7989867011, "lat": 52.4917829, "lon": 13.4477459}, {"type": "node", "id": 7989867012, "lat": 52.491837, "lon": 13.4476489}, {"type": "node", "id": 7990039438, "lat": 52.489925, "lon": 13.4447332}, {"type": "node", "id": 7990039439, "lat": 52.4899476, "lon": 13.4447683}, {"type": "node", "id": 7990039440, "lat": 52.4899762, "lon": 13.4447192}, {"type": "node", "id": 7990039441, "lat": 52.4899538, "lon": 13.444684}, {"type": "node", "id": 7990039444, "lat": 52.4905095, "lon": 13.4455482}, {"type": "node", "id": 7990039445, "lat": 52.4905281, "lon": 13.4455771}, {"type": "node", "id": 7990039451, "lat": 52.4903943, "lon": 13.4447312}, {"type": "node", "id": 7990039468, "lat": 52.4904495, "lon": 13.4448138}, {"type": "node", "id": 7990039469, "lat": 52.4908247, "lon": 13.445501}, {"type": "node", "id": 7990039474, "lat": 52.4902516, "lon": 13.4451474}, {"type": "node", "id": 7990039476, "lat": 52.4906491, "lon": 13.4458472}, {"type": "node", "id": 7990039477, "lat": 52.4906729, "lon": 13.4458537}, {"type": "node", "id": 7990039478, "lat": 52.4906294, "lon": 13.4458289}, {"type": "node", "id": 7990039479, "lat": 52.4906016, "lon": 13.4457823}, {"type": "node", "id": 8011189361, "lat": 52.4964003, "lon": 13.4500715}, {"type": "node", "id": 8011189364, "lat": 52.4961871, "lon": 13.4504304}, {"type": "node", "id": 8128338992, "lat": 52.4931253, "lon": 13.4655283, "tags": {"amenity": "fast_food", "name": "Green Harbor"}}, {"type": "node", "id": 8409861030, "lat": 52.4929602, "lon": 13.4435624}, {"type": "node", "id": 8409861035, "lat": 52.4938037, "lon": 13.4454087}, {"type": "node", "id": 8409861037, "lat": 52.4927231, "lon": 13.4437487}, {"type": "node", "id": 8409861038, "lat": 52.4926831, "lon": 13.443827}, {"type": "node", "id": 8409861040, "lat": 52.4927616, "lon": 13.4438004}, {"type": "node", "id": 8938128800, "lat": 52.4872591, "lon": 13.4809927}, {"type": "node", "id": 8938128801, "lat": 52.4871653, "lon": 13.4808495}, {"type": "node", "id": 9106142207, "lat": 52.491731, "lon": 13.4511547}, {"type": "node", "id": 9106142209, "lat": 52.4917463, "lon": 13.4510941}, {"type": "node", "id": 9106142210, "lat": 52.4917198, "lon": 13.451108}, {"type": "node", "id": 9106142211, "lat": 52.4916354, "lon": 13.4509208}, {"type": "node", "id": 9106184621, "lat": 52.4915517, "lon": 13.4507772}, {"type": "node", "id": 9106184628, "lat": 52.4916665, "lon": 13.4509712}, {"type": "node", "id": 9106184629, "lat": 52.4916998, "lon": 13.4510233}, {"type": "node", "id": 9106184630, "lat": 52.491806, "lon": 13.4508005}, {"type": "node", "id": 9106184631, "lat": 52.491774, "lon": 13.4507526}, {"type": "node", "id": 9106184667, "lat": 52.4919459, "lon": 13.4501437}, {"type": "node", "id": 9106184668, "lat": 52.4918486, "lon": 13.4507719}, {"type": "node", "id": 9111892864, "lat": 52.4884882, "lon": 13.4503269}, {"type": "node", "id": 9111892865, "lat": 52.488439, "lon": 13.4502593}, {"type": "node", "id": 9111892866, "lat": 52.4885305, "lon": 13.4498076}, {"type": "node", "id": 9111892874, "lat": 52.4868494, "lon": 13.4510397}, {"type": "node", "id": 9111892875, "lat": 52.4868992, "lon": 13.4510852}, {"type": "node", "id": 9111911223, "lat": 52.4880598, "lon": 13.4489797}, {"type": "node", "id": 9111911224, "lat": 52.4880486, "lon": 13.4489626}, {"type": "node", "id": 9111911248, "lat": 52.4882856, "lon": 13.4493256}, {"type": "node", "id": 9111911255, "lat": 52.4883123, "lon": 13.4493665}, {"type": "node", "id": 9111911344, "lat": 52.4884409, "lon": 13.4510121, "tags": {"access": "yes", "barrier": "gate"}}, {"type": "node", "id": 9111911345, "lat": 52.488335, "lon": 13.4507845, "tags": {"access": "yes", "barrier": "gate"}}, {"type": "node", "id": 9111911370, "lat": 52.4886699, "lon": 13.450644}, {"type": "node", "id": 9111911371, "lat": 52.4886248, "lon": 13.4506557}, {"type": "node", "id": 9111911387, "lat": 52.4888578, "lon": 13.4509493}, {"type": "node", "id": 9111911388, "lat": 52.4888373, "lon": 13.4510276}, {"type": "node", "id": 9111911418, "lat": 52.4882449, "lon": 13.4504987}, {"type": "node", "id": 9111911434, "lat": 52.4885736, "lon": 13.4514903}, {"type": "node", "id": 9111911436, "lat": 52.4884282, "lon": 13.4510363}, {"type": "node", "id": 9111911442, "lat": 52.4885549, "lon": 13.4515229}, {"type": "node", "id": 9111911444, "lat": 52.4884665, "lon": 13.4509353}, {"type": "node", "id": 9111911445, "lat": 52.488472, "lon": 13.4508832}, {"type": "node", "id": 9111911446, "lat": 52.4884724, "lon": 13.4508079}, {"type": "node", "id": 9111911447, "lat": 52.4884611, "lon": 13.4507676}, {"type": "node", "id": 9111911448, "lat": 52.488447, "lon": 13.4507351}, {"type": "node", "id": 9111911449, "lat": 52.4884235, "lon": 13.4506963}, {"type": "node", "id": 9111911450, "lat": 52.4884049, "lon": 13.4506786}, {"type": "node", "id": 9111911451, "lat": 52.4883862, "lon": 13.4506696}, {"type": "node", "id": 9111911452, "lat": 52.48835, "lon": 13.4507083}, {"type": "node", "id": 9111911453, "lat": 52.4883299, "lon": 13.4507398}, {"type": "node", "id": 9111911455, "lat": 52.4883239, "lon": 13.450805}, {"type": "node", "id": 9111911462, "lat": 52.4873687, "lon": 13.4508121}, {"type": "node", "id": 9111911469, "lat": 52.4875548, "lon": 13.4509473}, {"type": "node", "id": 9111911470, "lat": 52.4876458, "lon": 13.450982}, {"type": "node", "id": 9111911476, "lat": 52.4878417, "lon": 13.4508751}, {"type": "node", "id": 9111911513, "lat": 52.4871684, "lon": 13.4503974}, {"type": "node", "id": 9111911514, "lat": 52.486853, "lon": 13.4510308}, {"type": "node", "id": 9111911525, "lat": 52.4879979, "lon": 13.4488849}, {"type": "node", "id": 9205615697, "lat": 52.4879814, "lon": 13.4488597}, {"type": "node", "id": 9253943521, "lat": 52.4897682, "lon": 13.4683402}, {"type": "node", "id": 9253943522, "lat": 52.489813, "lon": 13.468187}, {"type": "node", "id": 9278830810, "lat": 52.4916771, "lon": 13.4584673, "tags": {"amenity": "restaurant", "check_date": "2024-10-01", "check_date:diet:vegetarian": "2024-10-01", "check_date:opening_hours": "2024-10-01", "cuisine": "vietnamese;chinese", "diet:vegetarian": "yes", "name": "Asia Palast", "opening_hours": "Mo-Fr 11:00-21:00; Sa off; Su 12:00-21:00"}}, {"type": "node", "id": 9309479807, "lat": 52.4960506, "lon": 13.4579585}, {"type": "node", "id": 9309479808, "lat": 52.4963766, "lon": 13.4581279}, {"type": "node", "id": 9309479809, "lat": 52.4964233, "lon": 13.4581522}, {"type": "node", "id": 9353923217, "lat": 52.492904, "lon": 13.4603373, "tags": {"addr:city": "Berlin", "addr:country": "DE", "addr:housenumber": "14", "addr:postcode": "12435", "addr:street": "Puschkinallee", "addr:suburb": "Alt-Treptow", "amenity": "fast_food", "changing_table": "no", "check_date": "2024-09-06", "cuisine": "kebab;pizza", "diet:halal": "yes", "diet:vegan": "yes", "diet:vegetarian": "yes", "indoor_seating": "yes", "name": "Bistro Liliput", "opening_hours": "24/7", "outdoor_seating": "yes", "smoking": "outside", "wheelchair": "yes"}}, {"type": "node", "id": 9436904264, "lat": 52.4915693, "lon": 13.4438643}, {"type": "node", "id": 9436904265, "lat": 52.4914237, "lon": 13.4440919}, {"type": "node", "id": 9436904273, "lat": 52.4917192, "lon": 13.4441228}, {"type": "node", "id": 9540189216, "lat": 52.4925087, "lon": 13.4441273, "tags": {"barrier": "gate"}}, {"type": "node", "id": 9540496658, "lat": 52.4924995, "lon": 13.4440831}, {"type": "node", "id": 9540496659, "lat": 52.4925149, "lon": 13.4441363}, {"type": "node", "id": 9540496663, "lat": 52.4925259, "lon": 13.4441154}, {"type": "node", "id": 9540496671, "lat": 52.4924903, "lon": 13.4440994}, {"type": "node", "id": 9560083586, "lat": 52.4915736, "lon": 13.4443505}, {"type": "node", "id": 9701024326, "lat": 52.4871609, "lon": 13.4811077}, {"type": "node", "id": 9701024327, "lat": 52.4870422, "lon": 13.4811634}, {"type": "node", "id": 9701024328, "lat": 52.4870776, "lon": 13.4812477}, {"type": "node", "id": 9701024329, "lat": 52.4871474, "lon": 13.48108}, {"type": "node", "id": 9702240244, "lat": 52.4964524, "lon": 13.4581673}, {"type": "node", "id": 9807021300, "lat": 52.495375, "lon": 13.4522715}, {"type": "node", "id": 9807021310, "lat": 52.4952418, "lon": 13.4534194}, {"type": "node", "id": 9807021311, "lat": 52.4952795, "lon": 13.4534496}, {"type": "node", "id": 9807079537, "lat": 52.4965379, "lon": 13.451605}, {"type": "node", "id": 9807079538, "lat": 52.4965464, "lon": 13.451574}, {"type": "node", "id": 9807079553, "lat": 52.4967093, "lon": 13.4506139}, {"type": "node", "id": 9807079554, "lat": 52.4954022, "lon": 13.4522259}, {"type": "node", "id": 9807079576, "lat": 52.4962811, "lon": 13.4507551}, {"type": "node", "id": 9807079582, "lat": 52.4963321, "lon": 13.4506698}, {"type": "node", "id": 9807079583, "lat": 52.4964953, "lon": 13.4503967}, {"type": "node", "id": 9807079610, "lat": 52.4945427, "lon": 13.4451648}, {"type": "node", "id": 9807079611, "lat": 52.4956727, "lon": 13.4488387}, {"type": "node", "id": 9807079612, "lat": 52.4948358, "lon": 13.4476981}, {"type": "node", "id": 9807079613, "lat": 52.4947547, "lon": 13.447506}, {"type": "node", "id": 9807079614, "lat": 52.4947067, "lon": 13.446942, "tags": {"canoe": "put_in"}}, {"type": "node", "id": 9807079623, "lat": 52.4965654, "lon": 13.4503809}, {"type": "node", "id": 9807079624, "lat": 52.493964, "lon": 13.4493457}, {"type": "node", "id": 9807079626, "lat": 52.4945461, "lon": 13.4473535}, {"type": "node", "id": 9807079628, "lat": 52.4946006, "lon": 13.4476163}, {"type": "node", "id": 9807079637, "lat": 52.4964288, "lon": 13.4499689}, {"type": "node", "id": 9807079638, "lat": 52.4944682, "lon": 13.446347}, {"type": "node", "id": 9807079641, "lat": 52.4945714, "lon": 13.4474876}, {"type": "node", "id": 9807079654, "lat": 52.4939604, "lon": 13.4456758}, {"type": "node", "id": 9807079655, "lat": 52.4942312, "lon": 13.4451199}, {"type": "node", "id": 9807079656, "lat": 52.4943089, "lon": 13.4449559}, {"type": "node", "id": 9807079657, "lat": 52.4940977, "lon": 13.4445653}, {"type": "node", "id": 9825405028, "lat": 52.4961338, "lon": 13.4505192}, {"type": "node", "id": 9825405048, "lat": 52.4958597, "lon": 13.4509762}, {"type": "node", "id": 9825458266, "lat": 52.4957025, "lon": 13.4512383}, {"type": "node", "id": 9825458267, "lat": 52.4952757, "lon": 13.4519437}, {"type": "node", "id": 9839115552, "lat": 52.494553, "lon": 13.4468391}, {"type": "node", "id": 9839225250, "lat": 52.4939805, "lon": 13.4493886}, {"type": "node", "id": 9839225293, "lat": 52.4952484, "lon": 13.4519882}, {"type": "node", "id": 9850619739, "lat": 52.4911239, "lon": 13.441284}, {"type": "node", "id": 9992872507, "lat": 52.4920898, "lon": 13.4608989}, {"type": "node", "id": 9992872508, "lat": 52.4921455, "lon": 13.4608845}, {"type": "node", "id": 9992872509, "lat": 52.4921912, "lon": 13.460847}, {"type": "node", "id": 9992872510, "lat": 52.492197, "lon": 13.4608268}, {"type": "node", "id": 9992872690, "lat": 52.4897319, "lon": 13.4609219}, {"type": "node", "id": 9992872691, "lat": 52.4895682, "lon": 13.4611641}, {"type": "node", "id": 9992872704, "lat": 52.4889352, "lon": 13.462101}, {"type": "node", "id": 9992872720, "lat": 52.4918597, "lon": 13.4607679}, {"type": "node", "id": 9992872722, "lat": 52.4916026, "lon": 13.460625}, {"type": "node", "id": 9992872723, "lat": 52.4912662, "lon": 13.4605157}, {"type": "node", "id": 9992872724, "lat": 52.4906612, "lon": 13.4603783}, {"type": "node", "id": 9992872725, "lat": 52.4901718, "lon": 13.4602762}, {"type": "node", "id": 9992872726, "lat": 52.4889998, "lon": 13.4620053}, {"type": "node", "id": 9992872727, "lat": 52.4881029, "lon": 13.4633342}, {"type": "node", "id": 9992872747, "lat": 52.4905659, "lon": 13.461604}, {"type": "node", "id": 9992872748, "lat": 52.4905646, "lon": 13.4616758}, {"type": "node", "id": 9992872749, "lat": 52.4905799, "lon": 13.4617546}, {"type": "node", "id": 9992872750, "lat": 52.4905852, "lon": 13.4617817}, {"type": "node", "id": 9992872751, "lat": 52.4905997, "lon": 13.4618096}, {"type": "node", "id": 9992872752, "lat": 52.4906351, "lon": 13.4618307}, {"type": "node", "id": 9992872753, "lat": 52.4906589, "lon": 13.4618453}, {"type": "node", "id": 9992872754, "lat": 52.4906719, "lon": 13.461849}, {"type": "node", "id": 9992872755, "lat": 52.4906881, "lon": 13.4618711}, {"type": "node", "id": 9992872756, "lat": 52.4907124, "lon": 13.4619132}, {"type": "node", "id": 9992872757, "lat": 52.490732, "lon": 13.4619212}, {"type": "node", "id": 9992872758, "lat": 52.4907569, "lon": 13.4619205}, {"type": "node", "id": 9992872759, "lat": 52.4907892, "lon": 13.4618843}, {"type": "node", "id": 9992872760, "lat": 52.4908178, "lon": 13.4618461}, {"type": "node", "id": 9992872936, "lat": 52.4905712, "lon": 13.4615444}, {"type": "node", "id": 9992872937, "lat": 52.4905899, "lon": 13.4615444}, {"type": "node", "id": 9992872938, "lat": 52.4906161, "lon": 13.4615336}, {"type": "node", "id": 9992872939, "lat": 52.4906471, "lon": 13.4614934}, {"type": "node", "id": 9992872940, "lat": 52.4906659, "lon": 13.4614894}, {"type": "node", "id": 9992872941, "lat": 52.4906928, "lon": 13.4615055}, {"type": "node", "id": 9992872942, "lat": 52.4907157, "lon": 13.4615323}, {"type": "node", "id": 9992872943, "lat": 52.4907328, "lon": 13.4615725}, {"type": "node", "id": 9992872944, "lat": 52.490768, "lon": 13.461594}, {"type": "node", "id": 9992872945, "lat": 52.4907867, "lon": 13.4616584}, {"type": "node", "id": 9992872946, "lat": 52.4908153, "lon": 13.4617308}, {"type": "node", "id": 9992872947, "lat": 52.4908578, "lon": 13.4617978}, {"type": "node", "id": 9992928823, "lat": 52.4875734, "lon": 13.4641211}, {"type": "node", "id": 9992928829, "lat": 52.4874288, "lon": 13.464341}, {"type": "node", "id": 9992928847, "lat": 52.4880411, "lon": 13.463426}, {"type": "node", "id": 10075620639, "lat": 52.4958426, "lon": 13.4542511, "tags": {"addr:city": "Berlin", "addr:housenumber": "3", "addr:postcode": "12435", "addr:street": "Eichenstra\u00dfe", "air_conditioning": "no", "amenity": "fast_food", "cuisine": "Sudanese", "delivery": "no", "diet:halal": "no", "diet:kosher": "no", "diet:vegan": "yes", "diet:vegetarian": "yes", "drive_through": "no", "indoor_seating": "no", "name": "Sool Imbiss", "opening_hours": "Mo-Fr 11:30-20:00, Sa-Su 12:30-20:00", "outdoor_seating": "yes", "payment:cash": "yes", "phone": "+49 1521 9464879", "smoking": "yes", "takeaway": "yes", "wheelchair": "yes"}}, {"type": "node", "id": 10202743917, "lat": 52.4911737, "lon": 13.4477018, "tags": {"addr:city": "Berlin", "addr:housenumber": "58", "addr:postcode": "12435", "addr:street": "Karl-Kunger-Stra\u00dfe", "amenity": "cafe", "changing_table": "yes", "check_date": "2024-10-12", "cuisine": "french", "diet:halal": "no", "diet:vegan": "yes", "diet:vegetarian": "yes", "indoor_seating": "yes", "internet_access": "wlan", "name": "LA F\u00c8VE", "name:fr": "La F\u00e8ve", "opening_hours": "Tu-Fr 09:00-18:00; Sa,Su 10:00-18:00", "outdoor_seating": "yes", "website": "lafeve.de", "wheelchair": "no"}}, {"type": "node", "id": 10301258590, "lat": 52.4949832, "lon": 13.4573371}, {"type": "node", "id": 10314553529, "lat": 52.4904475, "lon": 13.4448174}, {"type": "node", "id": 10575178782, "lat": 52.4890268, "lon": 13.4532835, "tags": {"addr:city": "Berlin", "addr:housenumber": "12", "addr:postcode": "12435", "addr:street": "Plesser Stra\u00dfe", "amenity": "restaurant", "check_date": "2024-09-06", "check_date:opening_hours": "2024-06-04", "cuisine": "vietnamese", "diet:halal": "no", "diet:vegan": "yes", "diet:vegetarian": "yes", "name": "Soulmate", "opening_hours": "Mo-Fr 11:00-22:00 Sa-Su 12:00-22:00", "opening_hours:signed": "no", "phone": "49 30 37463348", "website": "https://www.soulmate-restaurant.de/"}}, {"type": "node", "id": 11005328179, "lat": 52.4940262, "lon": 13.4449474, "tags": {"addr:city": "Berlin", "addr:country": "DE", "addr:postcode": "12435", "addr:unit": "an der breiten Rutsche", "amenity": "fast_food", "cuisine": "arab", "delivery": "no", "diet:halal": "no", "diet:vegan": "yes", "diet:vegetarian": "yes", "mobile": "yes", "name": "Jimmy's Falafel", "opening_hours": "Tu, Fr, Su 11:00-20:00 \"bei guter Witterung\"", "operator": "Jimmy", "payment:credit_cards": "no", "payment:debit_cards": "no", "start_date": "2005", "takeaway": "yes", "wheelchair": "yes"}}, {"type": "node", "id": 11071172954, "lat": 52.4897098, "lon": 13.4397626}, {"type": "node", "id": 11071181442, "lat": 52.4897054, "lon": 13.4397272}, {"type": "node", "id": 11273043170, "lat": 52.4885424, "lon": 13.4537307, "tags": {"amenity": "fast_food", "check_date": "2024-10-01", "check_date:diet:vegetarian": "2024-10-01", "check_date:opening_hours": "2024-06-04", "cuisine": "burger", "diet:vegetarian": "yes", "name": "Burger Home", "opening_hours:signed": "no", "takeaway": "yes"}}, {"type": "node", "id": 11522880779, "lat": 52.4925688, "lon": 13.4595823, "tags": {"amenity": "fast_food", "check_date": "2024-09-06", "indoor_seating": "no", "name": "Currywurst Pommes Burger", "operator": "Look Catering", "outdoor_seating": "yes", "payment:cards": "no", "payment:cash": "yes"}}, {"type": "node", "id": 11538226783, "lat": 52.4957113, "lon": 13.454142, "tags": {"amenity": "fast_food", "cuisine": "burger", "indoor_seating": "no", "name": "Magic Imbiss", "outdoor_seating": "yes"}}, {"type": "node", "id": 11543758158, "lat": 52.4925239, "lon": 13.4582683, "tags": {"amenity": "cafe", "check_date": "2024-10-01", "check_date:diet:vegan": "2024-10-01", "check_date:diet:vegetarian": "2024-10-01", "check_date:opening_hours": "2024-10-01", "diet:vegan": "yes", "diet:vegetarian": "yes", "indoor_seating": "yes", "name": "Bakery Cult Coffee", "opening_hours": "Mo-Su 07:00-14:00", "outdoor_seating": "no", "wheelchair": "yes"}}, {"type": "node", "id": 11764919129, "lat": 52.4947034, "lon": 13.4469698}, {"type": "node", "id": 11764919133, "lat": 52.4941968, "lon": 13.4446939}, {"type": "node", "id": 11764919222, "lat": 52.4942284, "lon": 13.4446678}, {"type": "node", "id": 11764919258, "lat": 52.4923489, "lon": 13.4428229}, {"type": "node", "id": 11764919261, "lat": 52.4918761, "lon": 13.4422629}, {"type": "node", "id": 11764919283, "lat": 52.4912467, "lon": 13.4408831}, {"type": "node", "id": 11777972685, "lat": 52.4911813, "lon": 13.4497029, "tags": {"addr:housenumber": "15", "addr:street": "Bouch\u00e9stra\u00dfe", "amenity": "bar", "check_date": "2024-04-01", "contact:website": "https://www.bardaf.de/", "indoor_seating": "yes", "level": "0", "name": "BAR DaF", "opening_hours": "Mo-Tu off; We-Su 17:00-23:00", "outdoor_seating": "yes", "payment:cards": "no", "payment:cash": "yes", "payment:credit_cards": "no", "payment:debit_cards": "no"}}, {"type": "node", "id": 12118397612, "lat": 52.4922147, "lon": 13.4608345}, {"type": "node", "id": 12118397613, "lat": 52.4921939, "lon": 13.4609065}, {"type": "node", "id": 12118397614, "lat": 52.4921809, "lon": 13.4608676}, {"type": "node", "id": 12118397615, "lat": 52.4921657, "lon": 13.4608794}, {"type": "node", "id": 12118397616, "lat": 52.4921159, "lon": 13.4608773}, {"type": "node", "id": 12118397617, "lat": 52.4922064, "lon": 13.4609722}, {"type": "node", "id": 12118397618, "lat": 52.4914274, "lon": 13.4635498}, {"type": "node", "id": 12118397619, "lat": 52.4916674, "lon": 13.4637448}, {"type": "node", "id": 12118397620, "lat": 52.4925091, "lon": 13.4610281}, {"type": "node", "id": 12119961443, "lat": 52.4910127, "lon": 13.4659035}, {"type": "node", "id": 12119982035, "lat": 52.4898281, "lon": 13.4698699}, {"type": "node", "id": 12119982036, "lat": 52.4895839, "lon": 13.4696845}, {"type": "node", "id": 12119982039, "lat": 52.4898483, "lon": 13.468803}, {"type": "node", "id": 12119982040, "lat": 52.489844, "lon": 13.4681328}, {"type": "node", "id": 12119982041, "lat": 52.4900902, "lon": 13.4679931}, {"type": "node", "id": 12119982042, "lat": 52.4901217, "lon": 13.4678894}, {"type": "node", "id": 12119982043, "lat": 52.4900678, "lon": 13.4680669}, {"type": "node", "id": 12119982044, "lat": 52.4900495, "lon": 13.4680584}, {"type": "node", "id": 12119982045, "lat": 52.4900232, "lon": 13.4680499}, {"type": "node", "id": 12119982046, "lat": 52.4899872, "lon": 13.4680433}, {"type": "node", "id": 12119982047, "lat": 52.4899442, "lon": 13.4680505}, {"type": "node", "id": 12119982048, "lat": 52.4899027, "lon": 13.4680715}, {"type": "node", "id": 12119982049, "lat": 52.4898698, "lon": 13.4681007}, {"type": "node", "id": 12119982050, "lat": 52.4897642, "lon": 13.4683912}, {"type": "node", "id": 12119982051, "lat": 52.4897642, "lon": 13.4684358}, {"type": "node", "id": 12119982052, "lat": 52.489769, "lon": 13.4684947}, {"type": "node", "id": 12119982053, "lat": 52.4897826, "lon": 13.4685648}, {"type": "node", "id": 12119982054, "lat": 52.4898021, "lon": 13.4686232}, {"type": "node", "id": 12119982055, "lat": 52.4898321, "lon": 13.4686795}, {"type": "node", "id": 12119982056, "lat": 52.4898704, "lon": 13.4687286}, {"type": "node", "id": 12124878071, "lat": 52.4886369, "lon": 13.4547085, "tags": {"healthcare": "physiotherapist", "name": "Kerstin Fruggel", "opening_hours": "\"by appointment\""}}, {"type": "node", "id": 12133528214, "lat": 52.4876817, "lon": 13.444187, "tags": {"addr:housenumber": "39", "addr:street": "Bouch\u00e9stra\u00dfe", "branch": "Treptow", "name": "Zora", "opening_hours": "Mo-Sa 09:30-21:30", "shop": "supermarket", "website": "https://www.zorastore.eu", "wheelchair": "yes"}}, {"type": "node", "id": 12362624671, "lat": 52.4908494, "lon": 13.4491869, "tags": {"addr:city": "Berlin", "addr:housenumber": "18", "addr:postcode": "12435", "addr:street": "Bouch\u00e9stra\u00dfe", "addr:suburb": "Alt-Treptow", "healthcare": "psychotherapist", "name": "Katharina Schindler"}}, {"type": "node", "id": 12560852437, "lat": 52.4943933, "lon": 13.4462446}, {"type": "node", "id": 12945203901, "lat": 52.4931091, "lon": 13.4655771, "tags": {"addr:housenumber": "15", "addr:postcode": "12435", "addr:street": "Puschkinallee", "amenity": "restaurant", "cuisine": "thai", "name": "Sabai Sabai original thai streetfood", "opening_hours": "Mo-Fr 11:00-15:00; Sa 12:00-17:00"}}, {"type": "way", "id": 4685998, "nodes": [12119982035, 12119982036, 419214689, 12119982039, 12119982056, 12119982055, 12119982054, 12119982053, 12119982052, 12119982051, 12119982050, 9253943521, 1561639983, 1561639990, 1561640004, 9253943522, 12119982040, 12119982049, 12119982048, 12119982047, 12119982046, 12119982045, 12119982044, 12119982043, 12119982041, 12119982042, 12118397618, 12118397617, 12118397613, 12118397612, 9992872510, 9992872509, 12118397614, 12118397615, 9992872508, 12118397616, 9992872507, 9992872720, 9992872722, 9992872723, 9992872724, 9992872725, 419214317, 9992872690, 9992872691, 9992872726, 9992872704, 9992872727, 9992928847, 9992928823, 419214316, 9992928829, 419214309, 261973668, 261973672, 257375935, 419214602, 3131745418, 3131745400, 29786761, 3383826217, 3383826218, 417213046, 3383826221, 4842240194, 4842240193, 29786562, 1734664834, 5862309619, 1734664836, 29786563, 5667827680, 5862309618, 380069720, 29786564, 4842240190, 4842240184, 4190262794, 29786760, 29786759, 29786758, 29786757, 417213116, 29786756, 1551950490, 1551950491, 29786755, 3124594520, 1551950499, 5862309597, 1551950517, 3124594522, 1551950519, 1551950534, 3124594524, 1551950537, 1551950542, 3124594528, 1551950555, 1551950563, 1551950564, 1551950565, 1551950567, 1551950568, 1551950569, 282270470, 29786754, 3124595030, 7233173898, 7233173897, 261973488, 7233173895, 7233173896, 38898288, 4303162859, 3409383857, 4277697692, 261973489, 4590793967, 4590793950, 4314796571, 12118397620, 417213267, 417213266, 12118397619, 12119961443, 12119982035], "tags": {"communication:amateur_radio:pota": "DE-0217", "leisure": "park", "name": "Treptower Park", "name:be": "\u0422\u0440\u044d\u043f\u0442\u0430\u045e-\u043f\u0430\u0440\u043a", "name:etymology:wikidata": "Q702517", "name:etymology:wikipedia": "de:Berlin-Alt-Treptow", "name:ru": "\u0422\u0440\u0435\u043f\u0442\u043e\u0432-\u043f\u0430\u0440\u043a", "wikidata": "Q666937", "wikipedia": "de:Treptower Park"}}, {"type": "way", "id": 15740766, "nodes": [9807079657, 332626018, 5917512751, 332310779, 9807079656, 9807079655, 1505249351, 1165362755, 9807079654, 12560852437, 9807079638, 2267244143, 2267244145, 9839115552, 1914635218, 1914635217, 9807079626, 9807079641, 9807079628, 1113684083, 1914635221, 157468240, 206379901, 5611510253, 157468251, 9807079624, 9839225250, 1113684087, 157468245, 4405786220, 3057480475, 9839225293, 9825458267, 9825458266, 9825405048, 9825405028, 8011189364, 8011189361, 9807079637, 157468225, 9807079611, 261983485, 9807079612, 7555034008, 9807079613, 157468261, 7555034009, 7555034011, 7555034010, 11764919129, 9807079614, 157468256, 1505257110, 6170490564, 7555036921, 261713094, 7555034012, 261713095, 261713096, 261713097, 261713098, 9807079610, 4405786218, 5917512749, 11764919222, 11764919133, 9807079657]}, {"type": "way", "id": 24183420, "nodes": [6823113405, 2323153580, 2323153581, 1176680918, 3609479703, 6823113397, 6823113399, 771525577, 771525721, 9111911442, 9111911434, 9111911388, 6018845414, 9111911387, 6018845415, 3235739532, 3235739528, 9111911370, 9111911371, 6018845416, 6018845417, 6018845418, 9111911418, 1176680874, 6018845408, 6018845409, 6018845410, 6018845411, 6018845412, 6018845413, 261911691, 9111911255, 9111911248, 9111911223, 9111911224, 9111911525, 9205615697, 261911690, 261909715, 9111911513, 9111911514, 9111892874, 9111892875, 7825797134, 7825797124, 7825797129, 773086162, 773086110, 9111911462, 6823092101, 6823092100, 6823092108, 9111911469, 9111911470, 771525813, 9111911476, 6823113405], "tags": {"leisure": "park"}}, {"type": "way", "id": 24195534, "nodes": [1505249204, 1505249161, 9106184667, 262019788, 1505249232, 1505249243, 1505249277, 1505249296, 772779473, 772779488, 1505249327, 1505249337, 8409861035, 332626018, 5917512751, 332310779, 9807079656, 9807079655, 1505249351, 1165362755, 5917512748, 6011721160, 5243080391, 771224892, 771224770, 771224738, 771224736, 771224939, 5243080392, 771224831, 771224784, 771224722, 262019758, 6011721164, 6011721165, 262019762, 9106184668, 1505249220, 9106184630, 32248820, 9106184631, 1505249204], "tags": {"leisure": "park"}}, {"type": "way", "id": 51175555, "nodes": [652813733, 10301258590, 1465071867, 1465071856, 652813739, 652813747, 652813752, 3874596565, 3874596564, 652813989, 2266306950, 2266306951, 1010212430, 652813755, 652813756, 652813733], "tags": {"leisure": "park", "protection_title": "Gesch\u00fctzte Gr\u00fcnanlage"}}, {"type": "way", "id": 60361091, "nodes": [751235835, 5243070916, 5243070917, 751235768, 751235799, 5243070912, 5243070911, 5243070915, 7329872982, 5243070914, 5243070913, 751235835], "tags": {"addr:city": "Berlin", "addr:country": "DE", "addr:housenumber": "425", "addr:postcode": "12435", "addr:street": "Kiefholzstra\u00dfe", "addr:suburb": "Alt-Treptow", "brand": "Netto", "brand:wikidata": "Q552652", "brand:wikipedia": "en:Netto (store)", "building": "supermarket", "building:levels": "1", "check_date": "2025-07-25", "check_date:opening_hours": "2025-07-25", "diet:halal": "no", "name": "Netto", "opening_hours": "Mo-Sa 07:00-20:00", "operator": "Netto ApS & Co. KG / Dansk Supermarked A/S", "roof:material": "roof_tiles", "roof:shape": "hipped", "shop": "supermarket", "wheelchair": "yes"}}, {"type": "way", "id": 61907900, "nodes": [3235739476, 3235739474, 3235739472, 3235739494, 3235739507, 3235739501, 3235739521, 3235739476], "tags": {"addr:city": "Berlin", "addr:housenumber": "55", "addr:postcode": "12435", "addr:street": "Wildenbruchstra\u00dfe", "brand": "Netto Marken-Discount", "brand:wikidata": "Q879858", "brand:wikipedia": "de:Netto Marken-Discount", "building": "retail", "building:levels": "1", "check_date": "2023-10-13", "check_date:opening_hours": "2024-04-16", "diet:halal": "no", "name": "Netto Marken-Discount", "opening_hours": "Mo-Sa 07:00-22:00", "roof:levels": "0", "roof:shape": "flat", "shop": "supermarket", "website": "https://www.netto-online.de/filialen/Berlin-Treptow/Wildenbruchstr-55/7752/", "wheelchair": "yes"}}, {"type": "way", "id": 86812767, "nodes": [1010212368, 1010212390, 652813604, 1465071873, 1465071874, 1465071877, 652813605, 1465071871, 1465071872, 1465071869, 1465071870, 9309479807, 9309479808, 9309479809, 9702240244, 1010212368], "tags": {"leisure": "park", "protection_title": "Gesch\u00fctzte Gr\u00fcnanlage"}}, {"type": "way", "id": 107686637, "nodes": [419214382, 847934240, 419214407, 419214403, 419214400, 419214395, 419214385, 419214382], "tags": {"access": "yes", "leisure": "playground"}}, {"type": "way", "id": 107686644, "nodes": [9992872947, 9992872760, 9992872759, 9992872758, 9992872757, 9992872756, 9992872755, 9992872754, 9992872753, 9992872752, 9992872751, 9992872750, 9992872749, 9992872748, 9992872747, 9992872936, 9992872937, 9992872938, 9992872939, 9992872940, 9992872941, 9992872942, 9992872943, 9992872944, 9992872945, 9992872946, 9992872947], "tags": {"access": "yes", "leisure": "playground"}}, {"type": "way", "id": 150809994, "nodes": [2971090554, 2971090545, 2971090547, 2971090543, 7644373578, 2971090540, 2971090539, 2971090535, 2971090536, 1636830043, 2971089731, 2971090537, 2971090538, 7351679136, 2971090544, 2971090542, 2971090548, 1636830101, 2971090549, 2971090550, 2971090555, 2971090552, 1636830152, 2971090557, 2971090556, 2971090554], "tags": {"addr:housenumber": "1", "addr:street": "Elsenstra\u00dfe", "alt_name": "\u00c4rztehaus Treptow", "amenity": "clinic", "building": "healthcare", "building:levels": "4", "check_date:opening_hours": "2025-05-05", "healthcare": "centre", "image": "https://commons.wikimedia.org/wiki/File:Aerztehaus_Berlin-Treptow_01.jpg", "name": "\u00c4rztehaus an den Treptowers", "old_name": "Betriebspoliklinik der Elektro- und Apparate Werke (EAW)", "opening_hours": "Mo-Fr 08:00-20:00", "roof:colour": "grey", "roof:shape": "hipped", "wheelchair": "yes", "wikidata": "Q14541092", "wikimedia_commons": "Category:Aerztehaus Berlin-Treptow", "wikipedia": "de:\u00c4rztehaus Treptow"}}, {"type": "way", "id": 151483009, "nodes": [1642987135, 1642987136, 1642987147, 1642987150, 1642987170, 1642987144, 1642987135], "tags": {"access": "yes", "dog": "no", "leisure": "playground"}}, {"type": "way", "id": 165863238, "nodes": [1773846435, 1773846436, 6466119134, 6466119133, 6466119132, 4375311763, 1773846434, 1773846433, 1773846435], "tags": {"addr:city": "Berlin", "addr:housenumber": "90", "addr:postcode": "12435", "addr:street": "Heidelberger Stra\u00dfe", "brand": "Edeka", "brand:wikidata": "Q701755", "brand:wikipedia": "de:Edeka", "building": "retail", "building:levels": "1", "check_date": "2023-10-26", "diet:halal": "no", "name": "EDEKA", "opening_hours": "Mo-Sa 07:00-21:00", "operator": "Lawrenz", "roof:levels": "0", "roof:shape": "flat", "shop": "supermarket", "wheelchair": "yes"}}, {"type": "way", "id": 188769566, "nodes": [1993982562, 1993982559, 1993982552, 4590793952, 1993982562], "tags": {"amenity": "fast_food", "building": "yes", "check_date": "2024-07-24", "cuisine": "german", "indoor_seating": "no", "name": "Spreeimbiss", "outdoor_seating": "yes", "smoking": "yes", "wheelchair": "yes"}}, {"type": "way", "id": 198344519, "nodes": [2084847942, 2084847943, 2084847944, 2084847946, 6312972384, 6312973486, 6312973485, 2084847945, 2084847941, 2084847940, 2084847942], "tags": {"addr:city": "Berlin", "addr:country": "DE", "addr:housenumber": "0", "addr:postcode": "12435", "addr:street": "Bulgarische Stra\u00dfe", "amenity": "restaurant", "building": "boat", "check_date:opening_hours": "2022-01-15", "cuisine": "german", "indoor_seating": "yes", "layer": "1", "name": "Segelschiffrestaurant \u201eKlipper\u201c", "opening_hours": "10:00-01:00", "outdoor_seating": "yes", "phone": "+49 30 53216490", "seamark:hulk:category": "floating_restaurant", "seamark:type": "hulk", "smoking": "outside", "toilets:wheelchair": "no", "website": "https://klipper-berlin.de/", "wheelchair": "yes"}}, {"type": "way", "id": 355333453, "nodes": [3609479704, 9111911453, 9111911452, 9111911451, 9111911450, 9111911449, 9111911448, 9111911447, 9111911446, 9111911445, 9111911444, 3609479710, 9111911344, 9111911436, 3609479703, 1176680918, 9111911455, 9111911345, 3609479704], "tags": {"access": "yes", "leisure": "playground"}}, {"type": "way", "id": 432763459, "nodes": [4317213316, 4317213320, 4317213318, 4317213314, 4317213316], "tags": {"addr:city": "Berlin", "addr:country": "DE", "addr:housenumber": "1", "addr:postcode": "12435", "addr:street": "Am Flutgraben", "alt_name": "CDV", "amenity": "bar", "building": "retail", "building:levels": "2", "contact:instagram": "club_der_visionaere", "drink:club-mate": "served", "indoor_seating": "no", "live_music": "yes", "name": "Club der Visionaere", "outdoor_seating": "yes", "phone": "+49 30 69518942", "toilets": "yes", "toilets:access": "customers", "website": "https://clubdervisionaere.com/", "wheelchair": "limited", "wikidata": "Q5136437", "wikimedia_commons": "Category:Club der Vision\u00e4re", "wikipedia": "de:Club der Visionaere"}}, {"type": "way", "id": 447232581, "nodes": [2574356764, 9540496658, 9540496671, 9540189216, 9540496659, 9540496663, 6833043347, 6833043361, 2574356762, 4444052102, 4444052101, 2574356758, 2574356764], "tags": {"access": "yes", "leisure": "playground", "name": "Katzenspielplatz"}}, {"type": "way", "id": 463700153, "nodes": [244430503, 9106184629, 9106142210, 9106142209, 1176680915, 9106142207, 2971110964, 1505249115, 7952475371, 262019768, 1505249054, 5243070902, 1505249126, 9106184621, 9106142211, 9106184628, 244430503], "tags": {"leisure": "park"}}, {"type": "way", "id": 471147733, "nodes": [4653096462, 4653096461, 4842240185, 4653096460, 4842240188, 6370562744, 4653096455, 6370562742, 4653096451, 4842240187, 4653096449, 4653096448, 4653096447, 4653096446, 4842240186, 4653096444, 4653096462], "tags": {"access": "yes", "leisure": "playground", "name": "Weltspielplatz im Treptower Park", "website": "https://www.weltspielplatz.de/"}}, {"type": "way", "id": 489968512, "nodes": [4821633524, 1505249324, 1505249281, 7701464477, 8409861030, 1642987210, 8409861040, 8409861037, 8409861038, 770432348, 7701464476, 771224743, 771224744, 11764919258, 770432300, 770432367, 11764919261, 1642987172, 1642987170, 1642987150, 1642987136, 1642987135, 1642987151, 1642987138, 1642987134, 9850619739, 261715526, 7701464471, 1232957863, 1232957953, 7701464472, 3635071954, 4374709949, 4374709946, 4374709945, 4374709944, 11071172954, 11071181442, 1499856796, 3236194866, 261756925, 2085155825, 262029642, 3391845894, 261756926, 2085155826, 2085155827, 2085155828, 260647531, 11764919283, 5917512725, 2085155830, 4821633525, 4821633524], "tags": {"leisure": "park", "protection_title": "Gesch\u00fctzte Gr\u00fcnanlage"}}, {"type": "way", "id": 626818113, "nodes": [5043904116, 9807079553, 9807079623, 5917512742, 9807079583, 9807079582, 9807079576, 9807079554, 9807021300, 5917512743, 5917512745, 5917512744, 9807021310, 9807021311, 206380248, 206380247, 206380246, 5243061464, 206380245, 9807079537, 9807079538, 5043904116]}, {"type": "way", "id": 813356593, "nodes": [7597560528, 7597560527, 7597560526, 7597560525, 7597560528], "tags": {"access": "private", "leisure": "playground"}}, {"type": "way", "id": 824774368, "nodes": [7701465313, 7859015605, 7859002165, 7859002122, 260739745, 7859002184, 7859015606, 7859015607, 7859015608, 7859015609, 7859015590, 7859015610, 7859015611, 7859002150, 260739744, 7859002130, 7859002128, 7859002139, 7859002143, 260739743, 7859002144, 7859015603, 7859015602, 7859015601, 7990039441, 7990039438, 7990039439, 7990039440, 7859002171, 7859002170, 7859015604, 7701465313]}, {"type": "way", "id": 824774369, "nodes": [260739742, 7701465316, 7990039474, 7990039444, 7990039445, 7701465318, 7990039479, 7990039478, 7990039476, 7990039477, 260739741, 7701465317, 260739740, 7990039469, 6018863483, 7990039468, 10314553529, 7990039451, 7701465315, 7701465314, 260739742]}, {"type": "way", "id": 837856447, "nodes": [7820157606, 7820122258, 7820157599, 7820157600, 7820157606], "tags": {"access": "yes", "leisure": "playground"}}, {"type": "way", "id": 856958882, "nodes": [7989867012, 7989867011, 7989867010, 7989867009, 7989867012], "tags": {"access": "private", "leisure": "playground"}}, {"type": "way", "id": 965930778, "nodes": [3114480564, 5862309620, 5862309627, 5862309621, 3114480575, 5862309622, 3114480577, 5862309623, 5862309625, 5862309624, 5862309626, 3114480570, 3114480567, 3114480576, 3114480565, 3114480574, 417213012, 1328856169, 417213014, 1438126826, 417213015, 8938128801, 1438126837, 8938128800, 417213016, 417213017, 382423596, 1438126860, 382423604, 3114480568, 3114480571, 3114480572, 3114480564], "tags": {"landcover": "grass", "leisure": "park"}}, {"type": "way", "id": 985625902, "nodes": [6018845413, 9111892866, 3235739499, 3235739518, 7989776553, 3235739496, 9111892865, 9111892864, 6018845417, 6018845418, 9111911418, 1176680874, 6018845408, 6018845409, 6018845410, 6018845411, 6018845412, 6018845413], "tags": {"access": "permissive", "addr:city": "Berlin", "addr:country": "DE", "addr:housenumber": "29", "addr:postcode": "12435", "addr:street": "Karl-Kunger-Stra\u00dfe", "addr:suburb": "Alt-Treptow", "amenity": "community_centre", "check_date": "2023-10-29", "community_centre": "youth_centre", "contact:email": "ASPKuhfuss@kinderring-berlin.de", "contact:fax": "+49 30 53699069", "contact:phone": "+49 30 53699069", "contact:website": "https://kinderring-berlin.de/asp-kuhfuss/", "fee": "no", "leisure": "playground", "max_age": "14", "min_age": "7", "name": "Abenteuer- und Bauspielplatz Kuhfu\u00df", "opening_hours": "Mo-Fr 13:00-18:00; SH 10:00-16:00", "operator": "Kinderring Berlin e.V.", "start_date": "1993-04"}}, {"type": "way", "id": 1037934212, "nodes": [9436904264, 9436904273, 9560083586, 9436904265, 9436904264], "tags": {"access": "yes", "leisure": "playground"}}, {"type": "way", "id": 1055762697, "nodes": [9701024326, 9701024328, 9701024327, 9701024329, 9701024326], "tags": {"access": "yes", "leisure": "playground", "playground:theme": "ship"}}, {"type": "relation", "id": 11289044, "members": [{"type": "way", "ref": 824774369, "role": "outer"}, {"type": "way", "ref": 824774368, "role": "outer"}], "tags": {"leisure": "park", "name": "Schmollerplatz", "type": "multipolygon", "wikidata": "Q2246601"}}, {"type": "relation", "id": 14236112, "members": [{"type": "way", "ref": 15740766, "role": "outer"}, {"type": "way", "ref": 626818113, "role": "outer"}], "tags": {"leisure": "park", "name": "Schlesischer Busch", "name:etymology:wikidata": "Q1169350;Q1360410", "name:etymology:wikipedia": "de:Niederwald", "protection_title": "Gesch\u00fctzte Gr\u00fcnanlage", "type": "multipolygon", "wheelchair": "yes", "wikidata": "Q1297200", "wikipedia": "de:Schlesischer Busch"}}]}