{"version": 0.6, "generator": "Overpass API 0.7.62.7 375dc00a", "osm3s": {"timestamp_osm_base": "2025-08-05T15:07:08Z", "copyright": "The data included in this document is from www.openstreetmap.org. The data is made available under ODbL."}, "elements": [{"type": "node", "id": 262092408, "lat": 52.515942, "lon": 13.6224558}, {"type": "node", "id": 266630604, "lat": 52.5111499, "lon": 13.6121832, "tags": {"addr:city": "Berlin", "addr:country": "DE", "addr:housenumber": "76", "addr:postcode": "12623", "addr:street": "Treskowstra\u00dfe", "addr:suburb": "Mahlsdorf", "amenity": "pharmacy", "check_date:opening_hours": "2024-03-11", "dispensing": "yes", "drive_through": "no", "email": "georginen-apotheke@t-online.de", "health_facility:type": "pharmacy", "healthcare": "pharmacy", "medical_system:western": "yes", "name": "Georginen-Apotheke", "opening_hours": "Mo-Fr 08:00-19:00; Sa 09:00-13:00; PH off", "operator": "Andrea Weigel", "phone": "+49305665731", "website": "https://www.georginen-apotheke-berlin.de/", "wheelchair": "yes"}}, {"type": "node", "id": 266632232, "lat": 52.509361, "lon": 13.6138214, "tags": {"addr:city": "Berlin", "addr:country": "DE", "addr:housenumber": "54", "addr:postcode": "12623", "addr:street": "H\u00f6nower Stra\u00dfe", "addr:suburb": "Mahlsdorf", "amenity": "pharmacy", "dispensing": "yes", "email": "mahlsdorfer-apotheke@t-online.de", "fax": "+49 30 56698340", "healthcare": "pharmacy", "name": "Mahlsdorfer Apotheke", "opening_hours": "Mo,Tu 08:00-19:30, We-Fr 08:00-18:30, Sa 08:00-13:00; PH off", "phone": "+49 30 5677417", "website": "http://www.mahlsdorfer-apotheke.de", "wheelchair": "yes"}}, {"type": "node", "id": 267093530, "lat": 52.506745, "lon": 13.610402}, {"type": "node", "id": 267093532, "lat": 52.506981, "lon": 13.608559}, {"type": "node", "id": 267093533, "lat": 52.5063592, "lon": 13.6081766}, {"type": "node", "id": 267093534, "lat": 52.5059108, "lon": 13.6094783}, {"type": "node", "id": 275623282, "lat": 52.5133802, "lon": 13.6120014, "tags": {"addr:city": "Berlin", "addr:country": "DE", "addr:housenumber": "95A", "addr:postcode": "12623", "addr:street": "H\u00f6nower Stra\u00dfe", "addr:suburb": "Mahlsdorf", "amenity": "pharmacy", "check_date:opening_hours": "2024-09-01", "dispensing": "yes", "healthcare": "pharmacy", "name": "gesundleben Apotheke Mahlsdorf", "opening_hours": "Mo-Fr 08:00-19:00; Sa 09:00-13:00; PH off", "phone": "+49 30 9918153", "website": "https://www.gesundleben-apotheken.de/mahlsdorf", "wheelchair": "yes", "wheelchair:description": "breite Rampe"}}, {"type": "node", "id": 282830537, "lat": 52.4788695, "lon": 13.5940687}, {"type": "node", "id": 282830538, "lat": 52.478923, "lon": 13.5941986}, {"type": "node", "id": 282830539, "lat": 52.4789267, "lon": 13.5943006}, {"type": "node", "id": 282830540, "lat": 52.4788504, "lon": 13.5945332}, {"type": "node", "id": 282830541, "lat": 52.478676, "lon": 13.5948939}, {"type": "node", "id": 282830542, "lat": 52.4786133, "lon": 13.5948682}, {"type": "node", "id": 282830543, "lat": 52.4785162, "lon": 13.5947501}, {"type": "node", "id": 282830544, "lat": 52.4783507, "lon": 13.5945565}, {"type": "node", "id": 282830545, "lat": 52.4781831, "lon": 13.5943628}, {"type": "node", "id": 282830546, "lat": 52.4781753, "lon": 13.5943366}, {"type": "node", "id": 282830547, "lat": 52.4781757, "lon": 13.5943084}, {"type": "node", "id": 282830548, "lat": 52.478479, "lon": 13.593679}, {"type": "node", "id": 282830549, "lat": 52.4785254, "lon": 13.5936643}, {"type": "node", "id": 282830736, "lat": 52.4786504, "lon": 13.5930723}, {"type": "node", "id": 282830737, "lat": 52.4792986, "lon": 13.5938159}, {"type": "node", "id": 282830738, "lat": 52.4786707, "lon": 13.5951671}, {"type": "node", "id": 282830739, "lat": 52.4779934, "lon": 13.5943792}, {"type": "node", "id": 286022743, "lat": 52.4803378, "lon": 13.6041499}, {"type": "node", "id": 286022745, "lat": 52.4802782, "lon": 13.6047868}, {"type": "node", "id": 286022746, "lat": 52.4788924, "lon": 13.6044441}, {"type": "node", "id": 286022747, "lat": 52.4789716, "lon": 13.6038103}, {"type": "node", "id": 286309718, "lat": 52.5025371, "lon": 13.6128561}, {"type": "node", "id": 289414441, "lat": 52.4820047, "lon": 13.6015579, "tags": {"addr:city": "Berlin", "addr:country": "DE", "addr:housenumber": "76", "addr:postcode": "12623", "addr:street": "Hultschiner Damm", "addr:suburb": "Mahlsdorf", "amenity": "cafe", "cuisine": "ice_cream", "diet:vegan": "yes", "diet:vegetarian": "yes", "email": "info@kleines-eiswerk.de", "name": "Das kleine Eiswerk", "opening_hours": "Mo-Su,PH 12:00-18:00", "operator": "Christine Gatzke-Verges", "phone": "+49 1520 7001419", "website": "https://www.kleines-eiswerk.de/", "wheelchair": "no"}}, {"type": "node", "id": 292446221, "lat": 52.5043671, "lon": 13.6077814}, {"type": "node", "id": 297821844, "lat": 52.5017726, "lon": 13.6126733}, {"type": "node", "id": 297821855, "lat": 52.5017578, "lon": 13.6109431}, {"type": "node", "id": 297821856, "lat": 52.5017285, "lon": 13.6104238}, {"type": "node", "id": 297822347, "lat": 52.5017713, "lon": 13.6099372}, {"type": "node", "id": 297822513, "lat": 52.501847, "lon": 13.6117339}, {"type": "node", "id": 304183504, "lat": 52.5114112, "lon": 13.612096, "tags": {"addr:city": "Berlin", "addr:country": "DE", "addr:housenumber": "75", "addr:postcode": "12623", "addr:street": "H\u00f6nower Stra\u00dfe", "addr:suburb": "Mahlsdorf", "amenity": "dentist", "health_facility:type": "office", "health_specialty:dentistry": "yes", "healthcare": "dentist", "medical_system:western": "yes", "office": "physician", "operator": "Dr. med. dent. Dietmar K\u00e4mpf"}}, {"type": "node", "id": 308707632, "lat": 52.4955607, "lon": 13.6113563, "tags": {"addr:city": "Berlin", "addr:country": "DE", "addr:housenumber": "238", "addr:postcode": "12623", "addr:street": "Hultschiner Damm", "addr:suburb": "Mahlsdorf", "amenity": "restaurant", "cuisine": "german;italian;mexican", "name": "Rossini III", "phone": "+49305675283", "wheelchair": "limited"}}, {"type": "node", "id": 336521683, "lat": 52.5009837, "lon": 13.614869}, {"type": "node", "id": 441327434, "lat": 52.5023372, "lon": 13.612705, "tags": {"barrier": "gate", "foot": "yes", "motor_vehicle": "no"}}, {"type": "node", "id": 441329458, "lat": 52.5027098, "lon": 13.614327, "tags": {"barrier": "gate", "foot": "yes", "motor_vehicle": "private"}}, {"type": "node", "id": 559088684, "lat": 52.505436, "lon": 13.6144005}, {"type": "node", "id": 559088705, "lat": 52.5053855, "lon": 13.6139666}, {"type": "node", "id": 559408821, "lat": 52.502056, "lon": 13.6107519}, {"type": "node", "id": 559408905, "lat": 52.5036901, "lon": 13.6081436}, {"type": "node", "id": 559408926, "lat": 52.5023803, "lon": 13.6085414}, {"type": "node", "id": 559408935, "lat": 52.5023771, "lon": 13.6098945}, {"type": "node", "id": 559408943, "lat": 52.5021059, "lon": 13.6104297}, {"type": "node", "id": 559408954, "lat": 52.5021203, "lon": 13.6105406}, {"type": "node", "id": 559408979, "lat": 52.5020695, "lon": 13.6106267}, {"type": "node", "id": 559410851, "lat": 52.505545, "lon": 13.6068295}, {"type": "node", "id": 559410853, "lat": 52.5053525, "lon": 13.6071529}, {"type": "node", "id": 559410854, "lat": 52.505446, "lon": 13.6067673}, {"type": "node", "id": 559468652, "lat": 52.5059094, "lon": 13.6113644}, {"type": "node", "id": 559471039, "lat": 52.5071957, "lon": 13.6134367}, {"type": "node", "id": 559471040, "lat": 52.5079877, "lon": 13.6135036}, {"type": "node", "id": 559471044, "lat": 52.5052511, "lon": 13.6145036}, {"type": "node", "id": 639028218, "lat": 52.519611, "lon": 13.6289448}, {"type": "node", "id": 639028221, "lat": 52.5199557, "lon": 13.6294148}, {"type": "node", "id": 639028224, "lat": 52.519331, "lon": 13.63066}, {"type": "node", "id": 639028227, "lat": 52.5189841, "lon": 13.6301922}, {"type": "node", "id": 668072495, "lat": 52.4911762, "lon": 13.5970287}, {"type": "node", "id": 668072497, "lat": 52.491108, "lon": 13.597438}, {"type": "node", "id": 668072498, "lat": 52.4913657, "lon": 13.597429}, {"type": "node", "id": 668072499, "lat": 52.4914032, "lon": 13.5971725}, {"type": "node", "id": 796673682, "lat": 52.5045177, "lon": 13.6233628}, {"type": "node", "id": 796673821, "lat": 52.5045112, "lon": 13.6234169}, {"type": "node", "id": 796673893, "lat": 52.5042916, "lon": 13.6232897}, {"type": "node", "id": 796673967, "lat": 52.504584, "lon": 13.6234405}, {"type": "node", "id": 960603114, "lat": 52.4822304, "lon": 13.6122855}, {"type": "node", "id": 960603140, "lat": 52.4819742, "lon": 13.6124815}, {"type": "node", "id": 1034216039, "lat": 52.4922709, "lon": 13.6099089}, {"type": "node", "id": 1034216048, "lat": 52.4923793, "lon": 13.6091642}, {"type": "node", "id": 1034216063, "lat": 52.4926878, "lon": 13.6092851}, {"type": "node", "id": 1034216075, "lat": 52.4923311, "lon": 13.6099325}, {"type": "node", "id": 1098842494, "lat": 52.505176, "lon": 13.6193695}, {"type": "node", "id": 1098842790, "lat": 52.5047887, "lon": 13.6192512}, {"type": "node", "id": 1098859626, "lat": 52.5128804, "lon": 13.6120223, "tags": {"amenity": "fast_food", "check_date:opening_hours": "2024-01-19", "cuisine": "asian", "delivery": "yes", "diet:vegan": "yes", "diet:vegetarian": "yes", "indoor_seating": "yes", "name": "Vietnam Today", "opening_hours": "Mo-Sa 11:00-22:00; PH 12:00-22:00; Su off", "outdoor_seating": "yes", "phone": "+49 30 5649008", "smoking": "outside", "takeaway": "yes", "wheelchair": "no"}}, {"type": "node", "id": 1098859635, "lat": 52.5138325, "lon": 13.6123485, "tags": {"addr:city": "Berlin", "addr:country": "DE", "addr:housenumber": "100", "addr:postcode": "12623", "addr:street": "H\u00f6nower Stra\u00dfe", "addr:suburb": "Mahlsdorf", "amenity": "fast_food", "cuisine": "chinese;vietnamese;asian", "indoor_seating": "yes", "name": "Thai Sushi", "opening_hours": "Tu-Su 11:00-21:00", "outdoor_seating": "yes", "phone": "+49 30 28856345", "smoking": "outside", "wheelchair": "limited"}}, {"type": "node", "id": 1098859640, "lat": 52.5130915, "lon": 13.6118344, "tags": {"addr:city": "Berlin", "addr:housenumber": "91", "addr:postcode": "12623", "addr:street": "H\u00f6nower Stra\u00dfe", "amenity": "restaurant", "cuisine": "greek", "diet:vegetarian": "yes", "indoor_seating": "yes", "level": "0", "name": "Herkules II", "opening_hours": "Mo,We,Th 12:00-23:00; Fr-Su 12:00-23:00", "operator": "Theodora Tsira-Barka", "outdoor_seating": "yes", "payment:credit_cards": "yes", "payment:debit_cards": "yes", "phone": "+49 30 55159858", "reservation": "yes", "smoking": "no", "start_date": "2000", "takeaway": "yes", "toilets:wheelchair": "yes", "website": "https://www.herkules2.de", "wheelchair": "yes"}}, {"type": "node", "id": 1099488221, "lat": 52.5279803, "lon": 13.6226031}, {"type": "node", "id": 1099488302, "lat": 52.5284995, "lon": 13.6228929}, {"type": "node", "id": 1223806880, "lat": 52.507692, "lon": 13.6309948}, {"type": "node", "id": 1223806882, "lat": 52.5061843, "lon": 13.6300686}, {"type": "node", "id": 1223808287, "lat": 52.5136417, "lon": 13.6363229}, {"type": "node", "id": 1235266856, "lat": 52.4805013, "lon": 13.6013424, "tags": {"addr:city": "Berlin", "addr:country": "DE", "addr:housename": "Sonnen-Apotheke", "addr:postcode": "12623", "addr:street": "Hultschiner Damm", "addr:suburb": "Mahlsdorf", "amenity": "pharmacy", "check_date:opening_hours": "2022-02-04", "dispensing": "yes", "email": "info@sonnenapotheke-berlin.de", "fax": "+49 30 56547230", "health_facility:type": "pharmacy", "healthcare": "pharmacy", "medical_system:western": "yes", "name": "Sonnen-Apotheke", "opening_hours": "Mo-Fr 08:30-18:30; Sa 09:00-12:00; PH off", "operator": "Monika Wahren e.K.", "phone": "+49 30 5654720", "start_date": "1936", "website": "https://sonnenapotheke-berlin.de/", "wheelchair": "yes"}}, {"type": "node", "id": 1235266872, "lat": 52.4795856, "lon": 13.6007254, "tags": {"addr:city": "Berlin", "addr:housenumber": "51", "addr:postcode": "12623", "addr:street": "Hultschiner Damm", "amenity": "cafe", "breakfast": "yes", "capacity": "22", "cuisine": "cake", "name": "Backstube & Caf\u00e9", "opening_hours": "Mo-Sa 07:00-18:00, Su 08:00-18:00", "outdoor_seating": "yes", "phone": "+49 30 54874432", "smoking": "outside", "takeaway": "yes", "website": "https://meinolf-gloeckner-backstube-cafe.business.site/", "wheelchair": "no"}}, {"type": "node", "id": 1374215199, "lat": 52.5053578, "lon": 13.6069834}, {"type": "node", "id": 1374215203, "lat": 52.5053774, "lon": 13.6068993}, {"type": "node", "id": 1374215204, "lat": 52.5053876, "lon": 13.6070022}, {"type": "node", "id": 1374215210, "lat": 52.5054183, "lon": 13.6068863}, {"type": "node", "id": 1374242287, "lat": 52.5017488, "lon": 13.6112555}, {"type": "node", "id": 1374242289, "lat": 52.5018092, "lon": 13.6112766}, {"type": "node", "id": 1374242290, "lat": 52.5018771, "lon": 13.6117331}, {"type": "node", "id": 1374242299, "lat": 52.5028735, "lon": 13.6082629}, {"type": "node", "id": 1495161006, "lat": 52.5179226, "lon": 13.6323024}, {"type": "node", "id": 1495161008, "lat": 52.5181124, "lon": 13.6319444}, {"type": "node", "id": 1495161010, "lat": 52.518297, "lon": 13.632819}, {"type": "node", "id": 1495161012, "lat": 52.5184748, "lon": 13.6324583}, {"type": "node", "id": 1506395991, "lat": 52.5058733, "lon": 13.6100971}, {"type": "node", "id": 1506395998, "lat": 52.505895, "lon": 13.6104596}, {"type": "node", "id": 1506395999, "lat": 52.5058781, "lon": 13.6096964}, {"type": "node", "id": 1506396000, "lat": 52.5058909, "lon": 13.6095478}, {"type": "node", "id": 1506396012, "lat": 52.5063152, "lon": 13.6083502}, {"type": "node", "id": 1506396013, "lat": 52.5063235, "lon": 13.6083603}, {"type": "node", "id": 1535709266, "lat": 52.511722, "lon": 13.6119994, "tags": {"amenity": "fast_food", "check_date:opening_hours": "2024-09-01", "indoor_seating": "yes", "name": "Mahlsdorfer Grillhaus", "opening_hours:signed": "no", "outdoor_seating": "yes", "wheelchair": "no"}}, {"type": "node", "id": 1535709267, "lat": 52.511768, "lon": 13.6119847, "tags": {"amenity": "cafe", "check_date:opening_hours": "2024-09-01", "indoor_seating": "yes", "name": "Mambo Billard Cafe", "opening_hours:signed": "no", "outdoor_seating": "yes", "wheelchair": "no"}}, {"type": "node", "id": 1567359572, "lat": 52.5281526, "lon": 13.621772}, {"type": "node", "id": 1642849668, "lat": 52.5061495, "lon": 13.6292047}, {"type": "node", "id": 1642849672, "lat": 52.5064528, "lon": 13.6107107}, {"type": "node", "id": 1642849689, "lat": 52.5064406, "lon": 13.6104417}, {"type": "node", "id": 1642849714, "lat": 52.5067185, "lon": 13.6295095}, {"type": "node", "id": 1642849854, "lat": 52.5115423, "lon": 13.6330043}, {"type": "node", "id": 1642849987, "lat": 52.5128438, "lon": 13.6341783}, {"type": "node", "id": 1642850064, "lat": 52.5143471, "lon": 13.635895}, {"type": "node", "id": 1642850206, "lat": 52.5266692, "lon": 13.6191411}, {"type": "node", "id": 1642850211, "lat": 52.5270227, "lon": 13.6213631}, {"type": "node", "id": 1642850217, "lat": 52.5274614, "lon": 13.6207967}, {"type": "node", "id": 1642850218, "lat": 52.5275164, "lon": 13.6178522}, {"type": "node", "id": 1642850252, "lat": 52.5291437, "lon": 13.6257455}, {"type": "node", "id": 1642850254, "lat": 52.5293078, "lon": 13.625299}, {"type": "node", "id": 1865288046, "lat": 52.5050922, "lon": 13.6193919}, {"type": "node", "id": 1878859402, "lat": 52.5285599, "lon": 13.6229309}, {"type": "node", "id": 1878861537, "lat": 52.5285146, "lon": 13.6237409}, {"type": "node", "id": 1878861540, "lat": 52.5285275, "lon": 13.6229908}, {"type": "node", "id": 1878861546, "lat": 52.5281584, "lon": 13.6217448}, {"type": "node", "id": 1878861553, "lat": 52.5284503, "lon": 13.623818}, {"type": "node", "id": 1878861556, "lat": 52.528451, "lon": 13.6232696}, {"type": "node", "id": 1878861558, "lat": 52.5275269, "lon": 13.6213567}, {"type": "node", "id": 1878861560, "lat": 52.5283083, "lon": 13.6235728}, {"type": "node", "id": 1878861562, "lat": 52.5284703, "lon": 13.6236}, {"type": "node", "id": 1878865445, "lat": 52.5288617, "lon": 13.6241516}, {"type": "node", "id": 1906693571, "lat": 52.5219743, "lon": 13.6216789}, {"type": "node", "id": 1906693572, "lat": 52.5220389, "lon": 13.6214998}, {"type": "node", "id": 1906693573, "lat": 52.5221162, "lon": 13.6218171}, {"type": "node", "id": 1906693574, "lat": 52.5221808, "lon": 13.6216379}, {"type": "node", "id": 1976522549, "lat": 52.505848, "lon": 13.6044709}, {"type": "node", "id": 1976522551, "lat": 52.5055984, "lon": 13.6051195}, {"type": "node", "id": 2015616691, "lat": 52.5215437, "lon": 13.6474197}, {"type": "node", "id": 2015616694, "lat": 52.5212452, "lon": 13.6477272}, {"type": "node", "id": 2015616696, "lat": 52.5211888, "lon": 13.6477528}, {"type": "node", "id": 2015616698, "lat": 52.5216276, "lon": 13.6477312}, {"type": "node", "id": 2015616706, "lat": 52.5212164, "lon": 13.6479176}, {"type": "node", "id": 2015616708, "lat": 52.5212182, "lon": 13.6475662}, {"type": "node", "id": 2043804715, "lat": 52.5005497, "lon": 13.6127154}, {"type": "node", "id": 2043804735, "lat": 52.5020664, "lon": 13.6142613}, {"type": "node", "id": 2043804738, "lat": 52.502306, "lon": 13.6144603}, {"type": "node", "id": 2217018023, "lat": 52.5080623, "lon": 13.6313272}, {"type": "node", "id": 2217018063, "lat": 52.5092022, "lon": 13.6320846}, {"type": "node", "id": 2217018112, "lat": 52.5110316, "lon": 13.6334123}, {"type": "node", "id": 2217018150, "lat": 52.5129541, "lon": 13.6351243}, {"type": "node", "id": 2217018155, "lat": 52.5134025, "lon": 13.6357179}, {"type": "node", "id": 2217018161, "lat": 52.5143054, "lon": 13.6371761}, {"type": "node", "id": 2217018163, "lat": 52.514518, "lon": 13.6395229}, {"type": "node", "id": 2217018164, "lat": 52.514602, "lon": 13.6395872}, {"type": "node", "id": 2217018175, "lat": 52.5147824, "lon": 13.6411738}, {"type": "node", "id": 2269037701, "lat": 52.4988919, "lon": 13.6144884}, {"type": "node", "id": 2269858004, "lat": 52.5049907, "lon": 13.6145451}, {"type": "node", "id": 2269858006, "lat": 52.5049942, "lon": 13.6136854}, {"type": "node", "id": 2269858007, "lat": 52.5050142, "lon": 13.6136139}, {"type": "node", "id": 2269858010, "lat": 52.5050609, "lon": 13.6135307}, {"type": "node", "id": 2269858017, "lat": 52.5053648, "lon": 13.6133255}, {"type": "node", "id": 2269858119, "lat": 52.5138084, "lon": 13.6078233}, {"type": "node", "id": 2269858120, "lat": 52.5143243, "lon": 13.6074764}, {"type": "node", "id": 2281021822, "lat": 52.5058297, "lon": 13.6138035}, {"type": "node", "id": 2281021836, "lat": 52.506555, "lon": 13.6136156}, {"type": "node", "id": 2281021972, "lat": 52.5064027, "lon": 13.6135864}, {"type": "node", "id": 2281022038, "lat": 52.506116, "lon": 13.6137139}, {"type": "node", "id": 2281022039, "lat": 52.5058716, "lon": 13.6143679}, {"type": "node", "id": 2281022050, "lat": 52.5064596, "lon": 13.6140872}, {"type": "node", "id": 2281022054, "lat": 52.5065736, "lon": 13.6140523}, {"type": "node", "id": 2281022058, "lat": 52.5065167, "lon": 13.6135514}, {"type": "node", "id": 2281022065, "lat": 52.505792, "lon": 13.6138885}, {"type": "node", "id": 2281022074, "lat": 52.505845, "lon": 13.6143754}, {"type": "node", "id": 2300076449, "lat": 52.4989107, "lon": 13.6143059}, {"type": "node", "id": 2300113233, "lat": 52.4990297, "lon": 13.6137394}, {"type": "node", "id": 2300113235, "lat": 52.499082, "lon": 13.6135061}, {"type": "node", "id": 2301305268, "lat": 52.5221267, "lon": 13.6215443}, {"type": "node", "id": 2301305269, "lat": 52.5221574, "lon": 13.6216067}, {"type": "node", "id": 2301305270, "lat": 52.5221493, "lon": 13.6215695}, {"type": "node", "id": 2301305271, "lat": 52.5220792, "lon": 13.6215335}, {"type": "node", "id": 2301305272, "lat": 52.5221048, "lon": 13.6215347}, {"type": "node", "id": 2304984044, "lat": 52.505429, "lon": 13.6058545}, {"type": "node", "id": 2305070494, "lat": 52.5034745, "lon": 13.6082162}, {"type": "node", "id": 2305070506, "lat": 52.5086989, "lon": 13.613588, "tags": {"addr:city": "Berlin", "addr:housenumber": "48", "addr:postcode": "12623", "addr:street": "H\u00f6nower Stra\u00dfe", "amenity": "doctors", "email": "praxis@derma-berlin.com", "fax": "+49 30 56582030", "health_facility:type": "office", "health_specialty:dermatology": "main", "health_specialty:venereology": "main", "healthcare": "doctor", "healthcare:speciality": "dermatology", "level": "2", "medical_system:western": "yes", "name": "Derma Berlin", "office": "physician", "opening_hours": "Mo,We,Fr 08:00-13:00, Tu 10:00-15:00, Th 12:00-17:00; PH off", "operator": "Charoline Pristaff", "phone": "+49 30 5146683", "website": "https://derma-berlin.com/"}}, {"type": "node", "id": 2305251081, "lat": 52.5108398, "lon": 13.6151761}, {"type": "node", "id": 2305251086, "lat": 52.5108772, "lon": 13.6155136}, {"type": "node", "id": 2305251095, "lat": 52.5109893, "lon": 13.6151314}, {"type": "node", "id": 2305251099, "lat": 52.5110267, "lon": 13.6154688}, {"type": "node", "id": 2305259258, "lat": 52.5131237, "lon": 13.612456, "tags": {"description": "Kristina Kranz", "healthcare": "optometrist", "name": "R\u00f6sler Optik", "opening_hours": "Mo-Fr 09:00-18:30; Sa 09:00-13:00; PH off", "shop": "optician", "wheelchair": "limited"}}, {"type": "node", "id": 2322086742, "lat": 52.5201428, "lon": 13.6137573}, {"type": "node", "id": 2322086744, "lat": 52.5198499, "lon": 13.6134779}, {"type": "node", "id": 2322990527, "lat": 52.5198178, "lon": 13.6168085, "tags": {"addr:city": "Berlin", "addr:country": "DE", "addr:postcode": "12623", "addr:street": "H\u00f6nower Stra\u00dfe", "addr:suburb": "Mahlsdorf", "amenity": "fast_food", "brand": "Domino\u2019s Pizza", "brand:wikidata": "Q1691878", "brand:wikipedia": "de:Domino\u2019s Pizza Deutschland", "contact:phone": "+49 30 56298610", "contact:website": "https://www.dominos.de/kaufhaus/de-berlinmahlsdorf-34003", "cuisine": "pizza", "delivery": "yes", "diet:vegan": "yes", "indoor_seating": "yes", "name": "Domino\u2019s", "opening_hours": "Mo-Su 11:30-23:00", "outdoor_seating": "no", "smoking": "no", "takeaway": "yes"}}, {"type": "node", "id": 2322990561, "lat": 52.5216546, "lon": 13.6185389, "tags": {"amenity": "restaurant", "indoor_seating": "yes", "name": "Steakhaus", "outdoor_seating": "yes", "wheelchair": "no"}}, {"type": "node", "id": 2386450495, "lat": 52.5070176, "lon": 13.6103051}, {"type": "node", "id": 2386450498, "lat": 52.5070562, "lon": 13.6103328}, {"type": "node", "id": 2386450501, "lat": 52.507033, "lon": 13.610256}, {"type": "node", "id": 2386450511, "lat": 52.5070632, "lon": 13.6103232}, {"type": "node", "id": 2386450517, "lat": 52.5070199, "lon": 13.6102759}, {"type": "node", "id": 2386450518, "lat": 52.5070667, "lon": 13.610277}, {"type": "node", "id": 2386450526, "lat": 52.5070192, "lon": 13.6103129}, {"type": "node", "id": 2386450528, "lat": 52.5070172, "lon": 13.6102902}, {"type": "node", "id": 2386450530, "lat": 52.5070254, "lon": 13.610264}, {"type": "node", "id": 2386450536, "lat": 52.5070316, "lon": 13.6103342}, {"type": "node", "id": 2386450539, "lat": 52.5070243, "lon": 13.6103253}, {"type": "node", "id": 2386450543, "lat": 52.5070494, "lon": 13.6103373}, {"type": "node", "id": 2386450547, "lat": 52.5070693, "lon": 13.6102956}, {"type": "node", "id": 2386450576, "lat": 52.5070677, "lon": 13.6103103}, {"type": "node", "id": 2386450578, "lat": 52.5070614, "lon": 13.6102648}, {"type": "node", "id": 2386450582, "lat": 52.5070403, "lon": 13.6103383}, {"type": "node", "id": 2386450584, "lat": 52.5070419, "lon": 13.6102527}, {"type": "node", "id": 2386450616, "lat": 52.5070539, "lon": 13.6102564}, {"type": "node", "id": 2386455134, "lat": 52.5055105, "lon": 13.6050648}, {"type": "node", "id": 2423248085, "lat": 52.5162793, "lon": 13.6245678, "tags": {"addr:city": "Berlin", "addr:country": "DE", "addr:housenumber": "188", "addr:postcode": "12623", "addr:street": "Lemkestra\u00dfe", "addr:suburb": "Mahlsdorf", "amenity": "dentist", "contact:website": "http://www.zapclechler.de/", "healthcare": "dentist", "name": "Dipl. Med. Christiane Lechler", "wheelchair": "yes"}}, {"type": "node", "id": 2423248089, "lat": 52.5229561, "lon": 13.6335869, "tags": {"addr:city": "Berlin", "addr:country": "DE", "addr:housenumber": "150", "addr:postcode": "12623", "addr:street": "Lemkestra\u00dfe", "addr:suburb": "Mahlsdorf", "contact:website": "http://www.physiotherapie-kahlert.de/", "healthcare": "physiotherapist", "name": "Physiotherapie Liane Kahlert", "opening_hours": "\"appointments are made Mondays between 16-18 o'clock\""}}, {"type": "node", "id": 2424327600, "lat": 52.4766287, "lon": 13.6007627, "tags": {"addr:city": "Berlin", "addr:housenumber": "24", "addr:postcode": "12623", "addr:street": "Hultschiner Damm", "amenity": "pharmacy", "email": "info@suedapotheke-mahlsdorf.de", "fax": "+49 30 56702348", "healthcare": "pharmacy", "name": "S\u00fcd-Apotheke", "opening_hours": "Mo-Fr 08:00-18:30, Sa 08:00-12:30; PH off", "operator": "Heike Steinhausen", "phone": "+49 30 56702347", "website": "https://suedapotheke-mahlsdorf.de/", "wheelchair": "yes"}}, {"type": "node", "id": 2425465680, "lat": 52.5060646, "lon": 13.6105277}, {"type": "node", "id": 2522618999, "lat": 52.5165613, "lon": 13.6232991}, {"type": "node", "id": 2522619003, "lat": 52.5165996, "lon": 13.6233524}, {"type": "node", "id": 2534135242, "lat": 52.5069093, "lon": 13.6208368, "tags": {"amenity": "fast_food", "cuisine": "german", "name": "Curry Schmiede"}}, {"type": "node", "id": 2557319883, "lat": 52.5005706, "lon": 13.6129867}, {"type": "node", "id": 2557319888, "lat": 52.5024732, "lon": 13.6127019}, {"type": "node", "id": 2557319889, "lat": 52.5026076, "lon": 13.6131894}, {"type": "node", "id": 2557319948, "lat": 52.5018782, "lon": 13.6134341}, {"type": "node", "id": 2557319949, "lat": 52.501839, "lon": 13.6133215}, {"type": "node", "id": 2557319950, "lat": 52.501821, "lon": 13.6134153}, {"type": "node", "id": 2557319951, "lat": 52.5017916, "lon": 13.6134583}, {"type": "node", "id": 2599250694, "lat": 52.4771137, "lon": 13.6009116}, {"type": "node", "id": 2599250696, "lat": 52.4771195, "lon": 13.6008325}, {"type": "node", "id": 2599250711, "lat": 52.47722, "lon": 13.6009331}, {"type": "node", "id": 2599250713, "lat": 52.4772261, "lon": 13.6008551}, {"type": "node", "id": 2600892200, "lat": 52.4761444, "lon": 13.6000596}, {"type": "node", "id": 2600892201, "lat": 52.4761401, "lon": 13.6001488}, {"type": "node", "id": 2600892204, "lat": 52.4761551, "lon": 13.6000614}, {"type": "node", "id": 2600892205, "lat": 52.476162, "lon": 13.5999604}, {"type": "node", "id": 2600892206, "lat": 52.4761725, "lon": 13.5999373}, {"type": "node", "id": 2600892212, "lat": 52.4762369, "lon": 13.6001674}, {"type": "node", "id": 2600892213, "lat": 52.4762523, "lon": 13.599975}, {"type": "node", "id": 2600892214, "lat": 52.4762601, "lon": 13.6001677}, {"type": "node", "id": 2600892217, "lat": 52.4762784, "lon": 13.6001573}, {"type": "node", "id": 2600892221, "lat": 52.4762931, "lon": 13.6001388}, {"type": "node", "id": 2600892226, "lat": 52.4763322, "lon": 13.6000387}, {"type": "node", "id": 2600892796, "lat": 52.478903, "lon": 13.5998871}, {"type": "node", "id": 2600892807, "lat": 52.4789896, "lon": 13.6000943}, {"type": "node", "id": 2600892812, "lat": 52.4790196, "lon": 13.6000187}, {"type": "node", "id": 2600892829, "lat": 52.479072, "lon": 13.5994841}, {"type": "node", "id": 2600892852, "lat": 52.4791002, "lon": 13.6002212}, {"type": "node", "id": 2600892997, "lat": 52.4791417, "lon": 13.5996457}, {"type": "node", "id": 2600999650, "lat": 52.481911, "lon": 13.6010015}, {"type": "node", "id": 2600999655, "lat": 52.4819447, "lon": 13.6001341}, {"type": "node", "id": 2600999673, "lat": 52.4820763, "lon": 13.600318}, {"type": "node", "id": 2600999714, "lat": 52.4822575, "lon": 13.6006624}, {"type": "node", "id": 2600999717, "lat": 52.4822655, "lon": 13.6004564}, {"type": "node", "id": 2600999722, "lat": 52.4822735, "lon": 13.6010394}, {"type": "node", "id": 2600999726, "lat": 52.482288, "lon": 13.6006656}, {"type": "node", "id": 2608014045, "lat": 52.487023, "lon": 13.6059446}, {"type": "node", "id": 2608014098, "lat": 52.4871857, "lon": 13.6053195}, {"type": "node", "id": 2608014112, "lat": 52.4872212, "lon": 13.6058909}, {"type": "node", "id": 2608014134, "lat": 52.4873415, "lon": 13.6054289}, {"type": "node", "id": 2608014151, "lat": 52.4874874, "lon": 13.6062707}, {"type": "node", "id": 2608014153, "lat": 52.4875299, "lon": 13.6061077}, {"type": "node", "id": 2610905279, "lat": 52.4923419, "lon": 13.6098581}, {"type": "node", "id": 2610905327, "lat": 52.4925335, "lon": 13.609933}, {"type": "node", "id": 2610905365, "lat": 52.4926159, "lon": 13.6097791}, {"type": "node", "id": 2709119521, "lat": 52.4900404, "lon": 13.6185535}, {"type": "node", "id": 2709119527, "lat": 52.4900535, "lon": 13.6194532}, {"type": "node", "id": 2709119530, "lat": 52.4900657, "lon": 13.6185208}, {"type": "node", "id": 2709119538, "lat": 52.4909105, "lon": 13.6184343}, {"type": "node", "id": 2709119541, "lat": 52.4909331, "lon": 13.6193652}, {"type": "node", "id": 2710642328, "lat": 52.5006047, "lon": 13.6172034}, {"type": "node", "id": 2710642332, "lat": 52.5009947, "lon": 13.6132468}, {"type": "node", "id": 2710642343, "lat": 52.5026583, "lon": 13.6131673}, {"type": "node", "id": 2710642345, "lat": 52.5028499, "lon": 13.6142685}, {"type": "node", "id": 2714051979, "lat": 52.5296794, "lon": 13.6243115}, {"type": "node", "id": 2806201534, "lat": 52.5064155, "lon": 13.6107132}, {"type": "node", "id": 2806201537, "lat": 52.5064418, "lon": 13.6112575}, {"type": "node", "id": 2806201544, "lat": 52.5067428, "lon": 13.6103137}, {"type": "node", "id": 2806201545, "lat": 52.5067925, "lon": 13.6099439}, {"type": "node", "id": 2806201546, "lat": 52.507073, "lon": 13.6097286}, {"type": "node", "id": 2860757864, "lat": 52.5014263, "lon": 13.6225495, "tags": {"access": "yes", "leisure": "playground"}}, {"type": "node", "id": 2860767929, "lat": 52.504881, "lon": 13.6196697}, {"type": "node", "id": 3095508091, "lat": 52.5042613, "lon": 13.623543}, {"type": "node", "id": 3095508117, "lat": 52.5045593, "lon": 13.6236467}, {"type": "node", "id": 3095508121, "lat": 52.5051019, "lon": 13.6193354}, {"type": "node", "id": 3149110816, "lat": 52.5108177, "lon": 13.6145425}, {"type": "node", "id": 3149110820, "lat": 52.510826, "lon": 13.6144061}, {"type": "node", "id": 3149110826, "lat": 52.5108352, "lon": 13.6147077}, {"type": "node", "id": 3149110828, "lat": 52.5108398, "lon": 13.6145362}, {"type": "node", "id": 3149111140, "lat": 52.5108574, "lon": 13.6147014}, {"type": "node", "id": 3149111145, "lat": 52.5108674, "lon": 13.614796}, {"type": "node", "id": 3149111186, "lat": 52.5109389, "lon": 13.6143739}, {"type": "node", "id": 3149111202, "lat": 52.5109802, "lon": 13.6147638}, {"type": "node", "id": 3251189966, "lat": 52.5136702, "lon": 13.6360355}, {"type": "node", "id": 3555787600, "lat": 52.5055071, "lon": 13.6150672}, {"type": "node", "id": 3573294515, "lat": 52.5055456, "lon": 13.6150558}, {"type": "node", "id": 3573294520, "lat": 52.5057868, "lon": 13.6138478}, {"type": "node", "id": 3573294522, "lat": 52.5058372, "lon": 13.6138812}, {"type": "node", "id": 3573294525, "lat": 52.5059362, "lon": 13.6149393}, {"type": "node", "id": 3573294586, "lat": 52.5067692, "lon": 13.6134818}, {"type": "node", "id": 3573294587, "lat": 52.5067754, "lon": 13.6135379}, {"type": "node", "id": 3573294591, "lat": 52.5073277, "lon": 13.6134841}, {"type": "node", "id": 3587795253, "lat": 52.5299094, "lon": 13.6431324, "tags": {"amenity": "restaurant", "name": "Schlemmer-Oase"}}, {"type": "node", "id": 3587795266, "lat": 52.5233654, "lon": 13.6460791, "tags": {"amenity": "fast_food", "check_date": "2025-04-13", "check_date:opening_hours": "2025-04-13", "name": "Feinkost Claus", "opening_hours": "Tu-Fr 07:00-15:00"}}, {"type": "node", "id": 3686102625, "lat": 52.5197592, "lon": 13.6137312}, {"type": "node", "id": 3686102626, "lat": 52.520054, "lon": 13.6140065}, {"type": "node", "id": 3785503383, "lat": 52.500469, "lon": 13.6196675}, {"type": "node", "id": 3785503384, "lat": 52.5004524, "lon": 13.620413}, {"type": "node", "id": 3785522685, "lat": 52.500097, "lon": 13.6201024}, {"type": "node", "id": 3785522686, "lat": 52.5002701, "lon": 13.6196563}, {"type": "node", "id": 3785522687, "lat": 52.5000965, "lon": 13.6204787}, {"type": "node", "id": 3785522688, "lat": 52.5003212, "lon": 13.6189579}, {"type": "node", "id": 3785522695, "lat": 52.500529, "lon": 13.6173464}, {"type": "node", "id": 3785522703, "lat": 52.500796, "lon": 13.6171743}, {"type": "node", "id": 3785522704, "lat": 52.5011514, "lon": 13.6149785}, {"type": "node", "id": 3789331541, "lat": 52.5000247, "lon": 13.6196446}, {"type": "node", "id": 3789331542, "lat": 52.5000875, "lon": 13.618782}, {"type": "node", "id": 3792715363, "lat": 52.4937294, "lon": 13.6073409, "tags": {"access": "private", "leisure": "playground"}}, {"type": "node", "id": 3792715379, "lat": 52.4941242, "lon": 13.6081639, "tags": {"access": "private", "leisure": "playground"}}, {"type": "node", "id": 3797554054, "lat": 52.5000223, "lon": 13.6201028}, {"type": "node", "id": 3797554056, "lat": 52.5002707, "lon": 13.6173725}, {"type": "node", "id": 4070404168, "lat": 52.5053158, "lon": 13.6145682}, {"type": "node", "id": 4070404169, "lat": 52.5053296, "lon": 13.6146928}, {"type": "node", "id": 4070404170, "lat": 52.505449, "lon": 13.6145311}, {"type": "node", "id": 4070404171, "lat": 52.5054619, "lon": 13.6146554}, {"type": "node", "id": 4127743701, "lat": 52.5138275, "lon": 13.6075916, "tags": {"barrier": "gate"}}, {"type": "node", "id": 4127743703, "lat": 52.5138651, "lon": 13.6071385, "tags": {"barrier": "gate"}}, {"type": "node", "id": 4127743707, "lat": 52.5138836, "lon": 13.6069228}, {"type": "node", "id": 4159857288, "lat": 52.5052414, "lon": 13.6145062}, {"type": "node", "id": 4187344064, "lat": 52.4824772, "lon": 13.6017837, "tags": {"addr:city": "Berlin", "addr:country": "DE", "addr:housenumber": "82", "addr:postcode": "12623", "addr:street": "Hultschiner Damm", "addr:suburb": "Mahlsdorf", "amenity": "restaurant", "contact:facebook": "https://www.facebook.com/Pathosberlin", "cuisine": "greek", "diet:vegetarian": "yes", "email": "info@pathos-berlin.de", "name": "Pathos", "opening_hours": "Mo-Su,PH 12:00-23:00", "operator": "SPENTZAS GbR Georgios Spentzas", "outdoor_seating": "yes", "phone": "+49 30 56587476", "website": "https://pathos-berlin.de", "wheelchair": "yes"}}, {"type": "node", "id": 4198189289, "lat": 52.5292174, "lon": 13.6257289}, {"type": "node", "id": 4198189291, "lat": 52.5294546, "lon": 13.6251187}, {"type": "node", "id": 4198189295, "lat": 52.5296857, "lon": 13.6243889}, {"type": "node", "id": 4227140808, "lat": 52.5039652, "lon": 13.6077792}, {"type": "node", "id": 4234986749, "lat": 52.4834713, "lon": 13.6108582}, {"type": "node", "id": 4234986750, "lat": 52.4835371, "lon": 13.6108976}, {"type": "node", "id": 4234986751, "lat": 52.4835414, "lon": 13.6109386}, {"type": "node", "id": 4234986841, "lat": 52.4819149, "lon": 13.6123911}, {"type": "node", "id": 4234986842, "lat": 52.4819218, "lon": 13.6124435}, {"type": "node", "id": 4234986844, "lat": 52.4820859, "lon": 13.6113079}, {"type": "node", "id": 4234986847, "lat": 52.4822576, "lon": 13.6108778}, {"type": "node", "id": 4234986849, "lat": 52.4823006, "lon": 13.6108046}, {"type": "node", "id": 4303703144, "lat": 52.504968, "lon": 13.6145468}, {"type": "node", "id": 4303703145, "lat": 52.504981, "lon": 13.6142992}, {"type": "node", "id": 4362172240, "lat": 52.5060351, "lon": 13.6106425}, {"type": "node", "id": 4362172241, "lat": 52.5060461, "lon": 13.6105476}, {"type": "node", "id": 4362172242, "lat": 52.5060911, "lon": 13.6107244}, {"type": "node", "id": 4362172243, "lat": 52.5061346, "lon": 13.6105404}, {"type": "node", "id": 4362172244, "lat": 52.5061488, "lon": 13.6107269}, {"type": "node", "id": 4362172245, "lat": 52.5061582, "lon": 13.6106057}, {"type": "node", "id": 4362172246, "lat": 52.5061697, "lon": 13.6106779}, {"type": "node", "id": 4367704201, "lat": 52.4800491, "lon": 13.6045256}, {"type": "node", "id": 4406046098, "lat": 52.5271107, "lon": 13.6183923}, {"type": "node", "id": 4406046100, "lat": 52.5274399, "lon": 13.6177055}, {"type": "node", "id": 4421857761, "lat": 52.5016754, "lon": 13.6104096}, {"type": "node", "id": 4421857763, "lat": 52.5017267, "lon": 13.6099242}, {"type": "node", "id": 4421857770, "lat": 52.502082, "lon": 13.6074701}, {"type": "node", "id": 4421857771, "lat": 52.5020837, "lon": 13.5999902}, {"type": "node", "id": 4421857774, "lat": 52.5023178, "lon": 13.6101307}, {"type": "node", "id": 4421857777, "lat": 52.5024079, "lon": 13.6125588}, {"type": "node", "id": 4421857786, "lat": 52.5044219, "lon": 13.6071766}, {"type": "node", "id": 4470366566, "lat": 52.5079993, "lon": 13.6136821}, {"type": "node", "id": 4470366567, "lat": 52.5082474, "lon": 13.6137072}, {"type": "node", "id": 4470366942, "lat": 52.5007848, "lon": 13.6130434}, {"type": "node", "id": 4711935839, "lat": 52.4988814, "lon": 13.6145812}, {"type": "node", "id": 4711935840, "lat": 52.4982585, "lon": 13.6143855}, {"type": "node", "id": 4711935841, "lat": 52.4986424, "lon": 13.6135314}, {"type": "node", "id": 4711935842, "lat": 52.4988182, "lon": 13.6135182}, {"type": "node", "id": 4711935843, "lat": 52.4988891, "lon": 13.6135057}, {"type": "node", "id": 4711956197, "lat": 52.5020225, "lon": 13.6078824}, {"type": "node", "id": 4726220345, "lat": 52.5126457, "lon": 13.6347866}, {"type": "node", "id": 4726220346, "lat": 52.5122663, "lon": 13.6344589}, {"type": "node", "id": 4726220360, "lat": 52.511565, "lon": 13.6338527}, {"type": "node", "id": 4729488391, "lat": 52.5225119, "lon": 13.6433344}, {"type": "node", "id": 4729488392, "lat": 52.5221138, "lon": 13.642756}, {"type": "node", "id": 4729488393, "lat": 52.5226385, "lon": 13.6418006}, {"type": "node", "id": 4729488394, "lat": 52.5230091, "lon": 13.6423917}, {"type": "node", "id": 4815328837, "lat": 52.5044747, "lon": 13.6075889}, {"type": "node", "id": 4815328839, "lat": 52.5043379, "lon": 13.6065092}, {"type": "node", "id": 4815328840, "lat": 52.504336, "lon": 13.6063476}, {"type": "node", "id": 4815328841, "lat": 52.5044639, "lon": 13.6063436}, {"type": "node", "id": 4815328844, "lat": 52.5046525, "lon": 13.6062649}, {"type": "node", "id": 4843951220, "lat": 52.506107, "lon": 13.6135711}, {"type": "node", "id": 4843977265, "lat": 52.50364, "lon": 13.6220898, "tags": {"addr:city": "Berlin", "addr:housenumber": "85", "addr:postcode": "12623", "addr:street": "Alt-Mahlsdorf", "amenity": "restaurant", "brand": "L'Osteria", "brand:wikidata": "Q17323478", "brand:wikipedia": "de:L\u2019Osteria", "cuisine": "italian", "email": "mahlsdorf@losteria.de", "indoor_seating": "yes", "name": "L'Osteria", "opening_hours": "Mo-Su,PH 12:00-22:00", "outdoor_seating": "yes", "phone": "+49 30 64161360", "start_date": "2017-06", "website": "https://www.losteria.de/restaurant/berlin-mahlsdorf/", "wheelchair": "yes"}}, {"type": "node", "id": 4846248244, "lat": 52.5050957, "lon": 13.6198384}, {"type": "node", "id": 4846248245, "lat": 52.5048699, "lon": 13.6197345}, {"type": "node", "id": 4846248247, "lat": 52.5047289, "lon": 13.6195992}, {"type": "node", "id": 4870688479, "lat": 52.5017635, "lon": 13.6112801}, {"type": "node", "id": 4870688494, "lat": 52.5013337, "lon": 13.6126884}, {"type": "node", "id": 4902204185, "lat": 52.5284462, "lon": 13.6234373}, {"type": "node", "id": 4902204186, "lat": 52.528479, "lon": 13.6231204}, {"type": "node", "id": 4902204188, "lat": 52.5274963, "lon": 13.6213392}, {"type": "node", "id": 4902204189, "lat": 52.5275168, "lon": 13.6213047}, {"type": "node", "id": 4902204190, "lat": 52.5275626, "lon": 13.6213278}, {"type": "node", "id": 4902204191, "lat": 52.5275472, "lon": 13.6213994}, {"type": "node", "id": 4902204192, "lat": 52.5278337, "lon": 13.6214805}, {"type": "node", "id": 4902204193, "lat": 52.5279075, "lon": 13.6215202}, {"type": "node", "id": 4902204194, "lat": 52.5278915, "lon": 13.6215926}, {"type": "node", "id": 4902204195, "lat": 52.5278174, "lon": 13.6215535}, {"type": "node", "id": 4902225522, "lat": 52.5275794, "lon": 13.6205268}, {"type": "node", "id": 4902225523, "lat": 52.527557, "lon": 13.6204463}, {"type": "node", "id": 4902225525, "lat": 52.5269861, "lon": 13.6198039}, {"type": "node", "id": 4902225528, "lat": 52.5274231, "lon": 13.6203177}, {"type": "node", "id": 4902225529, "lat": 52.5275367, "lon": 13.6203851}, {"type": "node", "id": 4902225530, "lat": 52.5275272, "lon": 13.6204302}, {"type": "node", "id": 4902225532, "lat": 52.5275868, "lon": 13.6204834}, {"type": "node", "id": 4902225533, "lat": 52.5275695, "lon": 13.6207535}, {"type": "node", "id": 4902225534, "lat": 52.5275451, "lon": 13.6208728}, {"type": "node", "id": 4902225535, "lat": 52.5275013, "lon": 13.6208469}, {"type": "node", "id": 4902226416, "lat": 52.527084, "lon": 13.6196082}, {"type": "node", "id": 4902226417, "lat": 52.5274163, "lon": 13.6180464}, {"type": "node", "id": 4902232414, "lat": 52.5270208, "lon": 13.6184671}, {"type": "node", "id": 5056598694, "lat": 52.5056763, "lon": 13.6043613}, {"type": "node", "id": 5078343922, "lat": 52.5221538, "lon": 13.6461927, "tags": {"amenity": "restaurant", "cuisine": "greek", "indoor_seating": "yes", "name": "Restaurant Rhodos", "opening_hours": "Tu,Fr 12:00-14:00, Tu-Th 17:00-22:00, Sa 12:00-23:00, Su 12:00-22:00, Fr 17:00-23:00", "outdoor_seating": "yes", "wheelchair": "no"}}, {"type": "node", "id": 5078345122, "lat": 52.5237558, "lon": 13.6210804, "tags": {"amenity": "cafe", "name": "Eiscaf\u00e9 Flavio Gustibus", "name:de": "Eiscaf\u00e9 Flavio Gustibus", "name:en": "Italian Ice Cafe Flavio Gustibus"}}, {"type": "node", "id": 5086450392, "lat": 52.5070069, "lon": 13.6134561}, {"type": "node", "id": 5086467997, "lat": 52.5056802, "lon": 13.6136184}, {"type": "node", "id": 5086467998, "lat": 52.5056766, "lon": 13.6136892}, {"type": "node", "id": 5086468000, "lat": 52.5052701, "lon": 13.6133697}, {"type": "node", "id": 5086468001, "lat": 52.505255, "lon": 13.6134352}, {"type": "node", "id": 5086468003, "lat": 52.5054365, "lon": 13.6136917}, {"type": "node", "id": 5086468005, "lat": 52.5059049, "lon": 13.6146577}, {"type": "node", "id": 5086468009, "lat": 52.506172, "lon": 13.6136836}, {"type": "node", "id": 5086468010, "lat": 52.5061218, "lon": 13.6137707}, {"type": "node", "id": 5086468012, "lat": 52.5056678, "lon": 13.6138855}, {"type": "node", "id": 5104863393, "lat": 52.5159388, "lon": 13.6240923, "tags": {"addr:city": "Berlin", "addr:country": "DE", "addr:housenumber": "190", "addr:postcode": "12623", "addr:street": "Lemkestra\u00dfe", "addr:suburb": "Mahlsdorf", "healthcare": "physiotherapist", "name": "Physiotherapie Kathrin Jesche", "wheelchair": "no"}}, {"type": "node", "id": 5105263127, "lat": 52.5185066, "lon": 13.621748, "tags": {"addr:city": "Berlin", "addr:housenumber": "20", "addr:postcode": "12623", "addr:street": "Florastra\u00dfe", "amenity": "dentist", "healthcare": "dentist", "healthcare:speciality": "orthodontics", "name": "Dr. Angela Petzold"}}, {"type": "node", "id": 5198368001, "lat": 52.5165712, "lon": 13.6227054}, {"type": "node", "id": 5198368002, "lat": 52.5164278, "lon": 13.6225876}, {"type": "node", "id": 5198368003, "lat": 52.5163657, "lon": 13.6228277}, {"type": "node", "id": 5198368004, "lat": 52.5164392, "lon": 13.622959}, {"type": "node", "id": 5210807548, "lat": 52.527417, "lon": 13.6212473}, {"type": "node", "id": 5235194821, "lat": 52.5221469, "lon": 13.6220868}, {"type": "node", "id": 5235194822, "lat": 52.5218166, "lon": 13.6216867}, {"type": "node", "id": 5235194823, "lat": 52.5219684, "lon": 13.6212561}, {"type": "node", "id": 5235194824, "lat": 52.5223349, "lon": 13.6215226}, {"type": "node", "id": 5248692795, "lat": 52.5058988, "lon": 13.6146056}, {"type": "node", "id": 5248692798, "lat": 52.5058752, "lon": 13.6143973}, {"type": "node", "id": 5300436174, "lat": 52.4925198, "lon": 13.6092192}, {"type": "node", "id": 5300436191, "lat": 52.4925591, "lon": 13.6097568}, {"type": "node", "id": 5323345916, "lat": 52.5043895, "lon": 13.6235738}, {"type": "node", "id": 5323345917, "lat": 52.5044881, "lon": 13.6236057}, {"type": "node", "id": 5323345918, "lat": 52.504486, "lon": 13.623623}, {"type": "node", "id": 5323345919, "lat": 52.5043883, "lon": 13.6235841}, {"type": "node", "id": 5323366694, "lat": 52.5069551, "lon": 13.6304764}, {"type": "node", "id": 5325121745, "lat": 52.5107507, "lon": 13.612779, "tags": {"addr:city": "Berlin", "addr:country": "DE", "addr:housenumber": "70", "addr:postcode": "12623", "addr:street": "H\u00f6nower Stra\u00dfe", "addr:suburb": "Mahlsdorf", "contact:phone": "+49 30 5677241", "healthcare": "physiotherapist", "name": "Tordis Theuerkauf"}}, {"type": "node", "id": 5325121987, "lat": 52.511099, "lon": 13.6121077, "tags": {"addr:housenumber": "73", "addr:street": "Treskowstra\u00dfe", "amenity": "clinic", "healthcare": "clinic", "name": "\u00c4rztehaus Mahlsdorf", "opening_hours:signed": "no"}}, {"type": "node", "id": 5325122648, "lat": 52.5110637, "lon": 13.6127486, "tags": {"addr:city": "Berlin", "addr:country": "DE", "addr:housenumber": "72", "addr:postcode": "12623", "addr:street": "H\u00f6nower Stra\u00dfe", "addr:suburb": "Mahlsdorf", "brand": "Sanmelio", "contact:phone": "+49 30 20607940", "contact:website": "https://www.sanmelio.de/kontakt/ptz_marzahn_hellersdorf/", "healthcare": "psychotherapist", "name": "Psychotherapiezentrum Marzahn-Hellersdorf", "operator": "PTZ Berlin GmbH"}}, {"type": "node", "id": 5440591726, "lat": 52.5081121, "lon": 13.6020666}, {"type": "node", "id": 5440591727, "lat": 52.5083363, "lon": 13.6011054}, {"type": "node", "id": 5440591728, "lat": 52.5083082, "lon": 13.6010817}, {"type": "node", "id": 5440591729, "lat": 52.508088, "lon": 13.6020481}, {"type": "node", "id": 5440591730, "lat": 52.5080314, "lon": 13.6022852}, {"type": "node", "id": 5440591731, "lat": 52.5079293, "lon": 13.6027335}, {"type": "node", "id": 5440591732, "lat": 52.5079517, "lon": 13.6027476}, {"type": "node", "id": 5440591733, "lat": 52.5080915, "lon": 13.6033448}, {"type": "node", "id": 5440591734, "lat": 52.5080672, "lon": 13.6033285}, {"type": "node", "id": 5440591735, "lat": 52.5077163, "lon": 13.6048329}, {"type": "node", "id": 5440591736, "lat": 52.5077427, "lon": 13.6048421}, {"type": "node", "id": 5440630100, "lat": 52.5054501, "lon": 13.6072611}, {"type": "node", "id": 5440630101, "lat": 52.5054036, "lon": 13.6072319}, {"type": "node", "id": 5440630102, "lat": 52.5054131, "lon": 13.6071911}, {"type": "node", "id": 5440630103, "lat": 52.5053897, "lon": 13.606907}, {"type": "node", "id": 5440630104, "lat": 52.5053976, "lon": 13.6068733}, {"type": "node", "id": 5457120114, "lat": 52.5072316, "lon": 13.6134346}, {"type": "node", "id": 5457120115, "lat": 52.5077968, "lon": 13.6134832}, {"type": "node", "id": 5607403974, "lat": 52.5062099, "lon": 13.6113124}, {"type": "node", "id": 5643155107, "lat": 52.5052318, "lon": 13.6109809}, {"type": "node", "id": 5643155108, "lat": 52.505188, "lon": 13.6109814}, {"type": "node", "id": 5643155109, "lat": 52.5051876, "lon": 13.61088}, {"type": "node", "id": 5643155110, "lat": 52.5052314, "lon": 13.6108796}, {"type": "node", "id": 5742063250, "lat": 52.483016, "lon": 13.6121479}, {"type": "node", "id": 5742063275, "lat": 52.4821882, "lon": 13.6110516}, {"type": "node", "id": 5742103454, "lat": 52.4788905, "lon": 13.594456}, {"type": "node", "id": 5742103455, "lat": 52.4789031, "lon": 13.5943768}, {"type": "node", "id": 5742103456, "lat": 52.4784997, "lon": 13.5936671}, {"type": "node", "id": 5743907884, "lat": 52.4912385, "lon": 13.5969846}, {"type": "node", "id": 5744314170, "lat": 52.5078762, "lon": 13.6303415}, {"type": "node", "id": 5744314171, "lat": 52.5090976, "lon": 13.6312072}, {"type": "node", "id": 5755476970, "lat": 52.5017789, "lon": 13.6022654}, {"type": "node", "id": 5789104481, "lat": 52.5138522, "lon": 13.635384}, {"type": "node", "id": 5789104483, "lat": 52.5135108, "lon": 13.6349787}, {"type": "node", "id": 5789104484, "lat": 52.5142173, "lon": 13.6357652}, {"type": "node", "id": 5790137367, "lat": 52.5215731, "lon": 13.6474064}, {"type": "node", "id": 5790137375, "lat": 52.5212712, "lon": 13.6474729}, {"type": "node", "id": 5790137376, "lat": 52.5212384, "lon": 13.6474878}, {"type": "node", "id": 5790137377, "lat": 52.5212492, "lon": 13.6475521}, {"type": "node", "id": 5790137378, "lat": 52.5212821, "lon": 13.6475383}, {"type": "node", "id": 5806174116, "lat": 52.4908984, "lon": 13.6191051}, {"type": "node", "id": 5806174117, "lat": 52.4908728, "lon": 13.6191632}, {"type": "node", "id": 5806174118, "lat": 52.4908434, "lon": 13.6191955}, {"type": "node", "id": 5806174119, "lat": 52.4907844, "lon": 13.6191471}, {"type": "node", "id": 5806174120, "lat": 52.4907215, "lon": 13.6192488}, {"type": "node", "id": 5806174121, "lat": 52.4906664, "lon": 13.6192617}, {"type": "node", "id": 5806174122, "lat": 52.4905721, "lon": 13.6192778}, {"type": "node", "id": 5806174123, "lat": 52.4904541, "lon": 13.6192714}, {"type": "node", "id": 5806174124, "lat": 52.4903814, "lon": 13.6192568}, {"type": "node", "id": 5806174125, "lat": 52.4903804, "lon": 13.6191793}, {"type": "node", "id": 5806174126, "lat": 52.4904571, "lon": 13.6191115}, {"type": "node", "id": 5806174127, "lat": 52.4905167, "lon": 13.6190477}, {"type": "node", "id": 5806174128, "lat": 52.4905357, "lon": 13.6189033}, {"type": "node", "id": 5806174129, "lat": 52.4908632, "lon": 13.6189253}, {"type": "node", "id": 5806174130, "lat": 52.4908807, "lon": 13.6189566}, {"type": "node", "id": 5806174131, "lat": 52.4908984, "lon": 13.6190534}, {"type": "node", "id": 5806174137, "lat": 52.4902499, "lon": 13.6194335}, {"type": "node", "id": 5806174138, "lat": 52.4900225, "lon": 13.6188615}, {"type": "node", "id": 5806174146, "lat": 52.490574, "lon": 13.6188113}, {"type": "node", "id": 5806174147, "lat": 52.4907057, "lon": 13.6189065}, {"type": "node", "id": 5806174148, "lat": 52.4908178, "lon": 13.6189501}, {"type": "node", "id": 5806174150, "lat": 52.4909474, "lon": 13.6188331}, {"type": "node", "id": 5806180969, "lat": 52.4909348, "lon": 13.618482}, {"type": "node", "id": 5806180970, "lat": 52.4909633, "lon": 13.619273}, {"type": "node", "id": 5806180971, "lat": 52.4900236, "lon": 13.6193553}, {"type": "node", "id": 5806180972, "lat": 52.4900197, "lon": 13.6189695}, {"type": "node", "id": 5806299618, "lat": 52.4900265, "lon": 13.6186499}, {"type": "node", "id": 5861253056, "lat": 52.5139002, "lon": 13.6366553}, {"type": "node", "id": 5861253057, "lat": 52.514422, "lon": 13.6366142}, {"type": "node", "id": 5861278561, "lat": 52.5084746, "lon": 13.6315837}, {"type": "node", "id": 5861278562, "lat": 52.5080949, "lon": 13.6313475}, {"type": "node", "id": 5861278785, "lat": 52.5070092, "lon": 13.6305145}, {"type": "node", "id": 5861278792, "lat": 52.5063985, "lon": 13.6301819}, {"type": "node", "id": 5873619613, "lat": 52.5060996, "lon": 13.6135119}, {"type": "node", "id": 5873637817, "lat": 52.5060568, "lon": 13.6113389}, {"type": "node", "id": 5873637825, "lat": 52.5059039, "lon": 13.6110167}, {"type": "node", "id": 5873637826, "lat": 52.5058971, "lon": 13.6105897}, {"type": "node", "id": 5873642408, "lat": 52.5076334, "lon": 13.6134835}, {"type": "node", "id": 5934682169, "lat": 52.5166054, "lon": 13.6233605}, {"type": "node", "id": 5934682759, "lat": 52.5167606, "lon": 13.6228999, "tags": {"barrier": "bollard"}}, {"type": "node", "id": 5934682760, "lat": 52.516789, "lon": 13.6229386}, {"type": "node", "id": 5934682766, "lat": 52.5166388, "lon": 13.6234027}, {"type": "node", "id": 5934682768, "lat": 52.5162316, "lon": 13.6221824}, {"type": "node", "id": 5934682769, "lat": 52.5168279, "lon": 13.6229914}, {"type": "node", "id": 5934682770, "lat": 52.5161516, "lon": 13.6221961}, {"type": "node", "id": 5934682771, "lat": 52.5163549, "lon": 13.6226815}, {"type": "node", "id": 5934682772, "lat": 52.5165114, "lon": 13.6229053}, {"type": "node", "id": 6355940764, "lat": 52.5109169, "lon": 13.618109}, {"type": "node", "id": 6355940765, "lat": 52.5108649, "lon": 13.6180857}, {"type": "node", "id": 6355940766, "lat": 52.5109713, "lon": 13.6176136}, {"type": "node", "id": 6355940767, "lat": 52.5110257, "lon": 13.6180669}, {"type": "node", "id": 6407030742, "lat": 52.5237311, "lon": 13.6212142, "tags": {"amenity": "doctors", "healthcare": "doctor", "healthcare:speciality": "gynaecology", "name": "Gyn\u00e4kologische Arztpraxis Dr. G\u00fcnterberg", "website": "http://dr-guenterberg.de/cms/"}}, {"type": "node", "id": 6407030765, "lat": 52.5238004, "lon": 13.6211079, "tags": {"addr:city": "Berlin", "addr:country": "DE", "addr:housenumber": "214", "addr:postcode": "12623", "addr:street": "H\u00f6nower Stra\u00dfe", "addr:suburb": "Mahlsdorf", "amenity": "fast_food", "contact:email": "info@pizza-planet.de", "contact:phone": "+49 30 56044772", "contact:website": "https://www.pizza-planet.de/standorte/pizza-planet-berlin-mahlsdorf/", "cuisine": "pizza", "diet:vegan": "yes", "name": "Pizza Planet Mahlsdorf", "opening_hours": "Mo-Fr 11:00-14:00,17:00-22:30; Sa 15:30-22:30; Su 12:00-22:00", "operator": "Andreas Die\u00dfl"}}, {"type": "node", "id": 6495420314, "lat": 52.5276609, "lon": 13.6224653}, {"type": "node", "id": 6561202688, "lat": 52.5064513, "lon": 13.6082332}, {"type": "node", "id": 6561207554, "lat": 52.5059554, "lon": 13.605491}, {"type": "node", "id": 6561207555, "lat": 52.5058929, "lon": 13.6054516}, {"type": "node", "id": 6561207556, "lat": 52.5059541, "lon": 13.6051898}, {"type": "node", "id": 6561207557, "lat": 52.5060166, "lon": 13.6052292}, {"type": "node", "id": 6575818910, "lat": 52.4800927, "lon": 13.6042554}, {"type": "node", "id": 6575818911, "lat": 52.4800829, "lon": 13.6042592}, {"type": "node", "id": 6575818912, "lat": 52.4800728, "lon": 13.6042728}, {"type": "node", "id": 6575818913, "lat": 52.4800684, "lon": 13.6042916}, {"type": "node", "id": 6575818914, "lat": 52.480049, "lon": 13.6045376}, {"type": "node", "id": 6575818915, "lat": 52.480055, "lon": 13.6045558}, {"type": "node", "id": 6575818916, "lat": 52.4800644, "lon": 13.6045636}, {"type": "node", "id": 6575818917, "lat": 52.4801805, "lon": 13.6045921}, {"type": "node", "id": 6575818918, "lat": 52.480189, "lon": 13.6045916}, {"type": "node", "id": 6575818919, "lat": 52.480195, "lon": 13.6045863}, {"type": "node", "id": 6575818920, "lat": 52.4802007, "lon": 13.6045684}, {"type": "node", "id": 6575818921, "lat": 52.4802241, "lon": 13.6043324}, {"type": "node", "id": 6575818922, "lat": 52.4802243, "lon": 13.6043156}, {"type": "node", "id": 6575818923, "lat": 52.4802194, "lon": 13.604297}, {"type": "node", "id": 6575818924, "lat": 52.4802108, "lon": 13.604285}, {"type": "node", "id": 6575818925, "lat": 52.4802013, "lon": 13.6042802}, {"type": "node", "id": 6611950024, "lat": 52.5082221, "lon": 13.6140028}, {"type": "node", "id": 6611950025, "lat": 52.5080927, "lon": 13.6140461}, {"type": "node", "id": 6611950026, "lat": 52.5081471, "lon": 13.613761}, {"type": "node", "id": 6611950027, "lat": 52.5082291, "lon": 13.6137683}, {"type": "node", "id": 6611950058, "lat": 52.5069275, "lon": 13.6138211}, {"type": "node", "id": 6611950059, "lat": 52.5068186, "lon": 13.6138426}, {"type": "node", "id": 6611950073, "lat": 52.5071773, "lon": 13.6137901}, {"type": "node", "id": 6611950074, "lat": 52.5072805, "lon": 13.6138359}, {"type": "node", "id": 6611950077, "lat": 52.5080167, "lon": 13.6140646}, {"type": "node", "id": 6611950078, "lat": 52.5079692, "lon": 13.6140511}, {"type": "node", "id": 6611950079, "lat": 52.5079766, "lon": 13.6139677}, {"type": "node", "id": 6611950080, "lat": 52.5077874, "lon": 13.613926}, {"type": "node", "id": 6611958389, "lat": 52.5074754, "lon": 13.6138372}, {"type": "node", "id": 6611958390, "lat": 52.5075524, "lon": 13.6138534}, {"type": "node", "id": 6611974858, "lat": 52.5060451, "lon": 13.6135264}, {"type": "node", "id": 6611974865, "lat": 52.5063833, "lon": 13.613318}, {"type": "node", "id": 6611974866, "lat": 52.5063585, "lon": 13.6131156}, {"type": "node", "id": 6611974867, "lat": 52.506254, "lon": 13.6131488}, {"type": "node", "id": 6611974868, "lat": 52.5062333, "lon": 13.6129706}, {"type": "node", "id": 6611974869, "lat": 52.5064451, "lon": 13.6129009}, {"type": "node", "id": 6611974870, "lat": 52.5064911, "lon": 13.6132831}, {"type": "node", "id": 6611976854, "lat": 52.5120514, "lon": 13.6138712}, {"type": "node", "id": 6611976857, "lat": 52.5118588, "lon": 13.614505}, {"type": "node", "id": 6611976858, "lat": 52.5117501, "lon": 13.6136216}, {"type": "node", "id": 6611976859, "lat": 52.5114563, "lon": 13.6137192}, {"type": "node", "id": 6611976860, "lat": 52.5114299, "lon": 13.6135045}, {"type": "node", "id": 6611976861, "lat": 52.5119836, "lon": 13.6133205}, {"type": "node", "id": 6620454246, "lat": 52.5065873, "lon": 13.613909}, {"type": "node", "id": 6620454247, "lat": 52.5069629, "lon": 13.6137879}, {"type": "node", "id": 6620454248, "lat": 52.507307, "lon": 13.6137949}, {"type": "node", "id": 6620454249, "lat": 52.5082382, "lon": 13.6141349}, {"type": "node", "id": 6620454251, "lat": 52.5065609, "lon": 13.6136693}, {"type": "node", "id": 6688227260, "lat": 52.5023488, "lon": 13.614476}, {"type": "node", "id": 6688227261, "lat": 52.5023891, "lon": 13.6144768}, {"type": "node", "id": 6793311765, "lat": 52.5273136, "lon": 13.6218534}, {"type": "node", "id": 6793311766, "lat": 52.5272053, "lon": 13.621665}, {"type": "node", "id": 6793311767, "lat": 52.527414, "lon": 13.622028}, {"type": "node", "id": 6793311771, "lat": 52.527449, "lon": 13.6217461}, {"type": "node", "id": 6793311773, "lat": 52.5273246, "lon": 13.6216808}, {"type": "node", "id": 6793312247, "lat": 52.527299, "lon": 13.6185972}, {"type": "node", "id": 6793312248, "lat": 52.5270737, "lon": 13.618451}, {"type": "node", "id": 6793312249, "lat": 52.5271387, "lon": 13.6183373}, {"type": "node", "id": 6793312250, "lat": 52.5272312, "lon": 13.6181413}, {"type": "node", "id": 6793312251, "lat": 52.5273594, "lon": 13.6178761}, {"type": "node", "id": 6793312257, "lat": 52.5273092, "lon": 13.6185495}, {"type": "node", "id": 7033638709, "lat": 52.5121013, "lon": 13.6138546}, {"type": "node", "id": 7033638710, "lat": 52.5121687, "lon": 13.614402}, {"type": "node", "id": 7072465637, "lat": 52.5062602, "lon": 13.6130564, "tags": {"addr:city": "Berlin", "addr:country": "DE", "addr:housenumber": "16", "addr:postcode": "12623", "addr:street": "H\u00f6nower Stra\u00dfe", "addr:suburb": "Mahlsdorf", "amenity": "pharmacy", "healthcare": "pharmacy", "name": "Neumann Apotheke", "opening_hours": "Mo-Fr 08:00-20:00; Sa 09:00-18:00; PH off", "wheelchair": "yes"}}, {"type": "node", "id": 7695727100, "lat": 52.4820961, "lon": 13.6002449}, {"type": "node", "id": 7699960345, "lat": 52.490232, "lon": 13.6053483}, {"type": "node", "id": 7699960346, "lat": 52.4899583, "lon": 13.6052409}, {"type": "node", "id": 7699960347, "lat": 52.4898605, "lon": 13.6059158}, {"type": "node", "id": 7699960348, "lat": 52.490135, "lon": 13.6060212}, {"type": "node", "id": 7964429632, "lat": 52.5181918, "lon": 13.6326844}, {"type": "node", "id": 7964429633, "lat": 52.5179607, "lon": 13.632355}, {"type": "node", "id": 7964429634, "lat": 52.5180355, "lon": 13.6323776}, {"type": "node", "id": 7964429635, "lat": 52.5180501, "lon": 13.6322549}, {"type": "node", "id": 7964429636, "lat": 52.5180971, "lon": 13.6322663}, {"type": "node", "id": 7964429637, "lat": 52.5181224, "lon": 13.6323414}, {"type": "node", "id": 7964429638, "lat": 52.5181334, "lon": 13.6323488}, {"type": "node", "id": 7964429639, "lat": 52.5181693, "lon": 13.6323702}, {"type": "node", "id": 7964429640, "lat": 52.5181962, "lon": 13.6324064}, {"type": "node", "id": 7964429641, "lat": 52.5182125, "lon": 13.6324735}, {"type": "node", "id": 7964429642, "lat": 52.5182223, "lon": 13.6326143}, {"type": "node", "id": 7966693463, "lat": 52.5055091, "lon": 13.6069835}, {"type": "node", "id": 7966693464, "lat": 52.5055141, "lon": 13.6069866}, {"type": "node", "id": 8139599879, "lat": 52.5083428, "lon": 13.6131206, "tags": {"barrier": "bollard", "bollard": "removable"}}, {"type": "node", "id": 8139599881, "lat": 52.5085459, "lon": 13.6150899}, {"type": "node", "id": 8139599882, "lat": 52.5083879, "lon": 13.6150777}, {"type": "node", "id": 8139599883, "lat": 52.5083745, "lon": 13.6137731}, {"type": "node", "id": 8139599884, "lat": 52.508279, "lon": 13.6137503}, {"type": "node", "id": 8139599885, "lat": 52.5083133, "lon": 13.6131012}, {"type": "node", "id": 8139599886, "lat": 52.5083594, "lon": 13.6131314}, {"type": "node", "id": 8139599887, "lat": 52.5083332, "lon": 13.6135906}, {"type": "node", "id": 8139599888, "lat": 52.5085804, "lon": 13.613742}, {"type": "node", "id": 8174061217, "lat": 52.476245, "lon": 13.5999945}, {"type": "node", "id": 8174061218, "lat": 52.4762388, "lon": 13.6000094}, {"type": "node", "id": 8174061219, "lat": 52.4762312, "lon": 13.6000164}, {"type": "node", "id": 8174061220, "lat": 52.4762209, "lon": 13.600022}, {"type": "node", "id": 8174061221, "lat": 52.4762098, "lon": 13.6000206}, {"type": "node", "id": 8174061222, "lat": 52.4762023, "lon": 13.6000141}, {"type": "node", "id": 8174061223, "lat": 52.4761913, "lon": 13.6000419}, {"type": "node", "id": 8174061224, "lat": 52.4761625, "lon": 13.6000097}, {"type": "node", "id": 8174061225, "lat": 52.4761753, "lon": 13.599976}, {"type": "node", "id": 8174061226, "lat": 52.4761739, "lon": 13.5999386}, {"type": "node", "id": 8174061227, "lat": 52.4762865, "lon": 13.5999909}, {"type": "node", "id": 8174061228, "lat": 52.476282, "lon": 13.6000033}, {"type": "node", "id": 8194713163, "lat": 52.4819529, "lon": 13.6124937}, {"type": "node", "id": 8194713168, "lat": 52.4822572, "lon": 13.6122875}, {"type": "node", "id": 8206062789, "lat": 52.5293562, "lon": 13.6254171}, {"type": "node", "id": 8206062790, "lat": 52.5294041, "lon": 13.6252798}, {"type": "node", "id": 8206600627, "lat": 52.5290768, "lon": 13.6241974}, {"type": "node", "id": 8206600628, "lat": 52.5287687, "lon": 13.624035}, {"type": "node", "id": 8206600629, "lat": 52.5284481, "lon": 13.6234508}, {"type": "node", "id": 8206617446, "lat": 52.5275191, "lon": 13.6178393}, {"type": "node", "id": 8252922029, "lat": 52.4794227, "lon": 13.6035862, "tags": {"addr:city": "Berlin", "addr:housenumber": "61", "addr:postcode": "12623", "addr:street": "Wilhelm-Blos-Stra\u00dfe", "amenity": "doctors", "check_date:opening_hours": "2022-01-23", "fax": "+49 30 56701236", "health_facility:type": "office", "health_specialty:family_medicine": "main", "healthcare": "doctor", "healthcare:speciality": "general", "medical_system:western": "yes", "mobile": "+49 177 561481", "office": "physician", "opening_hours": "Mo,We 07:30-12:00; Tu,Th 14:00-19:00; PH off", "operator": "Dr. med. Petra Exner", "phone": "+49 30 5678418", "wheelchair": "no"}}, {"type": "node", "id": 8485592908, "lat": 52.500465, "lon": 13.6204116}, {"type": "node", "id": 8485614178, "lat": 52.5117275, "lon": 13.6134056, "tags": {"entrance": "shop"}}, {"type": "node", "id": 8489899766, "lat": 52.5083643, "lon": 13.613688}, {"type": "node", "id": 8489899767, "lat": 52.508341, "lon": 13.6136417}, {"type": "node", "id": 8489899768, "lat": 52.5083867, "lon": 13.6137027}, {"type": "node", "id": 8489899770, "lat": 52.5085398, "lon": 13.61461}, {"type": "node", "id": 8489899771, "lat": 52.5084573, "lon": 13.6146019}, {"type": "node", "id": 8489899772, "lat": 52.5084524, "lon": 13.6138938}, {"type": "node", "id": 8489899773, "lat": 52.5085496, "lon": 13.6139381}, {"type": "node", "id": 8559622539, "lat": 52.5148473, "lon": 13.6411741}, {"type": "node", "id": 8888396475, "lat": 52.5103717, "lon": 13.6329438}, {"type": "node", "id": 8888396479, "lat": 52.5108346, "lon": 13.6332672}, {"type": "node", "id": 8888396480, "lat": 52.5103793, "lon": 13.6329103}, {"type": "node", "id": 8888396481, "lat": 52.5098275, "lon": 13.6325255}, {"type": "node", "id": 8888396482, "lat": 52.509616, "lon": 13.6323697}, {"type": "node", "id": 8888396505, "lat": 52.5147006, "lon": 13.641171}, {"type": "node", "id": 8888396506, "lat": 52.5147614, "lon": 13.6415226}, {"type": "node", "id": 8917549502, "lat": 52.4996459, "lon": 13.6142988, "tags": {"access": "yes", "leisure": "playground"}}, {"type": "node", "id": 8956548950, "lat": 52.4898177, "lon": 13.6062755, "tags": {"addr:city": "Berlin", "addr:housenumber": "3", "addr:postcode": "12623", "addr:street": "Rastatter Stra\u00dfe", "amenity": "fast_food", "cuisine": "pizza;burger", "drive_through": "no", "name": "Nello Panini", "opening_hours": "Mo-Sa 10:00-20:00", "start_date": "2021-07-12", "takeaway": "yes"}}, {"type": "node", "id": 9025063234, "lat": 52.4820041, "lon": 13.6124636}, {"type": "node", "id": 9025063236, "lat": 52.4829892, "lon": 13.6122056}, {"type": "node", "id": 9025063237, "lat": 52.4825708, "lon": 13.6122855}, {"type": "node", "id": 9025063239, "lat": 52.48275, "lon": 13.6119399}, {"type": "node", "id": 9025063240, "lat": 52.4825436, "lon": 13.6123077}, {"type": "node", "id": 9094112597, "lat": 52.5081719, "lon": 13.6140004}, {"type": "node", "id": 9094112598, "lat": 52.5081441, "lon": 13.6140883}, {"type": "node", "id": 9094112599, "lat": 52.508132, "lon": 13.61393}, {"type": "node", "id": 9180698922, "lat": 52.5112454, "lon": 13.6126287, "tags": {"addr:city": "Berlin", "addr:country": "DE", "addr:housenumber": "74", "addr:postcode": "12623", "addr:street": "H\u00f6nower Stra\u00dfe", "addr:suburb": "Mahlsdorf", "amenity": "dentist", "email": "post@kfo-behandlung.de", "health_facility:type": "office", "health_specialty:dentistry": "main", "healthcare": "dentist", "healthcare:speciality": "orthodontics", "medical_system:western": "yes", "name": "Kieferorthop\u00e4die Dr. K\u00e4ppler & Dres. Kossack", "opening_hours": "Mo-Th 08:00-12:00,14:00-18:00; PH off", "operator": "Christoph Kossack;Kathrin K\u00e4ppler", "phone": "+49 30 9917062", "website": "https://kfo-behandlung.de"}}, {"type": "node", "id": 9346039107, "lat": 52.5138343, "lon": 13.6117459}, {"type": "node", "id": 9346039108, "lat": 52.5137498, "lon": 13.6108516}, {"type": "node", "id": 9346039112, "lat": 52.513961, "lon": 13.6117136}, {"type": "node", "id": 9346039113, "lat": 52.5136371, "lon": 13.6117983}, {"type": "node", "id": 9346039114, "lat": 52.51355, "lon": 13.6109047}, {"type": "node", "id": 9346039115, "lat": 52.5138764, "lon": 13.6108193}, {"type": "node", "id": 9415191192, "lat": 52.5109252, "lon": 13.6180164}, {"type": "node", "id": 9415191193, "lat": 52.5109771, "lon": 13.6180192}, {"type": "node", "id": 9415191194, "lat": 52.5109833, "lon": 13.6180831}, {"type": "node", "id": 9417635219, "lat": 52.5051114, "lon": 13.6135058}, {"type": "node", "id": 9417635315, "lat": 52.5058618, "lon": 13.6149612}, {"type": "node", "id": 9417635327, "lat": 52.506133, "lon": 13.6136971}, {"type": "node", "id": 9417635328, "lat": 52.5061401, "lon": 13.6137597}, {"type": "node", "id": 9417635341, "lat": 52.5064798, "lon": 13.6132869}, {"type": "node", "id": 9417635344, "lat": 52.506159, "lon": 13.6135512}, {"type": "node", "id": 9417635345, "lat": 52.5061617, "lon": 13.6135731}, {"type": "node", "id": 9642798718, "lat": 52.5072122, "lon": 13.611478}, {"type": "node", "id": 9642798719, "lat": 52.5071942, "lon": 13.6114859}, {"type": "node", "id": 9642798720, "lat": 52.5071731, "lon": 13.6114876}, {"type": "node", "id": 9642798721, "lat": 52.5071503, "lon": 13.6114929}, {"type": "node", "id": 9642798723, "lat": 52.5071391, "lon": 13.6115063}, {"type": "node", "id": 9642798724, "lat": 52.5071197, "lon": 13.6114902}, {"type": "node", "id": 9642798725, "lat": 52.5071113, "lon": 13.6114798}, {"type": "node", "id": 9642798726, "lat": 52.5070997, "lon": 13.611457}, {"type": "node", "id": 9642798727, "lat": 52.5070919, "lon": 13.6114275}, {"type": "node", "id": 9642798728, "lat": 52.5070886, "lon": 13.6113893}, {"type": "node", "id": 9642798729, "lat": 52.5071184, "lon": 13.61139}, {"type": "node", "id": 9642798730, "lat": 52.5071197, "lon": 13.6113538}, {"type": "node", "id": 9642798731, "lat": 52.5071254, "lon": 13.6113333}, {"type": "node", "id": 9642798732, "lat": 52.5071335, "lon": 13.6113125}, {"type": "node", "id": 9642798733, "lat": 52.5071468, "lon": 13.6112921}, {"type": "node", "id": 9642798734, "lat": 52.5071658, "lon": 13.611282}, {"type": "node", "id": 9642798737, "lat": 52.5072103, "lon": 13.6114721}, {"type": "node", "id": 9642798738, "lat": 52.5072188, "lon": 13.6114614}, {"type": "node", "id": 9642798739, "lat": 52.507238, "lon": 13.6114825}, {"type": "node", "id": 9642798740, "lat": 52.5072439, "lon": 13.6114708}, {"type": "node", "id": 9642798741, "lat": 52.507256, "lon": 13.6114339}, {"type": "node", "id": 9642798742, "lat": 52.5072631, "lon": 13.611387}, {"type": "node", "id": 9642798743, "lat": 52.5072386, "lon": 13.6113705}, {"type": "node", "id": 9642798744, "lat": 52.507237, "lon": 13.6113578}, {"type": "node", "id": 9642798745, "lat": 52.507229, "lon": 13.611327}, {"type": "node", "id": 9642798746, "lat": 52.5072168, "lon": 13.6113055}, {"type": "node", "id": 9642798747, "lat": 52.5072023, "lon": 13.6112887}, {"type": "node", "id": 9642798748, "lat": 52.5071813, "lon": 13.611278}, {"type": "node", "id": 9691501740, "lat": 52.5221634, "lon": 13.6220889}, {"type": "node", "id": 9691501741, "lat": 52.5218247, "lon": 13.6217683}, {"type": "node", "id": 9691501742, "lat": 52.5218154, "lon": 13.621721}, {"type": "node", "id": 9691501743, "lat": 52.5218344, "lon": 13.6217936}, {"type": "node", "id": 9691501744, "lat": 52.5219974, "lon": 13.6212304}, {"type": "node", "id": 9691501745, "lat": 52.5220322, "lon": 13.6212276}, {"type": "node", "id": 9691501746, "lat": 52.5223565, "lon": 13.6215906}, {"type": "node", "id": 9691501747, "lat": 52.5223501, "lon": 13.6215554}, {"type": "node", "id": 9691501748, "lat": 52.5223548, "lon": 13.6216258}, {"type": "node", "id": 9691501749, "lat": 52.5222032, "lon": 13.6220625}, {"type": "node", "id": 9691501750, "lat": 52.5221878, "lon": 13.622084}, {"type": "node", "id": 9804518514, "lat": 52.4951987, "lon": 13.611128, "tags": {"addr:city": "Berlin", "addr:country": "DE", "addr:housenumber": "236", "addr:postcode": "12623", "addr:street": "Hultschiner Damm", "amenity": "restaurant", "cuisine": "hungarian", "delivery": "yes", "email": "info@zumziehbrunnen.de", "fax": "+49 30 5654754", "microbrewery": "yes", "name": "G\u00e9mesk\u00fat Cs\u00e1rda", "opening_hours": "Mo-Su,PH 12:00-22:00", "outdoor_seating": "yes", "phone": "+49 30 56547511", "phone:reservation": "+49 30 5654750", "toilets:wheelchair": "no", "website": "https://www.zumziehbrunnen.de/", "wheelchair": "yes"}}, {"type": "node", "id": 9835456767, "lat": 52.4766846, "lon": 13.6000106, "tags": {"addr:city": "Berlin", "addr:housenumber": "34", "addr:postcode": "12623", "addr:street": "Seestra\u00dfe", "amenity": "restaurant", "cuisine": "asian", "name": "HAKI-Vietnamesisches Restaurant & Sushi-Bar", "opening_hours": "Mo-Fr 11:00-22:00; Sa,Su 11:30-22:00", "phone": "+493047476652", "wheelchair": "yes"}}, {"type": "node", "id": 9866587679, "lat": 52.5297572, "lon": 13.6431831, "tags": {"amenity": "restaurant", "name": "Viet Thai"}}, {"type": "node", "id": 9902490981, "lat": 52.5139472, "lon": 13.6115673}, {"type": "node", "id": 9902490982, "lat": 52.5139793, "lon": 13.6115591}, {"type": "node", "id": 9902490983, "lat": 52.51397, "lon": 13.6114601}, {"type": "node", "id": 9902490984, "lat": 52.5139378, "lon": 13.6114683}, {"type": "node", "id": 9902490985, "lat": 52.5139215, "lon": 13.6112956}, {"type": "node", "id": 9902490986, "lat": 52.5139535, "lon": 13.6112874}, {"type": "node", "id": 9902490987, "lat": 52.513912, "lon": 13.611186}, {"type": "node", "id": 9902490988, "lat": 52.5138952, "lon": 13.6110079}, {"type": "node", "id": 9902490989, "lat": 52.5139274, "lon": 13.6109997}, {"type": "node", "id": 9902490990, "lat": 52.513885, "lon": 13.6109101}, {"type": "node", "id": 9902490991, "lat": 52.5139181, "lon": 13.6109017}, {"type": "node", "id": 9902490992, "lat": 52.5139432, "lon": 13.6111781}, {"type": "node", "id": 10052675468, "lat": 52.5016222, "lon": 13.6226348}, {"type": "node", "id": 10052675469, "lat": 52.5016217, "lon": 13.6227183}, {"type": "node", "id": 10052675470, "lat": 52.5015552, "lon": 13.6227171}, {"type": "node", "id": 10052675471, "lat": 52.5015557, "lon": 13.6226337}, {"type": "node", "id": 10055975896, "lat": 52.5012013, "lon": 13.6067837}, {"type": "node", "id": 10055975897, "lat": 52.5012245, "lon": 13.606624}, {"type": "node", "id": 10055975898, "lat": 52.5012242, "lon": 13.6063124}, {"type": "node", "id": 10055975899, "lat": 52.5015269, "lon": 13.6041634}, {"type": "node", "id": 10055975900, "lat": 52.5023547, "lon": 13.5979655}, {"type": "node", "id": 10055975901, "lat": 52.5024067, "lon": 13.5979147}, {"type": "node", "id": 10055975902, "lat": 52.5024285, "lon": 13.5977804}, {"type": "node", "id": 10055975903, "lat": 52.5028794, "lon": 13.5980069}, {"type": "node", "id": 10055975904, "lat": 52.5047513, "lon": 13.5987785}, {"type": "node", "id": 10055975905, "lat": 52.5047989, "lon": 13.5988654}, {"type": "node", "id": 10055975906, "lat": 52.5047325, "lon": 13.6040905}, {"type": "node", "id": 10055975907, "lat": 52.5047071, "lon": 13.6061736}, {"type": "node", "id": 10170238468, "lat": 52.4793089, "lon": 13.5998382}, {"type": "node", "id": 10170238469, "lat": 52.4791669, "lon": 13.5995885}, {"type": "node", "id": 10170238477, "lat": 52.4822812, "lon": 13.6008402}, {"type": "node", "id": 10170238479, "lat": 52.4821873, "lon": 13.6010304}, {"type": "node", "id": 10171701040, "lat": 52.4987387, "lon": 13.6135304}, {"type": "node", "id": 10178031798, "lat": 52.4925682, "lon": 13.6092385}, {"type": "node", "id": 10178031799, "lat": 52.4924705, "lon": 13.6099087}, {"type": "node", "id": 10178031800, "lat": 52.4922817, "lon": 13.6098345}, {"type": "node", "id": 10178031801, "lat": 52.4922644, "lon": 13.6099533}, {"type": "node", "id": 10178031802, "lat": 52.4923083, "lon": 13.6099235}, {"type": "node", "id": 10178031803, "lat": 52.4923019, "lon": 13.609968}, {"type": "node", "id": 10181550723, "lat": 52.4872804, "lon": 13.6056637}, {"type": "node", "id": 10181550724, "lat": 52.4871246, "lon": 13.6055543}, {"type": "node", "id": 10181550725, "lat": 52.4874338, "lon": 13.6060402}, {"type": "node", "id": 10181550726, "lat": 52.4873913, "lon": 13.6062032}, {"type": "node", "id": 10184668817, "lat": 52.4870654, "lon": 13.6057816}, {"type": "node", "id": 10184668841, "lat": 52.5051663, "lon": 13.6194263}, {"type": "node", "id": 10184668842, "lat": 52.5051066, "lon": 13.6197744}, {"type": "node", "id": 10184668843, "lat": 52.5049423, "lon": 13.6197681}, {"type": "node", "id": 10567940335, "lat": 52.5102635, "lon": 13.6126118, "tags": {"amenity": "cafe", "contact:facebook": "https://www.facebook.com/cafekunstundkruemel", "contact:phone": "+49 30 25748585", "name": "Caf\u00e9 Kunst & Kr\u00fcmel", "website": "https://kunst-und-kruemel.com/v"}}, {"type": "node", "id": 10573015200, "lat": 52.501218, "lon": 13.6219796, "tags": {"amenity": "cafe", "diet:vegan": "yes", "ice_cream": "yes", "name": "Porta Caf\u00e9"}}, {"type": "node", "id": 10649383271, "lat": 52.4791403, "lon": 13.6002401}, {"type": "node", "id": 10649383272, "lat": 52.4791082, "lon": 13.6002021}, {"type": "node", "id": 10695591448, "lat": 52.5279858, "lon": 13.6230154}, {"type": "node", "id": 10695591449, "lat": 52.5285775, "lon": 13.6238515}, {"type": "node", "id": 10695591450, "lat": 52.5287615, "lon": 13.6240111}, {"type": "node", "id": 10695591451, "lat": 52.5286452, "lon": 13.6239535}, {"type": "node", "id": 10695591452, "lat": 52.5287892, "lon": 13.6240742}, {"type": "node", "id": 10695591453, "lat": 52.5288137, "lon": 13.624111}, {"type": "node", "id": 10695591456, "lat": 52.5296618, "lon": 13.6244845}, {"type": "node", "id": 10695591457, "lat": 52.5292596, "lon": 13.6256687}, {"type": "node", "id": 10697239479, "lat": 52.5184451, "lon": 13.6324187}, {"type": "node", "id": 10700675409, "lat": 52.5182455, "lon": 13.6327626}, {"type": "node", "id": 10700675410, "lat": 52.5183267, "lon": 13.6327577}, {"type": "node", "id": 10700675411, "lat": 52.5182215, "lon": 13.6327276}, {"type": "node", "id": 10700675412, "lat": 52.5181617, "lon": 13.6320147}, {"type": "node", "id": 10700675413, "lat": 52.5181378, "lon": 13.6319807}, {"type": "node", "id": 10700675415, "lat": 52.5183462, "lon": 13.6327165}, {"type": "node", "id": 10700675416, "lat": 52.5184074, "lon": 13.6325946}, {"type": "node", "id": 10700675417, "lat": 52.5182616, "lon": 13.6327859}, {"type": "node", "id": 10700675418, "lat": 52.5182818, "lon": 13.6328169}, {"type": "node", "id": 10711381060, "lat": 52.5270511, "lon": 13.6214003}, {"type": "node", "id": 10711447864, "lat": 52.5167075, "lon": 13.6228277}, {"type": "node", "id": 10781061288, "lat": 52.4874983, "lon": 13.6062288}, {"type": "node", "id": 10819519146, "lat": 52.4819258, "lon": 13.6123785}, {"type": "node", "id": 10823787252, "lat": 52.5213255, "lon": 13.6187224, "tags": {"amenity": "doctors", "healthcare": "doctor", "name": "Dr. Fehrend"}}, {"type": "node", "id": 10829660295, "lat": 52.5143217, "lon": 13.6112163, "tags": {"healthcare": "physiotherapist"}}, {"type": "node", "id": 10978166669, "lat": 52.4771345, "lon": 13.6008353}, {"type": "node", "id": 10978166670, "lat": 52.4772032, "lon": 13.6008491}, {"type": "node", "id": 10978166671, "lat": 52.4772075, "lon": 13.6008005}, {"type": "node", "id": 10978166672, "lat": 52.477137, "lon": 13.6007869}, {"type": "node", "id": 11036567844, "lat": 52.4822618, "lon": 13.6119721}, {"type": "node", "id": 11036567845, "lat": 52.4820414, "lon": 13.6122327}, {"type": "node", "id": 11121527370, "lat": 52.5202708, "lon": 13.6389762}, {"type": "node", "id": 11121527371, "lat": 52.5202263, "lon": 13.639136}, {"type": "node", "id": 11121527372, "lat": 52.5202268, "lon": 13.63918}, {"type": "node", "id": 11121527373, "lat": 52.5202331, "lon": 13.6391974}, {"type": "node", "id": 11121527374, "lat": 52.5202477, "lon": 13.6391882}, {"type": "node", "id": 11121527375, "lat": 52.520305, "lon": 13.6390929}, {"type": "node", "id": 11121527376, "lat": 52.5203094, "lon": 13.6390663}, {"type": "node", "id": 11121527377, "lat": 52.5203011, "lon": 13.6390413}, {"type": "node", "id": 11121527378, "lat": 52.5203082, "lon": 13.6390235}, {"type": "node", "id": 11121527379, "lat": 52.5203012, "lon": 13.6389951}, {"type": "node", "id": 11121527380, "lat": 52.5202835, "lon": 13.6389747}, {"type": "node", "id": 11182773017, "lat": 52.5001736, "lon": 13.6204666}, {"type": "node", "id": 11182773018, "lat": 52.5002458, "lon": 13.6204505}, {"type": "node", "id": 11182773019, "lat": 52.5003957, "lon": 13.620415}, {"type": "node", "id": 11182773020, "lat": 52.5001153, "lon": 13.6185684}, {"type": "node", "id": 11182773021, "lat": 52.4998478, "lon": 13.6185709}, {"type": "node", "id": 11182773022, "lat": 52.4998266, "lon": 13.6187956}, {"type": "node", "id": 11182841678, "lat": 52.5000695, "lon": 13.6189692}, {"type": "node", "id": 11182841679, "lat": 52.5000483, "lon": 13.6192274}, {"type": "node", "id": 11182841680, "lat": 52.5002838, "lon": 13.6194125}, {"type": "node", "id": 11182841681, "lat": 52.5002985, "lon": 13.6191979}, {"type": "node", "id": 11182841685, "lat": 52.5004658, "lon": 13.6202701}, {"type": "node", "id": 11196073761, "lat": 52.4830538, "lon": 13.6108629}, {"type": "node", "id": 11196073762, "lat": 52.483102, "lon": 13.6108415}, {"type": "node", "id": 11196073763, "lat": 52.4829019, "lon": 13.6108549}, {"type": "node", "id": 11196073764, "lat": 52.4823547, "lon": 13.6107583}, {"type": "node", "id": 11196073767, "lat": 52.4820035, "lon": 13.6122805}, {"type": "node", "id": 11196073768, "lat": 52.4820904, "lon": 13.6121747}, {"type": "node", "id": 11196073769, "lat": 52.4821409, "lon": 13.6121151}, {"type": "node", "id": 11196073770, "lat": 52.4822019, "lon": 13.6120429}, {"type": "node", "id": 11196073771, "lat": 52.4822307, "lon": 13.6120089}, {"type": "node", "id": 11196073779, "lat": 52.4825294, "lon": 13.6123067}, {"type": "node", "id": 11196073824, "lat": 52.4824686, "lon": 13.6123024}, {"type": "node", "id": 11379096304, "lat": 52.5092983, "lon": 13.6139079, "tags": {"addr:city": "Berlin", "addr:housenumber": "54", "addr:postcode": "12623", "addr:street": "H\u00f6nower Stra\u00dfe", "amenity": "doctors", "health_facility:type": "office", "health_specialty:family_medicine": "main", "health_specialty:internal_medicine": "yes", "healthcare": "doctor", "healthcare:speciality": "general", "medical_system:western": "yes", "operator": "Dr. med. Roman Walz;Christiane Glaser"}}, {"type": "node", "id": 11416888896, "lat": 52.4990799, "lon": 13.6134682}, {"type": "node", "id": 11416888900, "lat": 52.4986144, "lon": 13.6135707}, {"type": "node", "id": 11416888901, "lat": 52.4983986, "lon": 13.6140674}, {"type": "node", "id": 11531156411, "lat": 52.5127514, "lon": 13.6120176, "tags": {"amenity": "fast_food", "cuisine": "burger", "indoor_seating": "yes", "name": "American burger", "outdoor_seating": "yes"}}, {"type": "node", "id": 11780337861, "lat": 52.5063254, "lon": 13.6130293, "tags": {"addr:city": "Berlin", "addr:housenumber": "16", "addr:postcode": "12623", "addr:street": "H\u00f6nower Stra\u00dfe", "amenity": "doctors", "email": "mahlsdorf@hautarztpraxen-berlin-brandenburg.de", "healthcare": "doctor", "healthcare:speciality": "dermatology", "name": "\u00dcBAG Hautarztpraxis", "opening_hours": "Mo 09:00-13:00, 14:00-19:00; Tu-Th 08:00-14:00; Fr 08:00-12:00", "phone": "+49 030 55 15 80 60", "website": "http://www.kosmoderma-berlin.de/"}}, {"type": "node", "id": 11829173578, "lat": 52.5004556, "lon": 13.6196799}, {"type": "node", "id": 11829173579, "lat": 52.5004448, "lon": 13.6203649}, {"type": "node", "id": 11829173580, "lat": 52.5001078, "lon": 13.6204453}, {"type": "node", "id": 11829173581, "lat": 52.5001103, "lon": 13.6196601}, {"type": "node", "id": 11829238608, "lat": 52.5092986, "lon": 13.6138673, "tags": {"addr:city": "Berlin", "addr:housenumber": "54", "addr:postcode": "12623", "addr:street": "H\u00f6nower Stra\u00dfe", "amenity": "doctors", "fax": "+49 30 56400732", "health_facility:type": "office", "health_specialty:paediatrics": "main", "healthcare": "doctor", "healthcare:speciality": "paediatrics", "medical_system:western": "yes", "name": "Kinderarztpraxis Dipl.med.Ulrike Kr\u00f6ber", "office": "physician", "opening_hours": "Mo 08:30-12:00 open \"Akutsprechstunde\",Tu 14:00-17:00 open \"Akutsprechstunde\",Tu 17:00-18:00 open \"Jugendvorsorge\",We,Fr 08:00-11:00 open \"Vorsorge\",We,Fr 11:00-13:00 open \"Akutf\u00e4lle\",Th 08:30-12:00 open \"Vorsorgen\",Th 14:00-18:00 open \"Akutf\u00e4lle\"; PH off", "opening_hours:url": "https://www.kinderaerzte-im-netz.de/aerzte/berlin/kroeber/sprechzeiten.html", "operator": "Dipl.-Med. Ulrike Kr\u00f6ber", "phone": "+49 30 5632499", "website": "https://www.kinderaerzte-im-netz.de/aerzte/berlin/kroeber/startseite.html"}}, {"type": "node", "id": 11898924401, "lat": 52.5087315, "lon": 13.6136035, "tags": {"amenity": "dentist", "email": "info@zahnarztpraxis-mahlsdorf.de", "health_facility:type": "office", "health_specialty:dentistry": "main", "healthcare": "dentist", "level": "3", "medical_system:western": "yes", "office": "physician", "operator": "Kathleen Kraatz", "phone": "+49 30 5445424", "website": "https://www.zahnarztpraxis-mahlsdorf.de/"}}, {"type": "node", "id": 12005978338, "lat": 52.5072455, "lon": 13.6097913}, {"type": "node", "id": 12006183092, "lat": 52.5136954, "lon": 13.6351979}, {"type": "node", "id": 12006183098, "lat": 52.5116187, "lon": 13.6330732}, {"type": "node", "id": 12006183103, "lat": 52.5077515, "lon": 13.6302519}, {"type": "node", "id": 12009995556, "lat": 52.5054237, "lon": 13.6062941}, {"type": "node", "id": 12009995557, "lat": 52.5053154, "lon": 13.6063406}, {"type": "node", "id": 12009995558, "lat": 52.5055762, "lon": 13.60479}, {"type": "node", "id": 12031013117, "lat": 52.5224779, "lon": 13.6433312}, {"type": "node", "id": 12031013118, "lat": 52.5221134, "lon": 13.6428092}, {"type": "node", "id": 12031013119, "lat": 52.5230225, "lon": 13.6423426}, {"type": "node", "id": 12112241424, "lat": 52.500377, "lon": 13.6203655}, {"type": "node", "id": 12112241425, "lat": 52.5001096, "lon": 13.6200916}, {"type": "node", "id": 12112241459, "lat": 52.5000965, "lon": 13.6204625}, {"type": "node", "id": 12258412966, "lat": 52.4872027, "lon": 13.6053314, "tags": {"access": "customers", "addr:city": "Berlin", "addr:housenumber": "140", "addr:postcode": "12623", "addr:street": "Hultschiner Damm", "community_centre": "youth_centre", "door": "yes", "entrance": "main"}}, {"type": "node", "id": 12258412968, "lat": 52.4873232, "lon": 13.6054161, "tags": {"access": "customers", "addr:city": "Berlin", "addr:housenumber": "142", "addr:postcode": "12623", "addr:street": "Hultschiner Damm", "door": "yes", "entrance": "shop"}}, {"type": "way", "id": 24565377, "nodes": [267093530, 2806201544, 2806201545, 2806201546, 12005978338, 267093532, 6561202688, 267093533, 1506396012, 1506396013, 267093534, 1506396000, 1506395999, 1506395991, 1506395998, 5873637826, 5873637825, 559468652, 5873637817, 5607403974, 2806201537, 2806201534, 1642849672, 1642849689, 267093530], "tags": {"leisure": "park", "name": "Waldowpark", "protection_title": "Gesch\u00fctzte Gr\u00fcnanlage", "wikidata": "Q17429818", "wikipedia": "de:Waldowpark"}}, {"type": "way", "id": 25928007, "nodes": [282830537, 282830538, 282830539, 5742103455, 5742103454, 282830540, 282830541, 282830542, 282830543, 282830544, 282830545, 282830546, 282830547, 282830548, 5742103456, 282830549, 282830537], "tags": {"intermittent": "yes", "name": "K\u00f6rnerteich", "natural": "water", "water": "basin"}}, {"type": "way", "id": 25928016, "nodes": [282830736, 282830737, 282830738, 282830739, 282830736]}, {"type": "way", "id": 26125815, "nodes": [286022743, 286022745, 286022746, 286022747, 286022743], "tags": {"architect": "Erwin Barth", "boundary": "protected_area", "heritage": "4", "heritage:operator": "lda", "lda:criteria": "Gartendenkmal", "leisure": "park", "name": "Ullrichplatz", "place": "square", "protect_class": "22", "protection_title": "Gesch\u00fctzte Gr\u00fcnanlage", "ref:lda": "09046090", "start_date": "1925", "wikidata": "Q15060614", "wikipedia": "de:Ullrichplatz"}}, {"type": "way", "id": 27702491, "nodes": [3149111186, 3149110820, 3149110828, 3149110816, 3149110826, 3149111140, 3149111145, 3149111202, 3149111186], "tags": {"addr:city": "Berlin", "addr:country": "DE", "addr:housenumber": "8/9", "addr:postcode": "12623", "addr:street": "Fritz-Reuter-Stra\u00dfe", "addr:suburb": "Mahlsdorf", "amenity": "clinic", "building": "yes", "deaf:description": "Optischer Aufruf ist vorhanden.", "healthcare": "clinic", "name": "\u00c4rztehaus", "toilets:wheelchair": "yes", "wheelchair": "yes", "wheelchair:description": "Behandlung ist m\u00f6glich, ohne den Rollstuhl zu verlassen. 2 Parkpl\u00e4tze f\u00fcr Rollstuhfahrer*innen vorhanden."}}, {"type": "way", "id": 43961325, "nodes": [5086467998, 6611974858, 5873619613, 4843951220, 9417635344, 9417635345, 5086468009, 9417635327, 9417635328, 5086468010, 2281022038, 2281021822, 3573294522, 2281022065, 3573294520, 5086468012, 559088705, 559088684, 559471044, 4159857288, 2269858004, 4303703144, 4303703145, 2269858006, 2269858007, 2269858010, 9417635219, 5086468001, 5086468000, 2269858017, 5086468003, 5086467997, 5086467998], "tags": {"leisure": "park", "protection_title": "Gesch\u00fctzte Gr\u00fcnanlage"}}, {"type": "way", "id": 43994038, "nodes": [559410851, 7966693463, 7966693464, 5440630100, 5440630101, 5440630102, 559410853, 1374215204, 1374215199, 1374215203, 5440630103, 5440630104, 1374215210, 559410854, 559410851], "tags": {"addr:city": "Berlin", "addr:country": "DE", "addr:housenumber": "32", "addr:postcode": "12623", "addr:street": "Alt-Mahlsdorf", "addr:suburb": "Mahlsdorf", "amenity": "fast_food", "brand": "Burger King", "brand:wikidata": "Q177054", "brand:wikipedia": "en:Burger King", "building": "yes", "cuisine": "burger", "fax": "+49 30 56592972", "indoor_seating": "yes", "name": "Burger King", "opening_hours": "Mo-Sa 08:00-23:00; Su 10:00-23:00", "outdoor_seating": "yes", "phone": "+49 30 56592971", "takeaway": "yes", "website": "https://www.burgerking.de/", "wheelchair": "yes"}}, {"type": "way", "id": 50290586, "nodes": [639028224, 639028221, 639028218, 639028227, 639028224], "tags": {"image": "File:Fr.-Hals-Platz Mahlsdorf 2012-4-08 ama fec (118).JPG", "leisure": "park", "name": "Frans-Hals-Platz", "name:etymology:wikidata": "Q167654", "name:etymology:wikipedia": "de:Frans Hals", "protection_title": "Gesch\u00fctzte Gr\u00fcnanlage", "wikidata": "Q116140604", "wikimedia_commons": "Category:Frans-Hals-Platz (Berlin-Mahlsdorf)"}}, {"type": "way", "id": 52595439, "nodes": [668072498, 668072497, 668072495, 5743907884, 668072499, 668072498], "tags": {"leisure": "playground"}}, {"type": "way", "id": 65070817, "nodes": [3095508091, 796673893, 796673682, 796673821, 796673967, 3095508117, 5323345918, 5323345917, 5323345916, 5323345919, 3095508091], "tags": {"addr:city": "Berlin", "addr:country": "DE", "addr:housenumber": "59", "addr:postcode": "12623", "addr:street": "Alt-Mahlsdorf", "addr:suburb": "Mahlsdorf", "amenity": "fast_food", "brand": "McDonald's", "brand:wikidata": "Q38076", "brand:wikipedia": "en:McDonald's", "building": "restaurant", "cuisine": "burger", "indoor_seating": "yes", "internet_access": "wlan", "name": "McDonald's", "opening_hours": "Mo-Fr 00:00-01:00,07:00-24:00; Sa-Su 00:00-02:00,07:00-24:00", "outdoor_seating": "yes", "phone": "+49 30 56701170", "takeaway": "yes", "website": "https://www.mcdonalds.de/", "wheelchair": "yes"}}, {"type": "way", "id": 89156165, "nodes": [1034216039, 10178031800, 1034216048, 5300436174, 10178031798, 1034216063, 2610905365, 5300436191, 2610905327, 10178031799, 2610905279, 1034216075, 10178031802, 10178031803, 10178031801, 1034216039], "tags": {"addr:housenumber": "200;204", "addr:postcode": "12623", "addr:street": "Hultschiner Damm", "brand": "Netto Marken-Discount", "brand:wikidata": "Q879858", "brand:wikipedia": "de:Netto Marken-Discount", "building": "retail", "building:levels": "2", "name": "Netto Marken-Discount", "opening_hours": "Mo-Sa 07:00-22:00; PH off", "operator": "Netto", "roof:colour": "grey", "roof:shape": "flat", "shop": "supermarket", "website": "https://www.netto-online.de/filialen/Berlin-Mahlsdorf/Hultschiner-Damm-200-204/7736/", "wheelchair": "yes"}}, {"type": "way", "id": 94646614, "nodes": [1098842790, 4846248247, 2860767929, 4846248245, 10184668843, 4846248244, 10184668842, 10184668841, 1098842494, 3095508121, 1865288046, 1098842790], "tags": {"addr:city": "Berlin", "addr:country": "DE", "addr:housenumber": "48", "addr:postcode": "12623", "addr:street": "Alt-Mahlsdorf", "addr:suburb": "Mahlsdorf", "brand": "Penny", "brand:wikidata": "Q284688", "brand:wikipedia": "en:Penny (supermarket)", "building": "retail", "building:levels": "1", "name": "PENNY", "opening_hours": "Mo-Fr 08:30-20:00; PH off", "roof:colour": "#ffb5b5", "roof:levels": "0", "roof:shape": "flat", "shop": "supermarket", "wheelchair": "yes"}}, {"type": "way", "id": 136277439, "nodes": [1495161012, 10700675416, 10700675415, 10700675410, 1495161010, 10700675418, 10700675417, 10700675409, 10700675411, 7964429632, 7964429633, 1495161006, 1495161008, 10700675413, 10700675412, 10697239479, 1495161012], "tags": {"leisure": "park", "protection_title": "Gesch\u00fctzte Gr\u00fcnanlage"}}, {"type": "way", "id": 177430730, "nodes": [1878861537, 10695591449, 10695591451, 10695591450, 8206600628, 10695591452, 10695591453, 1878865445, 8206600627, 2714051979, 4198189295, 10695591456, 4198189291, 8206062790, 8206062789, 10695591457, 4198189289, 1642850252, 1642850254, 1878861553, 1878861560, 10695591448, 6495420314, 6793311767, 6793311765, 6793311766, 10711381060, 1642850211, 1642850217, 4902225525, 1642850206, 4902232414, 6793312248, 4406046098, 6793312249, 6793312250, 6793312251, 4406046100, 8206617446, 1642850218, 4902226417, 6793312257, 6793312247, 4902226416, 4902225528, 4902225529, 4902225530, 4902225523, 4902225532, 4902225522, 4902225533, 4902225534, 4902225535, 5210807548, 6793311773, 6793311771, 1878861558, 4902204188, 4902204189, 4902204190, 4902204191, 4902204195, 4902204192, 4902204193, 4902204194, 1878861546, 1567359572, 1099488221, 1099488302, 1878859402, 1878861540, 4902204186, 1878861556, 4902204185, 8206600629, 1878861562, 1878861537], "tags": {"leisure": "park"}}, {"type": "way", "id": 180232878, "nodes": [1906693574, 2301305269, 2301305270, 2301305268, 2301305272, 2301305271, 1906693572, 1906693571, 1906693573, 1906693574], "tags": {"access": "yes", "leisure": "playground", "surface": "sand"}}, {"type": "way", "id": 186904033, "nodes": [5056598694, 12009995558, 2386455134, 1976522551, 2304984044, 12009995557, 12009995556, 1976522549, 5056598694], "tags": {"leisure": "park", "name": "M\u00fcnsterberger-Weg-Park", "name:etymology:wikidata": "Q207100", "name:etymology:wikipedia": "de:Zi\u0119bice"}}, {"type": "way", "id": 190972010, "nodes": [2015616691, 5790137367, 2015616698, 2015616706, 2015616696, 2015616694, 2015616708, 5790137377, 5790137376, 5790137375, 5790137378, 2015616691], "tags": {"addr:city": "Berlin", "addr:country": "DE", "addr:housenumber": "60", "addr:postcode": "12623", "addr:street": "Dahlwitzer Stra\u00dfe", "addr:suburb": "Mahlsdorf", "brand": "Netto", "brand:wikidata": "Q552652", "brand:wikipedia": "da:Netto (supermarkedsk\u00e6de)", "building": "retail", "name": "Netto", "opening_hours": "Mo-Sa 07:00-20:00", "operator": "Netto ApS & Co. KG / Dansk Supermarked A/S", "shop": "supermarket", "wheelchair": "yes"}}, {"type": "way", "id": 193875632, "nodes": [2710642345, 441329458, 6688227261, 6688227260, 2043804738, 2043804735, 2710642332, 4470366942, 2557319883, 2043804715, 4870688494, 297821844, 441327434, 2557319888, 286309718, 2557319889, 2710642343, 2710642345], "tags": {"barrier": "fence", "leisure": "park", "name": "Landschaftspark des Gutshauses Mahlsdorf"}}, {"type": "way", "id": 217673569, "nodes": [2269858120, 2269858119, 4127743701, 4127743703, 4127743707, 2269858120], "tags": {"leisure": "park", "name": "Alice-Herz-Platz", "name:etymology:wikidata": "Q86213", "protection_title": "Gesch\u00fctzte Gr\u00fcnanlage", "wikidata": "Q2646819", "wikipedia": "de:Alice-Herz-Platz"}}, {"type": "way", "id": 218898401, "nodes": [2281021972, 2281022050, 2281022054, 2281022058, 2281021972], "tags": {"addr:city": "Berlin", "addr:housenumber": "14a", "addr:postcode": "12623", "addr:street": "H\u00f6nower Stra\u00dfe", "amenity": "restaurant", "building": "retail", "building:colour": "yellow", "building:levels": "1", "building:material": "plaster", "building:start_date": "1900", "cuisine": "italian", "description": "Ehemalige Scheune", "email": "info@lastalla.de", "name": "La Stalla", "note": "Baudenkmal", "opening_hours": "Mo-Su,PH 11:30-23:00", "operator": "Nazmi Ljimani", "phone": "+49 30 53018020", "ref": "09045352", "roof:colour": "red", "roof:levels": "1", "roof:material": "roof_tiles", "roof:orientation": "along", "roof:shape": "half-hipped", "toilets:wheelchair": "yes", "website": "https://la-stalla.berlin/", "wheelchair": "yes"}}, {"type": "way", "id": 221497938, "nodes": [2305251095, 2305251099, 2305251086, 2305251081, 2305251095], "tags": {"access": "private", "leisure": "playground"}}, {"type": "way", "id": 223298146, "nodes": [2322086742, 2322086744, 3686102625, 3686102626, 2322086742], "tags": {"access": "yes", "description": "Kletterger\u00fcst, Rutsche, Sandkasten, eingez\u00e4unter Streetballkorb auf Ascheplatz", "leisure": "playground", "playground": "climbingframe;slide;sandpit", "protection_title": "Gesch\u00fctzte Gr\u00fcnanlage"}}, {"type": "way", "id": 230116163, "nodes": [9642798748, 9642798747, 9642798746, 9642798745, 9642798744, 9642798743, 9642798742, 9642798741, 9642798740, 9642798739, 9642798738, 9642798737, 9642798718, 9642798719, 9642798720, 9642798721, 9642798723, 9642798724, 9642798725, 9642798726, 9642798727, 9642798728, 9642798729, 9642798730, 9642798731, 9642798732, 9642798733, 9642798734, 9642798748], "tags": {"access": "private", "leisure": "playground"}}, {"type": "way", "id": 230116167, "nodes": [2386450526, 2386450539, 2386450536, 2386450582, 2386450543, 2386450498, 2386450511, 2386450576, 2386450547, 2386450518, 2386450578, 2386450616, 2386450584, 2386450501, 2386450530, 2386450517, 2386450528, 2386450495, 2386450526], "tags": {"access": "yes", "leisure": "playground"}}, {"type": "way", "id": 249040431, "nodes": [2557319948, 2557319949, 2557319950, 2557319951, 2557319948], "tags": {"description": "Geh\u00f6lzgruppe mit Unterbeflanzung(4)", "leisure": "park"}}, {"type": "way", "id": 254100257, "nodes": [2599250713, 2599250711, 2599250694, 2599250696, 10978166669, 10978166672, 10978166671, 10978166670, 2599250713], "tags": {"building": "yes", "healthcare": "podiatrist"}}, {"type": "way", "id": 254301641, "nodes": [2600892206, 8174061226, 8174061225, 8174061224, 8174061223, 8174061222, 8174061221, 8174061220, 8174061219, 8174061218, 8174061217, 2600892213, 8174061228, 8174061227, 2600892226, 2600892221, 2600892217, 2600892214, 2600892212, 2600892201, 2600892200, 2600892204, 2600892205, 2600892206], "tags": {"addr:city": "Berlin", "addr:country": "DE", "addr:housenumber": "21", "addr:postcode": "12623", "addr:street": "Hultschiner Damm", "addr:suburb": "Mahlsdorf", "amenity": "cafe", "breakfast": "Th-Sa 09:00-13:00, Su 08:00-13:00;Su[3] off", "building": "retail", "building:levels": "1", "email": "hochzeitskonditor@konditorei-jaenichen.de", "indoor_seating": "yes", "indoor_seating:capacity": "50", "name": "Caf\u00e9 Seestra\u00dfe", "opening_hours": "Th-Sa 09:00-18:00, Su 08:00-18:00; Su[3] off", "operator": "Robert Jaenichen;Martin Jaenichen", "operator:legal": "R. & M. Jaenichen GbR", "outdoor_seating": "yes", "outdoor_seating:capacity": "40", "phone": "+49 30 5666354", "ref:vatin": "DE185081577", "roof:levels": "0", "roof:shape": "flat", "start_date": "2007-05", "website": "http://www.konditorei-jaenichen.de/", "wheelchair": "no"}}, {"type": "way", "id": 254302022, "nodes": [2600892796, 2600892829, 10170238469, 2600892997, 10170238468, 10649383271, 10649383272, 2600892852, 2600892807, 2600892812, 2600892796], "tags": {"addr:housenumber": "216", "addr:street": "Bergedorfer Stra\u00dfe", "brand": "Netto Marken-Discount", "brand:wikidata": "Q879858", "brand:wikipedia": "de:Netto Marken-Discount", "building": "retail", "name": "Netto Marken-Discount", "opening_hours": "Mo-Sa 07:00-21:00; PH off", "roof:colour": "grey", "roof:shape": "flat", "shop": "supermarket", "website": "https://www.netto-online.de/filialen/Berlin-Mahlsdorf/Hultschiner-Damm-47/5077/", "wheelchair": "yes"}}, {"type": "way", "id": 254312457, "nodes": [2600999722, 10170238479, 2600999650, 2600999655, 7695727100, 2600999673, 2600999717, 2600999714, 2600999726, 10170238477, 2600999722], "tags": {"addr:city": "Berlin", "addr:housenumber": "75", "addr:postcode": "12623", "addr:street": "Hultschiner Damm", "brand": "EDEKA", "brand:wikidata": "Q701755", "brand:wikipedia": "de:Edeka", "building": "retail", "building:levels": "1", "name": "Edeka", "opening_hours": "Mo-Th,Sa 07:00-20:00, Fr 07:00-21:00; PH off", "roof:colour": "grey", "roof:shape": "flat", "shop": "supermarket", "wheelchair": "yes"}}, {"type": "way", "id": 255050763, "nodes": [2608014153, 10781061288, 2608014151, 10181550726, 2608014045, 10184668817, 10181550724, 2608014098, 12258412966, 12258412968, 2608014134, 10181550723, 2608014112, 10181550725, 2608014153], "tags": {"addr:city": "Berlin", "addr:housenumber": "140-142", "addr:postcode": "12623", "addr:street": "Hultschiner Damm", "brand": "ALDI Nord", "brand:wikidata": "Q41171373", "brand:wikipedia": "en:Aldi", "building": "retail", "level": "1", "name": "Aldi", "note": "Die L\u00e4den hei\u00dfen in DE nur ALDI und nicht ALDI Nord, aber iD hat scheinbar Probleme mit den Au\u00dfnahmen in Name Sugesstion Index", "opening_hours": "Mo-Sa 07:00-20:00; PH off", "shop": "supermarket", "website": "https://www.aldi-nord.de/filialen-und-oeffnungszeiten.html/l/berlin/hultschiner-damm-140-142/3182168", "wheelchair": "limited"}}, {"type": "way", "id": 265246169, "nodes": [5806180970, 2709119541, 5806174137, 2709119527, 5806180971, 5806180972, 5806174138, 5806299618, 2709119521, 2709119530, 2709119538, 5806180969, 5806174150, 5806180970], "tags": {"leisure": "park", "name": "Langenbeckplatz", "place": "square", "protection_title": "Gesch\u00fctzte Gr\u00fcnanlage", "wikidata": "Q125549397"}}, {"type": "way", "id": 275986614, "nodes": [297821844, 441327434, 2557319888, 4421857777, 559408821, 559408979, 559408954, 559408943, 4421857774, 559408935, 559408926, 1374242299, 2305070494, 559408905, 4227140808, 292446221, 4815328837, 4421857786, 4815328839, 4815328840, 4815328841, 4815328844, 10055975907, 10055975906, 10055975905, 10055975904, 10055975903, 10055975902, 10055975901, 10055975900, 4421857771, 5755476970, 10055975899, 10055975898, 10055975897, 10055975896, 4421857770, 4711956197, 297822347, 4421857763, 4421857761, 297821856, 297821855, 1374242287, 4870688479, 1374242289, 297822513, 1374242290, 297821844], "tags": {"leisure": "park", "protection_title": "Gesch\u00fctzte Gr\u00fcnanlage"}}, {"type": "way", "id": 318747133, "nodes": [2217018161, 2217018163, 2217018164, 2217018175, 8888396505, 8888396506, 8559622539, 5861253057, 1642850064, 5789104484, 5789104481, 12006183092, 5789104483, 1642849987, 12006183098, 1642849854, 5744314171, 5744314170, 12006183103, 1642849714, 1642849668, 1223806882, 5861278792, 5323366694, 5861278785, 1223806880, 2217018023, 5861278562, 5861278561, 2217018063, 8888396482, 8888396481, 8888396480, 8888396475, 8888396479, 2217018112, 4726220360, 4726220346, 4726220345, 2217018150, 2217018155, 3251189966, 1223808287, 5861253056, 2217018161], "tags": {"leisure": "park"}}, {"type": "way", "id": 351530533, "nodes": [3555787600, 3573294515, 9417635315, 3573294525, 5086468005, 5248692795, 5248692798, 2281022039, 2281022074, 2281022065, 3573294520, 5086468012, 559088705, 4070404170, 4070404168, 4070404169, 4070404171, 3555787600], "tags": {"addr:city": "Berlin", "addr:country": "DE", "addr:housenumber": "82", "addr:postcode": "12623", "addr:street": "An der Schule", "addr:suburb": "Mahlsdorf", "brand": "Edeka", "brand:wikidata": "Q701755", "brand:wikipedia": "en:Edeka", "building": "retail", "building:levels": "1", "email": "ecenter.brehm.berlin@minden.edeka.de", "fax": "+49 30 565534920", "name": "Edeka-Center Brehm", "opening_hours": "Mo-Sa 08:00-22:00; PH off", "operator": "EDEKA Minden-Hannover Stiftung & Co. KG", "phone": "+49 30 56553490", "roof:colour": "grey", "roof:shape": "flat", "shop": "supermarket", "start_date": "2015-05", "website": "https://www.edeka.de/eh/minden-hannover/edeka-center-brehm-an-der-schule-82/", "wheelchair": "yes"}}, {"type": "way", "id": 376313332, "nodes": [3785522687, 11182773017, 11182773018, 11182773019, 3785503384, 8485592908, 11182841685, 3785503383, 3785522686, 11182841680, 11182841681, 3785522688, 3785522695, 3797554056, 11182773020, 11182773021, 11182773022, 3789331542, 11182841678, 11182841679, 3789331541, 3797554054, 3785522685, 12112241459, 3785522687], "tags": {"leisure": "park", "protection_title": "Gesch\u00fctzte Gr\u00fcnanlage"}}, {"type": "way", "id": 424007411, "nodes": [4234986847, 4234986849, 11196073764, 11196073763, 11196073761, 11196073762, 4234986749, 4234986750, 4234986751, 5742063250, 9025063236, 9025063239, 9025063237, 9025063240, 11196073779, 11196073824, 8194713168, 960603114, 9025063234, 960603140, 8194713163, 4234986842, 4234986841, 4234986844, 5742063275, 4234986847], "tags": {"image": "File:Lehnitzplatz Mahlsdorf 2012-07-08 ama fec (23).JPG", "leisure": "park", "name": "Lehnitzplatz", "name:etymology:wikidata": "Q575131", "place": "square", "protection_title": "Gesch\u00fctzte Gr\u00fcnanlage", "wikidata": "Q125549430", "wikimedia_commons": "Category:Lehnitzplatz (Berlin-Mahlsdorf)"}}, {"type": "way", "id": 438472134, "nodes": [2425465680, 4362172243, 4362172245, 4362172246, 4362172244, 4362172242, 4362172240, 4362172241, 2425465680], "tags": {"access": "yes", "leisure": "playground", "playground:slide": "yes", "playground:springy": "yes", "playground:structure": "yes", "playground:swing": "yes", "surface": "sand"}}, {"type": "way", "id": 467826999, "nodes": [336521683, 3785522704, 3785522703, 2710642328, 336521683], "tags": {"leisure": "park", "name": "Am Theodorpark", "protection_title": "Gesch\u00fctzte Gr\u00fcnanlage"}}, {"type": "way", "id": 477903138, "nodes": [2300113235, 11416888896, 4711935843, 4711935842, 10171701040, 4711935841, 11416888900, 11416888901, 4711935840, 4711935839, 2269037701, 2300076449, 2300113233, 2300113235], "tags": {"leisure": "park", "protection_title": "Gesch\u00fctzte Gr\u00fcnanlage"}}, {"type": "way", "id": 479915908, "nodes": [4729488394, 12031013119, 4729488393, 4729488392, 12031013118, 12031013117, 4729488391, 4729488394], "tags": {"description": "Gesch\u00fctzte Gr\u00fcnanlage, keine Radfreigabe", "leisure": "park", "name": "Graffplatz", "name:etymology:wikidata": "Q310213"}}, {"type": "way", "id": 536686312, "nodes": [5198368001, 5198368002, 5934682771, 5198368003, 5198368004, 5934682772, 5198368001], "tags": {"access": "yes", "leisure": "playground", "playground:climbingframe": "yes", "playground:sandpit": "yes", "playground:seesaw": "yes", "playground:slide": "yes", "playground:swing": "yes", "surface": "sand"}}, {"type": "way", "id": 541389794, "nodes": [5235194824, 9691501745, 9691501744, 5235194823, 5235194822, 9691501742, 9691501741, 9691501743, 5235194821, 9691501740, 9691501750, 9691501749, 9691501748, 9691501746, 9691501747, 5235194824], "tags": {"leisure": "park"}}, {"type": "way", "id": 564763448, "nodes": [5440591732, 5440591731, 5440591730, 5440591729, 5440591728, 5440591727, 5440591726, 5440591732], "tags": {"leisure": "park"}}, {"type": "way", "id": 564763449, "nodes": [5440591736, 5440591735, 5440591734, 5440591733, 5440591736], "tags": {"leisure": "park"}}, {"type": "way", "id": 591129636, "nodes": [5643155110, 5643155109, 5643155108, 5643155107, 5643155110], "tags": {"amenity": "fast_food", "building": "yes", "cuisine": "turkish", "indoor_seating": "yes", "name": "City D\u00f6ner", "outdoor_seating": "yes"}}, {"type": "way", "id": 613694001, "nodes": [5806174131, 5806174130, 5806174129, 5806174148, 5806174147, 5806174146, 5806174128, 5806174127, 5806174126, 5806174125, 5806174124, 5806174123, 5806174122, 5806174121, 5806174120, 5806174119, 5806174118, 5806174117, 5806174116, 5806174131], "tags": {"access": "yes", "leisure": "playground"}}, {"type": "way", "id": 628608496, "nodes": [5934682769, 5934682760, 5934682759, 10711447864, 5934682768, 5934682770, 262092408, 2522618999, 2522619003, 5934682169, 5934682766, 5934682769], "tags": {"leisure": "park"}}, {"type": "way", "id": 678819986, "nodes": [6355940767, 6355940766, 6355940765, 6355940764, 9415191192, 9415191193, 9415191194, 6355940767], "tags": {"leisure": "park"}}, {"type": "way", "id": 698713601, "nodes": [6561207557, 6561207556, 6561207555, 6561207554, 6561207557], "tags": {"access": "private", "leisure": "playground"}}, {"type": "way", "id": 700248221, "nodes": [6575818925, 6575818924, 6575818923, 6575818922, 6575818921, 6575818920, 6575818919, 6575818918, 6575818917, 6575818916, 6575818915, 6575818914, 4367704201, 6575818913, 6575818912, 6575818911, 6575818910, 6575818925], "tags": {"access": "yes", "leisure": "playground"}}, {"type": "way", "id": 704173941, "nodes": [6611950027, 6611950026, 9094112599, 6611950025, 9094112598, 9094112597, 6611950024, 6611950027], "tags": {"access": "yes", "leisure": "playground"}}, {"type": "way", "id": 704176037, "nodes": [6611974870, 6611974869, 6611974868, 6611974867, 6611974866, 6611974865, 9417635341, 6611974870], "tags": {"addr:city": "Berlin", "addr:country": "DE", "addr:housenumber": "16", "addr:postcode": "12623", "addr:street": "H\u00f6nower Stra\u00dfe", "addr:suburb": "Mahlsdorf", "amenity": "doctors", "building": "yes", "health_facility:type": "health_centre", "healthcare": "clinic", "medical_system:western": "yes", "name": "\u00c4rztezentrum Mahlsdorf", "operator": "Mahlsdorf 16 GmbH", "operator:type": "private", "website": "https://www.aerztezentrum-mahlsdorf.de"}}, {"type": "way", "id": 704176333, "nodes": [6611976861, 8485614178, 6611976860, 6611976859, 6611976858, 6611976857, 7033638710, 7033638709, 6611976854, 6611976861], "tags": {"addr:city": "Berlin", "addr:country": "DE", "addr:housenumber": "74 - 80", "addr:postcode": "12623", "addr:street": "H\u00f6nower Stra\u00dfe", "addr:suburb": "Mahlsdorf", "brand": "REWE", "brand:wikidata": "Q16968817", "brand:wikipedia": "en:REWE", "building": "retail", "building:levels": "2", "diet:halal": "no", "diet:kosher": "no", "name": "Rewe", "opening_hours": "Mo-Sa 07:00-22:00; PH off", "roof:shape": "flat", "safety:hand_sanitizer:covid19": "optional", "shop": "supermarket", "website": "https://www.rewe.de/marktseite/berlin-stadt/1766069/rewe-markt-hoenower-strasse-74-80/", "wheelchair": "yes"}}, {"type": "way", "id": 704892872, "nodes": [4470366566, 4470366567, 6620454249, 6611950077, 6611950078, 6611950079, 6611950080, 6611958390, 6611958389, 6620454248, 6611950074, 6611950073, 6620454247, 6611950058, 6611950059, 6620454246, 6620454251, 2281021836, 3573294587, 3573294586, 5086450392, 559471039, 5457120114, 3573294591, 5873642408, 5457120115, 559471040, 4470366566], "tags": {"leisure": "park"}}, {"type": "way", "id": 824613716, "nodes": [7699960348, 7699960347, 7699960346, 7699960345, 7699960348], "tags": {"addr:city": "Berlin", "addr:country": "DE", "addr:housenumber": "3", "addr:postcode": "12623", "addr:street": "Rastatter Stra\u00dfe", "addr:suburb": "Mahlsdorf", "brand": "Lidl", "brand:wikidata": "Q151954", "brand:wikipedia": "en:Lidl", "building": "retail", "building:levels": "1", "name": "Lidl", "opening_hours": "Mo-Sa 07:00-21:00; PH off", "shop": "supermarket", "start_date": "2020-07-16"}}, {"type": "way", "id": 853977711, "nodes": [7964429642, 7964429641, 7964429640, 7964429639, 7964429638, 7964429637, 7964429636, 7964429635, 7964429634, 7964429633, 7964429632, 7964429642], "tags": {"access": "yes", "leisure": "playground"}}, {"type": "way", "id": 874349724, "nodes": [8139599888, 8489899768, 8489899766, 8489899767, 8139599887, 8139599886, 8139599879, 8139599885, 8139599884, 8139599883, 8139599882, 8139599881, 8139599888], "tags": {"leisure": "park", "protection_title": "Gesch\u00fctzte Gr\u00fcnanlage"}}, {"type": "way", "id": 913949381, "nodes": [8489899773, 8489899772, 8489899771, 8489899770, 8489899773], "tags": {"access": "yes", "leisure": "playground"}}, {"type": "way", "id": 1013024510, "nodes": [9346039115, 9346039108, 9346039114, 9346039113, 9346039107, 9346039112, 9902490981, 9902490982, 9902490983, 9902490984, 9902490985, 9902490986, 9902490992, 9902490987, 9902490988, 9902490989, 9902490991, 9902490990, 9346039115], "tags": {"addr:city": "Berlin", "addr:country": "DE", "addr:housenumber": "99", "addr:postcode": "12623", "addr:street": "H\u00f6nower Stra\u00dfe", "addr:suburb": "Mahlsdorf", "brand": "Lidl", "brand:wikidata": "Q151954", "brand:wikipedia": "en:Lidl", "building": "retail", "building:levels": "1", "internet_access": "wlan", "name": "Lidl", "opening_hours": "Mo-Sa 07:00-21:00; PH off", "roof:shape": "flat", "shop": "supermarket", "website": "https://www.lidl.de/", "wheelchair": "yes"}}, {"type": "way", "id": 1097859205, "nodes": [10052675468, 10052675469, 10052675470, 10052675471, 10052675468], "tags": {"amenity": "fast_food", "building": "yes", "name": "Der Th\u00fcringer"}}, {"type": "way", "id": 1198895166, "nodes": [11121527380, 11121527379, 11121527378, 11121527377, 11121527376, 11121527375, 11121527374, 11121527373, 11121527372, 11121527371, 11121527370, 11121527380], "tags": {"access": "customers", "leisure": "playground"}}, {"type": "way", "id": 1208308460, "nodes": [11036567845, 11196073767, 10819519146, 960603140, 9025063234, 960603114, 8194713168, 11036567844, 11196073771, 11196073770, 11196073769, 11196073768, 11036567845], "tags": {"access": "yes", "leisure": "playground", "name": "Spielplatz Lehnitzplatz"}}, {"type": "way", "id": 1273924012, "nodes": [11829173578, 11829173579, 12112241424, 11829173580, 12112241425, 11829173581, 11829173578], "tags": {"access": "yes", "leisure": "playground", "name": "Spielplatz Theodorg\u00e4rten"}}, {"type": "relation", "id": 4513839, "members": [{"type": "way", "ref": 25928016, "role": "outer"}, {"type": "way", "ref": 25928007, "role": "inner"}], "tags": {"leisure": "park", "name": "K\u00f6rnerpark", "protection_title": "Gesch\u00fctzte Gr\u00fcnanlage", "type": "multipolygon"}}]}