{"version": 0.6, "generator": "Overpass API 0.7.62.7 375dc00a", "osm3s": {"timestamp_osm_base": "2025-08-05T14:44:45Z", "copyright": "The data included in this document is from www.openstreetmap.org. The data is made available under ODbL."}, "elements": [{"type": "node", "id": 248640472, "lat": 52.4257183, "lon": 13.451635, "tags": {"barrier": "kerb", "kerb": "lowered"}}, {"type": "node", "id": 296316350, "lat": 52.4218736, "lon": 13.4668505}, {"type": "node", "id": 296316353, "lat": 52.423362, "lon": 13.4663771}, {"type": "node", "id": 296316354, "lat": 52.4240629, "lon": 13.4641666}, {"type": "node", "id": 296316356, "lat": 52.4242483, "lon": 13.4634176}, {"type": "node", "id": 296316358, "lat": 52.4250905, "lon": 13.4642756}, {"type": "node", "id": 296316366, "lat": 52.4239147, "lon": 13.4677796}, {"type": "node", "id": 296316383, "lat": 52.423869, "lon": 13.4686581}, {"type": "node", "id": 470471637, "lat": 52.4308875, "lon": 13.4561386, "tags": {"addr:city": "Berlin", "addr:housenumber": "200", "addr:postcode": "12351", "addr:street": "Johannisthaler Chaussee", "brand": "Aldi Nord", "brand:wikidata": "Q41171373", "brand:wikipedia": "en:Aldi", "level": "0", "name": "Aldi", "opening_hours": "Mo-Sa 07:00-21:00", "shop": "supermarket", "website": "https://www.aldi-nord.de/filialen-und-oeffnungszeiten.html/l/berlin/johannisthaler-chaussee-300/3181502", "wheelchair": "yes"}}, {"type": "node", "id": 472438976, "lat": 52.4266079, "lon": 13.4492259}, {"type": "node", "id": 472438977, "lat": 52.426286, "lon": 13.4483592}, {"type": "node", "id": 472438978, "lat": 52.4263977, "lon": 13.4482608}, {"type": "node", "id": 472438979, "lat": 52.4264154, "lon": 13.4483169}, {"type": "node", "id": 472438980, "lat": 52.426676, "lon": 13.4480954}, {"type": "node", "id": 472438981, "lat": 52.4266971, "lon": 13.4481635}, {"type": "node", "id": 472438982, "lat": 52.4267417, "lon": 13.4481249}, {"type": "node", "id": 472438983, "lat": 52.4267717, "lon": 13.4482176}, {"type": "node", "id": 472438984, "lat": 52.4268672, "lon": 13.448341}, {"type": "node", "id": 472438985, "lat": 52.4268875, "lon": 13.4484099}, {"type": "node", "id": 561192745, "lat": 52.4298011, "lon": 13.4535591}, {"type": "node", "id": 561192800, "lat": 52.4309216, "lon": 13.451335}, {"type": "node", "id": 609142032, "lat": 52.4292565, "lon": 13.4536256, "tags": {"addr:housenumber": "321", "addr:street": "Johannisthaler Chaussee", "amenity": "pharmacy", "check_date": "2023-07-14", "dispensing": "yes", "drive_through": "no", "healthcare": "pharmacy", "internet_access": "no", "level": "0", "name": "Elch Apotheke", "opening_hours": "Mo-Fr 08:00-20:00; Sa 09:00-20:00", "phone": "+49 30 60258313", "wheelchair": "yes"}}, {"type": "node", "id": 609146610, "lat": 52.42958, "lon": 13.4570794, "tags": {"addr:city": "Berlin", "addr:country": "DE", "addr:housenumber": "40", "addr:postcode": "12353", "addr:street": "Imbuschweg", "addr:suburb": "Gropiusstadt", "amenity": "pharmacy", "dispensing": "yes", "healthcare": "pharmacy", "name": "Gropius-Apotheke", "wheelchair": "yes"}}, {"type": "node", "id": 614447157, "lat": 52.4288209, "lon": 13.4507496}, {"type": "node", "id": 618561236, "lat": 52.4318489, "lon": 13.4488455}, {"type": "node", "id": 618561237, "lat": 52.4315183, "lon": 13.4487046}, {"type": "node", "id": 623938841, "lat": 52.425184, "lon": 13.4616332}, {"type": "node", "id": 623938848, "lat": 52.424906, "lon": 13.4614302}, {"type": "node", "id": 643227698, "lat": 52.4297551, "lon": 13.4547802, "tags": {"amenity": "fast_food", "brand": "Burgermeister", "brand:wikidata": "Q116382535", "check_date": "2025-02-27", "cuisine": "burger", "name": "Burgermeister", "takeaway": "yes", "wheelchair": "yes"}}, {"type": "node", "id": 651979089, "lat": 52.4260946, "lon": 13.4488927}, {"type": "node", "id": 651979090, "lat": 52.4261191, "lon": 13.4489602}, {"type": "node", "id": 651979091, "lat": 52.426261, "lon": 13.4487301}, {"type": "node", "id": 651979104, "lat": 52.4264904, "lon": 13.4493604}, {"type": "node", "id": 652427986, "lat": 52.4211007, "lon": 13.4624926}, {"type": "node", "id": 652427988, "lat": 52.4232743, "lon": 13.4667136}, {"type": "node", "id": 668662500, "lat": 52.4261847, "lon": 13.4588811}, {"type": "node", "id": 733902771, "lat": 52.4254275, "lon": 13.4630198, "tags": {"addr:city": "Berlin", "addr:country": "DE", "addr:housenumber": "68", "addr:postcode": "12353", "addr:street": "Lipschitzallee", "addr:suburb": "Gropiusstadt", "amenity": "pharmacy", "check_date": "2021-09-21", "dispensing": "yes", "healthcare": "pharmacy", "name": "Centrum Apotheke", "wheelchair": "yes"}}, {"type": "node", "id": 742015724, "lat": 52.4248862, "lon": 13.4621873, "tags": {"amenity": "fast_food", "check_date": "2023-07-19", "cuisine": "kebab;asian;chicken", "name": "By Murat & Okis", "outdoor_seating": "yes", "wheelchair": "yes"}}, {"type": "node", "id": 742015772, "lat": 52.4250012, "lon": 13.4632617, "tags": {"amenity": "cafe", "check_date": "2021-09-21", "name": "Caf\u00e9 Happiness", "outdoor_seating": "yes", "wheelchair": "yes"}}, {"type": "node", "id": 763461886, "lat": 52.4259282, "lon": 13.4618926}, {"type": "node", "id": 763461888, "lat": 52.4261929, "lon": 13.4624986}, {"type": "node", "id": 1208812455, "lat": 52.421321, "lon": 13.4615624}, {"type": "node", "id": 1208812581, "lat": 52.4212292, "lon": 13.461955}, {"type": "node", "id": 1208812607, "lat": 52.4209208, "lon": 13.4620631}, {"type": "node", "id": 1387006744, "lat": 52.4268793, "lon": 13.4723591}, {"type": "node", "id": 1387022219, "lat": 52.4206894, "lon": 13.4700588}, {"type": "node", "id": 1445349945, "lat": 52.4262335, "lon": 13.4624319}, {"type": "node", "id": 1519869574, "lat": 52.4351798, "lon": 13.4501284}, {"type": "node", "id": 1519869578, "lat": 52.4354608, "lon": 13.4498435}, {"type": "node", "id": 1520204193, "lat": 52.4322652, "lon": 13.4604431, "tags": {"addr:street": "Johannisthaler Chaussee", "amenity": "fast_food", "check_date": "2024-11-30", "check_date:diet:halal": "2024-11-30", "check_date:diet:kosher": "2024-11-30", "check_date:diet:vegetarian": "2024-11-30", "cuisine": "greek", "diet:halal": "no", "diet:kosher": "no", "diet:vegetarian": "yes", "indoor_seating": "no", "name": "Gyros Express", "opening_hours:signed": "no", "outdoor_seating": "terrace", "wheelchair": "yes"}}, {"type": "node", "id": 1520204198, "lat": 52.4286988, "lon": 13.4508578}, {"type": "node", "id": 1520204222, "lat": 52.4302392, "lon": 13.4520056}, {"type": "node", "id": 1520204241, "lat": 52.4306268, "lon": 13.4516167}, {"type": "node", "id": 1520224559, "lat": 52.4357362, "lon": 13.4495614}, {"type": "node", "id": 1890237746, "lat": 52.419826, "lon": 13.4786745}, {"type": "node", "id": 1890237747, "lat": 52.4198335, "lon": 13.4786319}, {"type": "node", "id": 1890237749, "lat": 52.4198354, "lon": 13.4787182}, {"type": "node", "id": 1890237751, "lat": 52.4198464, "lon": 13.4786061}, {"type": "node", "id": 1890237753, "lat": 52.4198522, "lon": 13.4787376}, {"type": "node", "id": 1890237755, "lat": 52.4198767, "lon": 13.4785941}, {"type": "node", "id": 1890237758, "lat": 52.4198781, "lon": 13.4787433}, {"type": "node", "id": 1890237764, "lat": 52.4201061, "lon": 13.4797664}, {"type": "node", "id": 1890237767, "lat": 52.4201125, "lon": 13.4797275}, {"type": "node", "id": 1890237784, "lat": 52.4201088, "lon": 13.4798028}, {"type": "node", "id": 1890237787, "lat": 52.4201315, "lon": 13.4797011}, {"type": "node", "id": 1890237789, "lat": 52.4201309, "lon": 13.4798338}, {"type": "node", "id": 1890237801, "lat": 52.4201569, "lon": 13.4798405}, {"type": "node", "id": 1890237803, "lat": 52.4201577, "lon": 13.4796973}, {"type": "node", "id": 1890424985, "lat": 52.4218574, "lon": 13.4747825}, {"type": "node", "id": 1890424986, "lat": 52.4218615, "lon": 13.475067}, {"type": "node", "id": 1890424987, "lat": 52.4220197, "lon": 13.4747762}, {"type": "node", "id": 1890424989, "lat": 52.4220234, "lon": 13.4750353}, {"type": "node", "id": 1895187303, "lat": 52.4233107, "lon": 13.4794476, "tags": {"barrier": "gate"}}, {"type": "node", "id": 1917378553, "lat": 52.4242856, "lon": 13.4634411}, {"type": "node", "id": 1917378573, "lat": 52.4244964, "lon": 13.4636034, "tags": {"traffic_sign": "DE:240;258"}}, {"type": "node", "id": 1917419149, "lat": 52.4258248, "lon": 13.463326}, {"type": "node", "id": 1946125618, "lat": 52.4311649, "lon": 13.4696242, "tags": {"addr:city": "Berlin", "addr:country": "DE", "addr:housenumber": "42-43", "addr:postcode": "12351", "addr:street": "Hirtsieferzeile", "addr:suburb": "Gropiusstadt", "brand": "Nahkauf", "brand:wikidata": "Q57515238", "name": "Nahkauf", "opening_hours": "Mo-Sa 08:00-20:00", "phone": "+493061794522", "shop": "supermarket", "website": "https://nahkauf.de/maerkte/berlin-42612377-hoang-tung-le-hirtsieferzeile-42-43", "wheelchair": "yes"}}, {"type": "node", "id": 1995346085, "lat": 52.4230711, "lon": 13.4763895, "tags": {"addr:city": "Berlin", "addr:country": "DE", "addr:housenumber": "5", "addr:postcode": "12353", "addr:street": "Joachim-Gottschalk-Weg", "addr:suburb": "Gropiusstadt", "brand": "Aldi Nord", "brand:wikidata": "Q41171373", "check_date": "2024-03-02", "name": "Aldi", "opening_hours": "Mo-Sa 07:00-21:00", "shop": "supermarket", "website": "https://www.aldi-nord.de/filialen-und-oeffnungszeiten.html/l/berlin/joachim-gottschalk-weg-5/3182646", "wheelchair": "yes"}}, {"type": "node", "id": 1995346097, "lat": 52.4229979, "lon": 13.4762316, "tags": {"addr:city": "Berlin", "addr:country": "DE", "addr:housenumber": "23", "addr:postcode": "12353", "addr:street": "Joachim-Gottschalk-Weg", "addr:suburb": "Gropiusstadt", "brand": "Edeka", "brand:wikidata": "Q701755", "check_date:opening_hours": "2021-04-19", "name": "EDEKA", "opening_hours": "Mo-Sa 07:00-22:00", "shop": "supermarket", "wheelchair": "yes"}}, {"type": "node", "id": 2029248693, "lat": 52.4280228, "lon": 13.4680694, "tags": {"amenity": "fast_food", "indoor_seating": "yes", "name": "Lipschitzgrill", "outdoor_seating": "yes"}}, {"type": "node", "id": 2032185574, "lat": 52.4219874, "lon": 13.4772534}, {"type": "node", "id": 2032185678, "lat": 52.4245412, "lon": 13.4809112}, {"type": "node", "id": 2032185730, "lat": 52.4247417, "lon": 13.4831473}, {"type": "node", "id": 2039162001, "lat": 52.4227979, "lon": 13.4754642, "tags": {"amenity": "pharmacy", "dispensing": "yes", "email": "info@apo-wutzky.de", "fax": "+49 30/ 6 62 47 56", "healthcare": "pharmacy", "level": "0", "name": "Apotheke Wutzky-Center", "opening_hours": "Mo-Fr 08:30-19:00; Sa 08:00-16:00", "phone": "+49 30 6612674", "website": "https://www.apo-wutzky.de/", "wheelchair": "yes"}}, {"type": "node", "id": 2042441078, "lat": 52.4316522, "lon": 13.4587713}, {"type": "node", "id": 2042441082, "lat": 52.4315875, "lon": 13.4587129}, {"type": "node", "id": 2042441085, "lat": 52.4316277, "lon": 13.458683}, {"type": "node", "id": 2042441089, "lat": 52.4316119, "lon": 13.4588013}, {"type": "node", "id": 2045206104, "lat": 52.4226879, "lon": 13.479605, "tags": {"barrier": "gate"}}, {"type": "node", "id": 2045223683, "lat": 52.4236191, "lon": 13.4789181}, {"type": "node", "id": 2074394142, "lat": 52.4234536, "lon": 13.4813062}, {"type": "node", "id": 2088512274, "lat": 52.4246938, "lon": 13.4747651}, {"type": "node", "id": 2090041491, "lat": 52.4296472, "lon": 13.4655246, "tags": {"name": "aima Supermarkt", "shop": "supermarket"}}, {"type": "node", "id": 2090041505, "lat": 52.4284074, "lon": 13.4627634}, {"type": "node", "id": 2104391883, "lat": 52.4322379, "lon": 13.4682295, "tags": {"addr:city": "Berlin", "addr:country": "DE", "addr:housenumber": "34", "addr:postcode": "12351", "addr:street": "Goldammerstra\u00dfe", "amenity": "restaurant", "cuisine": "german", "name": "Jungfernm\u00fchle", "opening_hours": "Tu-Su 12:00-23:00", "website": "http://jungfernmuehle.de/index.php?id=home", "wikidata": "Q21176092"}}, {"type": "node", "id": 2275322108, "lat": 52.4232644, "lon": 13.4748672, "tags": {"addr:city": "Berlin", "addr:country": "DE", "addr:postcode": "12353", "addr:street": "Joachim-Gottschalk-Weg", "addr:suburb": "Gropiusstadt", "amenity": "restaurant", "cuisine": "sushi", "name": "Mama Dang", "opening_hours": "Tu-Su 10:00-22:00"}}, {"type": "node", "id": 2407649497, "lat": 52.4243183, "lon": 13.4611733}, {"type": "node", "id": 2515380347, "lat": 52.4304715, "lon": 13.4505831}, {"type": "node", "id": 2516420325, "lat": 52.4280312, "lon": 13.4491585}, {"type": "node", "id": 2642055411, "lat": 52.4231349, "lon": 13.4749346, "tags": {"amenity": "cafe", "name": "Diyar Simit Evi", "outdoor_seating": "yes", "toilets:wheelchair": "no", "wheelchair": "limited"}}, {"type": "node", "id": 2642056469, "lat": 52.4231562, "lon": 13.47554, "tags": {"amenity": "fast_food", "name": "Lara D\u00f6ner", "opening_hours": "Mo-Sa 08:00-00:00; Su 10:00-00:00", "phone": "+49 (0)30 917 077 67"}}, {"type": "node", "id": 2659342715, "lat": 52.4291134, "lon": 13.4565551, "tags": {"amenity": "fast_food", "name": "Thai-Nippon-Bar", "wheelchair": "yes"}}, {"type": "node", "id": 2659342722, "lat": 52.4292188, "lon": 13.4565581, "tags": {"amenity": "restaurant", "cuisine": "greek", "name": "Pan", "wheelchair": "limited"}}, {"type": "node", "id": 2659342728, "lat": 52.4293315, "lon": 13.4565524, "tags": {"amenity": "restaurant", "name": "Kropp", "wheelchair": "yes"}}, {"type": "node", "id": 2659342767, "lat": 52.429837, "lon": 13.4549574, "tags": {"addr:city": "Berlin", "addr:country": "DE", "addr:housenumber": "307", "addr:postcode": "12351", "addr:street": "Johannisthaler Chaussee", "addr:suburb": "Gropiusstadt", "amenity": "restaurant", "name": "Mendoza", "opening_hours": "08:00-22:00; Fr,Sa 08:00-23:00", "operator": "argentinisch", "phone": "+49 30 6033035", "toilets:wheelchair": "no", "website": "http://mendoza-berlin.de/", "wheelchair": "limited"}}, {"type": "node", "id": 2683662621, "lat": 52.4294768, "lon": 13.4553755, "tags": {"amenity": "cafe", "cuisine": "ice_cream", "name": "al teatro", "wheelchair": "limited"}}, {"type": "node", "id": 2756803967, "lat": 52.4331089, "lon": 13.4495239}, {"type": "node", "id": 2756803968, "lat": 52.4332954, "lon": 13.4493679}, {"type": "node", "id": 2756803972, "lat": 52.4335787, "lon": 13.4496807}, {"type": "node", "id": 2756803976, "lat": 52.4341394, "lon": 13.450156}, {"type": "node", "id": 2756803979, "lat": 52.4344201, "lon": 13.4501198}, {"type": "node", "id": 2756803980, "lat": 52.4348325, "lon": 13.4499406}, {"type": "node", "id": 2756803981, "lat": 52.4348844, "lon": 13.4503483}, {"type": "node", "id": 2756803982, "lat": 52.4349554, "lon": 13.4500795}, {"type": "node", "id": 2756803983, "lat": 52.4350865, "lon": 13.4503483}, {"type": "node", "id": 2756803987, "lat": 52.4357738, "lon": 13.4496594}, {"type": "node", "id": 2756803988, "lat": 52.4358492, "lon": 13.4499097}, {"type": "node", "id": 2866359090, "lat": 52.4289205, "lon": 13.4568296, "tags": {"amenity": "dentist", "healthcare": "dentist", "level": "2", "name": "Zahnklinik Gropius-Passagen", "website": "https://www.zahnklinik-berlin.info/", "wheelchair": "yes"}}, {"type": "node", "id": 2895325888, "lat": 52.4233556, "lon": 13.4797443}, {"type": "node", "id": 2904608126, "lat": 52.4231496, "lon": 13.4760864, "tags": {"addr:city": "Berlin", "addr:country": "DE", "addr:housenumber": "13", "addr:postcode": "12353", "addr:street": "Joachim-Gottschalk-Weg", "addr:suburb": "Gropiusstadt", "amenity": "dentist", "healthcare": "dentist", "level": "1", "name": "Torsten Beier"}}, {"type": "node", "id": 2904608127, "lat": 52.4231767, "lon": 13.4758916, "tags": {"addr:city": "Berlin", "addr:country": "DE", "addr:housenumber": "27", "addr:postcode": "12353", "addr:street": "Joachim-Gottschalk-Weg", "addr:suburb": "Gropiusstadt", "healthcare": "physiotherapist", "level": "-1", "name": "Physics GmbH"}}, {"type": "node", "id": 3168437878, "lat": 52.4260644, "lon": 13.4642284}, {"type": "node", "id": 3168437907, "lat": 52.42615, "lon": 13.464472}, {"type": "node", "id": 3168437926, "lat": 52.4261891, "lon": 13.4640238}, {"type": "node", "id": 3168437949, "lat": 52.4263096, "lon": 13.4647297}, {"type": "node", "id": 3168438083, "lat": 52.4263949, "lon": 13.4647667}, {"type": "node", "id": 3168438084, "lat": 52.4264144, "lon": 13.4643922}, {"type": "node", "id": 3168438095, "lat": 52.4264331, "lon": 13.4643605}, {"type": "node", "id": 3168438141, "lat": 52.4266059, "lon": 13.4646048}, {"type": "node", "id": 3168438145, "lat": 52.4266125, "lon": 13.4643634}, {"type": "node", "id": 3168439372, "lat": 52.4277248, "lon": 13.465846}, {"type": "node", "id": 3168439377, "lat": 52.4277331, "lon": 13.4658327}, {"type": "node", "id": 3168439463, "lat": 52.4278123, "lon": 13.4659657}, {"type": "node", "id": 3634983558, "lat": 52.4254298, "lon": 13.4610165}, {"type": "node", "id": 3634983560, "lat": 52.42583, "lon": 13.4610306}, {"type": "node", "id": 3763057344, "lat": 52.4226979, "lon": 13.4795397}, {"type": "node", "id": 3763057347, "lat": 52.4227439, "lon": 13.4794856}, {"type": "node", "id": 3763057348, "lat": 52.4227733, "lon": 13.4798447}, {"type": "node", "id": 3763057349, "lat": 52.4227913, "lon": 13.4797725}, {"type": "node", "id": 3763057352, "lat": 52.4230523, "lon": 13.47989}, {"type": "node", "id": 3763057353, "lat": 52.4230545, "lon": 13.4792675}, {"type": "node", "id": 3763057354, "lat": 52.4231953, "lon": 13.4797849}, {"type": "node", "id": 3763057355, "lat": 52.4232281, "lon": 13.4791637}, {"type": "node", "id": 3763057356, "lat": 52.4232428, "lon": 13.4798524}, {"type": "node", "id": 3763083242, "lat": 52.4202438, "lon": 13.4711039}, {"type": "node", "id": 3763083249, "lat": 52.4204552, "lon": 13.4704559}, {"type": "node", "id": 3763083966, "lat": 52.4206833, "lon": 13.4714003}, {"type": "node", "id": 3763083983, "lat": 52.4210786, "lon": 13.4707597}, {"type": "node", "id": 3763083984, "lat": 52.4210825, "lon": 13.4706205}, {"type": "node", "id": 3763083986, "lat": 52.4211078, "lon": 13.4704837}, {"type": "node", "id": 3763083992, "lat": 52.4211525, "lon": 13.4705043}, {"type": "node", "id": 3763084005, "lat": 52.4211894, "lon": 13.4708127}, {"type": "node", "id": 3763084006, "lat": 52.4212013, "lon": 13.4705437}, {"type": "node", "id": 3763084010, "lat": 52.4212659, "lon": 13.4707532}, {"type": "node", "id": 3763084012, "lat": 52.4212777, "lon": 13.47062}, {"type": "node", "id": 3763084015, "lat": 52.4212981, "lon": 13.4707046}, {"type": "node", "id": 3763094758, "lat": 52.4232689, "lon": 13.4784909}, {"type": "node", "id": 3763094759, "lat": 52.4233143, "lon": 13.4798571}, {"type": "node", "id": 3763094760, "lat": 52.4233703, "lon": 13.4795642}, {"type": "node", "id": 3787393657, "lat": 52.428457, "lon": 13.4534098}, {"type": "node", "id": 3787393658, "lat": 52.4286723, "lon": 13.4538488}, {"type": "node", "id": 3787393659, "lat": 52.4286744, "lon": 13.4544535}, {"type": "node", "id": 3787393660, "lat": 52.4278066, "lon": 13.4557756}, {"type": "node", "id": 3787393661, "lat": 52.4281896, "lon": 13.4563969}, {"type": "node", "id": 3787393662, "lat": 52.4258233, "lon": 13.4605685}, {"type": "node", "id": 3787393665, "lat": 52.4254703, "lon": 13.4598822}, {"type": "node", "id": 4134264589, "lat": 52.4294092, "lon": 13.4699872, "tags": {"addr:city": "Berlin", "addr:housenumber": "20/22", "addr:postcode": "12351", "addr:street": "Lipschitzallee", "amenity": "doctors", "contact:phone": "+49 30 6032055;+49 30 6614636", "description:de": "Kernspintomogtaphie (MRT)", "healthcare": "centre", "healthcare:speciality": "radiology", "name": "Gesundheitszentrum Radiologie"}}, {"type": "node", "id": 4140923299, "lat": 52.430313, "lon": 13.4507564}, {"type": "node", "id": 4140923302, "lat": 52.4305334, "lon": 13.4517067}, {"type": "node", "id": 4935091671, "lat": 52.4233426, "lon": 13.4744028, "tags": {"amenity": "fast_food", "cuisine": "asian", "name": "Ni Hao", "opening_hours": "Mo-Sa 11:00-21:00; Su,PH 12:00-21:00", "outdoor_seating": "yes", "wheelchair": "yes"}}, {"type": "node", "id": 5002709890, "lat": 52.4251569, "lon": 13.4743258}, {"type": "node", "id": 5002709891, "lat": 52.4248731, "lon": 13.4758415}, {"type": "node", "id": 5002709892, "lat": 52.424391, "lon": 13.475754}, {"type": "node", "id": 5002709893, "lat": 52.4243848, "lon": 13.4743576}, {"type": "node", "id": 5002709894, "lat": 52.424524, "lon": 13.474767}, {"type": "node", "id": 5002709895, "lat": 52.4245272, "lon": 13.4755446}, {"type": "node", "id": 5002709896, "lat": 52.4245964, "lon": 13.4755439}, {"type": "node", "id": 5002709897, "lat": 52.4245957, "lon": 13.4753685}, {"type": "node", "id": 5002709898, "lat": 52.4246963, "lon": 13.4753674}, {"type": "node", "id": 5008762609, "lat": 52.4219886, "lon": 13.4775652}, {"type": "node", "id": 5008762610, "lat": 52.4216862, "lon": 13.4775683}, {"type": "node", "id": 5008762611, "lat": 52.4216854, "lon": 13.4773491}, {"type": "node", "id": 5008762612, "lat": 52.4217804, "lon": 13.4773481}, {"type": "node", "id": 5008762613, "lat": 52.42178, "lon": 13.4772555}, {"type": "node", "id": 5068595862, "lat": 52.4244396, "lon": 13.4655983}, {"type": "node", "id": 5068595863, "lat": 52.4241561, "lon": 13.4655918}, {"type": "node", "id": 5068595864, "lat": 52.4241033, "lon": 13.4660374}, {"type": "node", "id": 5068595865, "lat": 52.4239624, "lon": 13.4660811}, {"type": "node", "id": 5068595866, "lat": 52.4239184, "lon": 13.4665146}, {"type": "node", "id": 5068595867, "lat": 52.4240501, "lon": 13.4665091}, {"type": "node", "id": 5068595868, "lat": 52.4240193, "lon": 13.4667742}, {"type": "node", "id": 5089487582, "lat": 52.4236526, "lon": 13.4833878, "tags": {"addr:city": "Berlin", "addr:country": "DE", "addr:housenumber": "6", "addr:postcode": "12353", "addr:street": "Zwickauer Damm", "addr:suburb": "Gropiusstadt", "healthcare": "speech_therapist", "name": "Praxis Merve GmbH f\u00fcr Ergotherapie und Logop\u00e4die", "wheelchair": "yes"}}, {"type": "node", "id": 5089487585, "lat": 52.4236665, "lon": 13.4831282}, {"type": "node", "id": 5089487586, "lat": 52.4236096, "lon": 13.4831303}, {"type": "node", "id": 5089487587, "lat": 52.4236059, "lon": 13.4828676}, {"type": "node", "id": 5089487588, "lat": 52.4236629, "lon": 13.4828654}, {"type": "node", "id": 5091709117, "lat": 52.4234631, "lon": 13.4608316}, {"type": "node", "id": 5091709118, "lat": 52.423357, "lon": 13.4607721}, {"type": "node", "id": 5091709119, "lat": 52.4233923, "lon": 13.4606035}, {"type": "node", "id": 5091709120, "lat": 52.4234985, "lon": 13.460663}, {"type": "node", "id": 5091709225, "lat": 52.4273131, "lon": 13.4559765}, {"type": "node", "id": 5091709226, "lat": 52.4269225, "lon": 13.4566826}, {"type": "node", "id": 5091709354, "lat": 52.4272541, "lon": 13.4546312}, {"type": "node", "id": 5091709355, "lat": 52.4271607, "lon": 13.4546303}, {"type": "node", "id": 5091709356, "lat": 52.4271612, "lon": 13.4543585}, {"type": "node", "id": 5091709357, "lat": 52.4272536, "lon": 13.4543558}, {"type": "node", "id": 5091709358, "lat": 52.4262546, "lon": 13.454118}, {"type": "node", "id": 5091709359, "lat": 52.4261803, "lon": 13.4541142}, {"type": "node", "id": 5091709360, "lat": 52.426183, "lon": 13.453974}, {"type": "node", "id": 5091709361, "lat": 52.4262572, "lon": 13.4539778}, {"type": "node", "id": 5091709362, "lat": 52.4275737, "lon": 13.4535009}, {"type": "node", "id": 5091709363, "lat": 52.4273438, "lon": 13.4534211}, {"type": "node", "id": 5091709364, "lat": 52.4275366, "lon": 13.4530762}, {"type": "node", "id": 5091709365, "lat": 52.4276392, "lon": 13.4530715}, {"type": "node", "id": 5091709366, "lat": 52.426386, "lon": 13.4559538}, {"type": "node", "id": 5091709367, "lat": 52.4262555, "lon": 13.4559532}, {"type": "node", "id": 5091709368, "lat": 52.426256, "lon": 13.4556446}, {"type": "node", "id": 5091709369, "lat": 52.4263865, "lon": 13.4556452}, {"type": "node", "id": 5091709370, "lat": 52.4243993, "lon": 13.457791}, {"type": "node", "id": 5091709371, "lat": 52.4242292, "lon": 13.4576939}, {"type": "node", "id": 5091709372, "lat": 52.4242824, "lon": 13.4574446}, {"type": "node", "id": 5091709373, "lat": 52.4244525, "lon": 13.4575418}, {"type": "node", "id": 5091709374, "lat": 52.4252112, "lon": 13.4581188}, {"type": "node", "id": 5091709375, "lat": 52.424935, "lon": 13.4579374}, {"type": "node", "id": 5091709376, "lat": 52.4249523, "lon": 13.4578797}, {"type": "node", "id": 5091709377, "lat": 52.4252639, "lon": 13.4578886}, {"type": "node", "id": 5091709378, "lat": 52.4247945, "lon": 13.4599299}, {"type": "node", "id": 5091709379, "lat": 52.4247117, "lon": 13.4599148}, {"type": "node", "id": 5091709380, "lat": 52.424645, "lon": 13.4595328}, {"type": "node", "id": 5091709381, "lat": 52.4247101, "lon": 13.4593791}, {"type": "node", "id": 5091709382, "lat": 52.4248442, "lon": 13.459471}, {"type": "node", "id": 5091709385, "lat": 52.4263854, "lon": 13.4594301}, {"type": "node", "id": 5091709386, "lat": 52.4262884, "lon": 13.4594344}, {"type": "node", "id": 5091709388, "lat": 52.4260633, "lon": 13.4594408}, {"type": "node", "id": 5091709389, "lat": 52.426053, "lon": 13.4588841}, {"type": "node", "id": 5091709391, "lat": 52.4261837, "lon": 13.4587882}, {"type": "node", "id": 5091709392, "lat": 52.4263679, "lon": 13.4587776}, {"type": "node", "id": 5091709399, "lat": 52.4251438, "lon": 13.460784}, {"type": "node", "id": 5091709400, "lat": 52.4257766, "lon": 13.4591176}, {"type": "node", "id": 5091709401, "lat": 52.4258952, "lon": 13.458889}, {"type": "node", "id": 5091709497, "lat": 52.427666, "lon": 13.4553732}, {"type": "node", "id": 5091709498, "lat": 52.4270073, "lon": 13.4565268}, {"type": "node", "id": 5091709499, "lat": 52.4266336, "lon": 13.4572482}, {"type": "node", "id": 5091709501, "lat": 52.4258744, "lon": 13.4572506}, {"type": "node", "id": 5091709772, "lat": 52.4257626, "lon": 13.457465}, {"type": "node", "id": 5091709773, "lat": 52.4257371, "lon": 13.4553757}, {"type": "node", "id": 5204341286, "lat": 52.429759, "lon": 13.4529567}, {"type": "node", "id": 5204341287, "lat": 52.429825, "lon": 13.4529788}, {"type": "node", "id": 5204341288, "lat": 52.4297317, "lon": 13.4528796}, {"type": "node", "id": 5204341289, "lat": 52.4296887, "lon": 13.4528637}, {"type": "node", "id": 5204341290, "lat": 52.4296052, "lon": 13.4529553}, {"type": "node", "id": 5204341302, "lat": 52.4298484, "lon": 13.4529933}, {"type": "node", "id": 5204342594, "lat": 52.4297987, "lon": 13.4529137}, {"type": "node", "id": 5204342595, "lat": 52.4297853, "lon": 13.4530219}, {"type": "node", "id": 5204342596, "lat": 52.4296225, "lon": 13.4529983}, {"type": "node", "id": 5204342601, "lat": 52.4297347, "lon": 13.4526992}, {"type": "node", "id": 5275084676, "lat": 52.4304719, "lon": 13.4504673}, {"type": "node", "id": 5275084694, "lat": 52.4304729, "lon": 13.4509481}, {"type": "node", "id": 5275086971, "lat": 52.4300756, "lon": 13.4532412}, {"type": "node", "id": 5275086972, "lat": 52.4307481, "lon": 13.4525176}, {"type": "node", "id": 5275086979, "lat": 52.4306769, "lon": 13.4525981}, {"type": "node", "id": 5275086980, "lat": 52.4297522, "lon": 13.4525355}, {"type": "node", "id": 5275086982, "lat": 52.430361, "lon": 13.4529237}, {"type": "node", "id": 5275115802, "lat": 52.4285068, "lon": 13.4483742}, {"type": "node", "id": 5275115803, "lat": 52.4282312, "lon": 13.4486769}, {"type": "node", "id": 5275115804, "lat": 52.4288373, "lon": 13.4485856}, {"type": "node", "id": 5275115805, "lat": 52.4292472, "lon": 13.4490671}, {"type": "node", "id": 5275115806, "lat": 52.4294119, "lon": 13.4490643}, {"type": "node", "id": 5275115807, "lat": 52.429789, "lon": 13.4490604}, {"type": "node", "id": 5275115808, "lat": 52.4304696, "lon": 13.4493749}, {"type": "node", "id": 5275115809, "lat": 52.4294133, "lon": 13.449394}, {"type": "node", "id": 5275115810, "lat": 52.4292472, "lon": 13.4493996}, {"type": "node", "id": 5275115811, "lat": 52.4282319, "lon": 13.4489382}, {"type": "node", "id": 5284602697, "lat": 52.4250404, "lon": 13.4748905}, {"type": "node", "id": 5284602698, "lat": 52.4249746, "lon": 13.4752095}, {"type": "node", "id": 5284602699, "lat": 52.4250991, "lon": 13.4751278}, {"type": "node", "id": 5284602700, "lat": 52.4248899, "lon": 13.4754037}, {"type": "node", "id": 5284602701, "lat": 52.424869, "lon": 13.475495}, {"type": "node", "id": 5349979743, "lat": 52.426511, "lon": 13.4492715}, {"type": "node", "id": 5349979744, "lat": 52.426472, "lon": 13.4493097}, {"type": "node", "id": 5349979745, "lat": 52.4264703, "lon": 13.4491595}, {"type": "node", "id": 5349979746, "lat": 52.426431, "lon": 13.4491979}, {"type": "node", "id": 5349979747, "lat": 52.4263238, "lon": 13.4495233}, {"type": "node", "id": 5349979755, "lat": 52.4268688, "lon": 13.4485288}, {"type": "node", "id": 5349979757, "lat": 52.4269864, "lon": 13.448901}, {"type": "node", "id": 5349979758, "lat": 52.4264264, "lon": 13.4487788}, {"type": "node", "id": 5349979759, "lat": 52.4264118, "lon": 13.4487341}, {"type": "node", "id": 5349979761, "lat": 52.4264612, "lon": 13.4487483}, {"type": "node", "id": 5349979762, "lat": 52.4264756, "lon": 13.448807}, {"type": "node", "id": 5349979763, "lat": 52.4264051, "lon": 13.4487396}, {"type": "node", "id": 5509054988, "lat": 52.4262985, "lon": 13.4593612, "tags": {"access": "yes", "barrier": "gate"}}, {"type": "node", "id": 5599290161, "lat": 52.4249063, "lon": 13.4699876}, {"type": "node", "id": 5599290162, "lat": 52.424763, "lon": 13.4699902}, {"type": "node", "id": 5599290169, "lat": 52.4247653, "lon": 13.4702104}, {"type": "node", "id": 5599290170, "lat": 52.4249069, "lon": 13.4702061}, {"type": "node", "id": 5599290176, "lat": 52.4258657, "lon": 13.4680892}, {"type": "node", "id": 5599290177, "lat": 52.425852, "lon": 13.4681789}, {"type": "node", "id": 5599290178, "lat": 52.4258814, "lon": 13.4682247}, {"type": "node", "id": 5599290179, "lat": 52.4258814, "lon": 13.4682681}, {"type": "node", "id": 5599290180, "lat": 52.4258657, "lon": 13.4682784}, {"type": "node", "id": 5599290181, "lat": 52.4258674, "lon": 13.4684467}, {"type": "node", "id": 5599290182, "lat": 52.4258127, "lon": 13.4684887}, {"type": "node", "id": 5599290183, "lat": 52.4257785, "lon": 13.4683163}, {"type": "node", "id": 5599290184, "lat": 52.4257375, "lon": 13.4682616}, {"type": "node", "id": 5599290185, "lat": 52.4256067, "lon": 13.4682995}, {"type": "node", "id": 5599290186, "lat": 52.4255579, "lon": 13.4683892}, {"type": "node", "id": 5599290187, "lat": 52.425481, "lon": 13.4683009}, {"type": "node", "id": 5599290188, "lat": 52.4254656, "lon": 13.4681733}, {"type": "node", "id": 5599290189, "lat": 52.4254887, "lon": 13.4680976}, {"type": "node", "id": 5599290190, "lat": 52.4255571, "lon": 13.4681803}, {"type": "node", "id": 5599290191, "lat": 52.4256537, "lon": 13.4681481}, {"type": "node", "id": 5599290192, "lat": 52.4257169, "lon": 13.468106}, {"type": "node", "id": 5599290193, "lat": 52.4257443, "lon": 13.4680766}, {"type": "node", "id": 5599290194, "lat": 52.4258289, "lon": 13.4680275}, {"type": "node", "id": 5599290197, "lat": 52.4249952, "lon": 13.4675946}, {"type": "node", "id": 5599290200, "lat": 52.425054, "lon": 13.4678294}, {"type": "node", "id": 5599290202, "lat": 52.425053, "lon": 13.4678826}, {"type": "node", "id": 5599290203, "lat": 52.425026, "lon": 13.467881}, {"type": "node", "id": 5599290204, "lat": 52.4250243, "lon": 13.4679755}, {"type": "node", "id": 5599290205, "lat": 52.4248883, "lon": 13.4679725}, {"type": "node", "id": 5599290206, "lat": 52.4247442, "lon": 13.4679467}, {"type": "node", "id": 5599290207, "lat": 52.424743, "lon": 13.4677956}, {"type": "node", "id": 5599290208, "lat": 52.4248573, "lon": 13.4677204}, {"type": "node", "id": 5599290209, "lat": 52.4248565, "lon": 13.4675783}, {"type": "node", "id": 5599290213, "lat": 52.4270329, "lon": 13.4724071}, {"type": "node", "id": 5599290214, "lat": 52.4270223, "lon": 13.4723395}, {"type": "node", "id": 5599290216, "lat": 52.4269811, "lon": 13.47223}, {"type": "node", "id": 5599290217, "lat": 52.4269294, "lon": 13.4722384}, {"type": "node", "id": 5599290218, "lat": 52.426918, "lon": 13.4722539}, {"type": "node", "id": 5599290219, "lat": 52.4269036, "lon": 13.4723377}, {"type": "node", "id": 5840066667, "lat": 52.4211126, "lon": 13.463117}, {"type": "node", "id": 5840066668, "lat": 52.4210558, "lon": 13.4633534}, {"type": "node", "id": 5840066669, "lat": 52.420919, "lon": 13.4622846}, {"type": "node", "id": 5840066670, "lat": 52.4208933, "lon": 13.4620727}, {"type": "node", "id": 5840066673, "lat": 52.4214611, "lon": 13.4616089}, {"type": "node", "id": 5844175958, "lat": 52.4332343, "lon": 13.4496329}, {"type": "node", "id": 5844175963, "lat": 52.4330154, "lon": 13.4493776}, {"type": "node", "id": 5844175964, "lat": 52.4330163, "lon": 13.4496106}, {"type": "node", "id": 5844175965, "lat": 52.4330153, "lon": 13.4496586}, {"type": "node", "id": 5844175966, "lat": 52.4330052, "lon": 13.4497185}, {"type": "node", "id": 5844175967, "lat": 52.432978, "lon": 13.4497928}, {"type": "node", "id": 5844175968, "lat": 52.4329258, "lon": 13.4498533}, {"type": "node", "id": 5844175969, "lat": 52.4328749, "lon": 13.449875}, {"type": "node", "id": 5844175970, "lat": 52.4324591, "lon": 13.4498728}, {"type": "node", "id": 5844175971, "lat": 52.4324626, "lon": 13.4500864}, {"type": "node", "id": 5844175972, "lat": 52.4321464, "lon": 13.4499756}, {"type": "node", "id": 5844175973, "lat": 52.431911, "lon": 13.4490674}, {"type": "node", "id": 6320266644, "lat": 52.4317601, "lon": 13.4490149}, {"type": "node", "id": 6320266645, "lat": 52.4317569, "lon": 13.4496119}, {"type": "node", "id": 6320266646, "lat": 52.4319763, "lon": 13.4504327}, {"type": "node", "id": 6320266648, "lat": 52.4306662, "lon": 13.4505813}, {"type": "node", "id": 6320266649, "lat": 52.4306662, "lon": 13.4504667}, {"type": "node", "id": 6320266918, "lat": 52.4296523, "lon": 13.4531994}, {"type": "node", "id": 6321656270, "lat": 52.4257396, "lon": 13.451666}, {"type": "node", "id": 6321656273, "lat": 52.4253705, "lon": 13.4494703}, {"type": "node", "id": 6321656274, "lat": 52.4253484, "lon": 13.4493588}, {"type": "node", "id": 6321656275, "lat": 52.4253053, "lon": 13.4492232}, {"type": "node", "id": 6321656276, "lat": 52.4252815, "lon": 13.4491668}, {"type": "node", "id": 6331602046, "lat": 52.4332444, "lon": 13.4505842}, {"type": "node", "id": 6331602047, "lat": 52.4321959, "lon": 13.4512652}, {"type": "node", "id": 6331602879, "lat": 52.4366479, "lon": 13.4509153}, {"type": "node", "id": 6331673723, "lat": 52.422883, "lon": 13.4626863}, {"type": "node", "id": 6331673724, "lat": 52.4225971, "lon": 13.4635463}, {"type": "node", "id": 6331673725, "lat": 52.4224696, "lon": 13.4635263}, {"type": "node", "id": 6331673726, "lat": 52.4224466, "lon": 13.462834}, {"type": "node", "id": 6331673729, "lat": 52.422566, "lon": 13.4624585}, {"type": "node", "id": 6331673744, "lat": 52.421887, "lon": 13.466485}, {"type": "node", "id": 6331673745, "lat": 52.4218678, "lon": 13.4658792}, {"type": "node", "id": 6331673746, "lat": 52.4218105, "lon": 13.4653579}, {"type": "node", "id": 6331673747, "lat": 52.4216664, "lon": 13.4645926}, {"type": "node", "id": 6331673748, "lat": 52.4215934, "lon": 13.4641976}, {"type": "node", "id": 6331673749, "lat": 52.421527, "lon": 13.4635985}, {"type": "node", "id": 6331673750, "lat": 52.4215116, "lon": 13.4631409}, {"type": "node", "id": 6375908171, "lat": 52.4296279, "lon": 13.457071, "tags": {"addr:housenumber": "40", "addr:street": "Imbuschweg", "amenity": "doctors", "check_date": "2023-07-14", "email": "info@haut-gropius.de", "fax": "+493066620090", "healthcare": "doctor", "healthcare:speciality": "dermatology", "name": "Dr. Stavermann & Kollegen", "opening_hours": "Mo, Tu 10:00-13:00, 15:00-18:00; Th 10:00-13:00, 15:00-19:00; Fr 10:00-14:00", "phone": "+49306037708", "website": "https://www.haut-gropius.de/", "wheelchair": "yes"}}, {"type": "node", "id": 6394388989, "lat": 52.4245289, "lon": 13.4653427}, {"type": "node", "id": 6394388990, "lat": 52.4244679, "lon": 13.4654756}, {"type": "node", "id": 6436483118, "lat": 52.4232948, "lon": 13.4644617}, {"type": "node", "id": 6436483119, "lat": 52.4232455, "lon": 13.4643883}, {"type": "node", "id": 6436483120, "lat": 52.4232994, "lon": 13.464155}, {"type": "node", "id": 6436483121, "lat": 52.4234127, "lon": 13.4640266}, {"type": "node", "id": 6436483122, "lat": 52.4235703, "lon": 13.4641308}, {"type": "node", "id": 6764205004, "lat": 52.4257146, "lon": 13.45297}, {"type": "node", "id": 6764205005, "lat": 52.4257375, "lon": 13.4553028}, {"type": "node", "id": 6764214748, "lat": 52.4286305, "lon": 13.4624318}, {"type": "node", "id": 6764214749, "lat": 52.4285236, "lon": 13.4626075}, {"type": "node", "id": 6764214750, "lat": 52.4281379, "lon": 13.4619774}, {"type": "node", "id": 6764214751, "lat": 52.4277177, "lon": 13.4612988}, {"type": "node", "id": 6764214752, "lat": 52.4278253, "lon": 13.4611197}, {"type": "node", "id": 6764255116, "lat": 52.4267602, "lon": 13.4591506}, {"type": "node", "id": 6764255117, "lat": 52.4267754, "lon": 13.4590983}, {"type": "node", "id": 6764255118, "lat": 52.4267508, "lon": 13.4592106}, {"type": "node", "id": 6764255119, "lat": 52.4267534, "lon": 13.4592982}, {"type": "node", "id": 6764255120, "lat": 52.426769, "lon": 13.4593782}, {"type": "node", "id": 6764255121, "lat": 52.4267934, "lon": 13.4594361}, {"type": "node", "id": 6764255122, "lat": 52.4277327, "lon": 13.4609684}, {"type": "node", "id": 6764255123, "lat": 52.4276739, "lon": 13.4610656}, {"type": "node", "id": 6764255124, "lat": 52.427594, "lon": 13.4610971}, {"type": "node", "id": 6764255125, "lat": 52.4274529, "lon": 13.4608639}, {"type": "node", "id": 6764255126, "lat": 52.4273968, "lon": 13.4608035}, {"type": "node", "id": 6764255127, "lat": 52.4273522, "lon": 13.4607686}, {"type": "node", "id": 6764255128, "lat": 52.4272821, "lon": 13.4607346}, {"type": "node", "id": 6764255129, "lat": 52.4272297, "lon": 13.4607269}, {"type": "node", "id": 6764255130, "lat": 52.4269843, "lon": 13.4607295}, {"type": "node", "id": 6764255131, "lat": 52.4269838, "lon": 13.4600198}, {"type": "node", "id": 6764255132, "lat": 52.4269662, "lon": 13.4599875}, {"type": "node", "id": 6764255133, "lat": 52.4269148, "lon": 13.45999}, {"type": "node", "id": 6764255134, "lat": 52.4267451, "lon": 13.4597101}, {"type": "node", "id": 6764255135, "lat": 52.4267026, "lon": 13.4596667}, {"type": "node", "id": 6764255136, "lat": 52.4266496, "lon": 13.4596446}, {"type": "node", "id": 6764255137, "lat": 52.4265988, "lon": 13.459648}, {"type": "node", "id": 6764255138, "lat": 52.4265477, "lon": 13.4596777}, {"type": "node", "id": 6764255140, "lat": 52.4273323, "lon": 13.4559474}, {"type": "node", "id": 6764255141, "lat": 52.4271692, "lon": 13.458258}, {"type": "node", "id": 6764255142, "lat": 52.4274864, "lon": 13.4576377}, {"type": "node", "id": 6764255143, "lat": 52.4261588, "lon": 13.4605162}, {"type": "node", "id": 6764255144, "lat": 52.4262086, "lon": 13.4605184}, {"type": "node", "id": 6764255145, "lat": 52.4261595, "lon": 13.4605816}, {"type": "node", "id": 6764255146, "lat": 52.4262052, "lon": 13.4602235}, {"type": "node", "id": 6764255147, "lat": 52.4265114, "lon": 13.4597186}, {"type": "node", "id": 6764255148, "lat": 52.426809, "lon": 13.4590165}, {"type": "node", "id": 6764255149, "lat": 52.425306, "lon": 13.4613036}, {"type": "node", "id": 6764255151, "lat": 52.4255551, "lon": 13.4596428}, {"type": "node", "id": 7382754552, "lat": 52.4342927, "lon": 13.4547033, "tags": {"amenity": "cafe", "diet:vegetarian": "yes", "indoor_seating": "yes", "internet_access": "no", "name": "Fritz Erler Treff", "opening_hours": "Mo-Sa 05:00-18:00; Su 05:00-16:00", "outdoor_seating": "sidewalk", "outdoor_seating:comfort": "cushion_chair", "smoking": "outside", "toilets:wheelchair": "no", "wheelchair": "yes"}}, {"type": "node", "id": 7382754564, "lat": 52.4321926, "lon": 13.4513793, "tags": {"leisure": "playground"}}, {"type": "node", "id": 7382754571, "lat": 52.4342671, "lon": 13.4552477, "tags": {"amenity": "bar", "name": "Schnabels Klause", "wheelchair": "no"}}, {"type": "node", "id": 7476846911, "lat": 52.4270067, "lon": 13.4486107, "tags": {"amenity": "fast_food", "cuisine": "kebab", "name": "D\u00f6ner Insel"}}, {"type": "node", "id": 7613414195, "lat": 52.4264935, "lon": 13.4630492, "tags": {"access": "yes", "barrier": "gate"}}, {"type": "node", "id": 7613414203, "lat": 52.4266282, "lon": 13.4628591}, {"type": "node", "id": 7613414204, "lat": 52.4265013, "lon": 13.4630623}, {"type": "node", "id": 7613414205, "lat": 52.4264407, "lon": 13.4629604}, {"type": "node", "id": 7613414206, "lat": 52.4265675, "lon": 13.4627573}, {"type": "node", "id": 7613414216, "lat": 52.42739, "lon": 13.4631256}, {"type": "node", "id": 7613414227, "lat": 52.4273026, "lon": 13.4629087}, {"type": "node", "id": 7613414236, "lat": 52.4274956, "lon": 13.4619524}, {"type": "node", "id": 7613414238, "lat": 52.4279147, "lon": 13.4624107}, {"type": "node", "id": 7613414239, "lat": 52.427448, "lon": 13.4632141}, {"type": "node", "id": 7613414240, "lat": 52.4273405, "lon": 13.4630499}, {"type": "node", "id": 7613414241, "lat": 52.4273059, "lon": 13.4629698}, {"type": "node", "id": 7613414242, "lat": 52.4273015, "lon": 13.4628876}, {"type": "node", "id": 7613414243, "lat": 52.4274391, "lon": 13.4622197}, {"type": "node", "id": 7613414244, "lat": 52.4275282, "lon": 13.4617983}, {"type": "node", "id": 7613414245, "lat": 52.4219192, "lon": 13.4736671}, {"type": "node", "id": 7613414246, "lat": 52.4218325, "lon": 13.473665}, {"type": "node", "id": 7613414247, "lat": 52.4218337, "lon": 13.4735343}, {"type": "node", "id": 7613414248, "lat": 52.4219204, "lon": 13.4735365}, {"type": "node", "id": 7613414347, "lat": 52.4204928, "lon": 13.4714201}, {"type": "node", "id": 7613414348, "lat": 52.4205083, "lon": 13.4713921}, {"type": "node", "id": 7858496999, "lat": 52.4340281, "lon": 13.4544563, "tags": {"access": "private", "leisure": "playground"}}, {"type": "node", "id": 8044108285, "lat": 52.4241134, "lon": 13.4850099, "tags": {"amenity": "fast_food", "check_date": "2023-07-23", "indoor_seating": "yes", "name": "Istanbul Grillhaus", "outdoor_seating": "yes"}}, {"type": "node", "id": 8078033559, "lat": 52.4264117, "lon": 13.4598827}, {"type": "node", "id": 8078071056, "lat": 52.4251251, "lon": 13.4615901}, {"type": "node", "id": 8078071057, "lat": 52.4250877, "lon": 13.4617428}, {"type": "node", "id": 8078071062, "lat": 52.4259362, "lon": 13.4628243}, {"type": "node", "id": 8078071089, "lat": 52.4251316, "lon": 13.4618025}, {"type": "node", "id": 8078071090, "lat": 52.4251458, "lon": 13.461779}, {"type": "node", "id": 8078071091, "lat": 52.4251384, "lon": 13.4617696}, {"type": "node", "id": 8078071092, "lat": 52.4251559, "lon": 13.4617412}, {"type": "node", "id": 8078071093, "lat": 52.4251486, "lon": 13.4617294}, {"type": "node", "id": 8078071094, "lat": 52.4251968, "lon": 13.461654}, {"type": "node", "id": 8078071095, "lat": 52.4252659, "lon": 13.4615048}, {"type": "node", "id": 8078071096, "lat": 52.4252451, "lon": 13.4614746}, {"type": "node", "id": 8078071097, "lat": 52.4253273, "lon": 13.4613398}, {"type": "node", "id": 8078071241, "lat": 52.4258304, "lon": 13.4639858}, {"type": "node", "id": 8206943968, "lat": 52.4302697, "lon": 13.4666}, {"type": "node", "id": 8206943969, "lat": 52.4304537, "lon": 13.4668494}, {"type": "node", "id": 8206943970, "lat": 52.4303096, "lon": 13.4671253}, {"type": "node", "id": 8206943971, "lat": 52.4302262, "lon": 13.4670306}, {"type": "node", "id": 8206943972, "lat": 52.4301765, "lon": 13.4669205}, {"type": "node", "id": 8206943973, "lat": 52.4301511, "lon": 13.466832}, {"type": "node", "id": 8207045217, "lat": 52.4302076, "lon": 13.4669757}, {"type": "node", "id": 8222407138, "lat": 52.4351073, "lon": 13.4508049}, {"type": "node", "id": 8222407139, "lat": 52.4348678, "lon": 13.4507914}, {"type": "node", "id": 8222407140, "lat": 52.4348653, "lon": 13.4510145}, {"type": "node", "id": 8222407141, "lat": 52.4351056, "lon": 13.4510253}, {"type": "node", "id": 8222407204, "lat": 52.4352729, "lon": 13.4500326}, {"type": "node", "id": 8222407206, "lat": 52.4353585, "lon": 13.4499445}, {"type": "node", "id": 8768658947, "lat": 52.4253328, "lon": 13.4493048}, {"type": "node", "id": 8768658951, "lat": 52.4256924, "lon": 13.4515971}, {"type": "node", "id": 8768658952, "lat": 52.4256557, "lon": 13.4515353}, {"type": "node", "id": 8821785486, "lat": 52.4366233, "lon": 13.4509765}, {"type": "node", "id": 8821785487, "lat": 52.4365935, "lon": 13.4510442}, {"type": "node", "id": 8821785488, "lat": 52.4365358, "lon": 13.4511501}, {"type": "node", "id": 8821785489, "lat": 52.4365011, "lon": 13.4511977}, {"type": "node", "id": 8821785491, "lat": 52.4353368, "lon": 13.4504132}, {"type": "node", "id": 8821785492, "lat": 52.4355674, "lon": 13.4504963}, {"type": "node", "id": 8821785493, "lat": 52.4364349, "lon": 13.4512879}, {"type": "node", "id": 8821785494, "lat": 52.4354214, "lon": 13.4508893}, {"type": "node", "id": 8821785495, "lat": 52.4351017, "lon": 13.4507904}, {"type": "node", "id": 8821785496, "lat": 52.4348133, "lon": 13.4507394}, {"type": "node", "id": 8821785497, "lat": 52.4340116, "lon": 13.4505899}, {"type": "node", "id": 8821785498, "lat": 52.4336654, "lon": 13.4505215}, {"type": "node", "id": 8821785499, "lat": 52.4336024, "lon": 13.4505096}, {"type": "node", "id": 8821785500, "lat": 52.4335174, "lon": 13.4505121}, {"type": "node", "id": 8821785501, "lat": 52.433474, "lon": 13.4505145}, {"type": "node", "id": 8821785502, "lat": 52.4334025, "lon": 13.4505274}, {"type": "node", "id": 8821785503, "lat": 52.4333779, "lon": 13.4505337}, {"type": "node", "id": 8821785504, "lat": 52.4333267, "lon": 13.45055}, {"type": "node", "id": 8823752846, "lat": 52.4233328, "lon": 13.4705929}, {"type": "node", "id": 8823752847, "lat": 52.4232366, "lon": 13.4721432}, {"type": "node", "id": 8823752848, "lat": 52.4232504, "lon": 13.4717306}, {"type": "node", "id": 8823752849, "lat": 52.423279, "lon": 13.471251}, {"type": "node", "id": 8823752850, "lat": 52.4234077, "lon": 13.4696768}, {"type": "node", "id": 8823752851, "lat": 52.4234353, "lon": 13.4693232}, {"type": "node", "id": 8823752852, "lat": 52.4234432, "lon": 13.4691677}, {"type": "node", "id": 8823752853, "lat": 52.4234459, "lon": 13.4689566}, {"type": "node", "id": 8823752854, "lat": 52.4234406, "lon": 13.4687637}, {"type": "node", "id": 8823752855, "lat": 52.4234308, "lon": 13.4686347}, {"type": "node", "id": 8823752857, "lat": 52.4237635, "lon": 13.4695916}, {"type": "node", "id": 8823752858, "lat": 52.4236917, "lon": 13.4695803}, {"type": "node", "id": 8823752859, "lat": 52.4234681, "lon": 13.4715724}, {"type": "node", "id": 8823752860, "lat": 52.4234432, "lon": 13.4718244}, {"type": "node", "id": 8823752861, "lat": 52.4234205, "lon": 13.4721328}, {"type": "node", "id": 8823752862, "lat": 52.4234099, "lon": 13.4723995}, {"type": "node", "id": 8823752863, "lat": 52.4234067, "lon": 13.4726071}, {"type": "node", "id": 8823752864, "lat": 52.4234072, "lon": 13.4732153}, {"type": "node", "id": 8823752865, "lat": 52.4232615, "lon": 13.4732066}, {"type": "node", "id": 8823752866, "lat": 52.423216, "lon": 13.4731293}, {"type": "node", "id": 8851799381, "lat": 52.4229516, "lon": 13.4794263}, {"type": "node", "id": 8851799383, "lat": 52.4232791, "lon": 13.4792224}, {"type": "node", "id": 8851799385, "lat": 52.4231469, "lon": 13.4791883}, {"type": "node", "id": 8907782178, "lat": 52.4307546, "lon": 13.4516163}, {"type": "node", "id": 8907782185, "lat": 52.4308923, "lon": 13.4516844}, {"type": "node", "id": 8907782186, "lat": 52.4308357, "lon": 13.4517508}, {"type": "node", "id": 8907782191, "lat": 52.430916, "lon": 13.4516369}, {"type": "node", "id": 8907782199, "lat": 52.4307552, "lon": 13.4515833}, {"type": "node", "id": 8907782200, "lat": 52.4308558, "lon": 13.4513979}, {"type": "node", "id": 8907782207, "lat": 52.430756, "lon": 13.4515315}, {"type": "node", "id": 8907816326, "lat": 52.4307548, "lon": 13.4516069, "tags": {"access": "yes", "barrier": "gate"}}, {"type": "node", "id": 8907816327, "lat": 52.4311003, "lon": 13.4511715}, {"type": "node", "id": 8907816328, "lat": 52.4315588, "lon": 13.4507744}, {"type": "node", "id": 8907816329, "lat": 52.4312903, "lon": 13.4510052}, {"type": "node", "id": 8907816330, "lat": 52.4307567, "lon": 13.4514927}, {"type": "node", "id": 8907816331, "lat": 52.4307524, "lon": 13.4517464}, {"type": "node", "id": 8907816332, "lat": 52.4308051, "lon": 13.4517418}, {"type": "node", "id": 8907816333, "lat": 52.4308573, "lon": 13.451757}, {"type": "node", "id": 8907816334, "lat": 52.4308955, "lon": 13.4516777, "tags": {"access": "yes", "barrier": "gate"}}, {"type": "node", "id": 8907816335, "lat": 52.4309347, "lon": 13.4515995}, {"type": "node", "id": 8907816336, "lat": 52.4309908, "lon": 13.4514982}, {"type": "node", "id": 9048100512, "lat": 52.4260599, "lon": 13.4592556}, {"type": "node", "id": 9048100514, "lat": 52.4262219, "lon": 13.458786, "tags": {"access": "yes", "barrier": "gate"}}, {"type": "node", "id": 9048127104, "lat": 52.4262877, "lon": 13.4593614}, {"type": "node", "id": 9048127107, "lat": 52.4263281, "lon": 13.4593606}, {"type": "node", "id": 9048127108, "lat": 52.4263297, "lon": 13.4594323}, {"type": "node", "id": 9097286548, "lat": 52.421546, "lon": 13.4698666}, {"type": "node", "id": 9097286549, "lat": 52.4213569, "lon": 13.4698715}, {"type": "node", "id": 9097286550, "lat": 52.4213547, "lon": 13.4696476}, {"type": "node", "id": 9097286551, "lat": 52.4215438, "lon": 13.4696428}, {"type": "node", "id": 9097302998, "lat": 52.4213753, "lon": 13.463504}, {"type": "node", "id": 9097302999, "lat": 52.4215169, "lon": 13.4633745}, {"type": "node", "id": 9097303000, "lat": 52.4215437, "lon": 13.4638174}, {"type": "node", "id": 9097303001, "lat": 52.4217096, "lon": 13.4648108}, {"type": "node", "id": 9097303002, "lat": 52.4217499, "lon": 13.4650161}, {"type": "node", "id": 9097303003, "lat": 52.4218529, "lon": 13.4656915}, {"type": "node", "id": 9097303004, "lat": 52.4213689, "lon": 13.4632536}, {"type": "node", "id": 9097303005, "lat": 52.4213927, "lon": 13.4638048}, {"type": "node", "id": 9097303006, "lat": 52.421454, "lon": 13.4642707}, {"type": "node", "id": 9097303007, "lat": 52.4215312, "lon": 13.4646838}, {"type": "node", "id": 9097303008, "lat": 52.4216625, "lon": 13.4653542}, {"type": "node", "id": 9097303009, "lat": 52.4217136, "lon": 13.4657447}, {"type": "node", "id": 9097303010, "lat": 52.4217412, "lon": 13.466064}, {"type": "node", "id": 9097303011, "lat": 52.4217494, "lon": 13.4663975}, {"type": "node", "id": 9097303012, "lat": 52.4217435, "lon": 13.4666363}, {"type": "node", "id": 9097303013, "lat": 52.4218889, "lon": 13.4662978}, {"type": "node", "id": 9097303014, "lat": 52.4218802, "lon": 13.4660447}, {"type": "node", "id": 9114707013, "lat": 52.4244704, "lon": 13.4635834}, {"type": "node", "id": 9114707014, "lat": 52.4243067, "lon": 13.4634573}, {"type": "node", "id": 9114707015, "lat": 52.425873, "lon": 13.4619768}, {"type": "node", "id": 9114715417, "lat": 52.425838, "lon": 13.4633046}, {"type": "node", "id": 9114715484, "lat": 52.4235258, "lon": 13.4663185}, {"type": "node", "id": 9114715486, "lat": 52.4238202, "lon": 13.4651491}, {"type": "node", "id": 9114715488, "lat": 52.4237254, "lon": 13.4655205}, {"type": "node", "id": 9114715512, "lat": 52.4249294, "lon": 13.4640098}, {"type": "node", "id": 9114715513, "lat": 52.4247621, "lon": 13.4638345}, {"type": "node", "id": 9114715587, "lat": 52.4259127, "lon": 13.4605823}, {"type": "node", "id": 9114715685, "lat": 52.4258258, "lon": 13.4634637}, {"type": "node", "id": 9114715687, "lat": 52.4260326, "lon": 13.4629813}, {"type": "node", "id": 9114715835, "lat": 52.4258265, "lon": 13.4607884, "tags": {"access": "yes", "barrier": "gate"}}, {"type": "node", "id": 9114715898, "lat": 52.4258326, "lon": 13.4613112}, {"type": "node", "id": 9114715917, "lat": 52.4255707, "lon": 13.4610214, "tags": {"access": "yes", "barrier": "gate"}}, {"type": "node", "id": 9114716017, "lat": 52.4280923, "lon": 13.4562415}, {"type": "node", "id": 9114716032, "lat": 52.4268304, "lon": 13.4594963}, {"type": "node", "id": 9114716060, "lat": 52.4280806, "lon": 13.4541382}, {"type": "node", "id": 9114716061, "lat": 52.4282156, "lon": 13.4536799}, {"type": "node", "id": 9114716062, "lat": 52.4282817, "lon": 13.4536227}, {"type": "node", "id": 9114716063, "lat": 52.4283445, "lon": 13.453554}, {"type": "node", "id": 9114716064, "lat": 52.4280803, "lon": 13.4537493}, {"type": "node", "id": 9114716065, "lat": 52.4282542, "lon": 13.4544692}, {"type": "node", "id": 9114716079, "lat": 52.4258759, "lon": 13.4605766}, {"type": "node", "id": 9739994695, "lat": 52.4240939, "lon": 13.4667735}, {"type": "node", "id": 9739994696, "lat": 52.4240973, "lon": 13.4678209}, {"type": "node", "id": 9926695257, "lat": 52.4247782, "lon": 13.4611645, "tags": {"healthcare": "physiotherapist"}}, {"type": "node", "id": 9970175988, "lat": 52.4203547, "lon": 13.4750297}, {"type": "node", "id": 9970175989, "lat": 52.4203593, "lon": 13.4758852}, {"type": "node", "id": 9970175990, "lat": 52.4201337, "lon": 13.4758884}, {"type": "node", "id": 9970175991, "lat": 52.4201291, "lon": 13.4750329}, {"type": "node", "id": 9974869737, "lat": 52.4204077, "lon": 13.4774173}, {"type": "node", "id": 9974869738, "lat": 52.4204079, "lon": 13.4775595}, {"type": "node", "id": 9974869739, "lat": 52.4201961, "lon": 13.4775605}, {"type": "node", "id": 9974869740, "lat": 52.4201958, "lon": 13.4774183}, {"type": "node", "id": 9974869743, "lat": 52.4198886, "lon": 13.4768039}, {"type": "node", "id": 9974869744, "lat": 52.4198882, "lon": 13.4768898}, {"type": "node", "id": 9974869745, "lat": 52.4197279, "lon": 13.4768878}, {"type": "node", "id": 9974869746, "lat": 52.4197283, "lon": 13.4768019}, {"type": "node", "id": 9974869750, "lat": 52.4206203, "lon": 13.477264, "tags": {"addr:city": "Berlin", "addr:country": "DE", "addr:housenumber": "31", "addr:postcode": "12353", "addr:street": "Theodor-Loos-Weg", "addr:suburb": "Gropiusstadt", "amenity": "cafe", "contact:facebook": "https://www.facebook.com/susamcafeberlin/", "contact:mobile": "+49 1578 5095810", "cuisine": "breakfast;turkish", "internet_access": "wlan", "internet_access:fee": "no", "name": "Susam Caf\u00e9 & Fr\u00fchst\u00fcckshaus"}}, {"type": "node", "id": 10128144905, "lat": 52.4258754, "lon": 13.4645823}, {"type": "node", "id": 10128144906, "lat": 52.4258768, "lon": 13.4646789}, {"type": "node", "id": 10128144907, "lat": 52.4258398, "lon": 13.4646804}, {"type": "node", "id": 10139329805, "lat": 52.4274175, "lon": 13.4721704}, {"type": "node", "id": 10139329806, "lat": 52.4272536, "lon": 13.4721585}, {"type": "node", "id": 10139329807, "lat": 52.4272564, "lon": 13.4720528}, {"type": "node", "id": 10139329808, "lat": 52.4274204, "lon": 13.4720647}, {"type": "node", "id": 10139399349, "lat": 52.4270404, "lon": 13.4725379}, {"type": "node", "id": 10139399354, "lat": 52.4270452, "lon": 13.4725364}, {"type": "node", "id": 10139399355, "lat": 52.427049, "lon": 13.4725278}, {"type": "node", "id": 10139399356, "lat": 52.4270495, "lon": 13.4725173}, {"type": "node", "id": 10139399357, "lat": 52.4270461, "lon": 13.4725106}, {"type": "node", "id": 10139399358, "lat": 52.4270405, "lon": 13.4725029}, {"type": "node", "id": 10139399359, "lat": 52.4270283, "lon": 13.4724938}, {"type": "node", "id": 10139399360, "lat": 52.4270238, "lon": 13.472477}, {"type": "node", "id": 10139399361, "lat": 52.4270254, "lon": 13.4724529}, {"type": "node", "id": 10139399362, "lat": 52.4269001, "lon": 13.4723605}, {"type": "node", "id": 10139399363, "lat": 52.4269098, "lon": 13.4722968}, {"type": "node", "id": 10139399364, "lat": 52.426944, "lon": 13.4722221}, {"type": "node", "id": 10139399365, "lat": 52.426956, "lon": 13.4722153}, {"type": "node", "id": 10139399366, "lat": 52.4270312, "lon": 13.4723733}, {"type": "node", "id": 10139399367, "lat": 52.4270151, "lon": 13.4723164}, {"type": "node", "id": 10139399368, "lat": 52.4269866, "lon": 13.4722413}, {"type": "node", "id": 10139399369, "lat": 52.4269682, "lon": 13.4722184}, {"type": "node", "id": 10139399380, "lat": 52.4268753, "lon": 13.4725255}, {"type": "node", "id": 10139399429, "lat": 52.4261761, "lon": 13.471576}, {"type": "node", "id": 10139399430, "lat": 52.4261318, "lon": 13.471556}, {"type": "node", "id": 10139399431, "lat": 52.426161, "lon": 13.4716657}, {"type": "node", "id": 10139399432, "lat": 52.4261618, "lon": 13.4716796}, {"type": "node", "id": 10139399433, "lat": 52.4261651, "lon": 13.4716905}, {"type": "node", "id": 10139399434, "lat": 52.4261915, "lon": 13.4717345}, {"type": "node", "id": 10139399435, "lat": 52.4261659, "lon": 13.4718866}, {"type": "node", "id": 10139399436, "lat": 52.4260825, "lon": 13.4718489}, {"type": "node", "id": 10209095188, "lat": 52.4223161, "lon": 13.4647243}, {"type": "node", "id": 10209095189, "lat": 52.4223351, "lon": 13.4650311}, {"type": "node", "id": 10209095190, "lat": 52.4220865, "lon": 13.4650723}, {"type": "node", "id": 10209095191, "lat": 52.4220675, "lon": 13.4647656}, {"type": "node", "id": 10209209309, "lat": 52.4215246, "lon": 13.462801}, {"type": "node", "id": 10209209310, "lat": 52.4214782, "lon": 13.4629058}, {"type": "node", "id": 10223172492, "lat": 52.4234141, "lon": 13.4762413}, {"type": "node", "id": 10223172493, "lat": 52.4232649, "lon": 13.4762398}, {"type": "node", "id": 10223172494, "lat": 52.4227029, "lon": 13.4784918}, {"type": "node", "id": 10223172495, "lat": 52.4227039, "lon": 13.4790183}, {"type": "node", "id": 10223172496, "lat": 52.4223785, "lon": 13.479021}, {"type": "node", "id": 10223172497, "lat": 52.4224004, "lon": 13.4792305}, {"type": "node", "id": 10223172498, "lat": 52.4224102, "lon": 13.4793649}, {"type": "node", "id": 10223172499, "lat": 52.4224145, "lon": 13.4795484}, {"type": "node", "id": 10223172500, "lat": 52.4224131, "lon": 13.4797264}, {"type": "node", "id": 10223172501, "lat": 52.4223987, "lon": 13.4799759}, {"type": "node", "id": 10223172502, "lat": 52.4234351, "lon": 13.4799745}, {"type": "node", "id": 10223172503, "lat": 52.423477, "lon": 13.4810832}, {"type": "node", "id": 10223172504, "lat": 52.4235968, "lon": 13.4810837}, {"type": "node", "id": 10223172505, "lat": 52.4234694, "lon": 13.4777875}, {"type": "node", "id": 10223408184, "lat": 52.4286816, "lon": 13.4538739}, {"type": "node", "id": 10223408185, "lat": 52.4286841, "lon": 13.4539197}, {"type": "node", "id": 10223408186, "lat": 52.42837, "lon": 13.4548948}, {"type": "node", "id": 10223408187, "lat": 52.4281034, "lon": 13.4553026}, {"type": "node", "id": 10223408188, "lat": 52.4281611, "lon": 13.453719}, {"type": "node", "id": 10223465817, "lat": 52.4296945, "lon": 13.452605}, {"type": "node", "id": 10251590762, "lat": 52.4257644, "lon": 13.4576606}, {"type": "node", "id": 10251590763, "lat": 52.4257044, "lon": 13.4521637}, {"type": "node", "id": 10251590764, "lat": 52.425695, "lon": 13.4519735}, {"type": "node", "id": 10251590765, "lat": 52.4256721, "lon": 13.4517549}, {"type": "node", "id": 10251590766, "lat": 52.4258085, "lon": 13.4518712}, {"type": "node", "id": 10251590768, "lat": 52.4258309, "lon": 13.4532196}, {"type": "node", "id": 10251590769, "lat": 52.4258309, "lon": 13.4532979}, {"type": "node", "id": 10251590770, "lat": 52.4258504, "lon": 13.4548623}, {"type": "node", "id": 10251590771, "lat": 52.4258638, "lon": 13.4559167}, {"type": "node", "id": 10251590772, "lat": 52.4258677, "lon": 13.4566709}, {"type": "node", "id": 10251604363, "lat": 52.425787, "lon": 13.451708}, {"type": "node", "id": 10251604364, "lat": 52.425636, "lon": 13.4514549}, {"type": "node", "id": 10251604365, "lat": 52.4254248, "lon": 13.4489601}, {"type": "node", "id": 10815869135, "lat": 52.4240304, "lon": 13.4849421, "tags": {"amenity": "bar", "name": "Relax"}}, {"type": "node", "id": 10847045633, "lat": 52.4247448, "lon": 13.4835603}, {"type": "node", "id": 10847045634, "lat": 52.4246396, "lon": 13.4835625}, {"type": "node", "id": 10847045635, "lat": 52.4246366, "lon": 13.4831494}, {"type": "node", "id": 10847049161, "lat": 52.4235511, "lon": 13.4789168}, {"type": "node", "id": 10847049162, "lat": 52.4235525, "lon": 13.4787072}, {"type": "node", "id": 10847049163, "lat": 52.4236206, "lon": 13.4787085}, {"type": "node", "id": 10847056377, "lat": 52.4283041, "lon": 13.4629332}, {"type": "node", "id": 10847056378, "lat": 52.4281775, "lon": 13.4627259}, {"type": "node", "id": 10847056379, "lat": 52.4282808, "lon": 13.4625561}, {"type": "node", "id": 10847056672, "lat": 52.4234574, "lon": 13.4817605}, {"type": "node", "id": 10847056673, "lat": 52.4233045, "lon": 13.481764}, {"type": "node", "id": 10847056674, "lat": 52.4233006, "lon": 13.4813097}, {"type": "node", "id": 10847060846, "lat": 52.4245976, "lon": 13.4806634}, {"type": "node", "id": 10847060847, "lat": 52.4245748, "lon": 13.4806272}, {"type": "node", "id": 10847060848, "lat": 52.4245461, "lon": 13.480605}, {"type": "node", "id": 10847060849, "lat": 52.4245146, "lon": 13.4805994}, {"type": "node", "id": 10847060850, "lat": 52.4244837, "lon": 13.4806108}, {"type": "node", "id": 10847060851, "lat": 52.4244567, "lon": 13.4806381}, {"type": "node", "id": 10847060852, "lat": 52.4244254, "lon": 13.480727}, {"type": "node", "id": 10847060853, "lat": 52.4244246, "lon": 13.480779}, {"type": "node", "id": 10847060854, "lat": 52.4244341, "lon": 13.4808286}, {"type": "node", "id": 10847060855, "lat": 52.4244529, "lon": 13.4808705}, {"type": "node", "id": 10847060856, "lat": 52.424479, "lon": 13.4809}, {"type": "node", "id": 10847060857, "lat": 52.4245095, "lon": 13.4809141}, {"type": "node", "id": 10847060858, "lat": 52.4244365, "lon": 13.4806783}, {"type": "node", "id": 10847060859, "lat": 52.4245706, "lon": 13.4808916}, {"type": "node", "id": 10847060860, "lat": 52.4245945, "lon": 13.4808574}, {"type": "node", "id": 10847060861, "lat": 52.4246103, "lon": 13.4808123}, {"type": "node", "id": 10847060862, "lat": 52.4246163, "lon": 13.4807613}, {"type": "node", "id": 10847060863, "lat": 52.4246119, "lon": 13.4807098}, {"type": "node", "id": 10847063340, "lat": 52.4211715, "lon": 13.46238}, {"type": "node", "id": 10847063341, "lat": 52.421167, "lon": 13.4623463}, {"type": "node", "id": 10847063342, "lat": 52.4211562, "lon": 13.4623166}, {"type": "node", "id": 10847063343, "lat": 52.4210476, "lon": 13.4624339}, {"type": "node", "id": 10847063344, "lat": 52.4210608, "lon": 13.4624631}, {"type": "node", "id": 10847063345, "lat": 52.4210792, "lon": 13.4624835}, {"type": "node", "id": 10847063346, "lat": 52.4211402, "lon": 13.462294}, {"type": "node", "id": 10847063347, "lat": 52.4211207, "lon": 13.462281}, {"type": "node", "id": 10847063348, "lat": 52.4210997, "lon": 13.4622788}, {"type": "node", "id": 10847063349, "lat": 52.4210793, "lon": 13.4622876}, {"type": "node", "id": 10847063350, "lat": 52.4210618, "lon": 13.4623066}, {"type": "node", "id": 10847063351, "lat": 52.4210488, "lon": 13.4623338}, {"type": "node", "id": 10847063352, "lat": 52.4210417, "lon": 13.4623664}, {"type": "node", "id": 10847063353, "lat": 52.4210413, "lon": 13.4624009}, {"type": "node", "id": 10847063354, "lat": 52.4211229, "lon": 13.4624893}, {"type": "node", "id": 10847063355, "lat": 52.421143, "lon": 13.4624742}, {"type": "node", "id": 10847063356, "lat": 52.421159, "lon": 13.4624488}, {"type": "node", "id": 10847063357, "lat": 52.4211688, "lon": 13.4624162}, {"type": "node", "id": 10877852111, "lat": 52.422995, "lon": 13.4818973}, {"type": "node", "id": 10877852112, "lat": 52.4229931, "lon": 13.4811467}, {"type": "node", "id": 10877852113, "lat": 52.4231788, "lon": 13.4811456}, {"type": "node", "id": 10877852114, "lat": 52.4231805, "lon": 13.4818962}, {"type": "node", "id": 10963465496, "lat": 52.4277053, "lon": 13.4658549}, {"type": "node", "id": 10963465497, "lat": 52.4276756, "lon": 13.4658345}, {"type": "node", "id": 10963465498, "lat": 52.4276337, "lon": 13.4657987}, {"type": "node", "id": 10963465499, "lat": 52.4276321, "lon": 13.4657411}, {"type": "node", "id": 10963465500, "lat": 52.4276112, "lon": 13.4656826}, {"type": "node", "id": 10963465501, "lat": 52.4275704, "lon": 13.4656469}, {"type": "node", "id": 10963465502, "lat": 52.4275055, "lon": 13.4656721}, {"type": "node", "id": 10963465503, "lat": 52.4274746, "lon": 13.4657771}, {"type": "node", "id": 10963465504, "lat": 52.4274903, "lon": 13.465854}, {"type": "node", "id": 10963471188, "lat": 52.4270122, "lon": 13.4496993}, {"type": "node", "id": 10963471189, "lat": 52.4270838, "lon": 13.4496995}, {"type": "node", "id": 10963471190, "lat": 52.4270835, "lon": 13.4499129}, {"type": "node", "id": 10963471191, "lat": 52.4270119, "lon": 13.4499126}, {"type": "node", "id": 10963483405, "lat": 52.42743, "lon": 13.4659431}, {"type": "node", "id": 10963483406, "lat": 52.4276028, "lon": 13.4662574}, {"type": "node", "id": 10963483407, "lat": 52.4276654, "lon": 13.4662672}, {"type": "node", "id": 10963483408, "lat": 52.4274788, "lon": 13.4658176}, {"type": "node", "id": 10963483409, "lat": 52.4274781, "lon": 13.4657374}, {"type": "node", "id": 10963483410, "lat": 52.4274888, "lon": 13.4657013}, {"type": "node", "id": 10963483411, "lat": 52.4275254, "lon": 13.4656535}, {"type": "node", "id": 10963483412, "lat": 52.4275476, "lon": 13.4656449}, {"type": "node", "id": 10963483413, "lat": 52.4275924, "lon": 13.4656598}, {"type": "node", "id": 10963483414, "lat": 52.427624, "lon": 13.4657096}, {"type": "node", "id": 10963483415, "lat": 52.4276348, "lon": 13.4657697}, {"type": "node", "id": 10963483507, "lat": 52.4261401, "lon": 13.4507792}, {"type": "node", "id": 10963483508, "lat": 52.4260541, "lon": 13.450779}, {"type": "node", "id": 10963483509, "lat": 52.4260542, "lon": 13.4506593}, {"type": "node", "id": 10963483510, "lat": 52.4259735, "lon": 13.4506592}, {"type": "node", "id": 10963483511, "lat": 52.4259733, "lon": 13.4508855}, {"type": "node", "id": 10963483512, "lat": 52.42614, "lon": 13.4508859}, {"type": "node", "id": 11007214352, "lat": 52.4275489, "lon": 13.4720224}, {"type": "node", "id": 11007214386, "lat": 52.4278171, "lon": 13.4720784}, {"type": "node", "id": 11007214387, "lat": 52.4278496, "lon": 13.4718229}, {"type": "node", "id": 11007214388, "lat": 52.4275824, "lon": 13.4717209}, {"type": "node", "id": 11011811034, "lat": 52.4241823, "lon": 13.4849339, "tags": {"amenity": "cafe", "check_date": "2023-07-23", "indoor_seating": "yes", "name": "Express", "outdoor_seating": "yes"}}, {"type": "node", "id": 11020839094, "lat": 52.427526, "lon": 13.4694299, "tags": {"amenity": "restaurant", "name": "Feierwelle", "phone": "+49 (0)177 / 310 03 14", "website": "https://feierwelle.de/", "wheelchair": "yes"}}, {"type": "node", "id": 11020871705, "lat": 52.4268363, "lon": 13.4709982, "tags": {"amenity": "fast_food", "seasonal": "yes"}}, {"type": "node", "id": 11050939819, "lat": 52.4258351, "lon": 13.4646256}, {"type": "node", "id": 11050939823, "lat": 52.425839, "lon": 13.4646286}, {"type": "node", "id": 11050939824, "lat": 52.4258383, "lon": 13.4645837}, {"type": "node", "id": 11050975041, "lat": 52.4306952, "lon": 13.4696742}, {"type": "node", "id": 11050975042, "lat": 52.4302664, "lon": 13.4696699}, {"type": "node", "id": 11050975043, "lat": 52.4302608, "lon": 13.4700728}, {"type": "node", "id": 11050975044, "lat": 52.4306994, "lon": 13.4700821}, {"type": "node", "id": 11055086473, "lat": 52.4247245, "lon": 13.4623007, "tags": {"amenity": "fast_food", "check_date": "2023-07-19", "cuisine": "kebab;pizza", "name": "L.A. Foods"}}, {"type": "node", "id": 11077773859, "lat": 52.4250863, "lon": 13.4777285}, {"type": "node", "id": 11077773860, "lat": 52.4249603, "lon": 13.4777234}, {"type": "node", "id": 11077773861, "lat": 52.4249613, "lon": 13.4776438}, {"type": "node", "id": 11077773862, "lat": 52.4250875, "lon": 13.4776499}, {"type": "node", "id": 11088291936, "lat": 52.4267576, "lon": 13.4481741, "tags": {"entrance": "yes"}}, {"type": "node", "id": 11088291940, "lat": 52.426843, "lon": 13.4484462}, {"type": "node", "id": 11088291944, "lat": 52.4268783, "lon": 13.4483788, "tags": {"entrance": "yes"}}, {"type": "node", "id": 11088291946, "lat": 52.4268219, "lon": 13.4483785}, {"type": "node", "id": 11088291957, "lat": 52.4268636, "lon": 13.4485122}, {"type": "node", "id": 11090215338, "lat": 52.4259644, "lon": 13.464934}, {"type": "node", "id": 11090215346, "lat": 52.4259017, "lon": 13.4648325}, {"type": "node", "id": 11127317151, "lat": 52.4235021, "lon": 13.4671865}, {"type": "node", "id": 11127317152, "lat": 52.4230414, "lon": 13.4672689}, {"type": "node", "id": 11127317153, "lat": 52.4230423, "lon": 13.46677}, {"type": "node", "id": 11134716952, "lat": 52.4226366, "lon": 13.4608322}, {"type": "node", "id": 11134716953, "lat": 52.4225718, "lon": 13.4611098}, {"type": "node", "id": 11134716954, "lat": 52.422787, "lon": 13.4612547}, {"type": "node", "id": 11134716955, "lat": 52.4228281, "lon": 13.4610788}, {"type": "node", "id": 11134716956, "lat": 52.4227013, "lon": 13.4609937}, {"type": "node", "id": 11134716957, "lat": 52.4227256, "lon": 13.4608864}, {"type": "node", "id": 11148221251, "lat": 52.4213997, "lon": 13.4615718}, {"type": "node", "id": 11361816655, "lat": 52.4228833, "lon": 13.4590329}, {"type": "node", "id": 11361816656, "lat": 52.4227974, "lon": 13.4590135}, {"type": "node", "id": 11361816657, "lat": 52.4227856, "lon": 13.4591539}, {"type": "node", "id": 11361816658, "lat": 52.4228714, "lon": 13.4591734}, {"type": "node", "id": 11361816661, "lat": 52.4233243, "lon": 13.4576776}, {"type": "node", "id": 11361816662, "lat": 52.4232409, "lon": 13.457653}, {"type": "node", "id": 11361816663, "lat": 52.4232259, "lon": 13.4577897}, {"type": "node", "id": 11361816664, "lat": 52.4233092, "lon": 13.4578144}, {"type": "node", "id": 11361816665, "lat": 52.4241714, "lon": 13.4586306}, {"type": "node", "id": 11361816666, "lat": 52.4240829, "lon": 13.4585761}, {"type": "node", "id": 11361816667, "lat": 52.4240501, "lon": 13.4587194}, {"type": "node", "id": 11361816668, "lat": 52.4241387, "lon": 13.4587739}, {"type": "node", "id": 11361825878, "lat": 52.4262156, "lon": 13.4542268}, {"type": "node", "id": 11361825879, "lat": 52.4261651, "lon": 13.4542256}, {"type": "node", "id": 11361825880, "lat": 52.4261643, "lon": 13.454318}, {"type": "node", "id": 11361825881, "lat": 52.4262148, "lon": 13.4543191}, {"type": "node", "id": 11361866409, "lat": 52.4286386, "lon": 13.457296}, {"type": "node", "id": 11361866410, "lat": 52.4286417, "lon": 13.45726}, {"type": "node", "id": 11361866411, "lat": 52.4286373, "lon": 13.4572242}, {"type": "node", "id": 11361866412, "lat": 52.4286259, "lon": 13.457193}, {"type": "node", "id": 11361866413, "lat": 52.4286088, "lon": 13.4571698}, {"type": "node", "id": 11361866414, "lat": 52.4285879, "lon": 13.4571573}, {"type": "node", "id": 11361866415, "lat": 52.4285657, "lon": 13.4571569}, {"type": "node", "id": 11361866416, "lat": 52.4285447, "lon": 13.4571687}, {"type": "node", "id": 11361866417, "lat": 52.4285155, "lon": 13.4572222}, {"type": "node", "id": 11361866418, "lat": 52.4285107, "lon": 13.4572558}, {"type": "node", "id": 11361866419, "lat": 52.4285127, "lon": 13.4572902}, {"type": "node", "id": 11361866420, "lat": 52.4285211, "lon": 13.4573217}, {"type": "node", "id": 11361866421, "lat": 52.4285353, "lon": 13.4573473}, {"type": "node", "id": 11361866422, "lat": 52.4285536, "lon": 13.4573642}, {"type": "node", "id": 11361866423, "lat": 52.4285743, "lon": 13.4573707}, {"type": "node", "id": 11361866424, "lat": 52.4285951, "lon": 13.4573661}, {"type": "node", "id": 11361866425, "lat": 52.4285273, "lon": 13.4571914}, {"type": "node", "id": 11361866426, "lat": 52.428614, "lon": 13.4573509}, {"type": "node", "id": 11361866427, "lat": 52.428629, "lon": 13.4573268}, {"type": "node", "id": 11361866428, "lat": 52.428446, "lon": 13.456877}, {"type": "node", "id": 11361866429, "lat": 52.4284102, "lon": 13.4568759}, {"type": "node", "id": 11361866430, "lat": 52.4284095, "lon": 13.456944}, {"type": "node", "id": 11361866431, "lat": 52.4284452, "lon": 13.4569451}, {"type": "node", "id": 11749381920, "lat": 52.4251038, "lon": 13.4615746}, {"type": "node", "id": 11749381921, "lat": 52.4250284, "lon": 13.4615195}, {"type": "node", "id": 11749381922, "lat": 52.4249637, "lon": 13.4614723}, {"type": "node", "id": 11773397222, "lat": 52.4285244, "lon": 13.454671}, {"type": "node", "id": 11793704869, "lat": 52.4321394, "lon": 13.4493166, "tags": {"leisure": "playground", "name": "Bienenspielplatz"}}, {"type": "node", "id": 11849511222, "lat": 52.4318118, "lon": 13.4545088}, {"type": "node", "id": 11849511223, "lat": 52.4317871, "lon": 13.4545009}, {"type": "node", "id": 11849511224, "lat": 52.4317747, "lon": 13.4545178}, {"type": "node", "id": 11849511225, "lat": 52.4317795, "lon": 13.4545606}, {"type": "node", "id": 11849511226, "lat": 52.4317884, "lon": 13.454599}, {"type": "node", "id": 11849511227, "lat": 52.4318201, "lon": 13.4546238}, {"type": "node", "id": 11849511228, "lat": 52.4318345, "lon": 13.4546915}, {"type": "node", "id": 11849511229, "lat": 52.4317967, "lon": 13.454793}, {"type": "node", "id": 11849511230, "lat": 52.4318194, "lon": 13.4550738}, {"type": "node", "id": 11849511231, "lat": 52.4318338, "lon": 13.4550918}, {"type": "node", "id": 11849511232, "lat": 52.4318517, "lon": 13.4550805}, {"type": "node", "id": 11849511233, "lat": 52.4319046, "lon": 13.4548268}, {"type": "node", "id": 11849511234, "lat": 52.4319617, "lon": 13.4547005}, {"type": "node", "id": 11849511235, "lat": 52.4319651, "lon": 13.4546464}, {"type": "node", "id": 11849511236, "lat": 52.4319521, "lon": 13.454599}, {"type": "node", "id": 11849511237, "lat": 52.4318854, "lon": 13.4545809}, {"type": "node", "id": 11878808665, "lat": 52.4247445, "lon": 13.4809742, "tags": {"access": "yes", "leisure": "playground"}}, {"type": "node", "id": 11894943565, "lat": 52.4251284, "lon": 13.4635289, "tags": {"addr:city": "Berlin", "addr:housenumber": "70", "addr:postcode": "12353", "addr:street": "Lipschitzallee", "amenity": "doctors", "healthcare": "doctor", "name": "Dr. med Phillip Meyer", "opening_hours": "Mo-Fr 08:00-13:00, Mo,Tu,Th 16:00-19:00; PH off"}}, {"type": "node", "id": 11894943567, "lat": 52.427217, "lon": 13.4640072}, {"type": "node", "id": 11894943568, "lat": 52.4273236, "lon": 13.4642227}, {"type": "node", "id": 11894950369, "lat": 52.4271278, "lon": 13.4645235}, {"type": "node", "id": 11894950370, "lat": 52.4270336, "lon": 13.464304}, {"type": "node", "id": 11965807934, "lat": 52.4253108, "lon": 13.4521074}, {"type": "node", "id": 11965807935, "lat": 52.4251354, "lon": 13.4521101}, {"type": "node", "id": 11965807936, "lat": 52.4251358, "lon": 13.452278}, {"type": "node", "id": 11965807937, "lat": 52.4253091, "lon": 13.4522772}, {"type": "node", "id": 11965807938, "lat": 52.4253056, "lon": 13.4520489}, {"type": "node", "id": 11965807939, "lat": 52.4252269, "lon": 13.4520515}, {"type": "node", "id": 11965807940, "lat": 52.4252289, "lon": 13.4519375}, {"type": "node", "id": 11965807941, "lat": 52.4253068, "lon": 13.4519371}, {"type": "node", "id": 11965807944, "lat": 52.4247806, "lon": 13.4523493}, {"type": "node", "id": 11965807945, "lat": 52.4246867, "lon": 13.4523532}, {"type": "node", "id": 11965807946, "lat": 52.4246873, "lon": 13.4525052}, {"type": "node", "id": 11965807947, "lat": 52.4247818, "lon": 13.4525037}, {"type": "node", "id": 11965807954, "lat": 52.4260291, "lon": 13.4500618}, {"type": "node", "id": 11965807955, "lat": 52.4259375, "lon": 13.4500605}, {"type": "node", "id": 11965807956, "lat": 52.425937, "lon": 13.4502045}, {"type": "node", "id": 11965807957, "lat": 52.4260282, "lon": 13.4502058}, {"type": "node", "id": 11965807962, "lat": 52.4286488, "lon": 13.4583089}, {"type": "node", "id": 11965807963, "lat": 52.4285801, "lon": 13.4583112}, {"type": "node", "id": 11965807964, "lat": 52.4285818, "lon": 13.4584075}, {"type": "node", "id": 11965807965, "lat": 52.4286489, "lon": 13.4584056}, {"type": "node", "id": 11965807966, "lat": 52.4289389, "lon": 13.4590801}, {"type": "node", "id": 11965807967, "lat": 52.4288703, "lon": 13.4590823}, {"type": "node", "id": 11965807968, "lat": 52.4288719, "lon": 13.4591787}, {"type": "node", "id": 11965829569, "lat": 52.428939, "lon": 13.4591768}, {"type": "node", "id": 11965829570, "lat": 52.4289455, "lon": 13.4583832}, {"type": "node", "id": 11965829571, "lat": 52.4288769, "lon": 13.4583855}, {"type": "node", "id": 11965829572, "lat": 52.4288785, "lon": 13.4584818}, {"type": "node", "id": 11965829573, "lat": 52.4289456, "lon": 13.4584799}, {"type": "node", "id": 11965829574, "lat": 52.4294325, "lon": 13.4588038}, {"type": "node", "id": 11965829575, "lat": 52.4293639, "lon": 13.4588061}, {"type": "node", "id": 11965829576, "lat": 52.4293655, "lon": 13.4589024}, {"type": "node", "id": 11965829577, "lat": 52.4294326, "lon": 13.4589005}, {"type": "node", "id": 11965829578, "lat": 52.4277004, "lon": 13.4574957}, {"type": "node", "id": 11965829579, "lat": 52.4276318, "lon": 13.457498}, {"type": "node", "id": 11965829580, "lat": 52.4276334, "lon": 13.4575944}, {"type": "node", "id": 11965829581, "lat": 52.4277005, "lon": 13.4575925}, {"type": "node", "id": 12037946726, "lat": 52.4220238, "lon": 13.4750608}, {"type": "node", "id": 12123558475, "lat": 52.430637, "lon": 13.4538643}, {"type": "node", "id": 12123558476, "lat": 52.4305483, "lon": 13.4539015}, {"type": "node", "id": 12123558477, "lat": 52.4305504, "lon": 13.4541079}, {"type": "node", "id": 12123558478, "lat": 52.4306308, "lon": 13.4541056}, {"type": "node", "id": 12123558479, "lat": 52.4306281, "lon": 13.4539962}, {"type": "node", "id": 12123558480, "lat": 52.4306611, "lon": 13.4539703}, {"type": "node", "id": 12123558481, "lat": 52.4306632, "lon": 13.4539274}, {"type": "node", "id": 12123558482, "lat": 52.4308998, "lon": 13.453072}, {"type": "node", "id": 12123558483, "lat": 52.4308648, "lon": 13.4530728}, {"type": "node", "id": 12123558484, "lat": 52.4308655, "lon": 13.4531569}, {"type": "node", "id": 12123558485, "lat": 52.4309005, "lon": 13.4531561}, {"type": "node", "id": 12123577728, "lat": 52.433073, "lon": 13.4507777}, {"type": "node", "id": 12123577729, "lat": 52.4330211, "lon": 13.4507795}, {"type": "node", "id": 12123577730, "lat": 52.4330224, "lon": 13.4508797}, {"type": "node", "id": 12123577731, "lat": 52.4330743, "lon": 13.4508779}, {"type": "node", "id": 12123898258, "lat": 52.4282078, "lon": 13.4488133}, {"type": "node", "id": 12123898259, "lat": 52.4279984, "lon": 13.4488173}, {"type": "node", "id": 12123898260, "lat": 52.4280001, "lon": 13.4489595}, {"type": "node", "id": 12123898261, "lat": 52.4280393, "lon": 13.449052}, {"type": "node", "id": 12123898262, "lat": 52.4282062, "lon": 13.4488951}, {"type": "node", "id": 12252756998, "lat": 52.4250628, "lon": 13.4641501}, {"type": "node", "id": 12287546316, "lat": 52.4235069, "lon": 13.4670596}, {"type": "node", "id": 12287546317, "lat": 52.4234432, "lon": 13.4668838}, {"type": "node", "id": 12287546318, "lat": 52.4233754, "lon": 13.46677}, {"type": "node", "id": 12287546319, "lat": 52.4229989, "lon": 13.4666959}, {"type": "node", "id": 12287546320, "lat": 52.4229862, "lon": 13.4667482}, {"type": "node", "id": 12287546321, "lat": 52.4230013, "lon": 13.4668959}, {"type": "node", "id": 12287546322, "lat": 52.4230185, "lon": 13.4671388}, {"type": "node", "id": 12287546323, "lat": 52.4230948, "lon": 13.4673376}, {"type": "node", "id": 12287546324, "lat": 52.4232152, "lon": 13.4672745}, {"type": "node", "id": 12287546325, "lat": 52.423446, "lon": 13.4672657}, {"type": "node", "id": 12287546326, "lat": 52.4233508, "lon": 13.4671998}, {"type": "node", "id": 12287546327, "lat": 52.423257, "lon": 13.4672102}, {"type": "node", "id": 12287546328, "lat": 52.4233072, "lon": 13.4671857}, {"type": "node", "id": 12287546348, "lat": 52.4229926, "lon": 13.466722, "tags": {"entrance": "yes"}}, {"type": "node", "id": 12287546349, "lat": 52.4235074, "lon": 13.4671061, "tags": {"entrance": "yes"}}, {"type": "node", "id": 12421381730, "lat": 52.4258961, "lon": 13.4711782}, {"type": "node", "id": 12421381731, "lat": 52.4258823, "lon": 13.4689755}, {"type": "node", "id": 12421381732, "lat": 52.4259642, "lon": 13.4709629}, {"type": "node", "id": 12421381733, "lat": 52.4258283, "lon": 13.4714505}, {"type": "node", "id": 12421381735, "lat": 52.4258876, "lon": 13.4682426}, {"type": "node", "id": 12421381736, "lat": 52.4260074, "lon": 13.4689804}, {"type": "node", "id": 12421381738, "lat": 52.4260128, "lon": 13.4682417}, {"type": "node", "id": 12421381742, "lat": 52.4259717, "lon": 13.4654789}, {"type": "node", "id": 12421381743, "lat": 52.4258433, "lon": 13.4652656}, {"type": "node", "id": 12421381750, "lat": 52.4258359, "lon": 13.4647305}, {"type": "node", "id": 12421381751, "lat": 52.4259479, "lon": 13.4631266}, {"type": "node", "id": 12421381752, "lat": 52.4259208, "lon": 13.4613123}, {"type": "node", "id": 12460581268, "lat": 52.4258366, "lon": 13.4620385}, {"type": "node", "id": 12460581270, "lat": 52.4258358, "lon": 13.4618922}, {"type": "node", "id": 12468627258, "lat": 52.4301982, "lon": 13.4560715, "tags": {"addr:city": "Berlin", "addr:country": "DE", "addr:housenumber": "317", "addr:postcode": "12351", "addr:street": "Johannisthaler Chaussee", "addr:suburb": "Gropiusstadt", "amenity": "doctors", "fax": "+49 30 6021082", "healthcare": "doctor", "healthcare:speciality": "gastroenterology", "level": "2", "name": "Gastroenterologie Gropiusstadt", "note": "Erreichbarkeit von den Gropiuspassagen: Schild 'GesundheitsZentrum Gropiuspassagen' folgen'; 'direkt \u00fcber Woolworth 1.OG und Primark EG'; Erreichbarkeit vom Kundenparkhaus P1: 'Fahrstuhl ins 2. OG'", "opening_hours": "Mo-Fr 08:30-12:00; Mo-Tu, Th 14:00-17:00; PH off", "operator": "Dr. med. Andreas Genrich, Dr. med. Cordula Kabus, Dr. med. Katja F\u00f6rster, Dr. med. Diane Kappelmayer", "phone": "+49 30 6021081"}}, {"type": "node", "id": 12475618296, "lat": 52.430279, "lon": 13.456876, "tags": {"addr:city": "Berlin", "addr:country": "DE", "addr:housenumber": "317", "addr:postcode": "12351", "addr:street": "Johannisthaler Chaussee", "addr:suburb": "Gropiusstadt", "alt_name": "MVZ Diagnostisches Zentrum Gropiusstadt", "amenity": "doctors", "healthcare": "doctor", "healthcare:speciality": "radiology", "name": "Diagnostikum Berlin", "note": "Erreichbarkeit von den Gropiuspassagen: Schild 'GesundheitsZentrum Gropiuspassagen' folgen'; 'direkt \u00fcber Woolworth 1.OG und Primark EG'; Erreichbarkeit vom Kundenparkhaus P1: 'Fahrstuhl ins 2. OG'", "opening_hours": "Mo-Fr 08:00-16:00; Sa \"nach Vereinbarung\"; PH off", "operator": "MVZ Diagnostikum Berlin 2020 GmbH;Dr. med. Abushi, F\u00c4. Giran Gonzalez, Dr. med. Nagy, Dr. med. Sander, Dr. med. Schiffler"}}, {"type": "node", "id": 12529117407, "lat": 52.4257477, "lon": 13.4562403, "tags": {"barrier": "gate"}}, {"type": "node", "id": 12529144071, "lat": 52.4246261, "lon": 13.4613743}, {"type": "node", "id": 12529144072, "lat": 52.4246655, "lon": 13.4612045}, {"type": "node", "id": 12529144073, "lat": 52.424348, "lon": 13.4610002}, {"type": "node", "id": 12529144074, "lat": 52.4243056, "lon": 13.4611658}, {"type": "node", "id": 12626491381, "lat": 52.4311193, "lon": 13.4460644}, {"type": "node", "id": 12626491383, "lat": 52.4308348, "lon": 13.4459342}, {"type": "node", "id": 12626491387, "lat": 52.4308174, "lon": 13.4460323}, {"type": "node", "id": 12626668659, "lat": 52.4259642, "lon": 13.4649088}, {"type": "node", "id": 12626668660, "lat": 52.4266832, "lon": 13.4644823}, {"type": "node", "id": 12626668672, "lat": 52.4258251, "lon": 13.4633663}, {"type": "node", "id": 12626668677, "lat": 52.4261144, "lon": 13.4629779}, {"type": "node", "id": 12626668685, "lat": 52.4255276, "lon": 13.4610199}, {"type": "node", "id": 12626668689, "lat": 52.4259473, "lon": 13.4634013}, {"type": "node", "id": 12626668690, "lat": 52.4259506, "lon": 13.4635723}, {"type": "node", "id": 12626668799, "lat": 52.4269842, "lon": 13.4601636}, {"type": "node", "id": 12626668800, "lat": 52.4269371, "lon": 13.4587426}, {"type": "node", "id": 12626668801, "lat": 52.4273594, "lon": 13.4578806}, {"type": "node", "id": 12626668802, "lat": 52.4276144, "lon": 13.457398}, {"type": "node", "id": 12626668803, "lat": 52.4277918, "lon": 13.4570758}, {"type": "node", "id": 12626668804, "lat": 52.4279179, "lon": 13.4568551}, {"type": "node", "id": 12626668877, "lat": 52.4271622, "lon": 13.4562425}, {"type": "node", "id": 12626669026, "lat": 52.4258142, "lon": 13.4519743}, {"type": "node", "id": 12626669057, "lat": 52.4257813, "lon": 13.4516574}, {"type": "node", "id": 12807095688, "lat": 52.426032, "lon": 13.4642854}, {"type": "node", "id": 12807095689, "lat": 52.4263633, "lon": 13.4648155}, {"type": "node", "id": 12807095690, "lat": 52.4265678, "lon": 13.464669}, {"type": "node", "id": 12807095691, "lat": 52.4265464, "lon": 13.4646304}, {"type": "node", "id": 12807095692, "lat": 52.4265385, "lon": 13.4646426}, {"type": "node", "id": 12807095693, "lat": 52.4265045, "lon": 13.4645864}, {"type": "node", "id": 12807304394, "lat": 52.4263425, "lon": 13.4626101}, {"type": "node", "id": 12807304395, "lat": 52.4260797, "lon": 13.4629179}, {"type": "node", "id": 12807304396, "lat": 52.4260371, "lon": 13.4629886}, {"type": "node", "id": 12807304397, "lat": 52.4261548, "lon": 13.4625612}, {"type": "node", "id": 12807304398, "lat": 52.4260101, "lon": 13.4627976}, {"type": "node", "id": 12807342501, "lat": 52.4261271, "lon": 13.4625099}, {"type": "node", "id": 12807342503, "lat": 52.4259475, "lon": 13.463295}, {"type": "node", "id": 12807342504, "lat": 52.4259474, "lon": 13.4633674}, {"type": "node", "id": 12807342506, "lat": 52.4261011, "lon": 13.4629548}, {"type": "node", "id": 12810202365, "lat": 52.4292235, "lon": 13.4548179, "tags": {"branch": "Berlin-Gropiusstadt", "brand": "Kaufland", "brand:wikidata": "Q685967", "contact:phone": "+49 30 6669220", "contact:website": "https://filiale.kaufland.de/service/filiale/berlin-gropiusstadt-4650.html", "level": "-1", "name": "Kaufland", "opening_hours": "Mo-Sa 07:00-22:00; Su, PH off", "shop": "supermarket"}}, {"type": "node", "id": 12967063636, "lat": 52.4261805, "lon": 13.4628713}, {"type": "way", "id": 32484266, "nodes": [296316353, 9114715484, 9114715488, 9114715486, 296316354, 296316356, 1917378553, 9114707014, 9114707013, 1917378573, 9114715513, 9114715512, 12252756998, 296316358, 6394388989, 6394388990, 5068595862, 5068595863, 5068595864, 5068595865, 5068595866, 5068595867, 5068595868, 9739994695, 9739994696, 296316366, 296316353], "tags": {"leisure": "park"}}, {"type": "way", "id": 39444308, "nodes": [472438976, 5349979762, 5349979761, 5349979758, 5349979759, 5349979763, 472438977, 472438978, 472438979, 472438980, 472438981, 472438982, 11088291936, 472438983, 11088291946, 472438984, 11088291944, 472438985, 11088291940, 11088291957, 5349979755, 5349979757, 472438976], "tags": {"brand": "Edeka", "brand:wikidata": "Q701755", "brand:wikipedia": "de:Edeka", "building": "retail", "building:levels": "2", "name": "EDEKA", "opening_hours": "Mo-Sa 07:00-22:00", "operator": "Edeka", "roof:levels": "0", "roof:shape": "flat", "shop": "supermarket", "wheelchair": "yes"}}, {"type": "way", "id": 51106681, "nodes": [651979091, 5349979746, 5349979745, 5349979743, 5349979744, 651979104, 5349979747, 651979090, 651979089, 651979091], "tags": {"brand": "Netto Marken-Discount", "brand:wikidata": "Q879858", "brand:wikipedia": "de:Netto Marken-Discount", "building": "retail", "name": "Netto Marken-Discount", "opening_hours": "Mo-Sa 07:00-20:00", "shop": "supermarket", "website": "https://www.netto-online.de/filialen/Berlin-Gropiusstadt/Koelner-Damm-74/7740/", "wheelchair": "yes"}}, {"type": "way", "id": 178676104, "nodes": [1890237755, 1890237751, 1890237747, 1890237746, 1890237749, 1890237753, 1890237758, 1890237755], "tags": {"access": "yes", "leisure": "playground"}}, {"type": "way", "id": 178676106, "nodes": [1890237803, 1890237787, 1890237767, 1890237764, 1890237784, 1890237789, 1890237801, 1890237803], "tags": {"access": "yes", "leisure": "playground"}}, {"type": "way", "id": 178693996, "nodes": [12037946726, 1890424989, 1890424987, 1890424985, 1890424986, 12037946726], "tags": {"access": "yes", "leisure": "playground"}}, {"type": "way", "id": 193721686, "nodes": [2042441085, 2042441082, 2042441089, 2042441078, 2042441085], "tags": {"addr:city": "Berlin", "addr:housenumber": "292", "addr:postcode": "12351", "addr:street": "Johannisthaler Chaussee", "amenity": "fast_food", "building": "kiosk", "cuisine": "kebab", "diet:vegetarian": "yes", "indoor_seating": "no", "name": "allim", "outdoor_seating": "yes", "seating": "outdoor", "smoking": "outside", "takeaway": "yes", "wheelchair": "yes"}}, {"type": "way", "id": 285892248, "nodes": [8851799383, 1895187303, 3763094760, 2895325888, 3763094759, 3763057356, 3763057354, 3763057352, 3763057348, 3763057349, 2045206104, 3763057344, 3763057347, 8851799381, 3763057353, 8851799385, 3763057355, 8851799383], "tags": {"access": "yes", "leisure": "playground", "name": "Pippi-Langstrumpf-Spielplatz"}}, {"type": "way", "id": 372758198, "nodes": [3763084006, 3763084012, 3763084015, 3763084010, 3763084005, 3763083983, 3763083984, 3763083986, 3763083992, 3763084006], "tags": {"access": "private", "leisure": "playground"}}, {"type": "way", "id": 372758200, "nodes": [3763083966, 1387022219, 3763083249, 3763083242, 7613414347, 7613414348, 3763083966], "tags": {"leisure": "playground", "name": "Abenteuerspielplatz Wutzkyallee"}}, {"type": "way", "id": 375367565, "nodes": [3787393657, 3787393658, 10223408184, 10223408185, 3787393659, 11773397222, 10223408186, 10223408187, 3787393660, 9114716017, 3787393661, 12626668804, 12626668803, 12626668802, 6764255142, 12626668801, 6764255141, 12626668800, 6764255148, 6764255117, 6764255147, 8078033559, 6764255146, 6764255144, 6764255143, 6764255145, 9114715587, 9114716079, 3787393662, 9114715835, 3634983560, 9114715917, 12626668685, 3634983558, 6764255149, 8078071097, 8078071096, 8078071095, 623938841, 8078071094, 8078071093, 8078071092, 8078071091, 8078071090, 8078071089, 8078071057, 8078071056, 11749381920, 11749381921, 11749381922, 623938848, 5091709399, 3787393665, 6764255151, 5091709400, 5091709401, 5091709501, 5091709499, 5091709226, 5091709498, 12626668877, 5091709225, 6764255140, 5091709497, 9114716065, 9114716060, 9114716064, 10223408188, 9114716061, 9114716062, 9114716063, 3787393657], "tags": {"leisure": "park", "protection_title": "Gesch\u00fctzte Gr\u00fcnanlage"}}, {"type": "way", "id": 511436136, "nodes": [5002709893, 5002709892, 5002709891, 5284602701, 5284602700, 5284602698, 5284602699, 5284602697, 5002709890, 5002709893], "tags": {"leisure": "park"}}, {"type": "way", "id": 511436137, "nodes": [2088512274, 5002709898, 5002709897, 5002709896, 5002709895, 5002709894, 2088512274], "tags": {"access": "yes", "leisure": "playground"}}, {"type": "way", "id": 512203782, "nodes": [2032185574, 5008762613, 5008762612, 5008762611, 5008762610, 5008762609, 2032185574], "tags": {"access": "yes", "leisure": "playground"}}, {"type": "way", "id": 522580708, "nodes": [5089487588, 5089487587, 5089487586, 5089487585, 5089487588], "tags": {"access": "yes", "leisure": "playground"}}, {"type": "way", "id": 522889552, "nodes": [5091709120, 5091709119, 5091709118, 5091709117, 5091709120], "tags": {"leisure": "playground"}}, {"type": "way", "id": 522889554, "nodes": [5091709357, 5091709356, 5091709355, 5091709354, 5091709357], "tags": {"access": "private", "leisure": "playground"}}, {"type": "way", "id": 522889555, "nodes": [5091709361, 5091709360, 5091709359, 5091709358, 5091709361], "tags": {"leisure": "playground"}}, {"type": "way", "id": 522889556, "nodes": [5091709365, 5091709364, 5091709363, 5091709362, 5091709365], "tags": {"leisure": "playground"}}, {"type": "way", "id": 522889557, "nodes": [5091709369, 5091709368, 5091709367, 5091709366, 5091709369], "tags": {"leisure": "playground"}}, {"type": "way", "id": 522889558, "nodes": [5091709373, 5091709372, 5091709371, 5091709370, 5091709373], "tags": {"leisure": "playground"}}, {"type": "way", "id": 522889559, "nodes": [5091709377, 5091709376, 5091709375, 5091709374, 5091709377], "tags": {"leisure": "playground"}}, {"type": "way", "id": 522889560, "nodes": [5091709382, 5091709381, 5091709380, 5091709379, 5091709378, 5091709382], "tags": {"access": "yes", "leisure": "playground"}}, {"type": "way", "id": 522889561, "nodes": [5091709392, 9048100514, 5091709391, 668662500, 5091709389, 9048100512, 5091709388, 5091709386, 9048127104, 5509054988, 9048127107, 9048127108, 5091709385, 5091709392], "tags": {"access": "yes", "check_date": "2021-08-27", "image": "File:Spielplatz Britz-Buckow-Rudow-Gr\u00fcnzug Wildmeisterdamm.jpg", "leisure": "playground"}}, {"type": "way", "id": 537438760, "nodes": [5204341287, 5204342595, 5204341286, 5204342594, 5204341287], "tags": {"addr:housenumber": "321", "addr:street": "Johannisthaler Chaussee", "dispensing": "yes", "healthcare": "pharmacy", "indoor": "room", "name": "Elch Apotheke", "opening_hours": "Mo-Fr 08:00-20:00; Sa 08:00-22:00", "phone": "+49 30 60258313", "was:amenity": "pharmacy", "wheelchair": "yes"}}, {"type": "way", "id": 537438761, "nodes": [5204341290, 5204341289, 5204341288, 5204342596, 5204341290], "tags": {"amenity": "fast_food", "check_date": "2023-07-14", "cuisine": "kebab", "indoor": "room", "indoor_seating": "no", "level": "0", "name": "Gropius D\u00f6ner", "outdoor_seating": "no", "room": "shop", "takeaway": "only", "wheelchair": "no"}}, {"type": "way", "id": 545825482, "nodes": [4140923302, 5275086972, 5275086979, 5275086982, 5275086971, 561192745, 6320266918, 5204341302, 5204342601, 10223465817, 5275086980, 1520204222, 4140923302], "tags": {"leisure": "park", "protection_title": "Gesch\u00fctzte Gr\u00fcnanlage"}}, {"type": "way", "id": 545826206, "nodes": [1520204241, 4140923302, 4140923299, 2515380347, 5275084694, 1520204241], "tags": {"leisure": "park", "protection_title": "Gesch\u00fctzte Gr\u00fcnanlage"}}, {"type": "way", "id": 545828924, "nodes": [2515380347, 6320266648, 6320266649, 5275084676, 2515380347], "tags": {"leisure": "park"}}, {"type": "way", "id": 545828925, "nodes": [2516420325, 1520204198, 614447157, 4140923299, 2515380347, 5275084676, 5275115808, 5275115807, 5275115806, 5275115809, 5275115810, 5275115805, 5275115804, 5275115802, 5275115803, 5275115811, 2516420325], "tags": {"leisure": "park", "protection_title": "Gesch\u00fctzte Gr\u00fcnanlage"}}, {"type": "way", "id": 585974347, "nodes": [5599290161, 5599290162, 5599290169, 5599290170, 5599290161], "tags": {"access": "yes", "leisure": "playground"}}, {"type": "way", "id": 585974354, "nodes": [5599290176, 5599290177, 5599290178, 5599290179, 5599290180, 5599290181, 5599290182, 5599290183, 5599290184, 5599290185, 5599290186, 5599290187, 5599290188, 5599290189, 5599290190, 5599290191, 5599290192, 5599290193, 5599290194, 5599290176], "tags": {"access": "yes", "leisure": "playground", "wheelchair": "no"}}, {"type": "way", "id": 585974360, "nodes": [5599290197, 5599290200, 5599290202, 5599290203, 5599290204, 5599290205, 5599290206, 5599290207, 5599290208, 5599290209, 5599290197], "tags": {"leisure": "playground", "wheelchair": "no"}}, {"type": "way", "id": 585974365, "nodes": [10139399362, 5599290219, 10139399363, 5599290218, 5599290217, 10139399364, 10139399365, 10139399369, 5599290216, 10139399368, 10139399367, 5599290214, 10139399366, 5599290213, 10139399361, 10139399360, 10139399359, 10139399358, 10139399357, 10139399356, 10139399355, 10139399354, 10139399349, 10139399380, 1387006744, 10139399362], "tags": {"leisure": "playground"}}, {"type": "way", "id": 617840918, "nodes": [5840066673, 11148221251, 1208812455, 1208812581, 1208812607, 5840066670, 5840066669, 5840066668, 5840066667, 5840066673], "tags": {"leisure": "park", "protection_title": "Gesch\u00fctzte Gr\u00fcnanlage"}}, {"type": "way", "id": 618288274, "nodes": [6331602047, 6320266646, 8907816328, 8907816329, 8907816327, 561192800, 8907782200, 8907816330, 1520204241, 4140923302, 5275086972, 6331602047], "tags": {"leisure": "park", "protection_title": "Gesch\u00fctzte Gr\u00fcnanlage"}}, {"type": "way", "id": 618288927, "nodes": [6320266644, 5844175973, 5844175972, 5844175971, 5844175970, 5844175969, 5844175968, 5844175967, 5844175966, 5844175965, 5844175964, 5844175963, 2756803968, 2756803967, 5844175958, 2756803972, 2756803976, 2756803979, 2756803980, 2756803982, 2756803981, 2756803983, 1519869574, 8222407204, 8222407206, 1519869578, 1520224559, 2756803987, 2756803988, 8821785491, 8821785492, 6331602879, 8821785486, 8821785487, 8821785488, 8821785489, 8821785493, 8821785494, 8821785495, 8821785496, 8821785497, 8821785498, 8821785499, 8821785500, 8821785501, 8821785502, 8821785503, 8821785504, 6331602046, 6331602047, 6320266646, 6320266645, 6320266644], "tags": {"leisure": "park", "protection_title": "Gesch\u00fctzte Gr\u00fcnanlage"}}, {"type": "way", "id": 676093074, "nodes": [6331673723, 6331673724, 6331673725, 6331673726, 6331673729, 6331673723], "tags": {"leisure": "playground"}}, {"type": "way", "id": 686670742, "nodes": [6436483122, 6436483121, 6436483120, 6436483119, 6436483118, 6436483122], "tags": {"access": "yes", "leisure": "playground"}}, {"type": "way", "id": 720932065, "nodes": [6764255147, 6764255138, 6764255137, 6764255136, 6764255135, 6764255134, 6764255133, 6764255132, 6764255131, 12626668799, 6764255130, 6764255129, 6764255128, 6764255127, 6764255126, 6764255125, 6764255124, 6764255123, 6764255122, 9114716032, 6764255121, 6764255120, 6764255119, 6764255118, 6764255116, 6764255117, 6764255147], "tags": {"leisure": "park"}}, {"type": "way", "id": 720932116, "nodes": [6764214752, 6764214751, 6764214750, 6764214749, 6764214748, 6764214752], "tags": {"leisure": "park"}}, {"type": "way", "id": 815074907, "nodes": [7613414206, 7613414203, 7613414204, 7613414195, 7613414205, 7613414206], "tags": {"leisure": "playground"}}, {"type": "way", "id": 815074916, "nodes": [7613414244, 7613414236, 7613414243, 7613414242, 7613414227, 7613414241, 7613414240, 7613414216, 7613414239, 7613414238, 7613414244], "tags": {"access": "yes", "leisure": "playground"}}, {"type": "way", "id": 815074917, "nodes": [7613414248, 7613414247, 7613414246, 7613414245, 7613414248], "tags": {"leisure": "playground"}}, {"type": "way", "id": 882486620, "nodes": [8206943972, 8206943973, 8206943968, 8206943969, 8206943970, 8206943971, 8207045217, 8206943972], "tags": {"access": "yes", "leisure": "playground"}}, {"type": "way", "id": 884138557, "nodes": [8222407141, 8222407140, 8222407139, 8222407138, 8222407141], "tags": {"access": "private", "leisure": "playground"}}, {"type": "way", "id": 953307482, "nodes": [8823752866, 8823752865, 8823752864, 8823752863, 8823752862, 8823752861, 8823752860, 8823752859, 8823752858, 8823752857, 296316383, 8823752855, 8823752854, 8823752853, 8823752852, 8823752851, 8823752850, 8823752846, 8823752849, 8823752848, 8823752847, 8823752866], "tags": {"leisure": "park", "protection_title": "Gesch\u00fctzte Gr\u00fcnanlage"}}, {"type": "way", "id": 962981109, "nodes": [8907816334, 8907782191, 8907816335, 8907816336, 561192800, 8907782200, 8907816330, 8907782207, 8907782199, 8907816326, 8907782178, 8907816331, 8907816332, 8907782186, 8907816333, 8907782185, 8907816334], "tags": {"access": "yes", "baby": "yes", "leisure": "playground"}}, {"type": "way", "id": 983847258, "nodes": [9097286551, 9097286550, 9097286549, 9097286548, 9097286551], "tags": {"access": "yes", "leisure": "playground"}}, {"type": "way", "id": 983848683, "nodes": [9097303012, 9097303011, 9097303010, 9097303009, 9097303008, 9097303007, 9097303006, 9097303005, 9097302998, 9097303004, 10209209310, 10209209309, 6331673750, 9097302999, 6331673749, 9097303000, 6331673748, 6331673747, 9097303001, 9097303002, 6331673746, 9097303003, 6331673745, 9097303014, 9097303013, 6331673744, 296316350, 9097303012], "tags": {"leisure": "park", "protection_title": "Gesch\u00fctzte Gr\u00fcnanlage"}}, {"type": "way", "id": 1088194329, "nodes": [9970175988, 9970175989, 9970175990, 9970175991, 9970175988], "tags": {"access": "yes", "leisure": "playground"}}, {"type": "way", "id": 1088804032, "nodes": [9974869737, 9974869738, 9974869739, 9974869740, 9974869737], "tags": {"leisure": "playground", "operator": "Degewo"}}, {"type": "way", "id": 1088804033, "nodes": [9974869743, 9974869744, 9974869745, 9974869746, 9974869743], "tags": {"leisure": "playground", "operator": "Degewo"}}, {"type": "way", "id": 1106842282, "nodes": [10128144905, 10128144906, 10128144907, 11050939823, 11050939824, 10128144905], "tags": {"amenity": "fast_food", "building": "yes", "building:colour": "grey", "cuisine": "kebab", "diet:vegan": "no", "diet:vegetarian": "yes", "drive_through": "no", "indoor_seating": "no", "name": "Efsanem Kebap", "opening_hours": "Mo-Sa 11:00-22:00", "outdoor_seating": "sidewalk", "smoking": "yes", "wheelchair": "yes"}}, {"type": "way", "id": 1108127743, "nodes": [10139329808, 10139329805, 10139329806, 10139329807, 10139329808], "tags": {"leisure": "playground"}}, {"type": "way", "id": 1108127757, "nodes": [10139399434, 10139399435, 10139399436, 10139399430, 10139399429, 10139399431, 10139399432, 10139399433, 10139399434], "tags": {"leisure": "playground"}}, {"type": "way", "id": 1116219549, "nodes": [10209095188, 10209095189, 10209095190, 10209095191, 10209095188], "tags": {"leisure": "playground"}}, {"type": "way", "id": 1117772134, "nodes": [10223172492, 10223172493, 3763094758, 10223172494, 10223172495, 10223172496, 10223172497, 10223172498, 10223172499, 10223172500, 10223172501, 10223172502, 10223172503, 10223172504, 10223172505, 10223172492], "tags": {"leisure": "park", "protection_title": "Gesch\u00fctzte Gr\u00fcnanlage"}}, {"type": "way", "id": 1120863413, "nodes": [5091709501, 10251590772, 10251590771, 10251590770, 10251590769, 10251590768, 12626669026, 10251590766, 10251590765, 10251590764, 10251590763, 6764205004, 6764205005, 5091709773, 12529117407, 5091709772, 10251590762, 5091709400, 5091709401, 5091709501], "tags": {"leisure": "park"}}, {"type": "way", "id": 1120863583, "nodes": [10251604365, 6321656276, 6321656275, 8768658947, 6321656274, 6321656273, 10251604364, 8768658952, 8768658951, 248640472, 6321656270, 10251604363, 12626669057, 10251604365], "tags": {"leisure": "park"}}, {"type": "way", "id": 1166220862, "nodes": [2032185730, 10847045633, 10847045634, 10847045635, 2032185730], "tags": {"access": "yes", "leisure": "playground"}}, {"type": "way", "id": 1166220930, "nodes": [2074394142, 10847056672, 10847056673, 10847056674, 2074394142], "tags": {"access": "yes", "leisure": "playground"}}, {"type": "way", "id": 1166221079, "nodes": [2032185678, 10847060859, 10847060860, 10847060861, 10847060862, 10847060863, 10847060846, 10847060847, 10847060848, 10847060849, 10847060850, 10847060851, 10847060858, 10847060852, 10847060853, 10847060854, 10847060855, 10847060856, 10847060857, 2032185678], "tags": {"leisure": "playground"}}, {"type": "way", "id": 1166221198, "nodes": [2045223683, 10847049161, 10847049162, 10847049163, 2045223683], "tags": {"access": "yes", "leisure": "playground"}}, {"type": "way", "id": 1166221365, "nodes": [652427986, 10847063354, 10847063355, 10847063356, 10847063357, 10847063340, 10847063341, 10847063342, 10847063346, 10847063347, 10847063348, 10847063349, 10847063350, 10847063351, 10847063352, 10847063353, 10847063343, 10847063344, 10847063345, 652427986], "tags": {"access": "yes", "leisure": "playground", "wheelchair": "yes"}}, {"type": "way", "id": 1166221495, "nodes": [2090041505, 10847056377, 10847056378, 10847056379, 2090041505], "tags": {"leisure": "playground"}}, {"type": "way", "id": 1169899054, "nodes": [10877852111, 10877852112, 10877852113, 10877852114, 10877852111], "tags": {"access": "yes", "leisure": "playground"}}, {"type": "way", "id": 1180441763, "nodes": [3168439372, 10963465496, 10963465497, 10963465498, 10963483415, 10963465499, 10963483414, 10963465500, 10963483413, 10963465501, 10963483412, 10963483411, 10963465502, 10963483410, 10963483409, 10963465503, 10963483408, 10963465504, 10963483405, 10963483406, 10963483407, 3168439463, 3168439377, 3168439372], "tags": {"leisure": "playground"}}, {"type": "way", "id": 1180441769, "nodes": [10963483507, 10963483508, 10963483509, 10963483510, 10963483511, 10963483512, 10963483507], "tags": {"leisure": "playground"}}, {"type": "way", "id": 1180443117, "nodes": [10963471188, 10963471189, 10963471190, 10963471191, 10963471188], "tags": {"leisure": "playground"}}, {"type": "way", "id": 1184969619, "nodes": [11007214387, 11007214388, 11007214352, 11007214386, 11007214387], "tags": {"access": "customers", "leisure": "playground"}}, {"type": "way", "id": 1190164733, "nodes": [11050975041, 11050975042, 11050975043, 11050975044, 11050975041], "tags": {"access": "yes", "leisure": "playground"}}, {"type": "way", "id": 1193437888, "nodes": [11077773859, 11077773860, 11077773861, 11077773862, 11077773859], "tags": {"leisure": "playground"}}, {"type": "way", "id": 1199760058, "nodes": [652427988, 12287546318, 12287546317, 12287546316, 12287546349, 11127317151, 12287546325, 12287546326, 12287546328, 12287546327, 12287546324, 12287546323, 11127317152, 12287546322, 12287546321, 12287546320, 12287546348, 12287546319, 11127317153, 652427988], "tags": {"access": "yes", "leisure": "playground", "wheelchair": "yes"}}, {"type": "way", "id": 1200905922, "nodes": [11134716952, 11134716953, 11134716954, 11134716955, 11134716956, 11134716957, 11134716952], "tags": {"leisure": "playground"}}, {"type": "way", "id": 1225193198, "nodes": [11361816655, 11361816656, 11361816657, 11361816658, 11361816655], "tags": {"leisure": "playground", "operator:type": "private"}}, {"type": "way", "id": 1225193200, "nodes": [11361816661, 11361816662, 11361816663, 11361816664, 11361816661], "tags": {"leisure": "playground", "operator:type": "private"}}, {"type": "way", "id": 1225193201, "nodes": [11361816665, 11361816666, 11361816667, 11361816668, 11361816665], "tags": {"leisure": "playground", "operator:type": "private"}}, {"type": "way", "id": 1225193204, "nodes": [11361825878, 11361825879, 11361825880, 11361825881, 11361825878], "tags": {"leisure": "playground", "operator:type": "private"}}, {"type": "way", "id": 1225198153, "nodes": [11361866426, 11361866427, 11361866409, 11361866410, 11361866411, 11361866412, 11361866413, 11361866414, 11361866415, 11361866416, 11361866425, 11361866417, 11361866418, 11361866419, 11361866420, 11361866421, 11361866422, 11361866423, 11361866424, 11361866426], "tags": {"leisure": "playground"}}, {"type": "way", "id": 1225198154, "nodes": [11361866428, 11361866429, 11361866430, 11361866431, 11361866428], "tags": {"leisure": "playground"}}, {"type": "way", "id": 1276313685, "nodes": [11849511222, 11849511223, 11849511224, 11849511225, 11849511226, 11849511227, 11849511228, 11849511229, 11849511230, 11849511231, 11849511232, 11849511233, 11849511234, 11849511235, 11849511236, 11849511237, 11849511222], "tags": {"leisure": "playground"}}, {"type": "way", "id": 1281719925, "nodes": [11894943567, 11894943568, 11894950369, 11894950370, 11894943567], "tags": {"access": "private", "leisure": "playground"}}, {"type": "way", "id": 1290580556, "nodes": [11965807934, 11965807935, 11965807936, 11965807937, 11965807934], "tags": {"access": "private", "leisure": "playground"}}, {"type": "way", "id": 1290580557, "nodes": [11965807938, 11965807939, 11965807940, 11965807941, 11965807938], "tags": {"access": "private", "leisure": "playground"}}, {"type": "way", "id": 1290580559, "nodes": [11965807944, 11965807945, 11965807946, 11965807947, 11965807944], "tags": {"access": "private", "leisure": "playground"}}, {"type": "way", "id": 1290580562, "nodes": [11965807954, 11965807955, 11965807956, 11965807957, 11965807954], "tags": {"leisure": "playground"}}, {"type": "way", "id": 1290580564, "nodes": [11965807962, 11965807963, 11965807964, 11965807965, 11965807962], "tags": {"leisure": "playground"}}, {"type": "way", "id": 1290580565, "nodes": [11965807966, 11965807967, 11965807968, 11965829569, 11965807966], "tags": {"leisure": "playground"}}, {"type": "way", "id": 1290580566, "nodes": [11965829570, 11965829571, 11965829572, 11965829573, 11965829570], "tags": {"leisure": "playground"}}, {"type": "way", "id": 1290580567, "nodes": [11965829574, 11965829575, 11965829576, 11965829577, 11965829574], "tags": {"leisure": "playground"}}, {"type": "way", "id": 1290580568, "nodes": [11965829578, 11965829579, 11965829580, 11965829581, 11965829578], "tags": {"leisure": "playground"}}, {"type": "way", "id": 1309201746, "nodes": [12123558475, 12123558476, 12123558477, 12123558478, 12123558479, 12123558480, 12123558481, 12123558475], "tags": {"leisure": "playground"}}, {"type": "way", "id": 1309201747, "nodes": [12123558482, 12123558483, 12123558484, 12123558485, 12123558482], "tags": {"leisure": "playground"}}, {"type": "way", "id": 1309201756, "nodes": [12123577728, 12123577729, 12123577730, 12123577731, 12123577728], "tags": {"leisure": "playground"}}, {"type": "way", "id": 1309256576, "nodes": [12123898258, 12123898259, 12123898260, 12123898261, 12123898262, 12123898258], "tags": {"access": "yes", "leisure": "playground"}}, {"type": "way", "id": 1342520447, "nodes": [12421381736, 12421381732, 12421381730, 12421381733, 12421381731, 12421381735, 12421381743, 12421381742, 12421381738, 12421381736], "tags": {"leisure": "park"}}, {"type": "way", "id": 1342520449, "nodes": [11090215346, 12421381750, 11050939819, 8078071241, 9114715685, 12626668672, 1917419149, 9114715417, 12421381751, 12807342503, 12807342504, 12626668689, 12626668690, 12626668659, 11090215338, 11090215346], "tags": {"leisure": "park"}}, {"type": "way", "id": 1342520450, "nodes": [9114715587, 12421381752, 763461886, 9114707015, 12460581268, 12460581270, 9114715898, 3634983560, 9114715835, 3787393662, 9114716079, 9114715587], "tags": {"leisure": "park"}}, {"type": "way", "id": 1353927801, "nodes": [12529144071, 12529144072, 12529144073, 12529144074, 2407649497, 12529144071], "tags": {"leisure": "playground"}}, {"type": "way", "id": 1363675770, "nodes": [12626491381, 618561236, 618561237, 12626491387, 12626491383, 12626491381], "tags": {"leisure": "park"}}, {"type": "way", "id": 1383355221, "nodes": [12807095688, 3168437878, 3168437926, 3168438084, 3168438095, 3168438145, 12626668660, 3168438141, 12807095690, 12807095691, 12807095692, 12807095693, 3168438083, 12807095689, 3168437949, 3168437907, 12807095688], "tags": {"addr:housenumber": "50", "addr:postcode": "12353", "addr:street": "Lipschitzallee", "brand": "Lidl", "brand:wikidata": "Q151954", "brand:wikipedia": "en:Lidl", "building": "retail", "check_date:opening_hours": "2024-06-19", "name": "Lidl", "opening_hours": "Mo-Sa 08:00-22:00", "shop": "supermarket", "toilets:wheelchair": "no", "wheelchair": "yes"}}, {"type": "way", "id": 1383372509, "nodes": [12807304395, 12807304396, 9114715687, 8078071062, 12807342501, 12807304397, 12807304398, 12807304395], "tags": {"building:part": "roof", "layer": "1"}}, {"type": "way", "id": 1383372510, "nodes": [1445349945, 12807304394, 12967063636, 12626668677, 12807342506, 12807304395, 12807304398, 12807304397, 763461888, 1445349945], "tags": {"building:part": "yes"}}, {"type": "relation", "id": 19077225, "members": [{"type": "way", "ref": 1383372509, "role": "outer"}, {"type": "way", "ref": 1383372510, "role": "outer"}], "tags": {"building": "retail", "check_date": "2021-09-21", "name": "Bereket Market", "shop": "supermarket", "type": "multipolygon", "wheelchair": "yes"}}]}